<?xml version="1.0" encoding="UTF-8"?>
<gpx creator="StravaGPX" version="1.1" xmlns="http://www.topografix.com/GPX/1/1" xmlns:xsi="http://www.w3.org/2001/XMLSchema-instance" xsi:schemaLocation="http://www.topografix.com/GPX/1/1 http://www.topografix.com/GPX/1/1/gpx.xsd">
 <metadata>
  <name>DTR Sunday 8 June Sassafras 8k</name>
  <author>
   <name>john csorgo</name>
  </author>
  <copyright author="OpenStreetMap contributors">
   <year>2020</year>
   <license>https://www.openstreetmap.org/copyright</license>
  </copyright>
 </metadata>
 <trk>
  <name>DTR Sunday 8 June Sassafras 8k</name>
  <link href=""/>
  <type>running</type>
  <trkseg>
   <trkpt lat="-37.862840000000006" lon="145.35371">
    <ele>480.52000000000004</ele>
   </trkpt>
   <trkpt lat="-37.86298" lon="145.35408">
    <ele>481.26</ele>
   </trkpt>
   <trkpt lat="-37.86316" lon="145.35444">
    <ele>483.50000000000006</ele>
   </trkpt>
   <trkpt lat="-37.86334" lon="145.35477">
    <ele>476.11</ele>
   </trkpt>
   <trkpt lat="-37.86345" lon="145.35489">
    <ele>474.43</ele>
   </trkpt>
   <trkpt lat="-37.863600000000005" lon="145.35494">
    <ele>472.36000000000007</ele>
   </trkpt>
   <trkpt lat="-37.86415" lon="145.35496">
    <ele>460.12</ele>
   </trkpt>
   <trkpt lat="-37.86435" lon="145.35499000000002">
    <ele>451.6</ele>
   </trkpt>
   <trkpt lat="-37.8645" lon="145.35506">
    <ele>448.81000000000006</ele>
   </trkpt>
   <trkpt lat="-37.86486" lon="145.35513">
    <ele>438.75</ele>
   </trkpt>
   <trkpt lat="-37.86502" lon="145.35512">
    <ele>436.62</ele>
   </trkpt>
   <trkpt lat="-37.8652" lon="145.35519000000002">
    <ele>428.64</ele>
   </trkpt>
   <trkpt lat="-37.86547" lon="145.35535000000002">
    <ele>424.12000000000006</ele>
   </trkpt>
   <trkpt lat="-37.86585" lon="145.3554">
    <ele>417.15000000000003</ele>
   </trkpt>
   <trkpt lat="-37.86598" lon="145.35555000000002">
    <ele>415.38</ele>
   </trkpt>
   <trkpt lat="-37.86598" lon="145.35567">
    <ele>414.25</ele>
   </trkpt>
   <trkpt lat="-37.865930000000006" lon="145.35577">
    <ele>413.85</ele>
   </trkpt>
   <trkpt lat="-37.86589" lon="145.35596">
    <ele>420.43</ele>
   </trkpt>
   <trkpt lat="-37.86589" lon="145.35611">
    <ele>427.95000000000005</ele>
   </trkpt>
   <trkpt lat="-37.86623" lon="145.35623">
    <ele>446.00000000000006</ele>
   </trkpt>
   <trkpt lat="-37.8665" lon="145.35665">
    <ele>440.37</ele>
   </trkpt>
   <trkpt lat="-37.86654" lon="145.35708000000002">
    <ele>437.08000000000004</ele>
   </trkpt>
   <trkpt lat="-37.86674" lon="145.35733000000002">
    <ele>435.19</ele>
   </trkpt>
   <trkpt lat="-37.86694" lon="145.35745">
    <ele>433.61</ele>
   </trkpt>
   <trkpt lat="-37.86715" lon="145.35776">
    <ele>433.02</ele>
   </trkpt>
   <trkpt lat="-37.86728" lon="145.35787000000002">
    <ele>431.38000000000005</ele>
   </trkpt>
   <trkpt lat="-37.86737" lon="145.35797000000002">
    <ele>431.08</ele>
   </trkpt>
   <trkpt lat="-37.86748" lon="145.35804000000002">
    <ele>430.45000000000005</ele>
   </trkpt>
   <trkpt lat="-37.86766" lon="145.3582">
    <ele>429.91</ele>
   </trkpt>
   <trkpt lat="-37.86768" lon="145.35825">
    <ele>429.91</ele>
   </trkpt>
   <trkpt lat="-37.86773" lon="145.35860000000002">
    <ele>429.11</ele>
   </trkpt>
   <trkpt lat="-37.86793" lon="145.35878000000002">
    <ele>429.2300000000001</ele>
   </trkpt>
   <trkpt lat="-37.86806" lon="145.35901">
    <ele>429.04</ele>
   </trkpt>
   <trkpt lat="-37.8682" lon="145.35908">
    <ele>428.14</ele>
   </trkpt>
   <trkpt lat="-37.86871" lon="145.35917">
    <ele>427.03000000000003</ele>
   </trkpt>
   <trkpt lat="-37.86887" lon="145.35943">
    <ele>425.24000000000007</ele>
   </trkpt>
   <trkpt lat="-37.869220000000006" lon="145.35977000000003">
    <ele>422.77000000000004</ele>
   </trkpt>
   <trkpt lat="-37.8695" lon="145.36015">
    <ele>421.61</ele>
   </trkpt>
   <trkpt lat="-37.86963" lon="145.36053">
    <ele>418.44</ele>
   </trkpt>
   <trkpt lat="-37.86972" lon="145.36065000000002">
    <ele>417.82</ele>
   </trkpt>
   <trkpt lat="-37.86999" lon="145.36083000000002">
    <ele>417.14</ele>
   </trkpt>
   <trkpt lat="-37.87071" lon="145.36105">
    <ele>414.49</ele>
   </trkpt>
   <trkpt lat="-37.87113" lon="145.36123">
    <ele>412.37</ele>
   </trkpt>
   <trkpt lat="-37.87182" lon="145.36126000000002">
    <ele>411.35</ele>
   </trkpt>
   <trkpt lat="-37.87205" lon="145.36114">
    <ele>410.68000000000006</ele>
   </trkpt>
   <trkpt lat="-37.87221" lon="145.36118000000002">
    <ele>409.99</ele>
   </trkpt>
   <trkpt lat="-37.87234" lon="145.36127000000002">
    <ele>408.71000000000004</ele>
   </trkpt>
   <trkpt lat="-37.87243" lon="145.36129000000003">
    <ele>408.0</ele>
   </trkpt>
   <trkpt lat="-37.87292" lon="145.36119000000002">
    <ele>404.93</ele>
   </trkpt>
   <trkpt lat="-37.87322" lon="145.36120000000003">
    <ele>401.64000000000004</ele>
   </trkpt>
   <trkpt lat="-37.87326" lon="145.36121">
    <ele>401.64000000000004</ele>
   </trkpt>
   <trkpt lat="-37.87339" lon="145.36129000000003">
    <ele>398.45000000000005</ele>
   </trkpt>
   <trkpt lat="-37.87357" lon="145.36148">
    <ele>395.69000000000005</ele>
   </trkpt>
   <trkpt lat="-37.87377" lon="145.36196">
    <ele>393.70000000000005</ele>
   </trkpt>
   <trkpt lat="-37.873720000000006" lon="145.36151">
    <ele>396.95</ele>
   </trkpt>
   <trkpt lat="-37.87391" lon="145.36107">
    <ele>399.78000000000003</ele>
   </trkpt>
   <trkpt lat="-37.87406" lon="145.36083000000002">
    <ele>402.23</ele>
   </trkpt>
   <trkpt lat="-37.87456" lon="145.36044">
    <ele>409.28000000000003</ele>
   </trkpt>
   <trkpt lat="-37.87494" lon="145.36006">
    <ele>416.46999999999997</ele>
   </trkpt>
   <trkpt lat="-37.87516" lon="145.35986000000003">
    <ele>420.57000000000005</ele>
   </trkpt>
   <trkpt lat="-37.87521" lon="145.35967000000002">
    <ele>421.96000000000004</ele>
   </trkpt>
   <trkpt lat="-37.875130000000006" lon="145.35951">
    <ele>423.09000000000003</ele>
   </trkpt>
   <trkpt lat="-37.87496" lon="145.35946">
    <ele>424.84000000000003</ele>
   </trkpt>
   <trkpt lat="-37.87487" lon="145.35939000000002">
    <ele>425.07000000000005</ele>
   </trkpt>
   <trkpt lat="-37.874770000000005" lon="145.35926">
    <ele>425.8</ele>
   </trkpt>
   <trkpt lat="-37.87458" lon="145.35937">
    <ele>425.14</ele>
   </trkpt>
   <trkpt lat="-37.874500000000005" lon="145.35922000000002">
    <ele>424.99</ele>
   </trkpt>
   <trkpt lat="-37.87449" lon="145.35915">
    <ele>425.45000000000005</ele>
   </trkpt>
   <trkpt lat="-37.874460000000006" lon="145.35913000000002">
    <ele>425.62000000000006</ele>
   </trkpt>
   <trkpt lat="-37.87445" lon="145.35906">
    <ele>425.82000000000005</ele>
   </trkpt>
   <trkpt lat="-37.8744" lon="145.359">
    <ele>425.83000000000004</ele>
   </trkpt>
   <trkpt lat="-37.874210000000005" lon="145.35897">
    <ele>425.69</ele>
   </trkpt>
   <trkpt lat="-37.87406" lon="145.35889">
    <ele>425.72</ele>
   </trkpt>
   <trkpt lat="-37.87393" lon="145.35877000000002">
    <ele>425.62000000000006</ele>
   </trkpt>
   <trkpt lat="-37.87382" lon="145.35876000000002">
    <ele>425.62000000000006</ele>
   </trkpt>
   <trkpt lat="-37.873630000000006" lon="145.35879">
    <ele>425.71000000000004</ele>
   </trkpt>
   <trkpt lat="-37.8736" lon="145.35864">
    <ele>426.2</ele>
   </trkpt>
   <trkpt lat="-37.8735" lon="145.35858000000002">
    <ele>428.07000000000005</ele>
   </trkpt>
   <trkpt lat="-37.87342" lon="145.35847">
    <ele>429.75</ele>
   </trkpt>
   <trkpt lat="-37.87335" lon="145.35840000000002">
    <ele>431.59000000000003</ele>
   </trkpt>
   <trkpt lat="-37.87319" lon="145.35809">
    <ele>435.39000000000004</ele>
   </trkpt>
   <trkpt lat="-37.87312" lon="145.35764">
    <ele>440.84</ele>
   </trkpt>
   <trkpt lat="-37.87321" lon="145.35702">
    <ele>444.37000000000006</ele>
   </trkpt>
   <trkpt lat="-37.87326" lon="145.35636000000002">
    <ele>450.87000000000006</ele>
   </trkpt>
   <trkpt lat="-37.873310000000004" lon="145.35644000000002">
    <ele>451.56</ele>
   </trkpt>
   <trkpt lat="-37.87335" lon="145.35644000000002">
    <ele>451.56</ele>
   </trkpt>
   <trkpt lat="-37.87339" lon="145.35649">
    <ele>451.89</ele>
   </trkpt>
   <trkpt lat="-37.87341" lon="145.35657">
    <ele>452.13</ele>
   </trkpt>
   <trkpt lat="-37.87353" lon="145.35718">
    <ele>453.72</ele>
   </trkpt>
   <trkpt lat="-37.87379" lon="145.35763">
    <ele>456.99000000000007</ele>
   </trkpt>
   <trkpt lat="-37.87413" lon="145.35781">
    <ele>459.77</ele>
   </trkpt>
   <trkpt lat="-37.87435" lon="145.35784">
    <ele>460.97</ele>
   </trkpt>
   <trkpt lat="-37.87473" lon="145.35783">
    <ele>463.47</ele>
   </trkpt>
   <trkpt lat="-37.87482" lon="145.35784">
    <ele>463.76000000000005</ele>
   </trkpt>
   <trkpt lat="-37.87541" lon="145.35777000000002">
    <ele>469.20000000000005</ele>
   </trkpt>
   <trkpt lat="-37.87559" lon="145.35771000000003">
    <ele>470.31000000000006</ele>
   </trkpt>
   <trkpt lat="-37.87572" lon="145.35758">
    <ele>471.88</ele>
   </trkpt>
   <trkpt lat="-37.875840000000004" lon="145.3574">
    <ele>474.73</ele>
   </trkpt>
   <trkpt lat="-37.875930000000004" lon="145.35714000000002">
    <ele>476.11</ele>
   </trkpt>
   <trkpt lat="-37.876160000000006" lon="145.35686">
    <ele>476.6</ele>
   </trkpt>
   <trkpt lat="-37.8763" lon="145.35674">
    <ele>476.51000000000005</ele>
   </trkpt>
   <trkpt lat="-37.87646" lon="145.35667">
    <ele>476.26</ele>
   </trkpt>
   <trkpt lat="-37.876870000000004" lon="145.35659">
    <ele>464.24</ele>
   </trkpt>
   <trkpt lat="-37.876780000000004" lon="145.35642">
    <ele>463.66</ele>
   </trkpt>
   <trkpt lat="-37.876870000000004" lon="145.35659">
    <ele>464.24</ele>
   </trkpt>
   <trkpt lat="-37.876900000000006" lon="145.35659">
    <ele>459.76000000000005</ele>
   </trkpt>
   <trkpt lat="-37.87708000000001" lon="145.35653000000002">
    <ele>472.81000000000006</ele>
   </trkpt>
   <trkpt lat="-37.87673" lon="145.35552">
    <ele>469.64000000000004</ele>
   </trkpt>
   <trkpt lat="-37.87666" lon="145.35527000000002">
    <ele>472.14000000000004</ele>
   </trkpt>
   <trkpt lat="-37.87666" lon="145.35511000000002">
    <ele>474.80000000000007</ele>
   </trkpt>
   <trkpt lat="-37.8767" lon="145.35494">
    <ele>475.96000000000004</ele>
   </trkpt>
   <trkpt lat="-37.87684" lon="145.35466000000002">
    <ele>477.96000000000004</ele>
   </trkpt>
   <trkpt lat="-37.87702" lon="145.35441">
    <ele>479.66</ele>
   </trkpt>
   <trkpt lat="-37.877250000000004" lon="145.35412000000002">
    <ele>481.26</ele>
   </trkpt>
   <trkpt lat="-37.87791" lon="145.35368000000003">
    <ele>484.80000000000007</ele>
   </trkpt>
   <trkpt lat="-37.878130000000006" lon="145.35348000000002">
    <ele>485.29</ele>
   </trkpt>
   <trkpt lat="-37.87834" lon="145.35319">
    <ele>487.65000000000003</ele>
   </trkpt>
   <trkpt lat="-37.87847" lon="145.35307">
    <ele>489.14</ele>
   </trkpt>
   <trkpt lat="-37.87859" lon="145.35291">
    <ele>490.43</ele>
   </trkpt>
   <trkpt lat="-37.87888" lon="145.35219">
    <ele>492.97</ele>
   </trkpt>
   <trkpt lat="-37.87903" lon="145.35192">
    <ele>494.48</ele>
   </trkpt>
   <trkpt lat="-37.87932" lon="145.35161000000002">
    <ele>496.92</ele>
   </trkpt>
   <trkpt lat="-37.87953" lon="145.35151000000002">
    <ele>497.7300000000001</ele>
   </trkpt>
   <trkpt lat="-37.87975" lon="145.35148">
    <ele>498.40000000000003</ele>
   </trkpt>
   <trkpt lat="-37.87993" lon="145.35151000000002">
    <ele>498.86</ele>
   </trkpt>
   <trkpt lat="-37.88011" lon="145.35161000000002">
    <ele>499.82000000000005</ele>
   </trkpt>
   <trkpt lat="-37.88051000023621" lon="145.35190999826239">
    <ele>501.77000000000004</ele>
   </trkpt>
   <trkpt lat="-37.88091" lon="145.35221">
    <ele>502.77000000000004</ele>
   </trkpt>
   <trkpt lat="-37.88107" lon="145.3523">
    <ele>503.01000000000005</ele>
   </trkpt>
   <trkpt lat="-37.88116" lon="145.35231000000002">
    <ele>503.06000000000006</ele>
   </trkpt>
   <trkpt lat="-37.881170000000004" lon="145.35232000000002">
    <ele>503.07</ele>
   </trkpt>
   <trkpt lat="-37.88134" lon="145.35236">
    <ele>503.25000000000006</ele>
   </trkpt>
   <trkpt lat="-37.881510000000006" lon="145.35235">
    <ele>503.7900000000001</ele>
   </trkpt>
   <trkpt lat="-37.88176" lon="145.35221">
    <ele>503.96000000000004</ele>
   </trkpt>
   <trkpt lat="-37.8819" lon="145.3521">
    <ele>503.81000000000006</ele>
   </trkpt>
   <trkpt lat="-37.88266" lon="145.35169000000002">
    <ele>499.71000000000004</ele>
   </trkpt>
   <trkpt lat="-37.88311" lon="145.35141000000002">
    <ele>495.27000000000004</ele>
   </trkpt>
   <trkpt lat="-37.8834" lon="145.35133000000002">
    <ele>493.00000000000006</ele>
   </trkpt>
   <trkpt lat="-37.88385" lon="145.3513">
    <ele>469.09000000000003</ele>
   </trkpt>
   <trkpt lat="-37.88369" lon="145.35151000000002">
    <ele>470.66</ele>
   </trkpt>
   <trkpt lat="-37.88353" lon="145.35180000000003">
    <ele>471.74000000000007</ele>
   </trkpt>
   <trkpt lat="-37.88342" lon="145.35195000000002">
    <ele>472.09000000000003</ele>
   </trkpt>
   <trkpt lat="-37.88311" lon="145.35219">
    <ele>472.35</ele>
   </trkpt>
   <trkpt lat="-37.883" lon="145.35234">
    <ele>472.75000000000006</ele>
   </trkpt>
   <trkpt lat="-37.88266" lon="145.3531">
    <ele>475.72</ele>
   </trkpt>
   <trkpt lat="-37.88266" lon="145.35319">
    <ele>475.72</ele>
   </trkpt>
   <trkpt lat="-37.88282" lon="145.35356000000002">
    <ele>478.49</ele>
   </trkpt>
   <trkpt lat="-37.88291" lon="145.35394000000002">
    <ele>479.89000000000004</ele>
   </trkpt>
   <trkpt lat="-37.88293" lon="145.35439000000002">
    <ele>481.23</ele>
   </trkpt>
   <trkpt lat="-37.88315" lon="145.35522">
    <ele>484.72</ele>
   </trkpt>
   <trkpt lat="-37.88318" lon="145.3554">
    <ele>486.04</ele>
   </trkpt>
   <trkpt lat="-37.88351" lon="145.3553">
    <ele>487.52000000000004</ele>
   </trkpt>
   <trkpt lat="-37.883590000000005" lon="145.35542">
    <ele>487.47</ele>
   </trkpt>
   <trkpt lat="-37.88351" lon="145.3553">
    <ele>487.52000000000004</ele>
   </trkpt>
   <trkpt lat="-37.88351" lon="145.35512">
    <ele>487.11</ele>
   </trkpt>
   <trkpt lat="-37.88371" lon="145.35464000000002">
    <ele>486.03000000000003</ele>
   </trkpt>
   <trkpt lat="-37.88423" lon="145.35381">
    <ele>491.77000000000004</ele>
   </trkpt>
   <trkpt lat="-37.88434" lon="145.35368000000003">
    <ele>492.47</ele>
   </trkpt>
   <trkpt lat="-37.88497" lon="145.35328">
    <ele>490.61</ele>
   </trkpt>
   <trkpt lat="-37.88508" lon="145.35324">
    <ele>490.03000000000003</ele>
   </trkpt>
   <trkpt lat="-37.88544" lon="145.35307">
    <ele>485.57000000000005</ele>
   </trkpt>
   <trkpt lat="-37.88555" lon="145.35296000000002">
    <ele>485.57000000000005</ele>
   </trkpt>
   <trkpt lat="-37.88588" lon="145.35242000000002">
    <ele>478.19000000000005</ele>
   </trkpt>
   <trkpt lat="-37.88606" lon="145.35204000000002">
    <ele>473.67</ele>
   </trkpt>
   <trkpt lat="-37.88615" lon="145.35176">
    <ele>469.66</ele>
   </trkpt>
   <trkpt lat="-37.886070000000004" lon="145.35163">
    <ele>465.1</ele>
   </trkpt>
   <trkpt lat="-37.88552" lon="145.35153000000003">
    <ele>469.12</ele>
   </trkpt>
   <trkpt lat="-37.8853" lon="145.3514">
    <ele>469.93</ele>
   </trkpt>
   <trkpt lat="-37.884730000000005" lon="145.35098000000002">
    <ele>469.36000000000007</ele>
   </trkpt>
   <trkpt lat="-37.88461" lon="145.35066">
    <ele>471.46000000000004</ele>
   </trkpt>
   <trkpt lat="-37.88461" lon="145.35046">
    <ele>473.40000000000003</ele>
   </trkpt>
   <trkpt lat="-37.884640000000005" lon="145.35035000000002">
    <ele>475.05</ele>
   </trkpt>
   <trkpt lat="-37.88461" lon="145.35017000000002">
    <ele>477.22</ele>
   </trkpt>
   <trkpt lat="-37.88456" lon="145.35004">
    <ele>477.22</ele>
   </trkpt>
   <trkpt lat="-37.88436" lon="145.34969">
    <ele>479.64000000000004</ele>
   </trkpt>
   <trkpt lat="-37.88405" lon="145.34945000000002">
    <ele>480.21000000000004</ele>
   </trkpt>
   <trkpt lat="-37.8836" lon="145.34926000000002">
    <ele>481.17</ele>
   </trkpt>
   <trkpt lat="-37.88311" lon="145.34876">
    <ele>482.2</ele>
   </trkpt>
   <trkpt lat="-37.88302" lon="145.3487">
    <ele>482.21000000000004</ele>
   </trkpt>
   <trkpt lat="-37.88255" lon="145.34856000000002">
    <ele>482.24000000000007</ele>
   </trkpt>
   <trkpt lat="-37.88226" lon="145.34839000000002">
    <ele>483.22</ele>
   </trkpt>
   <trkpt lat="-37.88201" lon="145.34819000000002">
    <ele>484.59000000000003</ele>
   </trkpt>
   <trkpt lat="-37.88167" lon="145.34744">
    <ele>489.46000000000004</ele>
   </trkpt>
   <trkpt lat="-37.88154" lon="145.34723000000002">
    <ele>491.55</ele>
   </trkpt>
   <trkpt lat="-37.88105" lon="145.34695000000002">
    <ele>494.09000000000003</ele>
   </trkpt>
   <trkpt lat="-37.880860000000006" lon="145.34682">
    <ele>494.09000000000003</ele>
   </trkpt>
   <trkpt lat="-37.88067" lon="145.34663">
    <ele>495.26000000000005</ele>
   </trkpt>
   <trkpt lat="-37.88042" lon="145.34634">
    <ele>496.40000000000003</ele>
   </trkpt>
   <trkpt lat="-37.880075000951116" lon="145.34583999750402">
    <ele>500.17</ele>
   </trkpt>
   <trkpt lat="-37.87973" lon="145.34534000000002">
    <ele>502.0300000000001</ele>
   </trkpt>
   <trkpt lat="-37.87944" lon="145.34486">
    <ele>503.53000000000003</ele>
   </trkpt>
   <trkpt lat="-37.87919" lon="145.34452000000002">
    <ele>501.53000000000003</ele>
   </trkpt>
   <trkpt lat="-37.878980000000006" lon="145.34365000000003">
    <ele>499.66</ele>
   </trkpt>
   <trkpt lat="-37.87892" lon="145.34343">
    <ele>498.50000000000006</ele>
   </trkpt>
   <trkpt lat="-37.87877" lon="145.34292000000002">
    <ele>494.28000000000003</ele>
   </trkpt>
   <trkpt lat="-37.87865" lon="145.34273000000002">
    <ele>493.06000000000006</ele>
   </trkpt>
   <trkpt lat="-37.87865" lon="145.34264000000002">
    <ele>493.43</ele>
   </trkpt>
   <trkpt lat="-37.878690000000006" lon="145.34248000000002">
    <ele>494.75</ele>
   </trkpt>
   <trkpt lat="-37.87874" lon="145.34236">
    <ele>496.88000000000005</ele>
   </trkpt>
   <trkpt lat="-37.8787" lon="145.34225">
    <ele>501.40000000000003</ele>
   </trkpt>
   <trkpt lat="-37.87856" lon="145.34212000000002">
    <ele>504.4200000000001</ele>
   </trkpt>
   <trkpt lat="-37.87847" lon="145.34209">
    <ele>505.9100000000001</ele>
   </trkpt>
   <trkpt lat="-37.87832" lon="145.34217">
    <ele>506.94000000000005</ele>
   </trkpt>
   <trkpt lat="-37.87807" lon="145.34255000000002">
    <ele>505.53999999999996</ele>
   </trkpt>
   <trkpt lat="-37.87791" lon="145.34269">
    <ele>505.6</ele>
   </trkpt>
   <trkpt lat="-37.87778" lon="145.34271">
    <ele>506.06000000000006</ele>
   </trkpt>
   <trkpt lat="-37.87722" lon="145.34272">
    <ele>508.06000000000006</ele>
   </trkpt>
   <trkpt lat="-37.87688" lon="145.3428">
    <ele>507.6400000000001</ele>
   </trkpt>
   <trkpt lat="-37.8763" lon="145.34273000000002">
    <ele>510.87000000000006</ele>
   </trkpt>
   <trkpt lat="-37.87599" lon="145.34278">
    <ele>511.93</ele>
   </trkpt>
   <trkpt lat="-37.87585" lon="145.34284000000002">
    <ele>512.5300000000001</ele>
   </trkpt>
   <trkpt lat="-37.87574" lon="145.34297">
    <ele>513.37</ele>
   </trkpt>
   <trkpt lat="-37.87561" lon="145.34316">
    <ele>510.6700000000001</ele>
   </trkpt>
   <trkpt lat="-37.87552" lon="145.34341">
    <ele>507.02000000000004</ele>
   </trkpt>
   <trkpt lat="-37.875510000000006" lon="145.34318000000002">
    <ele>505.18000000000006</ele>
   </trkpt>
   <trkpt lat="-37.875510000000006" lon="145.34301000000002">
    <ele>504.24</ele>
   </trkpt>
   <trkpt lat="-37.875370000000004" lon="145.34295">
    <ele>502.58000000000004</ele>
   </trkpt>
   <trkpt lat="-37.875350000000005" lon="145.3428">
    <ele>502.26000000000005</ele>
   </trkpt>
   <trkpt lat="-37.8751" lon="145.34298">
    <ele>502.07</ele>
   </trkpt>
   <trkpt lat="-37.87505" lon="145.34289">
    <ele>502.2000000000001</ele>
   </trkpt>
   <trkpt lat="-37.87471" lon="145.34313">
    <ele>503.07</ele>
   </trkpt>
   <trkpt lat="-37.87449" lon="145.34325">
    <ele>504.61</ele>
   </trkpt>
   <trkpt lat="-37.87411" lon="145.34339">
    <ele>507.09999999999997</ele>
   </trkpt>
   <trkpt lat="-37.87363499982501" lon="145.3435300009787">
    <ele>510.63</ele>
   </trkpt>
   <trkpt lat="-37.873160000000006" lon="145.34367">
    <ele>512.72</ele>
   </trkpt>
   <trkpt lat="-37.87279" lon="145.34387">
    <ele>515.35</ele>
   </trkpt>
   <trkpt lat="-37.872490000000006" lon="145.34408000000002">
    <ele>517.0100000000001</ele>
   </trkpt>
   <trkpt lat="-37.872090000481435" lon="145.3437199979855">
    <ele>515.22</ele>
   </trkpt>
   <trkpt lat="-37.87169" lon="145.34336000000002">
    <ele>512.51</ele>
   </trkpt>
   <trkpt lat="-37.87147" lon="145.34362000000002">
    <ele>511.49</ele>
   </trkpt>
   <trkpt lat="-37.87109" lon="145.34422">
    <ele>508.29</ele>
   </trkpt>
   <trkpt lat="-37.87071" lon="145.34472000000002">
    <ele>507.6400000000001</ele>
   </trkpt>
   <trkpt lat="-37.87039" lon="145.34502">
    <ele>509.4200000000001</ele>
   </trkpt>
   <trkpt lat="-37.87024" lon="145.34525000000002">
    <ele>512.15</ele>
   </trkpt>
   <trkpt lat="-37.87006" lon="145.34553000000002">
    <ele>515.2800000000001</ele>
   </trkpt>
   <trkpt lat="-37.86961000007383" lon="145.345344998841">
    <ele>511.55000000000007</ele>
   </trkpt>
   <trkpt lat="-37.86916" lon="145.34516000000002">
    <ele>507.39</ele>
   </trkpt>
   <trkpt lat="-37.86905" lon="145.34516000000002">
    <ele>506.86000000000007</ele>
   </trkpt>
   <trkpt lat="-37.86841000087139" lon="145.34562000401232">
    <ele>507.88</ele>
   </trkpt>
   <trkpt lat="-37.86777" lon="145.34608">
    <ele>508.77000000000004</ele>
   </trkpt>
   <trkpt lat="-37.86741" lon="145.34623000000002">
    <ele>507.87000000000006</ele>
   </trkpt>
   <trkpt lat="-37.86703" lon="145.34629">
    <ele>505.8</ele>
   </trkpt>
   <trkpt lat="-37.86646500001913" lon="145.34643000108923">
    <ele>502.7600000000001</ele>
   </trkpt>
   <trkpt lat="-37.8659" lon="145.34657">
    <ele>502.6400000000001</ele>
   </trkpt>
   <trkpt lat="-37.86589" lon="145.34647">
    <ele>502.6400000000001</ele>
   </trkpt>
   <trkpt lat="-37.86596" lon="145.34631000000002">
    <ele>497.6700000000001</ele>
   </trkpt>
   <trkpt lat="-37.86596" lon="145.3463">
    <ele>497.62000000000006</ele>
   </trkpt>
   <trkpt lat="-37.86589" lon="145.34647">
    <ele>502.6400000000001</ele>
   </trkpt>
   <trkpt lat="-37.8659" lon="145.34657">
    <ele>502.6400000000001</ele>
   </trkpt>
   <trkpt lat="-37.865370000000006" lon="145.34673">
    <ele>507.75</ele>
   </trkpt>
   <trkpt lat="-37.86502" lon="145.34686000000002">
    <ele>510.21999999999997</ele>
   </trkpt>
   <trkpt lat="-37.86482" lon="145.34718">
    <ele>513.75</ele>
   </trkpt>
   <trkpt lat="-37.864810000000006" lon="145.34757000000002">
    <ele>518.63</ele>
   </trkpt>
   <trkpt lat="-37.86484" lon="145.34797">
    <ele>521.81</ele>
   </trkpt>
   <trkpt lat="-37.86491" lon="145.34814">
    <ele>524.94</ele>
   </trkpt>
   <trkpt lat="-37.86497" lon="145.34822">
    <ele>526.3500000000001</ele>
   </trkpt>
   <trkpt lat="-37.86496" lon="145.34829000000002">
    <ele>526.46</ele>
   </trkpt>
   <trkpt lat="-37.86491" lon="145.34857000000002">
    <ele>524.61</ele>
   </trkpt>
   <trkpt lat="-37.864695001511485" lon="145.3491700017808">
    <ele>520.27</ele>
   </trkpt>
   <trkpt lat="-37.86448" lon="145.34977">
    <ele>514.1999999999999</ele>
   </trkpt>
   <trkpt lat="-37.86417" lon="145.35060000000001">
    <ele>503.18000000000006</ele>
   </trkpt>
   <trkpt lat="-37.8641" lon="145.35074">
    <ele>501.0300000000001</ele>
   </trkpt>
   <trkpt lat="-37.8641" lon="145.35078000000001">
    <ele>500.45000000000005</ele>
   </trkpt>
   <trkpt lat="-37.8641" lon="145.35077">
    <ele>500.38000000000005</ele>
   </trkpt>
   <trkpt lat="-37.8641" lon="145.35089000000002">
    <ele>499.88000000000005</ele>
   </trkpt>
   <trkpt lat="-37.864050000000006" lon="145.35102">
    <ele>498.28000000000003</ele>
   </trkpt>
   <trkpt lat="-37.86379" lon="145.35118">
    <ele>490.09000000000003</ele>
   </trkpt>
   <trkpt lat="-37.86368" lon="145.35119">
    <ele>487.07000000000005</ele>
   </trkpt>
   <trkpt lat="-37.86359" lon="145.35126000000002">
    <ele>485.35</ele>
   </trkpt>
   <trkpt lat="-37.8635" lon="145.3513">
    <ele>483.92</ele>
   </trkpt>
   <trkpt lat="-37.863420000000005" lon="145.35147">
    <ele>481.82</ele>
   </trkpt>
   <trkpt lat="-37.8633" lon="145.35153000000003">
    <ele>481.55</ele>
   </trkpt>
   <trkpt lat="-37.863110000000006" lon="145.35169000000002">
    <ele>481.12000000000006</ele>
   </trkpt>
   <trkpt lat="-37.86309" lon="145.35176">
    <ele>481.46000000000004</ele>
   </trkpt>
   <trkpt lat="-37.86312" lon="145.35186000000002">
    <ele>481.68000000000006</ele>
   </trkpt>
   <trkpt lat="-37.863385001367774" lon="145.35243999779462">
    <ele>484.90000000000003</ele>
   </trkpt>
   <trkpt lat="-37.86365" lon="145.35302000000001">
    <ele>479.90000000000003</ele>
   </trkpt>
   <trkpt lat="-37.863110000000006" lon="145.35340000000002">
    <ele>479.77000000000004</ele>
   </trkpt>
  </trkseg>
 </trk>
</gpx>
