<?xml version="1.0" encoding="UTF-8"?>
<gpx creator="StravaGPX" version="1.1" xmlns="http://www.topografix.com/GPX/1/1" xmlns:xsi="http://www.w3.org/2001/XMLSchema-instance" xsi:schemaLocation="http://www.topografix.com/GPX/1/1 http://www.topografix.com/GPX/1/1/gpx.xsd">
 <metadata>
  <name>DTR SUnday 15 Jan</name>
  <author>
   <name>john csorgo</name>
  </author>
  <copyright author="OpenStreetMap contributors">
   <year>2020</year>
   <license>https://www.openstreetmap.org/copyright</license>
  </copyright>
 </metadata>
 <trk>
  <name>DTR SUnday 15 Jan</name>
  <link href=""/>
  <type>running</type>
  <trkseg>
   <trkpt lat="-37.888130000000004" lon="145.36999">
    <ele>353.48</ele>
   </trkpt>
   <trkpt lat="-37.88819" lon="145.37019">
    <ele>356.25</ele>
   </trkpt>
   <trkpt lat="-37.88828" lon="145.37036">
    <ele>357.27000000000004</ele>
   </trkpt>
   <trkpt lat="-37.88855" lon="145.37042000000002">
    <ele>362.16</ele>
   </trkpt>
   <trkpt lat="-37.88877" lon="145.37053">
    <ele>363.33000000000004</ele>
   </trkpt>
   <trkpt lat="-37.88906" lon="145.37052">
    <ele>367.61</ele>
   </trkpt>
   <trkpt lat="-37.88913" lon="145.37059000000002">
    <ele>368.2300000000001</ele>
   </trkpt>
   <trkpt lat="-37.88942" lon="145.37062">
    <ele>375.21000000000004</ele>
   </trkpt>
   <trkpt lat="-37.88973" lon="145.37078000000002">
    <ele>379.34</ele>
   </trkpt>
   <trkpt lat="-37.88998" lon="145.37075000000002">
    <ele>382.18</ele>
   </trkpt>
   <trkpt lat="-37.890150000000006" lon="145.37075000000002">
    <ele>384.96000000000004</ele>
   </trkpt>
   <trkpt lat="-37.89029" lon="145.37062">
    <ele>388.59000000000003</ele>
   </trkpt>
   <trkpt lat="-37.89036" lon="145.37059000000002">
    <ele>389.36</ele>
   </trkpt>
   <trkpt lat="-37.89036" lon="145.37054">
    <ele>389.36</ele>
   </trkpt>
   <trkpt lat="-37.890170000000005" lon="145.37026">
    <ele>395.0</ele>
   </trkpt>
   <trkpt lat="-37.890150000000006" lon="145.36999">
    <ele>360.54</ele>
   </trkpt>
   <trkpt lat="-37.890330000000006" lon="145.3699">
    <ele>360.61</ele>
   </trkpt>
   <trkpt lat="-37.890440000000005" lon="145.36979000000002">
    <ele>360.53000000000003</ele>
   </trkpt>
   <trkpt lat="-37.890620000000006" lon="145.36969000000002">
    <ele>359.89000000000004</ele>
   </trkpt>
   <trkpt lat="-37.89079" lon="145.36963">
    <ele>359.55</ele>
   </trkpt>
   <trkpt lat="-37.89101" lon="145.36944000000003">
    <ele>358.82</ele>
   </trkpt>
   <trkpt lat="-37.89146" lon="145.369">
    <ele>355.57000000000005</ele>
   </trkpt>
   <trkpt lat="-37.89184" lon="145.36885">
    <ele>354.43</ele>
   </trkpt>
   <trkpt lat="-37.89226" lon="145.36863000000002">
    <ele>353.49</ele>
   </trkpt>
   <trkpt lat="-37.89269" lon="145.36831">
    <ele>353.25</ele>
   </trkpt>
   <trkpt lat="-37.89316" lon="145.36801">
    <ele>354.36</ele>
   </trkpt>
   <trkpt lat="-37.89349" lon="145.36792">
    <ele>355.31</ele>
   </trkpt>
   <trkpt lat="-37.89414" lon="145.36802">
    <ele>358.33000000000004</ele>
   </trkpt>
   <trkpt lat="-37.89439" lon="145.3681">
    <ele>358.76</ele>
   </trkpt>
   <trkpt lat="-37.89464" lon="145.36809000000002">
    <ele>359.72</ele>
   </trkpt>
   <trkpt lat="-37.89508" lon="145.36802">
    <ele>360.83000000000004</ele>
   </trkpt>
   <trkpt lat="-37.89578" lon="145.36797">
    <ele>361.39000000000004</ele>
   </trkpt>
   <trkpt lat="-37.896" lon="145.36790000000002">
    <ele>361.74</ele>
   </trkpt>
   <trkpt lat="-37.89622" lon="145.36780000000002">
    <ele>362.75</ele>
   </trkpt>
   <trkpt lat="-37.8964" lon="145.36767">
    <ele>363.34000000000003</ele>
   </trkpt>
   <trkpt lat="-37.89685" lon="145.36728000000002">
    <ele>365.42</ele>
   </trkpt>
   <trkpt lat="-37.89743" lon="145.36684000000002">
    <ele>365.79</ele>
   </trkpt>
   <trkpt lat="-37.89802" lon="145.36632">
    <ele>363.43</ele>
   </trkpt>
   <trkpt lat="-37.8984" lon="145.36607">
    <ele>360.32000000000005</ele>
   </trkpt>
   <trkpt lat="-37.89851" lon="145.36595">
    <ele>359.27000000000004</ele>
   </trkpt>
   <trkpt lat="-37.89871" lon="145.36567000000002">
    <ele>357.73</ele>
   </trkpt>
   <trkpt lat="-37.89887" lon="145.36534">
    <ele>357.17</ele>
   </trkpt>
   <trkpt lat="-37.89909" lon="145.36476000000002">
    <ele>354.79</ele>
   </trkpt>
   <trkpt lat="-37.8992" lon="145.36459000000002">
    <ele>352.90000000000003</ele>
   </trkpt>
   <trkpt lat="-37.89931" lon="145.36448000000001">
    <ele>352.90000000000003</ele>
   </trkpt>
   <trkpt lat="-37.8994" lon="145.36443">
    <ele>352.46999999999997</ele>
   </trkpt>
   <trkpt lat="-37.899530000000006" lon="145.36441000000002">
    <ele>352.08</ele>
   </trkpt>
   <trkpt lat="-37.9001" lon="145.36443">
    <ele>349.58</ele>
   </trkpt>
   <trkpt lat="-37.90034" lon="145.36439000000001">
    <ele>348.33000000000004</ele>
   </trkpt>
   <trkpt lat="-37.90052" lon="145.36433000000002">
    <ele>348.33000000000004</ele>
   </trkpt>
   <trkpt lat="-37.9007" lon="145.36419">
    <ele>345.89000000000004</ele>
   </trkpt>
   <trkpt lat="-37.90095" lon="145.36405000000002">
    <ele>345.02000000000004</ele>
   </trkpt>
   <trkpt lat="-37.90122" lon="145.36398">
    <ele>342.37</ele>
   </trkpt>
   <trkpt lat="-37.901450000000004" lon="145.36383">
    <ele>340.30000000000007</ele>
   </trkpt>
   <trkpt lat="-37.90189" lon="145.36350000000002">
    <ele>335.56</ele>
   </trkpt>
   <trkpt lat="-37.90216" lon="145.36339">
    <ele>331.94</ele>
   </trkpt>
   <trkpt lat="-37.90263" lon="145.36328">
    <ele>326.02000000000004</ele>
   </trkpt>
   <trkpt lat="-37.90283" lon="145.36315000000002">
    <ele>323.33</ele>
   </trkpt>
   <trkpt lat="-37.90307" lon="145.36296000000002">
    <ele>320.21999999999997</ele>
   </trkpt>
   <trkpt lat="-37.90366" lon="145.36271000000002">
    <ele>315.89</ele>
   </trkpt>
   <trkpt lat="-37.90417" lon="145.36270000000002">
    <ele>311.39</ele>
   </trkpt>
   <trkpt lat="-37.90442" lon="145.36266">
    <ele>309.95</ele>
   </trkpt>
   <trkpt lat="-37.9046" lon="145.36269000000001">
    <ele>308.31</ele>
   </trkpt>
   <trkpt lat="-37.90522" lon="145.36309">
    <ele>299.19</ele>
   </trkpt>
   <trkpt lat="-37.905350000000006" lon="145.36324000000002">
    <ele>297.02</ele>
   </trkpt>
   <trkpt lat="-37.90545" lon="145.36334000000002">
    <ele>294.90000000000003</ele>
   </trkpt>
   <trkpt lat="-37.90565" lon="145.3634">
    <ele>290.75</ele>
   </trkpt>
   <trkpt lat="-37.90587" lon="145.36354">
    <ele>284.5</ele>
   </trkpt>
   <trkpt lat="-37.905950000000004" lon="145.36354">
    <ele>282.09</ele>
   </trkpt>
   <trkpt lat="-37.905950000000004" lon="145.36361000000002">
    <ele>282.16</ele>
   </trkpt>
   <trkpt lat="-37.906060000000004" lon="145.36378000000002">
    <ele>288.24</ele>
   </trkpt>
   <trkpt lat="-37.90614" lon="145.36395000000002">
    <ele>284.46000000000004</ele>
   </trkpt>
   <trkpt lat="-37.90623" lon="145.36459000000002">
    <ele>274.73</ele>
   </trkpt>
   <trkpt lat="-37.90646" lon="145.36564">
    <ele>251.14000000000001</ele>
   </trkpt>
   <trkpt lat="-37.90663" lon="145.36637000000002">
    <ele>230.66000000000003</ele>
   </trkpt>
   <trkpt lat="-37.90657" lon="145.36668">
    <ele>224.74</ele>
   </trkpt>
   <trkpt lat="-37.90661" lon="145.36685">
    <ele>222.87</ele>
   </trkpt>
   <trkpt lat="-37.90663" lon="145.36713">
    <ele>220.99</ele>
   </trkpt>
   <trkpt lat="-37.90675" lon="145.36773000000002">
    <ele>222.51000000000002</ele>
   </trkpt>
   <trkpt lat="-37.90668" lon="145.36825000000002">
    <ele>224.63000000000002</ele>
   </trkpt>
   <trkpt lat="-37.90677" lon="145.36884">
    <ele>223.77</ele>
   </trkpt>
   <trkpt lat="-37.90677" lon="145.36897000000002">
    <ele>223.77</ele>
   </trkpt>
   <trkpt lat="-37.9067" lon="145.36924000000002">
    <ele>223.54000000000002</ele>
   </trkpt>
   <trkpt lat="-37.9065" lon="145.36961000000002">
    <ele>223.09</ele>
   </trkpt>
   <trkpt lat="-37.90634" lon="145.36982">
    <ele>223.23000000000002</ele>
   </trkpt>
   <trkpt lat="-37.9063" lon="145.37003">
    <ele>223.12</ele>
   </trkpt>
   <trkpt lat="-37.90628" lon="145.37043">
    <ele>221.79000000000002</ele>
   </trkpt>
   <trkpt lat="-37.90639" lon="145.37087000000002">
    <ele>219.09</ele>
   </trkpt>
   <trkpt lat="-37.90672" lon="145.37188">
    <ele>217.01</ele>
   </trkpt>
   <trkpt lat="-37.90701" lon="145.37227000000001">
    <ele>222.39</ele>
   </trkpt>
   <trkpt lat="-37.90713" lon="145.37253">
    <ele>224.99</ele>
   </trkpt>
   <trkpt lat="-37.90713" lon="145.37263000000002">
    <ele>226.63000000000002</ele>
   </trkpt>
   <trkpt lat="-37.90699" lon="145.37323">
    <ele>235.87000000000003</ele>
   </trkpt>
   <trkpt lat="-37.9069" lon="145.37378">
    <ele>243.1</ele>
   </trkpt>
   <trkpt lat="-37.90643" lon="145.37461000000002">
    <ele>253.92000000000002</ele>
   </trkpt>
   <trkpt lat="-37.905910000000006" lon="145.37546">
    <ele>263.14000000000004</ele>
   </trkpt>
   <trkpt lat="-37.90549" lon="145.37617">
    <ele>266.24</ele>
   </trkpt>
   <trkpt lat="-37.905230001641456" lon="145.3768050024006">
    <ele>269.52000000000004</ele>
   </trkpt>
   <trkpt lat="-37.904970000000006" lon="145.37744">
    <ele>279.03</ele>
   </trkpt>
   <trkpt lat="-37.90475" lon="145.37804">
    <ele>291.91</ele>
   </trkpt>
   <trkpt lat="-37.9046" lon="145.3784">
    <ele>300.36</ele>
   </trkpt>
   <trkpt lat="-37.904320001130316" lon="145.3788850016111">
    <ele>312.92</ele>
   </trkpt>
   <trkpt lat="-37.90404" lon="145.37937000000002">
    <ele>321.32000000000005</ele>
   </trkpt>
   <trkpt lat="-37.90368" lon="145.37987">
    <ele>331.11</ele>
   </trkpt>
   <trkpt lat="-37.90339" lon="145.38022">
    <ele>341.77000000000004</ele>
   </trkpt>
   <trkpt lat="-37.90325" lon="145.38043000000002">
    <ele>343.48</ele>
   </trkpt>
   <trkpt lat="-37.90307" lon="145.38094">
    <ele>352.46999999999997</ele>
   </trkpt>
   <trkpt lat="-37.902860000000004" lon="145.38127">
    <ele>360.22</ele>
   </trkpt>
   <trkpt lat="-37.90285" lon="145.38128">
    <ele>360.22</ele>
   </trkpt>
   <trkpt lat="-37.90278" lon="145.38134000000002">
    <ele>361.64</ele>
   </trkpt>
   <trkpt lat="-37.9026" lon="145.38141000000002">
    <ele>363.78000000000003</ele>
   </trkpt>
   <trkpt lat="-37.90243" lon="145.38138">
    <ele>364.85</ele>
   </trkpt>
   <trkpt lat="-37.9022" lon="145.38132000000002">
    <ele>365.55</ele>
   </trkpt>
   <trkpt lat="-37.90166" lon="145.38102">
    <ele>366.44000000000005</ele>
   </trkpt>
   <trkpt lat="-37.90095" lon="145.38066">
    <ele>368.71000000000004</ele>
   </trkpt>
   <trkpt lat="-37.90025" lon="145.38027000000002">
    <ele>374.21000000000004</ele>
   </trkpt>
   <trkpt lat="-37.89983" lon="145.38012">
    <ele>376.85</ele>
   </trkpt>
   <trkpt lat="-37.89911500059762" lon="145.37975999652772">
    <ele>384.08000000000004</ele>
   </trkpt>
   <trkpt lat="-37.8984" lon="145.3794">
    <ele>392.14000000000004</ele>
   </trkpt>
   <trkpt lat="-37.89822" lon="145.37928000000002">
    <ele>392.86</ele>
   </trkpt>
   <trkpt lat="-37.897980000000004" lon="145.37919000000002">
    <ele>392.79</ele>
   </trkpt>
   <trkpt lat="-37.89788" lon="145.37979">
    <ele>391.74</ele>
   </trkpt>
   <trkpt lat="-37.89784" lon="145.38036000000002">
    <ele>388.98</ele>
   </trkpt>
   <trkpt lat="-37.89779" lon="145.38079000000002">
    <ele>387.45</ele>
   </trkpt>
   <trkpt lat="-37.897690001991506" lon="145.3814800010917">
    <ele>386.54</ele>
   </trkpt>
   <trkpt lat="-37.89759" lon="145.38217">
    <ele>386.54</ele>
   </trkpt>
   <trkpt lat="-37.89755" lon="145.3827">
    <ele>387.15000000000003</ele>
   </trkpt>
   <trkpt lat="-37.89742500201526" lon="145.38339500133532">
    <ele>389.37000000000006</ele>
   </trkpt>
   <trkpt lat="-37.8973" lon="145.38409000000001">
    <ele>391.59000000000003</ele>
   </trkpt>
   <trkpt lat="-37.89719" lon="145.38446000000002">
    <ele>394.16</ele>
   </trkpt>
   <trkpt lat="-37.89703" lon="145.38479">
    <ele>396.70000000000005</ele>
   </trkpt>
   <trkpt lat="-37.89708" lon="145.38508000000002">
    <ele>398.54</ele>
   </trkpt>
   <trkpt lat="-37.89705" lon="145.38526000000002">
    <ele>400.24</ele>
   </trkpt>
   <trkpt lat="-37.89696" lon="145.38565">
    <ele>404.39000000000004</ele>
   </trkpt>
   <trkpt lat="-37.89676" lon="145.38609000000002">
    <ele>409.42</ele>
   </trkpt>
   <trkpt lat="-37.89663" lon="145.38676">
    <ele>419.09000000000003</ele>
   </trkpt>
   <trkpt lat="-37.89663" lon="145.38708000000003">
    <ele>423.3</ele>
   </trkpt>
   <trkpt lat="-37.89656" lon="145.38734000000002">
    <ele>425.04</ele>
   </trkpt>
   <trkpt lat="-37.896420000000006" lon="145.38760000000002">
    <ele>427.76000000000005</ele>
   </trkpt>
   <trkpt lat="-37.89643" lon="145.38760000000002">
    <ele>427.76000000000005</ele>
   </trkpt>
   <trkpt lat="-37.89587" lon="145.38802">
    <ele>432.69</ele>
   </trkpt>
   <trkpt lat="-37.89574" lon="145.38798">
    <ele>433.13</ele>
   </trkpt>
   <trkpt lat="-37.89524" lon="145.38761000000002">
    <ele>428.01000000000005</ele>
   </trkpt>
   <trkpt lat="-37.89466" lon="145.38726">
    <ele>423.13000000000005</ele>
   </trkpt>
   <trkpt lat="-37.89406" lon="145.38684">
    <ele>417.88</ele>
   </trkpt>
   <trkpt lat="-37.89369000000001" lon="145.38629">
    <ele>415.07000000000005</ele>
   </trkpt>
   <trkpt lat="-37.89309" lon="145.38577">
    <ele>418.7</ele>
   </trkpt>
   <trkpt lat="-37.892830000000004" lon="145.38529">
    <ele>421.2</ele>
   </trkpt>
   <trkpt lat="-37.8926" lon="145.38464000000002">
    <ele>421.13000000000005</ele>
   </trkpt>
   <trkpt lat="-37.89251" lon="145.38418000000001">
    <ele>421.38</ele>
   </trkpt>
   <trkpt lat="-37.89249" lon="145.38371">
    <ele>421.2</ele>
   </trkpt>
   <trkpt lat="-37.89252000187539" lon="145.3830450001623">
    <ele>420.48</ele>
   </trkpt>
   <trkpt lat="-37.89255" lon="145.38238">
    <ele>421.53000000000003</ele>
   </trkpt>
   <trkpt lat="-37.89242" lon="145.38186000000002">
    <ele>423.28000000000003</ele>
   </trkpt>
   <trkpt lat="-37.89233" lon="145.38163">
    <ele>423.53000000000003</ele>
   </trkpt>
   <trkpt lat="-37.89222" lon="145.38146">
    <ele>423.18000000000006</ele>
   </trkpt>
   <trkpt lat="-37.89206" lon="145.38125000000002">
    <ele>423.07000000000005</ele>
   </trkpt>
   <trkpt lat="-37.89186" lon="145.38104">
    <ele>423.2</ele>
   </trkpt>
   <trkpt lat="-37.89135500092286" lon="145.38059499702274">
    <ele>424.13</ele>
   </trkpt>
   <trkpt lat="-37.89085" lon="145.38015000000001">
    <ele>424.96000000000004</ele>
   </trkpt>
   <trkpt lat="-37.89045" lon="145.37973000000002">
    <ele>422.07000000000005</ele>
   </trkpt>
   <trkpt lat="-37.890150000000006" lon="145.3795">
    <ele>419.7</ele>
   </trkpt>
   <trkpt lat="-37.88973" lon="145.37923">
    <ele>416.55</ele>
   </trkpt>
   <trkpt lat="-37.889170000302975" lon="145.37892999767666">
    <ele>412.77000000000004</ele>
   </trkpt>
   <trkpt lat="-37.88861" lon="145.37863000000002">
    <ele>406.93</ele>
   </trkpt>
   <trkpt lat="-37.88832" lon="145.3785">
    <ele>405.17</ele>
   </trkpt>
   <trkpt lat="-37.88812" lon="145.37844">
    <ele>404.09000000000003</ele>
   </trkpt>
   <trkpt lat="-37.887890000000006" lon="145.37830000000002">
    <ele>402.4200000000001</ele>
   </trkpt>
   <trkpt lat="-37.8877" lon="145.37814">
    <ele>401.05</ele>
   </trkpt>
   <trkpt lat="-37.888505000150154" lon="145.37797500179676">
    <ele>392.88</ele>
   </trkpt>
   <trkpt lat="-37.88931" lon="145.37781">
    <ele>386.82000000000005</ele>
   </trkpt>
   <trkpt lat="-37.89016" lon="145.37795">
    <ele>383.65000000000003</ele>
   </trkpt>
   <trkpt lat="-37.89085" lon="145.37794000000002">
    <ele>381.45</ele>
   </trkpt>
   <trkpt lat="-37.89112" lon="145.3779">
    <ele>379.27000000000004</ele>
   </trkpt>
   <trkpt lat="-37.89123" lon="145.37791">
    <ele>379.27000000000004</ele>
   </trkpt>
   <trkpt lat="-37.89139" lon="145.37794000000002">
    <ele>378.03000000000003</ele>
   </trkpt>
   <trkpt lat="-37.89177" lon="145.37807">
    <ele>376.04</ele>
   </trkpt>
   <trkpt lat="-37.89222" lon="145.37835">
    <ele>374.19</ele>
   </trkpt>
   <trkpt lat="-37.89229" lon="145.37834">
    <ele>373.75</ele>
   </trkpt>
   <trkpt lat="-37.89235" lon="145.37830000000002">
    <ele>372.48</ele>
   </trkpt>
   <trkpt lat="-37.89249" lon="145.37814">
    <ele>368.15000000000003</ele>
   </trkpt>
   <trkpt lat="-37.89262" lon="145.37792000000002">
    <ele>364.82000000000005</ele>
   </trkpt>
   <trkpt lat="-37.89267" lon="145.37773">
    <ele>362.04</ele>
   </trkpt>
   <trkpt lat="-37.89264" lon="145.37730000000002">
    <ele>357.95000000000005</ele>
   </trkpt>
   <trkpt lat="-37.89264" lon="145.37732000000003">
    <ele>357.95000000000005</ele>
   </trkpt>
   <trkpt lat="-37.89258" lon="145.37708">
    <ele>356.07000000000005</ele>
   </trkpt>
   <trkpt lat="-37.892350001316714" lon="145.37650499799926">
    <ele>350.89000000000004</ele>
   </trkpt>
   <trkpt lat="-37.892120000000006" lon="145.37593">
    <ele>344.19000000000005</ele>
   </trkpt>
   <trkpt lat="-37.89166" lon="145.37524000000002">
    <ele>338.99</ele>
   </trkpt>
   <trkpt lat="-37.89146" lon="145.37505000000002">
    <ele>337.93</ele>
   </trkpt>
   <trkpt lat="-37.89137" lon="145.37499000000003">
    <ele>337.76</ele>
   </trkpt>
   <trkpt lat="-37.89114" lon="145.37492">
    <ele>338.53000000000003</ele>
   </trkpt>
   <trkpt lat="-37.89079" lon="145.37492">
    <ele>338.99</ele>
   </trkpt>
   <trkpt lat="-37.89052" lon="145.37509">
    <ele>339.65</ele>
   </trkpt>
   <trkpt lat="-37.89025" lon="145.37519">
    <ele>340.29</ele>
   </trkpt>
   <trkpt lat="-37.89007" lon="145.37515000000002">
    <ele>339.69000000000005</ele>
   </trkpt>
   <trkpt lat="-37.88996" lon="145.37504">
    <ele>338.73</ele>
   </trkpt>
   <trkpt lat="-37.88993" lon="145.37490000000003">
    <ele>338.68</ele>
   </trkpt>
   <trkpt lat="-37.89" lon="145.37468">
    <ele>339.44</ele>
   </trkpt>
   <trkpt lat="-37.89009" lon="145.37448">
    <ele>339.95000000000005</ele>
   </trkpt>
   <trkpt lat="-37.89011" lon="145.37428">
    <ele>341.34000000000003</ele>
   </trkpt>
   <trkpt lat="-37.89007" lon="145.37402">
    <ele>342.62</ele>
   </trkpt>
   <trkpt lat="-37.88998" lon="145.37389000000002">
    <ele>343.22</ele>
   </trkpt>
   <trkpt lat="-37.889500000758154" lon="145.3734749973202">
    <ele>348.35</ele>
   </trkpt>
   <trkpt lat="-37.88902" lon="145.37306">
    <ele>352.98</ele>
   </trkpt>
   <trkpt lat="-37.88841000112411" lon="145.37258499619705">
    <ele>359.21000000000004</ele>
   </trkpt>
   <trkpt lat="-37.887800000000006" lon="145.37211000000002">
    <ele>364.23</ele>
   </trkpt>
   <trkpt lat="-37.88742500038631" lon="145.37178999833037">
    <ele>368.65000000000003</ele>
   </trkpt>
   <trkpt lat="-37.88705" lon="145.37147000000002">
    <ele>371.1</ele>
   </trkpt>
   <trkpt lat="-37.88698" lon="145.37135">
    <ele>370.98</ele>
   </trkpt>
   <trkpt lat="-37.88694" lon="145.37120000000002">
    <ele>370.92</ele>
   </trkpt>
   <trkpt lat="-37.88689" lon="145.37094000000002">
    <ele>362.24</ele>
   </trkpt>
   <trkpt lat="-37.88682" lon="145.37078000000002">
    <ele>362.24</ele>
   </trkpt>
   <trkpt lat="-37.88682" lon="145.37073">
    <ele>353.32</ele>
   </trkpt>
   <trkpt lat="-37.88693" lon="145.37054">
    <ele>353.59000000000003</ele>
   </trkpt>
   <trkpt lat="-37.88729" lon="145.37024000000002">
    <ele>351.86</ele>
   </trkpt>
   <trkpt lat="-37.88738" lon="145.37008">
    <ele>351.79</ele>
   </trkpt>
   <trkpt lat="-37.88732" lon="145.36981">
    <ele>348.53</ele>
   </trkpt>
   <trkpt lat="-37.88736" lon="145.36978000000002">
    <ele>349.53</ele>
   </trkpt>
   <trkpt lat="-37.88667" lon="145.36906000000002">
    <ele>353.69</ele>
   </trkpt>
   <trkpt lat="-37.88642" lon="145.36872000000002">
    <ele>349.71000000000004</ele>
   </trkpt>
   <trkpt lat="-37.88617" lon="145.3685">
    <ele>346.87</ele>
   </trkpt>
   <trkpt lat="-37.886100000000006" lon="145.36837">
    <ele>346.86</ele>
   </trkpt>
   <trkpt lat="-37.88602" lon="145.36834000000002">
    <ele>349.77000000000004</ele>
   </trkpt>
   <trkpt lat="-37.88564" lon="145.36801">
    <ele>362.47</ele>
   </trkpt>
   <trkpt lat="-37.8855" lon="145.36785">
    <ele>365.81</ele>
   </trkpt>
   <trkpt lat="-37.88505" lon="145.36745000000002">
    <ele>376.88000000000005</ele>
   </trkpt>
   <trkpt lat="-37.8849" lon="145.36727000000002">
    <ele>379.94000000000005</ele>
   </trkpt>
   <trkpt lat="-37.88481" lon="145.36710000000002">
    <ele>384.0</ele>
   </trkpt>
   <trkpt lat="-37.884820000000005" lon="145.36711000000003">
    <ele>384.0</ele>
   </trkpt>
   <trkpt lat="-37.8847" lon="145.36672000000002">
    <ele>394.48</ele>
   </trkpt>
   <trkpt lat="-37.8847" lon="145.36657000000002">
    <ele>394.48</ele>
   </trkpt>
   <trkpt lat="-37.88465" lon="145.36651">
    <ele>400.40000000000003</ele>
   </trkpt>
   <trkpt lat="-37.88465" lon="145.36642">
    <ele>400.40000000000003</ele>
   </trkpt>
   <trkpt lat="-37.88461" lon="145.36635">
    <ele>400.40000000000003</ele>
   </trkpt>
   <trkpt lat="-37.88458" lon="145.36623">
    <ele>406.66</ele>
   </trkpt>
   <trkpt lat="-37.88463" lon="145.36617">
    <ele>406.66</ele>
   </trkpt>
   <trkpt lat="-37.88474" lon="145.36611000000002">
    <ele>409.76</ele>
   </trkpt>
   <trkpt lat="-37.884980000000006" lon="145.36612000000002">
    <ele>413.40000000000003</ele>
   </trkpt>
   <trkpt lat="-37.885270000000006" lon="145.36607">
    <ele>420.83000000000004</ele>
   </trkpt>
   <trkpt lat="-37.88546" lon="145.36592000000002">
    <ele>423.71000000000004</ele>
   </trkpt>
   <trkpt lat="-37.88548" lon="145.36577">
    <ele>426.93</ele>
   </trkpt>
   <trkpt lat="-37.88546" lon="145.36561">
    <ele>427.92</ele>
   </trkpt>
   <trkpt lat="-37.88539" lon="145.36557000000002">
    <ele>430.68000000000006</ele>
   </trkpt>
   <trkpt lat="-37.885360000000006" lon="145.36547000000002">
    <ele>432.66</ele>
   </trkpt>
   <trkpt lat="-37.88519" lon="145.36531000000002">
    <ele>436.82000000000005</ele>
   </trkpt>
   <trkpt lat="-37.88517" lon="145.36524">
    <ele>438.70000000000005</ele>
   </trkpt>
   <trkpt lat="-37.88499" lon="145.36505000000002">
    <ele>440.92</ele>
   </trkpt>
   <trkpt lat="-37.88494" lon="145.36503000000002">
    <ele>441.34</ele>
   </trkpt>
   <trkpt lat="-37.88483" lon="145.36484000000002">
    <ele>443.02000000000004</ele>
   </trkpt>
   <trkpt lat="-37.88476" lon="145.36459000000002">
    <ele>448.84000000000003</ele>
   </trkpt>
   <trkpt lat="-37.88479" lon="145.36451000000002">
    <ele>449.85</ele>
   </trkpt>
   <trkpt lat="-37.88476" lon="145.36443">
    <ele>450.81000000000006</ele>
   </trkpt>
   <trkpt lat="-37.88463" lon="145.36419">
    <ele>454.90000000000003</ele>
   </trkpt>
   <trkpt lat="-37.88445" lon="145.36369000000002">
    <ele>464.38</ele>
   </trkpt>
   <trkpt lat="-37.88441" lon="145.36341000000002">
    <ele>469.86000000000007</ele>
   </trkpt>
   <trkpt lat="-37.88449" lon="145.36339">
    <ele>471.40000000000003</ele>
   </trkpt>
   <trkpt lat="-37.88456" lon="145.3634">
    <ele>471.40000000000003</ele>
   </trkpt>
   <trkpt lat="-37.8847" lon="145.36339">
    <ele>475.01000000000005</ele>
   </trkpt>
   <trkpt lat="-37.88472" lon="145.36334000000002">
    <ele>475.9200000000001</ele>
   </trkpt>
   <trkpt lat="-37.88474" lon="145.36315000000002">
    <ele>480.84000000000003</ele>
   </trkpt>
   <trkpt lat="-37.88483" lon="145.36289000000002">
    <ele>484.42</ele>
   </trkpt>
   <trkpt lat="-37.88517" lon="145.36249">
    <ele>488.4100000000001</ele>
   </trkpt>
   <trkpt lat="-37.88526" lon="145.36229">
    <ele>492.95000000000005</ele>
   </trkpt>
   <trkpt lat="-37.8853" lon="145.36199000000002">
    <ele>494.50000000000006</ele>
   </trkpt>
   <trkpt lat="-37.88524" lon="145.3617">
    <ele>495.95000000000005</ele>
   </trkpt>
   <trkpt lat="-37.88537" lon="145.36136000000002">
    <ele>498.39000000000004</ele>
   </trkpt>
   <trkpt lat="-37.88564" lon="145.36079">
    <ele>502.6</ele>
   </trkpt>
   <trkpt lat="-37.88568" lon="145.36059">
    <ele>504.31</ele>
   </trkpt>
   <trkpt lat="-37.88573" lon="145.36033">
    <ele>505.58000000000004</ele>
   </trkpt>
   <trkpt lat="-37.88598" lon="145.35957000000002">
    <ele>506.07</ele>
   </trkpt>
   <trkpt lat="-37.88595" lon="145.35933">
    <ele>505.76</ele>
   </trkpt>
   <trkpt lat="-37.88590000000001" lon="145.35921000000002">
    <ele>505.48</ele>
   </trkpt>
   <trkpt lat="-37.88591" lon="145.35922000000002">
    <ele>505.48</ele>
   </trkpt>
   <trkpt lat="-37.8858" lon="145.35913000000002">
    <ele>505.0800000000001</ele>
   </trkpt>
   <trkpt lat="-37.885450000000006" lon="145.35868000000002">
    <ele>501.73</ele>
   </trkpt>
   <trkpt lat="-37.88532" lon="145.35860000000002">
    <ele>500.26000000000005</ele>
   </trkpt>
   <trkpt lat="-37.88476" lon="145.35842000000002">
    <ele>498.35</ele>
   </trkpt>
   <trkpt lat="-37.88456" lon="145.35838">
    <ele>497.39000000000004</ele>
   </trkpt>
   <trkpt lat="-37.88441" lon="145.35840000000002">
    <ele>496.53000000000003</ele>
   </trkpt>
   <trkpt lat="-37.88407" lon="145.35852">
    <ele>495.48</ele>
   </trkpt>
   <trkpt lat="-37.88402" lon="145.35827">
    <ele>495.78000000000003</ele>
   </trkpt>
   <trkpt lat="-37.884" lon="145.35808">
    <ele>494.99</ele>
   </trkpt>
   <trkpt lat="-37.88382" lon="145.35777000000002">
    <ele>493.72</ele>
   </trkpt>
   <trkpt lat="-37.8838" lon="145.35755">
    <ele>493.12000000000006</ele>
   </trkpt>
   <trkpt lat="-37.883790000000005" lon="145.35717000000002">
    <ele>493.09000000000003</ele>
   </trkpt>
   <trkpt lat="-37.88389" lon="145.35675">
    <ele>493.59000000000003</ele>
   </trkpt>
   <trkpt lat="-37.88391" lon="145.35645000000002">
    <ele>492.67</ele>
   </trkpt>
   <trkpt lat="-37.88391" lon="145.35613">
    <ele>491.69</ele>
   </trkpt>
   <trkpt lat="-37.88387" lon="145.35593">
    <ele>491.3500000000001</ele>
   </trkpt>
   <trkpt lat="-37.8838" lon="145.35575">
    <ele>491.43</ele>
   </trkpt>
   <trkpt lat="-37.88351" lon="145.3553">
    <ele>492.82000000000005</ele>
   </trkpt>
   <trkpt lat="-37.88318" lon="145.3554">
    <ele>488.43</ele>
   </trkpt>
   <trkpt lat="-37.88302" lon="145.35574000000003">
    <ele>490.47</ele>
   </trkpt>
   <trkpt lat="-37.88288" lon="145.35593">
    <ele>492.22</ele>
   </trkpt>
   <trkpt lat="-37.88266" lon="145.35619">
    <ele>493.08</ele>
   </trkpt>
   <trkpt lat="-37.88244" lon="145.35639">
    <ele>493.22</ele>
   </trkpt>
   <trkpt lat="-37.88226" lon="145.35667">
    <ele>493.25</ele>
   </trkpt>
   <trkpt lat="-37.88212" lon="145.35702">
    <ele>494.47</ele>
   </trkpt>
   <trkpt lat="-37.88183" lon="145.35763">
    <ele>495.34000000000003</ele>
   </trkpt>
   <trkpt lat="-37.88138" lon="145.35829">
    <ele>491.44000000000005</ele>
   </trkpt>
   <trkpt lat="-37.88123" lon="145.35861">
    <ele>489.3500000000001</ele>
   </trkpt>
   <trkpt lat="-37.881190000000004" lon="145.35876000000002">
    <ele>489.01000000000005</ele>
   </trkpt>
   <trkpt lat="-37.88103" lon="145.35904000000002">
    <ele>492.21000000000004</ele>
   </trkpt>
   <trkpt lat="-37.88094" lon="145.35906">
    <ele>493.49</ele>
   </trkpt>
   <trkpt lat="-37.8808" lon="145.35903000000002">
    <ele>494.99</ele>
   </trkpt>
   <trkpt lat="-37.88051" lon="145.35909">
    <ele>482.56000000000006</ele>
   </trkpt>
   <trkpt lat="-37.88033" lon="145.3591">
    <ele>482.09000000000003</ele>
   </trkpt>
   <trkpt lat="-37.8802" lon="145.35908">
    <ele>481.36000000000007</ele>
   </trkpt>
   <trkpt lat="-37.88006" lon="145.35903000000002">
    <ele>480.59000000000003</ele>
   </trkpt>
   <trkpt lat="-37.87991" lon="145.35891">
    <ele>479.11</ele>
   </trkpt>
   <trkpt lat="-37.87975" lon="145.35876000000002">
    <ele>478.29</ele>
   </trkpt>
   <trkpt lat="-37.87919" lon="145.35846">
    <ele>477.92</ele>
   </trkpt>
   <trkpt lat="-37.87876" lon="145.35838">
    <ele>478.34000000000003</ele>
   </trkpt>
   <trkpt lat="-37.878600000000006" lon="145.35829">
    <ele>477.53000000000003</ele>
   </trkpt>
   <trkpt lat="-37.87818" lon="145.35801">
    <ele>473.69000000000005</ele>
   </trkpt>
   <trkpt lat="-37.87798" lon="145.35797000000002">
    <ele>473.69000000000005</ele>
   </trkpt>
   <trkpt lat="-37.8778" lon="145.35791">
    <ele>471.40000000000003</ele>
   </trkpt>
   <trkpt lat="-37.8776" lon="145.35774">
    <ele>469.65</ele>
   </trkpt>
   <trkpt lat="-37.87744" lon="145.35742000000002">
    <ele>467.04</ele>
   </trkpt>
   <trkpt lat="-37.877100000000006" lon="145.35656">
    <ele>460.93000000000006</ele>
   </trkpt>
   <trkpt lat="-37.87693" lon="145.35609000000002">
    <ele>461.01000000000005</ele>
   </trkpt>
   <trkpt lat="-37.87666" lon="145.35527000000002">
    <ele>463.06</ele>
   </trkpt>
   <trkpt lat="-37.87666" lon="145.35511000000002">
    <ele>465.77</ele>
   </trkpt>
   <trkpt lat="-37.8767" lon="145.35494">
    <ele>467.0</ele>
   </trkpt>
   <trkpt lat="-37.87684" lon="145.35466000000002">
    <ele>469.26000000000005</ele>
   </trkpt>
   <trkpt lat="-37.87702" lon="145.35441">
    <ele>471.44</ele>
   </trkpt>
   <trkpt lat="-37.87731" lon="145.35406">
    <ele>473.45000000000005</ele>
   </trkpt>
   <trkpt lat="-37.8776" lon="145.35354">
    <ele>476.14000000000004</ele>
   </trkpt>
   <trkpt lat="-37.87773" lon="145.35335">
    <ele>477.73</ele>
   </trkpt>
   <trkpt lat="-37.87782" lon="145.35314000000002">
    <ele>478.82</ele>
   </trkpt>
   <trkpt lat="-37.87816" lon="145.35258000000002">
    <ele>481.18000000000006</ele>
   </trkpt>
   <trkpt lat="-37.87827" lon="145.35227">
    <ele>482.63000000000005</ele>
   </trkpt>
   <trkpt lat="-37.87832" lon="145.35207000000003">
    <ele>483.85</ele>
   </trkpt>
   <trkpt lat="-37.87841" lon="145.3519">
    <ele>484.27000000000004</ele>
   </trkpt>
   <trkpt lat="-37.87859" lon="145.35132000000002">
    <ele>486.66</ele>
   </trkpt>
   <trkpt lat="-37.87876" lon="145.35029">
    <ele>491.01000000000005</ele>
   </trkpt>
   <trkpt lat="-37.87872" lon="145.34991000000002">
    <ele>492.46000000000004</ele>
   </trkpt>
   <trkpt lat="-37.87847" lon="145.34895">
    <ele>495.32000000000005</ele>
   </trkpt>
   <trkpt lat="-37.87825" lon="145.34847000000002">
    <ele>498.98</ele>
   </trkpt>
   <trkpt lat="-37.878040000000006" lon="145.34804000000003">
    <ele>500.86000000000007</ele>
   </trkpt>
   <trkpt lat="-37.87794" lon="145.34774000000002">
    <ele>504.06000000000006</ele>
   </trkpt>
   <trkpt lat="-37.87776" lon="145.34745">
    <ele>505.88</ele>
   </trkpt>
   <trkpt lat="-37.87758" lon="145.34729000000002">
    <ele>506.73</ele>
   </trkpt>
   <trkpt lat="-37.87726" lon="145.34721000000002">
    <ele>507.27</ele>
   </trkpt>
   <trkpt lat="-37.876760000000004" lon="145.34722000000002">
    <ele>508.2300000000001</ele>
   </trkpt>
   <trkpt lat="-37.87688" lon="145.34705000000002">
    <ele>507.65000000000003</ele>
   </trkpt>
   <trkpt lat="-37.87702" lon="145.34689">
    <ele>506.99000000000007</ele>
   </trkpt>
   <trkpt lat="-37.87726" lon="145.34634">
    <ele>507.7900000000001</ele>
   </trkpt>
   <trkpt lat="-37.877570000000006" lon="145.34542000000002">
    <ele>511.88</ele>
   </trkpt>
   <trkpt lat="-37.87767" lon="145.34526000000002">
    <ele>512.8600000000001</ele>
   </trkpt>
   <trkpt lat="-37.87794" lon="145.34497000000002">
    <ele>514.69</ele>
   </trkpt>
   <trkpt lat="-37.878" lon="145.34487000000001">
    <ele>514.6700000000001</ele>
   </trkpt>
   <trkpt lat="-37.878040000000006" lon="145.34474">
    <ele>514.5200000000001</ele>
   </trkpt>
   <trkpt lat="-37.87805" lon="145.34458">
    <ele>514.11</ele>
   </trkpt>
   <trkpt lat="-37.87807" lon="145.34451">
    <ele>513.93</ele>
   </trkpt>
   <trkpt lat="-37.87814" lon="145.34448">
    <ele>513.9</ele>
   </trkpt>
   <trkpt lat="-37.87827" lon="145.34451">
    <ele>514.0100000000001</ele>
   </trkpt>
   <trkpt lat="-37.87836" lon="145.34455">
    <ele>514.2500000000001</ele>
   </trkpt>
   <trkpt lat="-37.87861" lon="145.34490000000002">
    <ele>517.27</ele>
   </trkpt>
   <trkpt lat="-37.878750000000004" lon="145.34495">
    <ele>516.99</ele>
   </trkpt>
   <trkpt lat="-37.87888" lon="145.34482">
    <ele>512.14</ele>
   </trkpt>
   <trkpt lat="-37.8789" lon="145.34474">
    <ele>511.56</ele>
   </trkpt>
   <trkpt lat="-37.87914" lon="145.34452000000002">
    <ele>506.27</ele>
   </trkpt>
   <trkpt lat="-37.87919" lon="145.34452000000002">
    <ele>506.27</ele>
   </trkpt>
   <trkpt lat="-37.879070000000006" lon="145.34405">
    <ele>504.5900000000001</ele>
   </trkpt>
   <trkpt lat="-37.87892" lon="145.34343">
    <ele>501.09999999999997</ele>
   </trkpt>
   <trkpt lat="-37.87877" lon="145.34292000000002">
    <ele>495.7900000000001</ele>
   </trkpt>
   <trkpt lat="-37.878930000000004" lon="145.34284000000002">
    <ele>497.69</ele>
   </trkpt>
   <trkpt lat="-37.87892" lon="145.34284000000002">
    <ele>497.69</ele>
   </trkpt>
   <trkpt lat="-37.87901" lon="145.34286">
    <ele>499.40000000000003</ele>
   </trkpt>
   <trkpt lat="-37.87917" lon="145.34300000000002">
    <ele>500.92</ele>
   </trkpt>
   <trkpt lat="-37.87937" lon="145.34337000000002">
    <ele>503.87</ele>
   </trkpt>
   <trkpt lat="-37.87955" lon="145.34361">
    <ele>507.89000000000004</ele>
   </trkpt>
   <trkpt lat="-37.87964" lon="145.34372000000002">
    <ele>512.49</ele>
   </trkpt>
   <trkpt lat="-37.88034500034834" lon="145.34407999645205">
    <ele>523.96</ele>
   </trkpt>
   <trkpt lat="-37.88105" lon="145.34444000000002">
    <ele>527.82</ele>
   </trkpt>
   <trkpt lat="-37.881665000032825" lon="145.34460499860012">
    <ele>525.88</ele>
   </trkpt>
   <trkpt lat="-37.88228" lon="145.34477">
    <ele>520.5500000000001</ele>
   </trkpt>
   <trkpt lat="-37.88275" lon="145.34470000000002">
    <ele>519.0</ele>
   </trkpt>
   <trkpt lat="-37.883" lon="145.34471000000002">
    <ele>514.7900000000001</ele>
   </trkpt>
   <trkpt lat="-37.88349" lon="145.34484">
    <ele>511.78000000000003</ele>
   </trkpt>
   <trkpt lat="-37.88389" lon="145.34506000000002">
    <ele>508.69000000000005</ele>
   </trkpt>
   <trkpt lat="-37.88396" lon="145.34514000000001">
    <ele>507.5900000000001</ele>
   </trkpt>
   <trkpt lat="-37.88411" lon="145.34534000000002">
    <ele>505.7900000000001</ele>
   </trkpt>
   <trkpt lat="-37.8842" lon="145.34558">
    <ele>503.5200000000001</ele>
   </trkpt>
   <trkpt lat="-37.88447" lon="145.34646">
    <ele>493.74000000000007</ele>
   </trkpt>
   <trkpt lat="-37.88454" lon="145.34662">
    <ele>493.00000000000006</ele>
   </trkpt>
   <trkpt lat="-37.88461" lon="145.34673">
    <ele>492.08</ele>
   </trkpt>
   <trkpt lat="-37.88492" lon="145.34708">
    <ele>489.95000000000005</ele>
   </trkpt>
   <trkpt lat="-37.88517" lon="145.34727">
    <ele>488.7</ele>
   </trkpt>
   <trkpt lat="-37.88555" lon="145.34747000000002">
    <ele>487.9100000000001</ele>
   </trkpt>
   <trkpt lat="-37.8855" lon="145.34765000000002">
    <ele>488.2</ele>
   </trkpt>
   <trkpt lat="-37.88548" lon="145.34823">
    <ele>488.18000000000006</ele>
   </trkpt>
   <trkpt lat="-37.88555" lon="145.34883000000002">
    <ele>489.02000000000004</ele>
   </trkpt>
   <trkpt lat="-37.88561" lon="145.34911000000002">
    <ele>489.88000000000005</ele>
   </trkpt>
   <trkpt lat="-37.88561" lon="145.34938000000002">
    <ele>490.24000000000007</ele>
   </trkpt>
   <trkpt lat="-37.88568" lon="145.34975">
    <ele>489.96000000000004</ele>
   </trkpt>
   <trkpt lat="-37.88568" lon="145.34986">
    <ele>489.62000000000006</ele>
   </trkpt>
   <trkpt lat="-37.88564" lon="145.34996">
    <ele>489.14</ele>
   </trkpt>
   <trkpt lat="-37.88537" lon="145.35015">
    <ele>487.16</ele>
   </trkpt>
   <trkpt lat="-37.88521" lon="145.35021">
    <ele>486.52000000000004</ele>
   </trkpt>
   <trkpt lat="-37.88503" lon="145.35021">
    <ele>485.75</ele>
   </trkpt>
   <trkpt lat="-37.88481" lon="145.35028">
    <ele>485.12000000000006</ele>
   </trkpt>
   <trkpt lat="-37.884640000000005" lon="145.35035000000002">
    <ele>484.54</ele>
   </trkpt>
   <trkpt lat="-37.88461" lon="145.35046">
    <ele>486.51000000000005</ele>
   </trkpt>
   <trkpt lat="-37.88461" lon="145.35066">
    <ele>488.2</ele>
   </trkpt>
   <trkpt lat="-37.884730000000005" lon="145.35098000000002">
    <ele>480.69000000000005</ele>
   </trkpt>
   <trkpt lat="-37.8853" lon="145.3514">
    <ele>487.16</ele>
   </trkpt>
   <trkpt lat="-37.88552" lon="145.35153000000003">
    <ele>488.8</ele>
   </trkpt>
   <trkpt lat="-37.886070000000004" lon="145.35163">
    <ele>490.64</ele>
   </trkpt>
   <trkpt lat="-37.886410000000005" lon="145.35162000000003">
    <ele>485.66</ele>
   </trkpt>
   <trkpt lat="-37.88669" lon="145.35166">
    <ele>482.22</ele>
   </trkpt>
   <trkpt lat="-37.88716" lon="145.35176">
    <ele>471.70000000000005</ele>
   </trkpt>
   <trkpt lat="-37.887330000000006" lon="145.35177000000002">
    <ele>465.43</ele>
   </trkpt>
   <trkpt lat="-37.88734" lon="145.35183">
    <ele>465.43</ele>
   </trkpt>
   <trkpt lat="-37.88729" lon="145.35195000000002">
    <ele>472.43</ele>
   </trkpt>
   <trkpt lat="-37.887330000000006" lon="145.35177000000002">
    <ele>465.52000000000004</ele>
   </trkpt>
   <trkpt lat="-37.88783" lon="145.35185">
    <ele>459.20000000000005</ele>
   </trkpt>
   <trkpt lat="-37.88812" lon="145.35205000000002">
    <ele>456.93000000000006</ele>
   </trkpt>
   <trkpt lat="-37.88841" lon="145.35235">
    <ele>454.22</ele>
   </trkpt>
   <trkpt lat="-37.88882" lon="145.35269000000002">
    <ele>450.97</ele>
   </trkpt>
   <trkpt lat="-37.88915" lon="145.35287000000002">
    <ele>447.13</ele>
   </trkpt>
   <trkpt lat="-37.88936" lon="145.35294000000002">
    <ele>445.67</ele>
   </trkpt>
   <trkpt lat="-37.88985" lon="145.35299">
    <ele>440.68</ele>
   </trkpt>
   <trkpt lat="-37.89052" lon="145.3531">
    <ele>435.91</ele>
   </trkpt>
   <trkpt lat="-37.890730000000005" lon="145.35311000000002">
    <ele>434.49</ele>
   </trkpt>
   <trkpt lat="-37.8909" lon="145.35308">
    <ele>433.05</ele>
   </trkpt>
   <trkpt lat="-37.89101" lon="145.35302000000001">
    <ele>432.2300000000001</ele>
   </trkpt>
   <trkpt lat="-37.89128" lon="145.35273">
    <ele>427.42</ele>
   </trkpt>
   <trkpt lat="-37.89139" lon="145.35214000000002">
    <ele>424.46000000000004</ele>
   </trkpt>
   <trkpt lat="-37.89137" lon="145.35187000000002">
    <ele>422.38000000000005</ele>
   </trkpt>
   <trkpt lat="-37.89120000210858" lon="145.35115999826206">
    <ele>416.26</ele>
   </trkpt>
   <trkpt lat="-37.89103" lon="145.35045000000002">
    <ele>411.30000000000007</ele>
   </trkpt>
   <trkpt lat="-37.89067" lon="145.34957">
    <ele>404.05</ele>
   </trkpt>
   <trkpt lat="-37.890620000000006" lon="145.34932">
    <ele>401.22</ele>
   </trkpt>
   <trkpt lat="-37.89054" lon="145.34882000000002">
    <ele>395.92</ele>
   </trkpt>
   <trkpt lat="-37.89054" lon="145.34848000000002">
    <ele>393.64000000000004</ele>
   </trkpt>
   <trkpt lat="-37.89052" lon="145.34830000000002">
    <ele>392.68</ele>
   </trkpt>
   <trkpt lat="-37.89043" lon="145.34805">
    <ele>390.63000000000005</ele>
   </trkpt>
   <trkpt lat="-37.890530000000005" lon="145.34784000000002">
    <ele>387.65000000000003</ele>
   </trkpt>
   <trkpt lat="-37.890800000000006" lon="145.34763">
    <ele>384.18</ele>
   </trkpt>
   <trkpt lat="-37.89126" lon="145.34735">
    <ele>377.81</ele>
   </trkpt>
   <trkpt lat="-37.891805000721654" lon="145.34696000283103">
    <ele>370.94000000000005</ele>
   </trkpt>
   <trkpt lat="-37.89235" lon="145.34657">
    <ele>364.54</ele>
   </trkpt>
   <trkpt lat="-37.892770000000006" lon="145.34666">
    <ele>357.7</ele>
   </trkpt>
   <trkpt lat="-37.89316" lon="145.34692">
    <ele>353.00000000000006</ele>
   </trkpt>
   <trkpt lat="-37.8934" lon="145.34701">
    <ele>351.04</ele>
   </trkpt>
   <trkpt lat="-37.89354" lon="145.3471">
    <ele>351.04</ele>
   </trkpt>
   <trkpt lat="-37.89367" lon="145.34722000000002">
    <ele>349.58</ele>
   </trkpt>
   <trkpt lat="-37.893930000000005" lon="145.34734">
    <ele>348.08000000000004</ele>
   </trkpt>
   <trkpt lat="-37.89405" lon="145.34746">
    <ele>346.6</ele>
   </trkpt>
   <trkpt lat="-37.89419" lon="145.34763">
    <ele>344.31</ele>
   </trkpt>
   <trkpt lat="-37.89432" lon="145.34794000000002">
    <ele>340.05</ele>
   </trkpt>
   <trkpt lat="-37.89467000193618" lon="145.348604996963">
    <ele>331.25000000000006</ele>
   </trkpt>
   <trkpt lat="-37.89502" lon="145.34927000000002">
    <ele>321.28000000000003</ele>
   </trkpt>
   <trkpt lat="-37.89531" lon="145.34975">
    <ele>319.53000000000003</ele>
   </trkpt>
   <trkpt lat="-37.89551" lon="145.35015">
    <ele>320.19</ele>
   </trkpt>
   <trkpt lat="-37.89571" lon="145.35073">
    <ele>327.38</ele>
   </trkpt>
   <trkpt lat="-37.89582" lon="145.35095">
    <ele>329.29</ele>
   </trkpt>
   <trkpt lat="-37.89609" lon="145.35136">
    <ele>333.76</ele>
   </trkpt>
   <trkpt lat="-37.89663" lon="145.35203">
    <ele>326.69000000000005</ele>
   </trkpt>
   <trkpt lat="-37.89674" lon="145.3521">
    <ele>326.69000000000005</ele>
   </trkpt>
   <trkpt lat="-37.89717" lon="145.35225">
    <ele>323.15000000000003</ele>
   </trkpt>
   <trkpt lat="-37.89723" lon="145.35231000000002">
    <ele>322.84000000000003</ele>
   </trkpt>
   <trkpt lat="-37.89725" lon="145.35237">
    <ele>322.76000000000005</ele>
   </trkpt>
   <trkpt lat="-37.89723" lon="145.35256">
    <ele>322.61</ele>
   </trkpt>
   <trkpt lat="-37.89725" lon="145.35287000000002">
    <ele>321.42</ele>
   </trkpt>
   <trkpt lat="-37.89734" lon="145.35315">
    <ele>320.04</ele>
   </trkpt>
   <trkpt lat="-37.89741" lon="145.35369">
    <ele>316.35</ele>
   </trkpt>
   <trkpt lat="-37.89759" lon="145.35435">
    <ele>296.56000000000006</ele>
   </trkpt>
   <trkpt lat="-37.89766" lon="145.35458">
    <ele>294.2</ele>
   </trkpt>
   <trkpt lat="-37.89775" lon="145.35477">
    <ele>289.29</ele>
   </trkpt>
   <trkpt lat="-37.89788" lon="145.35500000000002">
    <ele>281.18</ele>
   </trkpt>
   <trkpt lat="-37.89811" lon="145.35532">
    <ele>275.76</ele>
   </trkpt>
   <trkpt lat="-37.89819" lon="145.35568">
    <ele>269.78000000000003</ele>
   </trkpt>
   <trkpt lat="-37.8984" lon="145.35568">
    <ele>267.42</ele>
   </trkpt>
   <trkpt lat="-37.89873" lon="145.35563000000002">
    <ele>266.27</ele>
   </trkpt>
   <trkpt lat="-37.89918" lon="145.35578">
    <ele>264.15</ele>
   </trkpt>
   <trkpt lat="-37.89927" lon="145.35586">
    <ele>262.28000000000003</ele>
   </trkpt>
   <trkpt lat="-37.89934" lon="145.35599000000002">
    <ele>262.08000000000004</ele>
   </trkpt>
   <trkpt lat="-37.89945" lon="145.35613">
    <ele>261.47</ele>
   </trkpt>
   <trkpt lat="-37.89960000000001" lon="145.35626000000002">
    <ele>261.02000000000004</ele>
   </trkpt>
   <trkpt lat="-37.89963" lon="145.35624">
    <ele>260.86</ele>
   </trkpt>
   <trkpt lat="-37.899660000000004" lon="145.35629">
    <ele>260.86</ele>
   </trkpt>
   <trkpt lat="-37.899860000000004" lon="145.35639">
    <ele>260.72</ele>
   </trkpt>
   <trkpt lat="-37.89992" lon="145.35652000000002">
    <ele>260.44</ele>
   </trkpt>
   <trkpt lat="-37.90014" lon="145.35665">
    <ele>260.3</ele>
   </trkpt>
   <trkpt lat="-37.900150000000004" lon="145.35666">
    <ele>260.3</ele>
   </trkpt>
   <trkpt lat="-37.900150000000004" lon="145.35665">
    <ele>260.3</ele>
   </trkpt>
   <trkpt lat="-37.90016" lon="145.35682">
    <ele>260.68</ele>
   </trkpt>
   <trkpt lat="-37.900090000000006" lon="145.35691">
    <ele>261.12</ele>
   </trkpt>
   <trkpt lat="-37.899840000000005" lon="145.35690000000002">
    <ele>254.48999999999998</ele>
   </trkpt>
   <trkpt lat="-37.89996" lon="145.35697000000002">
    <ele>254.64000000000001</ele>
   </trkpt>
   <trkpt lat="-37.900000000000006" lon="145.35713">
    <ele>260.04</ele>
   </trkpt>
   <trkpt lat="-37.900000000000006" lon="145.35732000000002">
    <ele>264.18</ele>
   </trkpt>
   <trkpt lat="-37.89992" lon="145.35755">
    <ele>272.19000000000005</ele>
   </trkpt>
   <trkpt lat="-37.89992" lon="145.35763">
    <ele>272.19000000000005</ele>
   </trkpt>
   <trkpt lat="-37.900000000000006" lon="145.35778000000002">
    <ele>279.19000000000005</ele>
   </trkpt>
   <trkpt lat="-37.9001" lon="145.35835">
    <ele>294.52</ele>
   </trkpt>
   <trkpt lat="-37.9001" lon="145.35860000000002">
    <ele>298.79</ele>
   </trkpt>
   <trkpt lat="-37.9003" lon="145.35946">
    <ele>312.73</ele>
   </trkpt>
   <trkpt lat="-37.9005" lon="145.36012000000002">
    <ele>332.70000000000005</ele>
   </trkpt>
   <trkpt lat="-37.90057" lon="145.36046000000002">
    <ele>335.16</ele>
   </trkpt>
   <trkpt lat="-37.90059" lon="145.36069">
    <ele>335.16</ele>
   </trkpt>
   <trkpt lat="-37.90077" lon="145.36145000000002">
    <ele>330.27</ele>
   </trkpt>
   <trkpt lat="-37.900830000000006" lon="145.36185">
    <ele>329.1</ele>
   </trkpt>
   <trkpt lat="-37.900830000000006" lon="145.36186">
    <ele>329.11</ele>
   </trkpt>
   <trkpt lat="-37.90046" lon="145.36187">
    <ele>332.73</ele>
   </trkpt>
   <trkpt lat="-37.90028" lon="145.36190000000002">
    <ele>333.73</ele>
   </trkpt>
   <trkpt lat="-37.9001" lon="145.36188">
    <ele>335.23</ele>
   </trkpt>
   <trkpt lat="-37.89985" lon="145.36188">
    <ele>336.33</ele>
   </trkpt>
   <trkpt lat="-37.89916" lon="145.36178">
    <ele>340.11</ele>
   </trkpt>
   <trkpt lat="-37.89902" lon="145.36179">
    <ele>340.67</ele>
   </trkpt>
   <trkpt lat="-37.89887" lon="145.36185">
    <ele>341.18</ele>
   </trkpt>
   <trkpt lat="-37.89882" lon="145.36192">
    <ele>341.47</ele>
   </trkpt>
   <trkpt lat="-37.89875" lon="145.36209000000002">
    <ele>341.83000000000004</ele>
   </trkpt>
   <trkpt lat="-37.89871" lon="145.3623">
    <ele>342.53</ele>
   </trkpt>
   <trkpt lat="-37.89842" lon="145.36327">
    <ele>348.74000000000007</ele>
   </trkpt>
   <trkpt lat="-37.89849" lon="145.36351000000002">
    <ele>350.11</ele>
   </trkpt>
   <trkpt lat="-37.89851" lon="145.36356">
    <ele>350.22</ele>
   </trkpt>
   <trkpt lat="-37.898590000000006" lon="145.36360000000002">
    <ele>350.28000000000003</ele>
   </trkpt>
   <trkpt lat="-37.89909" lon="145.36382">
    <ele>349.79</ele>
   </trkpt>
   <trkpt lat="-37.89936" lon="145.36412">
    <ele>351.27000000000004</ele>
   </trkpt>
   <trkpt lat="-37.89952" lon="145.36432000000002">
    <ele>352.08</ele>
   </trkpt>
   <trkpt lat="-37.899530000000006" lon="145.36441000000002">
    <ele>352.08</ele>
   </trkpt>
   <trkpt lat="-37.8994" lon="145.36443">
    <ele>352.90000000000003</ele>
   </trkpt>
   <trkpt lat="-37.89931" lon="145.36448000000001">
    <ele>352.90000000000003</ele>
   </trkpt>
   <trkpt lat="-37.8992" lon="145.36459000000002">
    <ele>354.79</ele>
   </trkpt>
   <trkpt lat="-37.89909" lon="145.36476000000002">
    <ele>354.79</ele>
   </trkpt>
   <trkpt lat="-37.89887" lon="145.36534">
    <ele>357.17</ele>
   </trkpt>
   <trkpt lat="-37.89871" lon="145.36567000000002">
    <ele>358.36</ele>
   </trkpt>
   <trkpt lat="-37.89851" lon="145.36595">
    <ele>359.49</ele>
   </trkpt>
   <trkpt lat="-37.8984" lon="145.36607">
    <ele>360.32000000000005</ele>
   </trkpt>
   <trkpt lat="-37.89802" lon="145.36632">
    <ele>363.43</ele>
   </trkpt>
   <trkpt lat="-37.89743" lon="145.36684000000002">
    <ele>365.79</ele>
   </trkpt>
   <trkpt lat="-37.89685" lon="145.36728000000002">
    <ele>365.42</ele>
   </trkpt>
   <trkpt lat="-37.8964" lon="145.36767">
    <ele>363.34000000000003</ele>
   </trkpt>
   <trkpt lat="-37.89622" lon="145.36780000000002">
    <ele>362.75</ele>
   </trkpt>
   <trkpt lat="-37.896" lon="145.36790000000002">
    <ele>361.74</ele>
   </trkpt>
   <trkpt lat="-37.89593500148004" lon="145.36730999954818">
    <ele>362.56000000000006</ele>
   </trkpt>
   <trkpt lat="-37.89587" lon="145.36672000000002">
    <ele>356.64</ele>
   </trkpt>
   <trkpt lat="-37.89573" lon="145.36615">
    <ele>349.0</ele>
   </trkpt>
   <trkpt lat="-37.89564" lon="145.36536">
    <ele>340.03000000000003</ele>
   </trkpt>
   <trkpt lat="-37.8956" lon="145.36513000000002">
    <ele>335.27</ele>
   </trkpt>
   <trkpt lat="-37.89558" lon="145.36450000000002">
    <ele>328.25000000000006</ele>
   </trkpt>
   <trkpt lat="-37.89551" lon="145.36357">
    <ele>318.31000000000006</ele>
   </trkpt>
   <trkpt lat="-37.89546" lon="145.36337">
    <ele>315.64000000000004</ele>
   </trkpt>
   <trkpt lat="-37.89537" lon="145.36316000000002">
    <ele>311.79</ele>
   </trkpt>
   <trkpt lat="-37.89537" lon="145.363">
    <ele>310.5</ele>
   </trkpt>
   <trkpt lat="-37.89537" lon="145.36299000000002">
    <ele>310.4</ele>
   </trkpt>
   <trkpt lat="-37.89526" lon="145.36332000000002">
    <ele>311.12</ele>
   </trkpt>
   <trkpt lat="-37.895030000000006" lon="145.36387000000002">
    <ele>314.16</ele>
   </trkpt>
   <trkpt lat="-37.894780000000004" lon="145.36424000000002">
    <ele>317.1</ele>
   </trkpt>
   <trkpt lat="-37.8945" lon="145.36457000000001">
    <ele>319.98</ele>
   </trkpt>
   <trkpt lat="-37.89412" lon="145.3648">
    <ele>322.61</ele>
   </trkpt>
   <trkpt lat="-37.89383" lon="145.365">
    <ele>324.25000000000006</ele>
   </trkpt>
   <trkpt lat="-37.89329" lon="145.36548000000002">
    <ele>328.6</ele>
   </trkpt>
   <trkpt lat="-37.89262" lon="145.36622">
    <ele>330.64000000000004</ele>
   </trkpt>
   <trkpt lat="-37.89233" lon="145.36657000000002">
    <ele>330.52000000000004</ele>
   </trkpt>
   <trkpt lat="-37.892120000000006" lon="145.36677">
    <ele>330.46000000000004</ele>
   </trkpt>
   <trkpt lat="-37.89157" lon="145.36715">
    <ele>331.58000000000004</ele>
   </trkpt>
   <trkpt lat="-37.89094" lon="145.36749">
    <ele>335.51000000000005</ele>
   </trkpt>
   <trkpt lat="-37.8907" lon="145.36769">
    <ele>337.08000000000004</ele>
   </trkpt>
   <trkpt lat="-37.89052" lon="145.36778">
    <ele>337.6</ele>
   </trkpt>
   <trkpt lat="-37.88996" lon="145.36817000000002">
    <ele>339.49</ele>
   </trkpt>
   <trkpt lat="-37.889535000448745" lon="145.36848500179673">
    <ele>340.95000000000005</ele>
   </trkpt>
   <trkpt lat="-37.88911" lon="145.36880000000002">
    <ele>342.85</ele>
   </trkpt>
   <trkpt lat="-37.88852" lon="145.3692">
    <ele>346.68000000000006</ele>
   </trkpt>
   <trkpt lat="-37.88794" lon="145.36951000000002">
    <ele>349.56</ele>
   </trkpt>
   <trkpt lat="-37.88765" lon="145.36970000000002">
    <ele>351.04</ele>
   </trkpt>
  </trkseg>
 </trk>
</gpx>
