<?xml version="1.0" encoding="UTF-8"?>
<gpx creator="StravaGPX" version="1.1" xmlns="http://www.topografix.com/GPX/1/1" xmlns:xsi="http://www.w3.org/2001/XMLSchema-instance" xsi:schemaLocation="http://www.topografix.com/GPX/1/1 http://www.topografix.com/GPX/1/1/gpx.xsd">
 <metadata>
  <name>DTR Sunday 20</name>
  <author>
   <name>john csorgo</name>
  </author>
  <copyright author="OpenStreetMap contributors">
   <year>2020</year>
   <license>https://www.openstreetmap.org/copyright</license>
  </copyright>
 </metadata>
 <trk>
  <name>DTR Sunday 20</name>
  <link href=""/>
  <type>running</type>
  <trkseg>
   <trkpt lat="-37.891780000000004" lon="145.31668000000002">
    <ele>165.32000000000002</ele>
   </trkpt>
   <trkpt lat="-37.89173" lon="145.31668000000002">
    <ele>165.32000000000002</ele>
   </trkpt>
   <trkpt lat="-37.89166" lon="145.31673">
    <ele>166.87</ele>
   </trkpt>
   <trkpt lat="-37.89143" lon="145.31695000000002">
    <ele>171.89000000000001</ele>
   </trkpt>
   <trkpt lat="-37.89134" lon="145.31707">
    <ele>171.89000000000001</ele>
   </trkpt>
   <trkpt lat="-37.8909" lon="145.31737">
    <ele>179.26</ele>
   </trkpt>
   <trkpt lat="-37.89074" lon="145.31744">
    <ele>179.26</ele>
   </trkpt>
   <trkpt lat="-37.89067" lon="145.31745">
    <ele>181.67000000000002</ele>
   </trkpt>
   <trkpt lat="-37.89058" lon="145.31753">
    <ele>181.67000000000002</ele>
   </trkpt>
   <trkpt lat="-37.89049" lon="145.31752">
    <ele>182.59</ele>
   </trkpt>
   <trkpt lat="-37.89043" lon="145.31745">
    <ele>183.33</ele>
   </trkpt>
   <trkpt lat="-37.890280000000004" lon="145.31739000000002">
    <ele>184.48</ele>
   </trkpt>
   <trkpt lat="-37.88978" lon="145.31753">
    <ele>189.52</ele>
   </trkpt>
   <trkpt lat="-37.88973" lon="145.31761">
    <ele>190.27</ele>
   </trkpt>
   <trkpt lat="-37.88962" lon="145.31768000000002">
    <ele>191.12</ele>
   </trkpt>
   <trkpt lat="-37.889410000000005" lon="145.31771">
    <ele>193.72</ele>
   </trkpt>
   <trkpt lat="-37.88929" lon="145.31777000000002">
    <ele>194.67000000000002</ele>
   </trkpt>
   <trkpt lat="-37.88866" lon="145.31772">
    <ele>201.49000000000004</ele>
   </trkpt>
   <trkpt lat="-37.88846" lon="145.31753">
    <ele>204.47</ele>
   </trkpt>
   <trkpt lat="-37.88839" lon="145.31764">
    <ele>204.87000000000003</ele>
   </trkpt>
   <trkpt lat="-37.88817" lon="145.31758000000002">
    <ele>207.52</ele>
   </trkpt>
   <trkpt lat="-37.88799" lon="145.31761">
    <ele>208.65000000000003</ele>
   </trkpt>
   <trkpt lat="-37.88783" lon="145.31755">
    <ele>209.88</ele>
   </trkpt>
   <trkpt lat="-37.88761" lon="145.31761">
    <ele>212.72000000000003</ele>
   </trkpt>
   <trkpt lat="-37.88725" lon="145.31765000000001">
    <ele>215.33</ele>
   </trkpt>
   <trkpt lat="-37.88712" lon="145.31764">
    <ele>218.92000000000002</ele>
   </trkpt>
   <trkpt lat="-37.886880000000005" lon="145.31755">
    <ele>222.25000000000003</ele>
   </trkpt>
   <trkpt lat="-37.88669" lon="145.31744">
    <ele>224.62</ele>
   </trkpt>
   <trkpt lat="-37.88611" lon="145.31784000000002">
    <ele>224.26000000000002</ele>
   </trkpt>
   <trkpt lat="-37.88555" lon="145.31807">
    <ele>227.58000000000004</ele>
   </trkpt>
   <trkpt lat="-37.88528" lon="145.31820000000002">
    <ele>231.75</ele>
   </trkpt>
   <trkpt lat="-37.88477" lon="145.31835">
    <ele>241.05</ele>
   </trkpt>
   <trkpt lat="-37.88429" lon="145.31839000000002">
    <ele>248.87</ele>
   </trkpt>
   <trkpt lat="-37.88396" lon="145.31833">
    <ele>252.95000000000002</ele>
   </trkpt>
   <trkpt lat="-37.88373" lon="145.31835">
    <ele>256.37000000000006</ele>
   </trkpt>
   <trkpt lat="-37.88378" lon="145.31852">
    <ele>258.23</ele>
   </trkpt>
   <trkpt lat="-37.884" lon="145.31884000000002">
    <ele>261.09000000000003</ele>
   </trkpt>
   <trkpt lat="-37.88409" lon="145.31915">
    <ele>263.22</ele>
   </trkpt>
   <trkpt lat="-37.88416" lon="145.31972000000002">
    <ele>269.93</ele>
   </trkpt>
   <trkpt lat="-37.88416" lon="145.31998000000002">
    <ele>271.5</ele>
   </trkpt>
   <trkpt lat="-37.88425" lon="145.3202">
    <ele>273.63000000000005</ele>
   </trkpt>
   <trkpt lat="-37.88429" lon="145.32048">
    <ele>275.81</ele>
   </trkpt>
   <trkpt lat="-37.88425" lon="145.32069">
    <ele>279.05</ele>
   </trkpt>
   <trkpt lat="-37.88416" lon="145.32099000000002">
    <ele>280.17</ele>
   </trkpt>
   <trkpt lat="-37.88416" lon="145.3211">
    <ele>283.89000000000004</ele>
   </trkpt>
   <trkpt lat="-37.88423" lon="145.32127">
    <ele>285.7</ele>
   </trkpt>
   <trkpt lat="-37.88432" lon="145.32141000000001">
    <ele>285.7</ele>
   </trkpt>
   <trkpt lat="-37.88443" lon="145.32186000000002">
    <ele>289.12000000000006</ele>
   </trkpt>
   <trkpt lat="-37.88447" lon="145.32227">
    <ele>295.92</ele>
   </trkpt>
   <trkpt lat="-37.88456" lon="145.32247">
    <ele>297.74</ele>
   </trkpt>
   <trkpt lat="-37.88479" lon="145.32282">
    <ele>301.61</ele>
   </trkpt>
   <trkpt lat="-37.88488" lon="145.32315">
    <ele>307.23</ele>
   </trkpt>
   <trkpt lat="-37.8849" lon="145.32336">
    <ele>309.53000000000003</ele>
   </trkpt>
   <trkpt lat="-37.88481" lon="145.32355">
    <ele>311.35</ele>
   </trkpt>
   <trkpt lat="-37.88483" lon="145.32404000000002">
    <ele>319.45</ele>
   </trkpt>
   <trkpt lat="-37.88481" lon="145.32417">
    <ele>323.77</ele>
   </trkpt>
   <trkpt lat="-37.88481" lon="145.32436">
    <ele>327.42</ele>
   </trkpt>
   <trkpt lat="-37.8849" lon="145.32459">
    <ele>329.48</ele>
   </trkpt>
   <trkpt lat="-37.88494" lon="145.32475000000002">
    <ele>333.67</ele>
   </trkpt>
   <trkpt lat="-37.88494" lon="145.32504">
    <ele>334.93</ele>
   </trkpt>
   <trkpt lat="-37.8849" lon="145.32534">
    <ele>338.36000000000007</ele>
   </trkpt>
   <trkpt lat="-37.88483" lon="145.32566">
    <ele>342.06</ele>
   </trkpt>
   <trkpt lat="-37.88472" lon="145.32581000000002">
    <ele>345.98</ele>
   </trkpt>
   <trkpt lat="-37.88467" lon="145.32594">
    <ele>347.75</ele>
   </trkpt>
   <trkpt lat="-37.8847" lon="145.32606">
    <ele>348.21000000000004</ele>
   </trkpt>
   <trkpt lat="-37.88472" lon="145.32611">
    <ele>348.21000000000004</ele>
   </trkpt>
   <trkpt lat="-37.88481" lon="145.32615">
    <ele>349.92</ele>
   </trkpt>
   <trkpt lat="-37.88501" lon="145.32641">
    <ele>353.06000000000006</ele>
   </trkpt>
   <trkpt lat="-37.88503" lon="145.32657">
    <ele>354.96000000000004</ele>
   </trkpt>
   <trkpt lat="-37.8851" lon="145.32674">
    <ele>357.7</ele>
   </trkpt>
   <trkpt lat="-37.88517" lon="145.32679000000002">
    <ele>357.7</ele>
   </trkpt>
   <trkpt lat="-37.88532" lon="145.32677">
    <ele>359.86</ele>
   </trkpt>
   <trkpt lat="-37.88539" lon="145.32682">
    <ele>361.42</ele>
   </trkpt>
   <trkpt lat="-37.88546" lon="145.32689000000002">
    <ele>361.98</ele>
   </trkpt>
   <trkpt lat="-37.88555" lon="145.32716000000002">
    <ele>364.89000000000004</ele>
   </trkpt>
   <trkpt lat="-37.88559" lon="145.32723000000001">
    <ele>365.39000000000004</ele>
   </trkpt>
   <trkpt lat="-37.8857" lon="145.3273">
    <ele>365.87</ele>
   </trkpt>
   <trkpt lat="-37.88608" lon="145.32707000000002">
    <ele>371.1</ele>
   </trkpt>
   <trkpt lat="-37.886190000000006" lon="145.32696">
    <ele>373.06000000000006</ele>
   </trkpt>
   <trkpt lat="-37.88624" lon="145.32741000000001">
    <ele>374.83000000000004</ele>
   </trkpt>
   <trkpt lat="-37.88633" lon="145.32777000000002">
    <ele>377.14000000000004</ele>
   </trkpt>
   <trkpt lat="-37.88638" lon="145.32786000000002">
    <ele>377.14000000000004</ele>
   </trkpt>
   <trkpt lat="-37.886390000000006" lon="145.32833000000002">
    <ele>380.43000000000006</ele>
   </trkpt>
   <trkpt lat="-37.88624" lon="145.32841000000002">
    <ele>381.73</ele>
   </trkpt>
   <trkpt lat="-37.88604" lon="145.32873">
    <ele>388.61</ele>
   </trkpt>
   <trkpt lat="-37.88584" lon="145.3289">
    <ele>393.77</ele>
   </trkpt>
   <trkpt lat="-37.88584" lon="145.32891">
    <ele>393.77</ele>
   </trkpt>
   <trkpt lat="-37.88555" lon="145.32899">
    <ele>399.43</ele>
   </trkpt>
   <trkpt lat="-37.88499" lon="145.32899">
    <ele>408.28000000000003</ele>
   </trkpt>
   <trkpt lat="-37.88447" lon="145.32879">
    <ele>420.06000000000006</ele>
   </trkpt>
   <trkpt lat="-37.88407" lon="145.32862">
    <ele>427.13</ele>
   </trkpt>
   <trkpt lat="-37.88378" lon="145.32857">
    <ele>431.72</ele>
   </trkpt>
   <trkpt lat="-37.88342" lon="145.32859000000002">
    <ele>436.36</ele>
   </trkpt>
   <trkpt lat="-37.88311" lon="145.32864">
    <ele>442.28000000000003</ele>
   </trkpt>
   <trkpt lat="-37.88284" lon="145.32863">
    <ele>447.44000000000005</ele>
   </trkpt>
   <trkpt lat="-37.88264" lon="145.32853">
    <ele>451.46000000000004</ele>
   </trkpt>
   <trkpt lat="-37.88241" lon="145.32832000000002">
    <ele>457.62</ele>
   </trkpt>
   <trkpt lat="-37.88223" lon="145.32806000000002">
    <ele>462.6</ele>
   </trkpt>
   <trkpt lat="-37.88201" lon="145.32736">
    <ele>467.41</ele>
   </trkpt>
   <trkpt lat="-37.88181" lon="145.32698000000002">
    <ele>469.43</ele>
   </trkpt>
   <trkpt lat="-37.88172" lon="145.32688000000002">
    <ele>470.57000000000005</ele>
   </trkpt>
   <trkpt lat="-37.88132" lon="145.32653000000002">
    <ele>475.2</ele>
   </trkpt>
   <trkpt lat="-37.88067" lon="145.32611">
    <ele>482.00000000000006</ele>
   </trkpt>
   <trkpt lat="-37.87993" lon="145.32551">
    <ele>489.84000000000003</ele>
   </trkpt>
   <trkpt lat="-37.87932" lon="145.32488">
    <ele>495.06000000000006</ele>
   </trkpt>
   <trkpt lat="-37.87892" lon="145.32431000000003">
    <ele>496.35</ele>
   </trkpt>
   <trkpt lat="-37.8787" lon="145.32406">
    <ele>495.51000000000005</ele>
   </trkpt>
   <trkpt lat="-37.8782" lon="145.32342">
    <ele>494.78000000000003</ele>
   </trkpt>
   <trkpt lat="-37.87783" lon="145.32313000000002">
    <ele>495.38000000000005</ele>
   </trkpt>
   <trkpt lat="-37.877" lon="145.32270000000003">
    <ele>493.13</ele>
   </trkpt>
   <trkpt lat="-37.87675" lon="145.32254">
    <ele>491.47</ele>
   </trkpt>
   <trkpt lat="-37.87620500007607" lon="145.32235499860795">
    <ele>493.18000000000006</ele>
   </trkpt>
   <trkpt lat="-37.87566" lon="145.32217">
    <ele>492.92</ele>
   </trkpt>
   <trkpt lat="-37.87536" lon="145.32205000000002">
    <ele>492.66</ele>
   </trkpt>
   <trkpt lat="-37.87536" lon="145.32206000000002">
    <ele>492.66</ele>
   </trkpt>
   <trkpt lat="-37.875040000000006" lon="145.32205000000002">
    <ele>493.08</ele>
   </trkpt>
   <trkpt lat="-37.87505" lon="145.32211">
    <ele>493.08</ele>
   </trkpt>
   <trkpt lat="-37.87467500274252" lon="145.32292000419275">
    <ele>499.61000000000007</ele>
   </trkpt>
   <trkpt lat="-37.874300000000005" lon="145.32373">
    <ele>500.40000000000003</ele>
   </trkpt>
   <trkpt lat="-37.87352000121058" lon="145.32427500580218">
    <ele>493.97</ele>
   </trkpt>
   <trkpt lat="-37.87274" lon="145.32482000000002">
    <ele>490.31</ele>
   </trkpt>
   <trkpt lat="-37.87222500041802" lon="145.32515000233408">
    <ele>488.17</ele>
   </trkpt>
   <trkpt lat="-37.87171" lon="145.32548">
    <ele>482.26</ele>
   </trkpt>
   <trkpt lat="-37.87182" lon="145.3257">
    <ele>481.74000000000007</ele>
   </trkpt>
   <trkpt lat="-37.87238" lon="145.32607000000002">
    <ele>480.83000000000004</ele>
   </trkpt>
   <trkpt lat="-37.87261" lon="145.32628000000003">
    <ele>478.75000000000006</ele>
   </trkpt>
   <trkpt lat="-37.87272" lon="145.32642">
    <ele>476.83000000000004</ele>
   </trkpt>
   <trkpt lat="-37.87315500156173" lon="145.32701999651144">
    <ele>469.11</ele>
   </trkpt>
   <trkpt lat="-37.87359" lon="145.32762000000002">
    <ele>462.20000000000005</ele>
   </trkpt>
   <trkpt lat="-37.87366" lon="145.32778000000002">
    <ele>459.35</ele>
   </trkpt>
   <trkpt lat="-37.87368" lon="145.32803">
    <ele>453.54</ele>
   </trkpt>
   <trkpt lat="-37.87375" lon="145.3282">
    <ele>451.08000000000004</ele>
   </trkpt>
   <trkpt lat="-37.87382" lon="145.32833000000002">
    <ele>449.94000000000005</ele>
   </trkpt>
   <trkpt lat="-37.87435" lon="145.32887000000002">
    <ele>443.37</ele>
   </trkpt>
   <trkpt lat="-37.87456" lon="145.32923000000002">
    <ele>439.37</ele>
   </trkpt>
   <trkpt lat="-37.87469" lon="145.32956000000001">
    <ele>437.38000000000005</ele>
   </trkpt>
   <trkpt lat="-37.8748" lon="145.32998">
    <ele>436.22</ele>
   </trkpt>
   <trkpt lat="-37.87491" lon="145.33029000000002">
    <ele>436.26000000000005</ele>
   </trkpt>
   <trkpt lat="-37.87514" lon="145.33068">
    <ele>436.01</ele>
   </trkpt>
   <trkpt lat="-37.87539" lon="145.33097">
    <ele>435.72</ele>
   </trkpt>
   <trkpt lat="-37.875400000000006" lon="145.33097">
    <ele>435.72</ele>
   </trkpt>
   <trkpt lat="-37.875" lon="145.33088">
    <ele>430.62000000000006</ele>
   </trkpt>
   <trkpt lat="-37.87465" lon="145.33086">
    <ele>426.44000000000005</ele>
   </trkpt>
   <trkpt lat="-37.87444" lon="145.33082000000002">
    <ele>424.63</ele>
   </trkpt>
   <trkpt lat="-37.87415" lon="145.33067">
    <ele>418.78000000000003</ele>
   </trkpt>
   <trkpt lat="-37.87397" lon="145.33055000000002">
    <ele>415.79</ele>
   </trkpt>
   <trkpt lat="-37.87384" lon="145.33040000000003">
    <ele>414.67</ele>
   </trkpt>
   <trkpt lat="-37.87341" lon="145.33013000000003">
    <ele>408.93</ele>
   </trkpt>
   <trkpt lat="-37.87292" lon="145.32993000000002">
    <ele>402.72</ele>
   </trkpt>
   <trkpt lat="-37.8725" lon="145.32989">
    <ele>397.62</ele>
   </trkpt>
   <trkpt lat="-37.87227" lon="145.33004000000003">
    <ele>393.6</ele>
   </trkpt>
   <trkpt lat="-37.87223" lon="145.33017">
    <ele>392.75000000000006</ele>
   </trkpt>
   <trkpt lat="-37.87221" lon="145.33038000000002">
    <ele>390.28000000000003</ele>
   </trkpt>
   <trkpt lat="-37.87223" lon="145.3309">
    <ele>386.91</ele>
   </trkpt>
   <trkpt lat="-37.87225" lon="145.33113">
    <ele>386.37000000000006</ele>
   </trkpt>
   <trkpt lat="-37.87236" lon="145.33138000000002">
    <ele>385.56</ele>
   </trkpt>
   <trkpt lat="-37.87263" lon="145.33171000000002">
    <ele>383.86</ele>
   </trkpt>
   <trkpt lat="-37.87279" lon="145.33183000000002">
    <ele>382.15000000000003</ele>
   </trkpt>
   <trkpt lat="-37.87297" lon="145.33206">
    <ele>380.24</ele>
   </trkpt>
   <trkpt lat="-37.87301" lon="145.33218000000002">
    <ele>379.52000000000004</ele>
   </trkpt>
   <trkpt lat="-37.87301" lon="145.33226000000002">
    <ele>379.43000000000006</ele>
   </trkpt>
   <trkpt lat="-37.872890000000005" lon="145.3325">
    <ele>379.18</ele>
   </trkpt>
   <trkpt lat="-37.87268" lon="145.33283">
    <ele>377.64000000000004</ele>
   </trkpt>
   <trkpt lat="-37.87238" lon="145.33305000000001">
    <ele>376.04</ele>
   </trkpt>
   <trkpt lat="-37.87207" lon="145.33307000000002">
    <ele>371.07</ele>
   </trkpt>
   <trkpt lat="-37.87167" lon="145.33290000000002">
    <ele>366.88000000000005</ele>
   </trkpt>
   <trkpt lat="-37.871280000000006" lon="145.33282">
    <ele>362.74</ele>
   </trkpt>
   <trkpt lat="-37.87113" lon="145.33284">
    <ele>362.41</ele>
   </trkpt>
   <trkpt lat="-37.87102" lon="145.33292">
    <ele>362.38000000000005</ele>
   </trkpt>
   <trkpt lat="-37.87091" lon="145.33315000000002">
    <ele>362.3</ele>
   </trkpt>
   <trkpt lat="-37.87082" lon="145.33339">
    <ele>361.22</ele>
   </trkpt>
   <trkpt lat="-37.87075" lon="145.33419">
    <ele>355.83000000000004</ele>
   </trkpt>
   <trkpt lat="-37.870810000000006" lon="145.33446">
    <ele>354.74000000000007</ele>
   </trkpt>
   <trkpt lat="-37.870810000000006" lon="145.3347">
    <ele>353.31</ele>
   </trkpt>
   <trkpt lat="-37.87075" lon="145.33478000000002">
    <ele>353.31</ele>
   </trkpt>
   <trkpt lat="-37.87066" lon="145.33478000000002">
    <ele>351.56000000000006</ele>
   </trkpt>
   <trkpt lat="-37.870450000000005" lon="145.33465">
    <ele>350.57000000000005</ele>
   </trkpt>
   <trkpt lat="-37.87055" lon="145.33518">
    <ele>361.32000000000005</ele>
   </trkpt>
   <trkpt lat="-37.87035" lon="145.3356">
    <ele>373.55000000000007</ele>
   </trkpt>
   <trkpt lat="-37.8701" lon="145.33595000000003">
    <ele>380.84000000000003</ele>
   </trkpt>
   <trkpt lat="-37.87019" lon="145.33630000000002">
    <ele>399.79</ele>
   </trkpt>
   <trkpt lat="-37.87019" lon="145.3368">
    <ele>403.73</ele>
   </trkpt>
   <trkpt lat="-37.87024" lon="145.33688">
    <ele>404.81000000000006</ele>
   </trkpt>
   <trkpt lat="-37.87048" lon="145.33697">
    <ele>411.25000000000006</ele>
   </trkpt>
   <trkpt lat="-37.87077" lon="145.33726000000001">
    <ele>416.86</ele>
   </trkpt>
   <trkpt lat="-37.87091" lon="145.33758">
    <ele>421.22</ele>
   </trkpt>
   <trkpt lat="-37.871100000000006" lon="145.33779">
    <ele>426.03000000000003</ele>
   </trkpt>
   <trkpt lat="-37.87115" lon="145.33794">
    <ele>432.59000000000003</ele>
   </trkpt>
   <trkpt lat="-37.87118" lon="145.33812">
    <ele>435.04</ele>
   </trkpt>
   <trkpt lat="-37.87113" lon="145.33831">
    <ele>439.58000000000004</ele>
   </trkpt>
   <trkpt lat="-37.871" lon="145.33853000000002">
    <ele>444.35</ele>
   </trkpt>
   <trkpt lat="-37.87091" lon="145.33863000000002">
    <ele>447.77000000000004</ele>
   </trkpt>
   <trkpt lat="-37.87075" lon="145.33874">
    <ele>451.20000000000005</ele>
   </trkpt>
   <trkpt lat="-37.87059" lon="145.33873">
    <ele>453.37000000000006</ele>
   </trkpt>
   <trkpt lat="-37.87046" lon="145.33875">
    <ele>456.46000000000004</ele>
   </trkpt>
   <trkpt lat="-37.87035" lon="145.33879000000002">
    <ele>459.76000000000005</ele>
   </trkpt>
   <trkpt lat="-37.87026" lon="145.33888000000002">
    <ele>459.76000000000005</ele>
   </trkpt>
   <trkpt lat="-37.87037" lon="145.33894">
    <ele>461.27</ele>
   </trkpt>
   <trkpt lat="-37.87059" lon="145.33917000000002">
    <ele>462.61</ele>
   </trkpt>
   <trkpt lat="-37.87082" lon="145.33948">
    <ele>463.81000000000006</ele>
   </trkpt>
   <trkpt lat="-37.87106" lon="145.33963">
    <ele>466.77</ele>
   </trkpt>
   <trkpt lat="-37.8712" lon="145.33964">
    <ele>468.43</ele>
   </trkpt>
   <trkpt lat="-37.871320000000004" lon="145.33969000000002">
    <ele>469.36000000000007</ele>
   </trkpt>
   <trkpt lat="-37.87185" lon="145.33998000000003">
    <ele>475.13000000000005</ele>
   </trkpt>
   <trkpt lat="-37.87214" lon="145.34024000000002">
    <ele>476.58000000000004</ele>
   </trkpt>
   <trkpt lat="-37.87263" lon="145.34076000000002">
    <ele>481.96000000000004</ele>
   </trkpt>
   <trkpt lat="-37.87272" lon="145.34083">
    <ele>481.96000000000004</ele>
   </trkpt>
   <trkpt lat="-37.87288" lon="145.3409">
    <ele>483.63000000000005</ele>
   </trkpt>
   <trkpt lat="-37.87315" lon="145.34105000000002">
    <ele>485.16</ele>
   </trkpt>
   <trkpt lat="-37.87375" lon="145.34154">
    <ele>491.00000000000006</ele>
   </trkpt>
   <trkpt lat="-37.87406" lon="145.34185000000002">
    <ele>494.07000000000005</ele>
   </trkpt>
   <trkpt lat="-37.87375" lon="145.34193000000002">
    <ele>497.05</ele>
   </trkpt>
   <trkpt lat="-37.8735" lon="145.34204000000003">
    <ele>500.7600000000001</ele>
   </trkpt>
   <trkpt lat="-37.87326" lon="145.34212000000002">
    <ele>502.4700000000001</ele>
   </trkpt>
   <trkpt lat="-37.87288" lon="145.34221000000002">
    <ele>505.81000000000006</ele>
   </trkpt>
   <trkpt lat="-37.87272" lon="145.34221000000002">
    <ele>506.61</ele>
   </trkpt>
   <trkpt lat="-37.87247" lon="145.34207">
    <ele>507.8</ele>
   </trkpt>
   <trkpt lat="-37.872115001891856" lon="145.342745003319">
    <ele>512.99</ele>
   </trkpt>
   <trkpt lat="-37.87176" lon="145.34342">
    <ele>512.58</ele>
   </trkpt>
   <trkpt lat="-37.87145000053656" lon="145.34383500200292">
    <ele>509.49</ele>
   </trkpt>
   <trkpt lat="-37.871140000000004" lon="145.34425000000002">
    <ele>507.09000000000003</ele>
   </trkpt>
   <trkpt lat="-37.870700001121754" lon="145.34476000302044">
    <ele>507.43000000000006</ele>
   </trkpt>
   <trkpt lat="-37.87026" lon="145.34527">
    <ele>511.05</ele>
   </trkpt>
   <trkpt lat="-37.870160000000006" lon="145.34556">
    <ele>514.6200000000001</ele>
   </trkpt>
   <trkpt lat="-37.869690000213325" lon="145.34534999867242">
    <ele>509.2300000000001</ele>
   </trkpt>
   <trkpt lat="-37.869220000000006" lon="145.34514000000001">
    <ele>506.25000000000006</ele>
   </trkpt>
   <trkpt lat="-37.86861666776136" lon="145.34550333929658">
    <ele>506.28000000000003</ele>
   </trkpt>
   <trkpt lat="-37.86801333440618" lon="145.345866672643">
    <ele>507.30000000000007</ele>
   </trkpt>
   <trkpt lat="-37.86741" lon="145.34623000000002">
    <ele>505.87</ele>
   </trkpt>
   <trkpt lat="-37.86703" lon="145.34629">
    <ele>503.77000000000004</ele>
   </trkpt>
   <trkpt lat="-37.86646500001913" lon="145.34643000108923">
    <ele>500.7600000000001</ele>
   </trkpt>
   <trkpt lat="-37.8659" lon="145.34657">
    <ele>500.0300000000001</ele>
   </trkpt>
   <trkpt lat="-37.865370000000006" lon="145.34673">
    <ele>504.40000000000003</ele>
   </trkpt>
   <trkpt lat="-37.86495" lon="145.347">
    <ele>509.01000000000005</ele>
   </trkpt>
   <trkpt lat="-37.86493" lon="145.34701">
    <ele>509.01000000000005</ele>
   </trkpt>
   <trkpt lat="-37.86482" lon="145.34718">
    <ele>510.4200000000001</ele>
   </trkpt>
   <trkpt lat="-37.864810000000006" lon="145.34757000000002">
    <ele>515.83</ele>
   </trkpt>
   <trkpt lat="-37.86484" lon="145.34797">
    <ele>519.0600000000001</ele>
   </trkpt>
   <trkpt lat="-37.86491" lon="145.34814">
    <ele>522.37</ele>
   </trkpt>
   <trkpt lat="-37.86497" lon="145.34822">
    <ele>524.25</ele>
   </trkpt>
   <trkpt lat="-37.86491" lon="145.34857000000002">
    <ele>522.72</ele>
   </trkpt>
   <trkpt lat="-37.864695001511485" lon="145.3491700017808">
    <ele>517.97</ele>
   </trkpt>
   <trkpt lat="-37.86448" lon="145.34977">
    <ele>511.9600000000001</ele>
   </trkpt>
   <trkpt lat="-37.86417" lon="145.35060000000001">
    <ele>500.68</ele>
   </trkpt>
   <trkpt lat="-37.8641" lon="145.35074">
    <ele>498.6</ele>
   </trkpt>
   <trkpt lat="-37.8641" lon="145.35089000000002">
    <ele>497.99</ele>
   </trkpt>
   <trkpt lat="-37.864050000000006" lon="145.35102">
    <ele>495.78000000000003</ele>
   </trkpt>
   <trkpt lat="-37.86379" lon="145.35118">
    <ele>487.2</ele>
   </trkpt>
   <trkpt lat="-37.86368" lon="145.35119">
    <ele>484.96000000000004</ele>
   </trkpt>
   <trkpt lat="-37.86359" lon="145.35126000000002">
    <ele>482.19000000000005</ele>
   </trkpt>
   <trkpt lat="-37.8635" lon="145.3513">
    <ele>480.79</ele>
   </trkpt>
   <trkpt lat="-37.863420000000005" lon="145.35147">
    <ele>478.90000000000003</ele>
   </trkpt>
   <trkpt lat="-37.8633" lon="145.35153000000003">
    <ele>478.38</ele>
   </trkpt>
   <trkpt lat="-37.863110000000006" lon="145.35169000000002">
    <ele>477.45000000000005</ele>
   </trkpt>
   <trkpt lat="-37.86309" lon="145.35176">
    <ele>477.45000000000005</ele>
   </trkpt>
   <trkpt lat="-37.86312" lon="145.35186000000002">
    <ele>477.94</ele>
   </trkpt>
   <trkpt lat="-37.86340500158147" lon="145.3524799975066">
    <ele>480.09000000000003</ele>
   </trkpt>
   <trkpt lat="-37.863690000000005" lon="145.3531">
    <ele>477.23</ele>
   </trkpt>
   <trkpt lat="-37.86327500042927" lon="145.35339500161763">
    <ele>477.03000000000003</ele>
   </trkpt>
   <trkpt lat="-37.862860000000005" lon="145.35369">
    <ele>478.45000000000005</ele>
   </trkpt>
   <trkpt lat="-37.86265" lon="145.35319">
    <ele>476.31000000000006</ele>
   </trkpt>
   <trkpt lat="-37.86258" lon="145.35298">
    <ele>474.87</ele>
   </trkpt>
   <trkpt lat="-37.862570000000005" lon="145.35281">
    <ele>473.85</ele>
   </trkpt>
   <trkpt lat="-37.862460000000006" lon="145.35279">
    <ele>473.02000000000004</ele>
   </trkpt>
   <trkpt lat="-37.8624" lon="145.35274">
    <ele>473.02000000000004</ele>
   </trkpt>
   <trkpt lat="-37.862190000000005" lon="145.3522">
    <ele>469.43</ele>
   </trkpt>
   <trkpt lat="-37.86218" lon="145.35177000000002">
    <ele>466.71</ele>
   </trkpt>
   <trkpt lat="-37.8622" lon="145.3514">
    <ele>463.06</ele>
   </trkpt>
   <trkpt lat="-37.86256" lon="145.35098000000002">
    <ele>459.55</ele>
   </trkpt>
   <trkpt lat="-37.86258" lon="145.35084">
    <ele>455.41</ele>
   </trkpt>
   <trkpt lat="-37.862730000000006" lon="145.35069000000001">
    <ele>453.70000000000005</ele>
   </trkpt>
   <trkpt lat="-37.86233" lon="145.35036000000002">
    <ele>442.77000000000004</ele>
   </trkpt>
   <trkpt lat="-37.86218" lon="145.35036000000002">
    <ele>442.43000000000006</ele>
   </trkpt>
   <trkpt lat="-37.86175" lon="145.35062000000002">
    <ele>444.68</ele>
   </trkpt>
   <trkpt lat="-37.86157" lon="145.35075">
    <ele>445.25</ele>
   </trkpt>
   <trkpt lat="-37.86144" lon="145.35096000000001">
    <ele>444.62</ele>
   </trkpt>
   <trkpt lat="-37.86104" lon="145.35133000000002">
    <ele>443.83000000000004</ele>
   </trkpt>
   <trkpt lat="-37.860960000000006" lon="145.35146">
    <ele>445.17</ele>
   </trkpt>
   <trkpt lat="-37.860490000000006" lon="145.35181">
    <ele>455.18</ele>
   </trkpt>
   <trkpt lat="-37.86023" lon="145.35196000000002">
    <ele>460.65000000000003</ele>
   </trkpt>
   <trkpt lat="-37.85994" lon="145.35221">
    <ele>464.28000000000003</ele>
   </trkpt>
   <trkpt lat="-37.8596" lon="145.35241000000002">
    <ele>468.6</ele>
   </trkpt>
   <trkpt lat="-37.85945" lon="145.35244">
    <ele>470.99</ele>
   </trkpt>
   <trkpt lat="-37.8592" lon="145.35248">
    <ele>473.28000000000003</ele>
   </trkpt>
   <trkpt lat="-37.85851" lon="145.35268000000002">
    <ele>486.00000000000006</ele>
   </trkpt>
   <trkpt lat="-37.85815" lon="145.35273">
    <ele>488.77000000000004</ele>
   </trkpt>
   <trkpt lat="-37.857635000010575" lon="145.35270499982573">
    <ele>496.91</ele>
   </trkpt>
   <trkpt lat="-37.85712" lon="145.35268000000002">
    <ele>501.24</ele>
   </trkpt>
   <trkpt lat="-37.85701" lon="145.35266000000001">
    <ele>503.8</ele>
   </trkpt>
   <trkpt lat="-37.85683" lon="145.35260000000002">
    <ele>505.55000000000007</ele>
   </trkpt>
   <trkpt lat="-37.85636" lon="145.35252">
    <ele>507.05</ele>
   </trkpt>
   <trkpt lat="-37.85622" lon="145.35247">
    <ele>506.17</ele>
   </trkpt>
   <trkpt lat="-37.85614" lon="145.35240000000002">
    <ele>505.18000000000006</ele>
   </trkpt>
   <trkpt lat="-37.85580500091417" lon="145.35193999793628">
    <ele>495.49</ele>
   </trkpt>
   <trkpt lat="-37.855470000000004" lon="145.35148">
    <ele>488.12000000000006</ele>
   </trkpt>
   <trkpt lat="-37.85507500121872" lon="145.3509249969086">
    <ele>479.81</ele>
   </trkpt>
   <trkpt lat="-37.85468" lon="145.35037">
    <ele>470.16</ele>
   </trkpt>
   <trkpt lat="-37.85419" lon="145.34983000000003">
    <ele>455.46000000000004</ele>
   </trkpt>
   <trkpt lat="-37.853860000000005" lon="145.34941">
    <ele>449.5</ele>
   </trkpt>
   <trkpt lat="-37.85416" lon="145.34943">
    <ele>450.25000000000006</ele>
   </trkpt>
   <trkpt lat="-37.85474500023648" lon="145.3495549990445">
    <ele>451.83</ele>
   </trkpt>
   <trkpt lat="-37.85533" lon="145.34968">
    <ele>452.97</ele>
   </trkpt>
   <trkpt lat="-37.85577" lon="145.34973000000002">
    <ele>449.11</ele>
   </trkpt>
   <trkpt lat="-37.85632999992552" lon="145.34984499909962">
    <ele>436.14000000000004</ele>
   </trkpt>
   <trkpt lat="-37.85689" lon="145.34996">
    <ele>419.54</ele>
   </trkpt>
   <trkpt lat="-37.85716" lon="145.34998000000002">
    <ele>414.66</ele>
   </trkpt>
   <trkpt lat="-37.85743" lon="145.34995">
    <ele>409.5</ele>
   </trkpt>
   <trkpt lat="-37.85757" lon="145.34989000000002">
    <ele>404.62</ele>
   </trkpt>
   <trkpt lat="-37.85781" lon="145.34966">
    <ele>398.74</ele>
   </trkpt>
   <trkpt lat="-37.85801" lon="145.34944000000002">
    <ele>395.11</ele>
   </trkpt>
   <trkpt lat="-37.8581" lon="145.34938000000002">
    <ele>392.51</ele>
   </trkpt>
   <trkpt lat="-37.85875" lon="145.34924">
    <ele>383.88000000000005</ele>
   </trkpt>
   <trkpt lat="-37.8588" lon="145.34917000000002">
    <ele>383.25</ele>
   </trkpt>
   <trkpt lat="-37.85877" lon="145.34889">
    <ele>379.59000000000003</ele>
   </trkpt>
   <trkpt lat="-37.85893" lon="145.34861">
    <ele>376.82000000000005</ele>
   </trkpt>
   <trkpt lat="-37.859" lon="145.34836">
    <ele>368.81</ele>
   </trkpt>
   <trkpt lat="-37.85902" lon="145.34832">
    <ele>367.96</ele>
   </trkpt>
   <trkpt lat="-37.859080000000006" lon="145.34832">
    <ele>367.27000000000004</ele>
   </trkpt>
   <trkpt lat="-37.8592" lon="145.34841">
    <ele>365.7300000000001</ele>
   </trkpt>
   <trkpt lat="-37.85927" lon="145.34839000000002">
    <ele>365.17</ele>
   </trkpt>
   <trkpt lat="-37.8594" lon="145.34808">
    <ele>360.33000000000004</ele>
   </trkpt>
   <trkpt lat="-37.859500000000004" lon="145.34782">
    <ele>358.45000000000005</ele>
   </trkpt>
   <trkpt lat="-37.86027" lon="145.34776000000002">
    <ele>366.77000000000004</ele>
   </trkpt>
   <trkpt lat="-37.86032" lon="145.34775000000002">
    <ele>366.77000000000004</ele>
   </trkpt>
   <trkpt lat="-37.86068" lon="145.34759000000003">
    <ele>372.85</ele>
   </trkpt>
   <trkpt lat="-37.86097" lon="145.34757000000002">
    <ele>378.87</ele>
   </trkpt>
   <trkpt lat="-37.86101" lon="145.34763">
    <ele>379.58000000000004</ele>
   </trkpt>
   <trkpt lat="-37.86101" lon="145.34771">
    <ele>380.79</ele>
   </trkpt>
   <trkpt lat="-37.86097" lon="145.34788">
    <ele>381.79</ele>
   </trkpt>
   <trkpt lat="-37.86097" lon="145.34804000000003">
    <ele>383.67</ele>
   </trkpt>
   <trkpt lat="-37.86104" lon="145.34814">
    <ele>384.85</ele>
   </trkpt>
   <trkpt lat="-37.86112" lon="145.34822">
    <ele>385.55</ele>
   </trkpt>
   <trkpt lat="-37.86121" lon="145.34824">
    <ele>388.69000000000005</ele>
   </trkpt>
   <trkpt lat="-37.86128" lon="145.34822">
    <ele>390.13000000000005</ele>
   </trkpt>
   <trkpt lat="-37.86159" lon="145.34802000000002">
    <ele>392.72</ele>
   </trkpt>
   <trkpt lat="-37.861650000000004" lon="145.34792000000002">
    <ele>393.39</ele>
   </trkpt>
   <trkpt lat="-37.86164" lon="145.34794000000002">
    <ele>393.39</ele>
   </trkpt>
   <trkpt lat="-37.86168" lon="145.34779">
    <ele>394.13000000000005</ele>
   </trkpt>
   <trkpt lat="-37.86162" lon="145.34753">
    <ele>396.17</ele>
   </trkpt>
   <trkpt lat="-37.86162" lon="145.34737">
    <ele>397.31000000000006</ele>
   </trkpt>
   <trkpt lat="-37.861790000000006" lon="145.34698">
    <ele>402.35</ele>
   </trkpt>
   <trkpt lat="-37.86186" lon="145.34658000000002">
    <ele>400.33</ele>
   </trkpt>
   <trkpt lat="-37.86193" lon="145.34642000000002">
    <ele>399.5</ele>
   </trkpt>
   <trkpt lat="-37.86209" lon="145.34566">
    <ele>392.94</ele>
   </trkpt>
   <trkpt lat="-37.86213" lon="145.34550000000002">
    <ele>391.40000000000003</ele>
   </trkpt>
   <trkpt lat="-37.86238" lon="145.34501">
    <ele>388.1</ele>
   </trkpt>
   <trkpt lat="-37.86253" lon="145.34477">
    <ele>386.38000000000005</ele>
   </trkpt>
   <trkpt lat="-37.862840000000006" lon="145.3444">
    <ele>382.27000000000004</ele>
   </trkpt>
   <trkpt lat="-37.86305" lon="145.34406">
    <ele>377.78</ele>
   </trkpt>
   <trkpt lat="-37.86307" lon="145.34395">
    <ele>377.35</ele>
   </trkpt>
   <trkpt lat="-37.863060000000004" lon="145.34393">
    <ele>377.35</ele>
   </trkpt>
   <trkpt lat="-37.86307" lon="145.34395">
    <ele>377.35</ele>
   </trkpt>
   <trkpt lat="-37.86303" lon="145.34388">
    <ele>377.09000000000003</ele>
   </trkpt>
   <trkpt lat="-37.86296" lon="145.34383000000003">
    <ele>376.69</ele>
   </trkpt>
   <trkpt lat="-37.86231" lon="145.34352">
    <ele>372.74</ele>
   </trkpt>
   <trkpt lat="-37.86168" lon="145.34332">
    <ele>367.42</ele>
   </trkpt>
   <trkpt lat="-37.861520000000006" lon="145.34317000000001">
    <ele>367.42</ele>
   </trkpt>
   <trkpt lat="-37.86139" lon="145.34300000000002">
    <ele>365.57</ele>
   </trkpt>
   <trkpt lat="-37.86128" lon="145.34276">
    <ele>364.2</ele>
   </trkpt>
   <trkpt lat="-37.86121" lon="145.34249">
    <ele>363.18</ele>
   </trkpt>
   <trkpt lat="-37.86108" lon="145.3417">
    <ele>358.26</ele>
   </trkpt>
   <trkpt lat="-37.86097" lon="145.34123000000002">
    <ele>356.25</ele>
   </trkpt>
   <trkpt lat="-37.86092" lon="145.34113000000002">
    <ele>353.28000000000003</ele>
   </trkpt>
   <trkpt lat="-37.8603" lon="145.34063">
    <ele>348.72</ele>
   </trkpt>
   <trkpt lat="-37.86012" lon="145.34056">
    <ele>345.78000000000003</ele>
   </trkpt>
   <trkpt lat="-37.859460000000006" lon="145.34061">
    <ele>338.65</ele>
   </trkpt>
   <trkpt lat="-37.85927" lon="145.34058000000002">
    <ele>334.90000000000003</ele>
   </trkpt>
   <trkpt lat="-37.85913" lon="145.34049000000002">
    <ele>333.84000000000003</ele>
   </trkpt>
   <trkpt lat="-37.85902" lon="145.34036">
    <ele>333.84000000000003</ele>
   </trkpt>
   <trkpt lat="-37.85868" lon="145.33979000000002">
    <ele>327.26000000000005</ele>
   </trkpt>
   <trkpt lat="-37.85834500291492" lon="145.33895499612223">
    <ele>316.74</ele>
   </trkpt>
   <trkpt lat="-37.85801" lon="145.33812">
    <ele>306.24</ele>
   </trkpt>
   <trkpt lat="-37.85788" lon="145.33765000000002">
    <ele>302.59000000000003</ele>
   </trkpt>
   <trkpt lat="-37.85772" lon="145.33722">
    <ele>302.59000000000003</ele>
   </trkpt>
   <trkpt lat="-37.85768" lon="145.33698">
    <ele>296.17</ele>
   </trkpt>
   <trkpt lat="-37.85768" lon="145.33674000000002">
    <ele>296.17</ele>
   </trkpt>
   <trkpt lat="-37.85777" lon="145.33627">
    <ele>286.71000000000004</ele>
   </trkpt>
   <trkpt lat="-37.85799" lon="145.3357">
    <ele>283.61</ele>
   </trkpt>
   <trkpt lat="-37.85808" lon="145.33543">
    <ele>283.61</ele>
   </trkpt>
   <trkpt lat="-37.8581" lon="145.33530000000002">
    <ele>279.43</ele>
   </trkpt>
   <trkpt lat="-37.8581" lon="145.33454">
    <ele>274.22</ele>
   </trkpt>
   <trkpt lat="-37.857980000000005" lon="145.33416000000003">
    <ele>269.27</ele>
   </trkpt>
   <trkpt lat="-37.85797" lon="145.33415000000002">
    <ele>269.27</ele>
   </trkpt>
   <trkpt lat="-37.857960000000006" lon="145.33415000000002">
    <ele>269.27</ele>
   </trkpt>
   <trkpt lat="-37.85821" lon="145.33414000000002">
    <ele>271.41</ele>
   </trkpt>
   <trkpt lat="-37.85833" lon="145.33419">
    <ele>272.15</ele>
   </trkpt>
   <trkpt lat="-37.85844" lon="145.33431000000002">
    <ele>273.57000000000005</ele>
   </trkpt>
   <trkpt lat="-37.85887500137247" lon="145.3348699967549">
    <ele>277.97</ele>
   </trkpt>
   <trkpt lat="-37.85931" lon="145.33543">
    <ele>283.13000000000005</ele>
   </trkpt>
   <trkpt lat="-37.85965" lon="145.33569">
    <ele>287.69</ele>
   </trkpt>
   <trkpt lat="-37.85996" lon="145.33583000000002">
    <ele>290.34999999999997</ele>
   </trkpt>
   <trkpt lat="-37.86065" lon="145.33601000000002">
    <ele>298.51</ele>
   </trkpt>
   <trkpt lat="-37.8609" lon="145.33604000000003">
    <ele>298.97</ele>
   </trkpt>
   <trkpt lat="-37.86164" lon="145.33602000000002">
    <ele>298.17</ele>
   </trkpt>
   <trkpt lat="-37.86204" lon="145.33606">
    <ele>300.94000000000005</ele>
   </trkpt>
   <trkpt lat="-37.86231" lon="145.33606">
    <ele>302.25</ele>
   </trkpt>
   <trkpt lat="-37.86292" lon="145.33596">
    <ele>304.06000000000006</ele>
   </trkpt>
   <trkpt lat="-37.86303" lon="145.33592000000002">
    <ele>303.82000000000005</ele>
   </trkpt>
   <trkpt lat="-37.8631" lon="145.33586000000003">
    <ele>303.43</ele>
   </trkpt>
   <trkpt lat="-37.86309" lon="145.33587">
    <ele>303.43</ele>
   </trkpt>
   <trkpt lat="-37.86314" lon="145.3357">
    <ele>302.89000000000004</ele>
   </trkpt>
   <trkpt lat="-37.86309" lon="145.33556000000002">
    <ele>302.65000000000003</ele>
   </trkpt>
   <trkpt lat="-37.8628" lon="145.33489">
    <ele>302.27000000000004</ele>
   </trkpt>
   <trkpt lat="-37.86242" lon="145.33416000000003">
    <ele>301.66</ele>
   </trkpt>
   <trkpt lat="-37.86227" lon="145.33360000000002">
    <ele>301.28000000000003</ele>
   </trkpt>
   <trkpt lat="-37.86224" lon="145.33325000000002">
    <ele>300.87</ele>
   </trkpt>
   <trkpt lat="-37.86224" lon="145.33262000000002">
    <ele>301.03000000000003</ele>
   </trkpt>
   <trkpt lat="-37.86227" lon="145.33246000000003">
    <ele>301.32000000000005</ele>
   </trkpt>
   <trkpt lat="-37.86236" lon="145.33227000000002">
    <ele>301.50000000000006</ele>
   </trkpt>
   <trkpt lat="-37.862480000000005" lon="145.33209000000002">
    <ele>301.53000000000003</ele>
   </trkpt>
   <trkpt lat="-37.86247" lon="145.33194">
    <ele>299.45000000000005</ele>
   </trkpt>
   <trkpt lat="-37.86249" lon="145.33165000000002">
    <ele>292.92</ele>
   </trkpt>
   <trkpt lat="-37.86247" lon="145.33136000000002">
    <ele>288.11</ele>
   </trkpt>
   <trkpt lat="-37.86251" lon="145.33124">
    <ele>286.77000000000004</ele>
   </trkpt>
   <trkpt lat="-37.86249" lon="145.33115">
    <ele>286.19</ele>
   </trkpt>
   <trkpt lat="-37.86229" lon="145.33091000000002">
    <ele>279.12</ele>
   </trkpt>
   <trkpt lat="-37.86222" lon="145.33086">
    <ele>278.12</ele>
   </trkpt>
   <trkpt lat="-37.86215" lon="145.33071">
    <ele>275.44</ele>
   </trkpt>
   <trkpt lat="-37.86209" lon="145.33053">
    <ele>272.99</ele>
   </trkpt>
   <trkpt lat="-37.86193" lon="145.33024">
    <ele>268.21</ele>
   </trkpt>
   <trkpt lat="-37.86186" lon="145.33018">
    <ele>266.27</ele>
   </trkpt>
   <trkpt lat="-37.86168" lon="145.32967000000002">
    <ele>260.99</ele>
   </trkpt>
   <trkpt lat="-37.86159" lon="145.32950000000002">
    <ele>256.31000000000006</ele>
   </trkpt>
   <trkpt lat="-37.86146" lon="145.32933">
    <ele>252.99000000000004</ele>
   </trkpt>
   <trkpt lat="-37.86155" lon="145.32858000000002">
    <ele>248.65</ele>
   </trkpt>
   <trkpt lat="-37.86164" lon="145.32839">
    <ele>247.66000000000003</ele>
   </trkpt>
   <trkpt lat="-37.86202" lon="145.32789000000002">
    <ele>244.82</ele>
   </trkpt>
   <trkpt lat="-37.86222" lon="145.32782">
    <ele>248.23000000000002</ele>
   </trkpt>
   <trkpt lat="-37.86267" lon="145.32777000000002">
    <ele>254.14000000000001</ele>
   </trkpt>
   <trkpt lat="-37.86321" lon="145.32762000000002">
    <ele>256.19</ele>
   </trkpt>
   <trkpt lat="-37.86401" lon="145.32756">
    <ele>260.59999999999997</ele>
   </trkpt>
   <trkpt lat="-37.86419" lon="145.32758">
    <ele>262.70000000000005</ele>
   </trkpt>
   <trkpt lat="-37.8643" lon="145.32765">
    <ele>264.82</ele>
   </trkpt>
   <trkpt lat="-37.86446" lon="145.32787000000002">
    <ele>265.29</ele>
   </trkpt>
   <trkpt lat="-37.86453" lon="145.3279">
    <ele>263.95</ele>
   </trkpt>
   <trkpt lat="-37.86462" lon="145.3279">
    <ele>262.05</ele>
   </trkpt>
   <trkpt lat="-37.86471" lon="145.32788000000002">
    <ele>261.0</ele>
   </trkpt>
   <trkpt lat="-37.86484" lon="145.32752000000002">
    <ele>246.84000000000003</ele>
   </trkpt>
   <trkpt lat="-37.86491" lon="145.32743000000002">
    <ele>251.76000000000005</ele>
   </trkpt>
   <trkpt lat="-37.865" lon="145.32741000000001">
    <ele>253.4</ele>
   </trkpt>
   <trkpt lat="-37.865610000000004" lon="145.3274">
    <ele>270.21</ele>
   </trkpt>
   <trkpt lat="-37.86589" lon="145.3273">
    <ele>276.11</ele>
   </trkpt>
   <trkpt lat="-37.86596" lon="145.3273">
    <ele>280.31</ele>
   </trkpt>
   <trkpt lat="-37.86616" lon="145.32719">
    <ele>283.35</ele>
   </trkpt>
   <trkpt lat="-37.86623" lon="145.32717000000002">
    <ele>285.44</ele>
   </trkpt>
   <trkpt lat="-37.8663" lon="145.32718">
    <ele>287.45000000000005</ele>
   </trkpt>
   <trkpt lat="-37.86634" lon="145.32726000000002">
    <ele>287.45000000000005</ele>
   </trkpt>
   <trkpt lat="-37.86641" lon="145.32750000000001">
    <ele>293.52</ele>
   </trkpt>
   <trkpt lat="-37.866510000000005" lon="145.32752000000002">
    <ele>295.16</ele>
   </trkpt>
   <trkpt lat="-37.86652" lon="145.32690000000002">
    <ele>292.59000000000003</ele>
   </trkpt>
   <trkpt lat="-37.866580000000006" lon="145.32649">
    <ele>290.3</ele>
   </trkpt>
   <trkpt lat="-37.86692000197666" lon="145.32582500285992">
    <ele>298.67</ele>
   </trkpt>
   <trkpt lat="-37.86726" lon="145.32516">
    <ele>303.51</ele>
   </trkpt>
   <trkpt lat="-37.86772500154648" lon="145.32454000401802">
    <ele>308.1</ele>
   </trkpt>
   <trkpt lat="-37.868190000000006" lon="145.32392000000002">
    <ele>311.88000000000005</ele>
   </trkpt>
   <trkpt lat="-37.86827" lon="145.32377000000002">
    <ele>312.29</ele>
   </trkpt>
   <trkpt lat="-37.868280000000006" lon="145.32366000000002">
    <ele>313.04</ele>
   </trkpt>
   <trkpt lat="-37.8682" lon="145.32351">
    <ele>313.66</ele>
   </trkpt>
   <trkpt lat="-37.86780500155862" lon="145.3229099968387">
    <ele>315.17</ele>
   </trkpt>
   <trkpt lat="-37.86741" lon="145.32231000000002">
    <ele>317.70000000000005</ele>
   </trkpt>
   <trkpt lat="-37.86715" lon="145.32185">
    <ele>322.0</ele>
   </trkpt>
   <trkpt lat="-37.86706" lon="145.32158">
    <ele>322.65999999999997</ele>
   </trkpt>
   <trkpt lat="-37.86712" lon="145.32127">
    <ele>325.14000000000004</ele>
   </trkpt>
   <trkpt lat="-37.86737" lon="145.32079000000002">
    <ele>326.25000000000006</ele>
   </trkpt>
   <trkpt lat="-37.867720000000006" lon="145.32028000000003">
    <ele>325.39</ele>
   </trkpt>
   <trkpt lat="-37.86786" lon="145.31999000000002">
    <ele>325.29</ele>
   </trkpt>
   <trkpt lat="-37.86786" lon="145.31989000000002">
    <ele>325.41</ele>
   </trkpt>
   <trkpt lat="-37.86782" lon="145.31976">
    <ele>325.66</ele>
   </trkpt>
   <trkpt lat="-37.86762" lon="145.31942">
    <ele>327.94</ele>
   </trkpt>
   <trkpt lat="-37.86744" lon="145.31893000000002">
    <ele>331.34000000000003</ele>
   </trkpt>
   <trkpt lat="-37.86741" lon="145.31875000000002">
    <ele>332.46000000000004</ele>
   </trkpt>
   <trkpt lat="-37.86759" lon="145.31787">
    <ele>336.59</ele>
   </trkpt>
   <trkpt lat="-37.86785000216837" lon="145.31716000240527">
    <ele>338.46000000000004</ele>
   </trkpt>
   <trkpt lat="-37.86811" lon="145.31645">
    <ele>343.23</ele>
   </trkpt>
   <trkpt lat="-37.86842" lon="145.31596000000002">
    <ele>344.95000000000005</ele>
   </trkpt>
   <trkpt lat="-37.86871" lon="145.31564">
    <ele>346.25</ele>
   </trkpt>
   <trkpt lat="-37.86889" lon="145.31538">
    <ele>347.37</ele>
   </trkpt>
   <trkpt lat="-37.86896" lon="145.31523">
    <ele>348.40000000000003</ele>
   </trkpt>
   <trkpt lat="-37.869" lon="145.31505">
    <ele>350.19</ele>
   </trkpt>
   <trkpt lat="-37.86898" lon="145.31477">
    <ele>352.93</ele>
   </trkpt>
   <trkpt lat="-37.869020000000006" lon="145.31414">
    <ele>359.13</ele>
   </trkpt>
   <trkpt lat="-37.86972" lon="145.31458">
    <ele>373.09000000000003</ele>
   </trkpt>
   <trkpt lat="-37.86988" lon="145.31455000000003">
    <ele>373.09000000000003</ele>
   </trkpt>
   <trkpt lat="-37.86997" lon="145.31447">
    <ele>377.39</ele>
   </trkpt>
   <trkpt lat="-37.87017" lon="145.31414">
    <ele>381.96000000000004</ele>
   </trkpt>
   <trkpt lat="-37.87026" lon="145.31409000000002">
    <ele>382.69</ele>
   </trkpt>
   <trkpt lat="-37.870340000000006" lon="145.31408000000002">
    <ele>384.04</ele>
   </trkpt>
   <trkpt lat="-37.87041" lon="145.31411">
    <ele>384.64000000000004</ele>
   </trkpt>
   <trkpt lat="-37.87055" lon="145.31419000000002">
    <ele>386.82000000000005</ele>
   </trkpt>
   <trkpt lat="-37.87091000188113" lon="145.31352500322902">
    <ele>392.79</ele>
   </trkpt>
   <trkpt lat="-37.87127" lon="145.31286">
    <ele>389.45</ele>
   </trkpt>
   <trkpt lat="-37.87133" lon="145.3128">
    <ele>387.59000000000003</ele>
   </trkpt>
   <trkpt lat="-37.87165" lon="145.31262">
    <ele>376.99000000000007</ele>
   </trkpt>
   <trkpt lat="-37.87174" lon="145.31253">
    <ele>376.99000000000007</ele>
   </trkpt>
   <trkpt lat="-37.87182" lon="145.31231000000002">
    <ele>369.47</ele>
   </trkpt>
   <trkpt lat="-37.87201" lon="145.31204000000002">
    <ele>361.04</ele>
   </trkpt>
   <trkpt lat="-37.87227" lon="145.31188">
    <ele>352.40000000000003</ele>
   </trkpt>
   <trkpt lat="-37.87236" lon="145.31185000000002">
    <ele>350.35</ele>
   </trkpt>
   <trkpt lat="-37.87245" lon="145.31188">
    <ele>348.83000000000004</ele>
   </trkpt>
   <trkpt lat="-37.87254" lon="145.31198">
    <ele>347.36</ele>
   </trkpt>
   <trkpt lat="-37.87259" lon="145.31212000000002">
    <ele>347.49</ele>
   </trkpt>
   <trkpt lat="-37.87254" lon="145.31233">
    <ele>348.57000000000005</ele>
   </trkpt>
   <trkpt lat="-37.87229" lon="145.31288">
    <ele>355.29</ele>
   </trkpt>
   <trkpt lat="-37.87227" lon="145.31307">
    <ele>355.83000000000004</ele>
   </trkpt>
   <trkpt lat="-37.87229" lon="145.31326">
    <ele>358.76</ele>
   </trkpt>
   <trkpt lat="-37.87241" lon="145.3135">
    <ele>360.92</ele>
   </trkpt>
   <trkpt lat="-37.872600000000006" lon="145.31367">
    <ele>362.92</ele>
   </trkpt>
   <trkpt lat="-37.87288" lon="145.31377">
    <ele>366.67</ele>
   </trkpt>
   <trkpt lat="-37.87344" lon="145.31381000000002">
    <ele>368.45000000000005</ele>
   </trkpt>
   <trkpt lat="-37.87366" lon="145.31386">
    <ele>368.99</ele>
   </trkpt>
   <trkpt lat="-37.8742" lon="145.31409000000002">
    <ele>370.55</ele>
   </trkpt>
   <trkpt lat="-37.87447" lon="145.31404">
    <ele>372.31</ele>
   </trkpt>
   <trkpt lat="-37.87489" lon="145.31387">
    <ele>376.42</ele>
   </trkpt>
   <trkpt lat="-37.87532" lon="145.31391000000002">
    <ele>379.3</ele>
   </trkpt>
   <trkpt lat="-37.8757" lon="145.31402">
    <ele>383.18</ele>
   </trkpt>
   <trkpt lat="-37.87585" lon="145.31401000000002">
    <ele>383.18</ele>
   </trkpt>
   <trkpt lat="-37.87635" lon="145.31387">
    <ele>388.47</ele>
   </trkpt>
   <trkpt lat="-37.87684" lon="145.31383000000002">
    <ele>394.27</ele>
   </trkpt>
   <trkpt lat="-37.87729" lon="145.31387">
    <ele>401.4200000000001</ele>
   </trkpt>
   <trkpt lat="-37.87753" lon="145.31387">
    <ele>405.41</ele>
   </trkpt>
   <trkpt lat="-37.87796" lon="145.31396">
    <ele>410.05</ele>
   </trkpt>
   <trkpt lat="-37.87838" lon="145.31409000000002">
    <ele>415.22</ele>
   </trkpt>
   <trkpt lat="-37.87883000008877" lon="145.31413999970323">
    <ele>419.87</ele>
   </trkpt>
   <trkpt lat="-37.87928" lon="145.31419000000002">
    <ele>423.32</ele>
   </trkpt>
   <trkpt lat="-37.879470000000005" lon="145.31417000000002">
    <ele>424.3</ele>
   </trkpt>
   <trkpt lat="-37.87948" lon="145.31417000000002">
    <ele>424.3</ele>
   </trkpt>
   <trkpt lat="-37.87953" lon="145.31416000000002">
    <ele>424.36</ele>
   </trkpt>
   <trkpt lat="-37.87975" lon="145.31393">
    <ele>424.08</ele>
   </trkpt>
   <trkpt lat="-37.87993" lon="145.31385">
    <ele>423.73</ele>
   </trkpt>
   <trkpt lat="-37.88006" lon="145.31393">
    <ele>423.27000000000004</ele>
   </trkpt>
   <trkpt lat="-37.88013" lon="145.31401000000002">
    <ele>422.94000000000005</ele>
   </trkpt>
   <trkpt lat="-37.88026" lon="145.31401000000002">
    <ele>422.31</ele>
   </trkpt>
   <trkpt lat="-37.88049" lon="145.31388">
    <ele>420.18000000000006</ele>
   </trkpt>
   <trkpt lat="-37.88082" lon="145.31362000000001">
    <ele>416.51000000000005</ele>
   </trkpt>
   <trkpt lat="-37.88118" lon="145.31343">
    <ele>412.52000000000004</ele>
   </trkpt>
   <trkpt lat="-37.88152" lon="145.31319000000002">
    <ele>408.66</ele>
   </trkpt>
   <trkpt lat="-37.88199" lon="145.31279">
    <ele>405.45000000000005</ele>
   </trkpt>
   <trkpt lat="-37.8825" lon="145.31224">
    <ele>406.83000000000004</ele>
   </trkpt>
   <trkpt lat="-37.882740000000005" lon="145.31214">
    <ele>406.62</ele>
   </trkpt>
   <trkpt lat="-37.88308" lon="145.31215">
    <ele>403.75000000000006</ele>
   </trkpt>
   <trkpt lat="-37.8834" lon="145.31222000000002">
    <ele>398.13000000000005</ele>
   </trkpt>
   <trkpt lat="-37.88369" lon="145.31236">
    <ele>393.91</ele>
   </trkpt>
   <trkpt lat="-37.88414" lon="145.31267000000003">
    <ele>386.45</ele>
   </trkpt>
   <trkpt lat="-37.88429" lon="145.31272">
    <ele>383.28000000000003</ele>
   </trkpt>
   <trkpt lat="-37.88488" lon="145.3128">
    <ele>371.13</ele>
   </trkpt>
   <trkpt lat="-37.88501" lon="145.31279">
    <ele>367.25</ele>
   </trkpt>
   <trkpt lat="-37.88519" lon="145.31273000000002">
    <ele>364.50000000000006</ele>
   </trkpt>
   <trkpt lat="-37.885270000000006" lon="145.31266000000002">
    <ele>363.68</ele>
   </trkpt>
   <trkpt lat="-37.8853" lon="145.31255000000002">
    <ele>360.58</ele>
   </trkpt>
   <trkpt lat="-37.88541" lon="145.31207">
    <ele>354.50000000000006</ele>
   </trkpt>
   <trkpt lat="-37.88548" lon="145.31186000000002">
    <ele>347.37</ele>
   </trkpt>
   <trkpt lat="-37.88579500183977" lon="145.31120500274952">
    <ele>337.35</ele>
   </trkpt>
   <trkpt lat="-37.88611" lon="145.31055">
    <ele>328.09000000000003</ele>
   </trkpt>
   <trkpt lat="-37.8862" lon="145.31044">
    <ele>322.83</ele>
   </trkpt>
   <trkpt lat="-37.88629" lon="145.31038">
    <ele>322.83</ele>
   </trkpt>
   <trkpt lat="-37.8866" lon="145.3102">
    <ele>317.61</ele>
   </trkpt>
   <trkpt lat="-37.88673" lon="145.31015000000002">
    <ele>315.75</ele>
   </trkpt>
   <trkpt lat="-37.88687" lon="145.31014000000002">
    <ele>314.19</ele>
   </trkpt>
   <trkpt lat="-37.88696" lon="145.31015000000002">
    <ele>314.19</ele>
   </trkpt>
   <trkpt lat="-37.88705" lon="145.31019">
    <ele>313.39</ele>
   </trkpt>
   <trkpt lat="-37.887330000000006" lon="145.31040000000002">
    <ele>308.91</ele>
   </trkpt>
   <trkpt lat="-37.88779" lon="145.31063">
    <ele>300.16</ele>
   </trkpt>
   <trkpt lat="-37.88794" lon="145.31068000000002">
    <ele>294.59000000000003</ele>
   </trkpt>
   <trkpt lat="-37.888450000000006" lon="145.31074">
    <ele>282.71000000000004</ele>
   </trkpt>
   <trkpt lat="-37.88859" lon="145.31071">
    <ele>279.15</ele>
   </trkpt>
   <trkpt lat="-37.88868" lon="145.31060000000002">
    <ele>277.62</ele>
   </trkpt>
   <trkpt lat="-37.88893" lon="145.31018">
    <ele>270.05</ele>
   </trkpt>
   <trkpt lat="-37.88902" lon="145.31014000000002">
    <ele>269.24</ele>
   </trkpt>
   <trkpt lat="-37.88908" lon="145.31016000000002">
    <ele>266.72</ele>
   </trkpt>
   <trkpt lat="-37.889210000000006" lon="145.31025000000002">
    <ele>265.12</ele>
   </trkpt>
   <trkpt lat="-37.88931" lon="145.31038">
    <ele>263.63000000000005</ele>
   </trkpt>
   <trkpt lat="-37.88951" lon="145.31074">
    <ele>255.37000000000003</ele>
   </trkpt>
   <trkpt lat="-37.88958" lon="145.3109">
    <ele>255.37000000000003</ele>
   </trkpt>
   <trkpt lat="-37.88958" lon="145.31101">
    <ele>250.04999999999998</ele>
   </trkpt>
   <trkpt lat="-37.88955" lon="145.31122000000002">
    <ele>250.04999999999998</ele>
   </trkpt>
   <trkpt lat="-37.88958" lon="145.31130000000002">
    <ele>246.93</ele>
   </trkpt>
   <trkpt lat="-37.8896" lon="145.31134">
    <ele>246.93</ele>
   </trkpt>
   <trkpt lat="-37.889680000000006" lon="145.31134">
    <ele>246.93</ele>
   </trkpt>
   <trkpt lat="-37.88993" lon="145.31119">
    <ele>242.1</ele>
   </trkpt>
   <trkpt lat="-37.89002" lon="145.31111">
    <ele>240.37000000000003</ele>
   </trkpt>
   <trkpt lat="-37.89016" lon="145.31092">
    <ele>237.63</ele>
   </trkpt>
   <trkpt lat="-37.89025" lon="145.31066">
    <ele>235.88</ele>
   </trkpt>
   <trkpt lat="-37.89027" lon="145.31046">
    <ele>234.08</ele>
   </trkpt>
   <trkpt lat="-37.89025" lon="145.31002">
    <ele>228.02</ele>
   </trkpt>
   <trkpt lat="-37.89027" lon="145.30997000000002">
    <ele>227.18</ele>
   </trkpt>
   <trkpt lat="-37.89034" lon="145.30995000000001">
    <ele>226.31</ele>
   </trkpt>
   <trkpt lat="-37.890330000000006" lon="145.30995000000001">
    <ele>226.31</ele>
   </trkpt>
   <trkpt lat="-37.89038" lon="145.30998000000002">
    <ele>226.31</ele>
   </trkpt>
   <trkpt lat="-37.89092" lon="145.31052000000003">
    <ele>212.48000000000002</ele>
   </trkpt>
   <trkpt lat="-37.89119" lon="145.31122000000002">
    <ele>202.91</ele>
   </trkpt>
   <trkpt lat="-37.89121" lon="145.31161">
    <ele>199.39000000000001</ele>
   </trkpt>
   <trkpt lat="-37.891180000000006" lon="145.31198">
    <ele>196.26000000000002</ele>
   </trkpt>
   <trkpt lat="-37.89105" lon="145.31242">
    <ele>193.73000000000002</ele>
   </trkpt>
   <trkpt lat="-37.89101" lon="145.31248000000002">
    <ele>193.27</ele>
   </trkpt>
   <trkpt lat="-37.89072" lon="145.31278">
    <ele>192.72</ele>
   </trkpt>
   <trkpt lat="-37.890710000000006" lon="145.31282000000002">
    <ele>192.72</ele>
   </trkpt>
   <trkpt lat="-37.890710000000006" lon="145.31292000000002">
    <ele>192.57000000000002</ele>
   </trkpt>
   <trkpt lat="-37.89074" lon="145.31299">
    <ele>192.18</ele>
   </trkpt>
   <trkpt lat="-37.89092" lon="145.31309000000002">
    <ele>190.60000000000002</ele>
   </trkpt>
   <trkpt lat="-37.89132" lon="145.3134">
    <ele>186.38000000000002</ele>
   </trkpt>
   <trkpt lat="-37.8915" lon="145.31358">
    <ele>184.52</ele>
   </trkpt>
   <trkpt lat="-37.89159" lon="145.31376">
    <ele>182.82</ele>
   </trkpt>
   <trkpt lat="-37.89168" lon="145.31405">
    <ele>180.64000000000001</ele>
   </trkpt>
   <trkpt lat="-37.8917" lon="145.3142">
    <ele>179.00000000000003</ele>
   </trkpt>
   <trkpt lat="-37.89166" lon="145.31470000000002">
    <ele>175.64000000000001</ele>
   </trkpt>
   <trkpt lat="-37.89159" lon="145.3153">
    <ele>172.39000000000001</ele>
   </trkpt>
   <trkpt lat="-37.89159" lon="145.31574">
    <ele>169.18000000000004</ele>
   </trkpt>
   <trkpt lat="-37.89157" lon="145.316">
    <ele>166.39000000000001</ele>
   </trkpt>
   <trkpt lat="-37.89161" lon="145.31606000000002">
    <ele>166.39000000000001</ele>
   </trkpt>
   <trkpt lat="-37.89175" lon="145.31639">
    <ele>163.60000000000002</ele>
   </trkpt>
   <trkpt lat="-37.89184" lon="145.31645">
    <ele>162.60000000000002</ele>
   </trkpt>
   <trkpt lat="-37.891960000000005" lon="145.31649000000002">
    <ele>161.45000000000002</ele>
   </trkpt>
   <trkpt lat="-37.89193" lon="145.31663">
    <ele>163.33</ele>
   </trkpt>
   <trkpt lat="-37.89188" lon="145.31666">
    <ele>164.14000000000001</ele>
   </trkpt>
  </trkseg>
 </trk>
</gpx>
