<?xml version="1.0" encoding="UTF-8"?>
<gpx creator="StravaGPX" version="1.1" xmlns="http://www.topografix.com/GPX/1/1" xmlns:xsi="http://www.w3.org/2001/XMLSchema-instance" xsi:schemaLocation="http://www.topografix.com/GPX/1/1 http://www.topografix.com/GPX/1/1/gpx.xsd">
 <metadata>
  <name>Jenny 20k</name>
  <author>
   <name>john csorgo</name>
  </author>
  <copyright author="OpenStreetMap contributors">
   <year>2020</year>
   <license>https://www.openstreetmap.org/copyright</license>
  </copyright>
 </metadata>
 <trk>
  <name>Jenny 20k</name>
  <link href=""/>
  <type>running</type>
  <trkseg>
   <trkpt lat="-37.86285" lon="145.35369">
    <ele>478.44</ele>
   </trkpt>
   <trkpt lat="-37.86265" lon="145.35319">
    <ele>476.31000000000006</ele>
   </trkpt>
   <trkpt lat="-37.86258" lon="145.35298">
    <ele>474.87</ele>
   </trkpt>
   <trkpt lat="-37.862570000000005" lon="145.35281">
    <ele>473.85</ele>
   </trkpt>
   <trkpt lat="-37.862460000000006" lon="145.35279">
    <ele>473.02000000000004</ele>
   </trkpt>
   <trkpt lat="-37.8624" lon="145.35274">
    <ele>473.02000000000004</ele>
   </trkpt>
   <trkpt lat="-37.862190000000005" lon="145.3522">
    <ele>469.43</ele>
   </trkpt>
   <trkpt lat="-37.86218" lon="145.35177000000002">
    <ele>466.71</ele>
   </trkpt>
   <trkpt lat="-37.8622" lon="145.3514">
    <ele>463.06</ele>
   </trkpt>
   <trkpt lat="-37.86256" lon="145.35098000000002">
    <ele>458.39</ele>
   </trkpt>
   <trkpt lat="-37.86258" lon="145.35084">
    <ele>455.41</ele>
   </trkpt>
   <trkpt lat="-37.86285" lon="145.35058">
    <ele>450.85</ele>
   </trkpt>
   <trkpt lat="-37.863150000000005" lon="145.34997">
    <ele>443.90000000000003</ele>
   </trkpt>
   <trkpt lat="-37.86318" lon="145.3494">
    <ele>438.87</ele>
   </trkpt>
   <trkpt lat="-37.86316" lon="145.34895">
    <ele>434.04</ele>
   </trkpt>
   <trkpt lat="-37.86316" lon="145.34836">
    <ele>426.21000000000004</ele>
   </trkpt>
   <trkpt lat="-37.86312" lon="145.34825">
    <ele>425.02</ele>
   </trkpt>
   <trkpt lat="-37.86312" lon="145.34826">
    <ele>425.02</ele>
   </trkpt>
   <trkpt lat="-37.86296" lon="145.34810000000002">
    <ele>423.02</ele>
   </trkpt>
   <trkpt lat="-37.86256" lon="145.34787">
    <ele>418.46000000000004</ele>
   </trkpt>
   <trkpt lat="-37.86245" lon="145.34777000000003">
    <ele>416.83000000000004</ele>
   </trkpt>
   <trkpt lat="-37.8622" lon="145.34749000000002">
    <ele>413.36000000000007</ele>
   </trkpt>
   <trkpt lat="-37.86206" lon="145.34726">
    <ele>410.1</ele>
   </trkpt>
   <trkpt lat="-37.86202" lon="145.34712000000002">
    <ele>407.02000000000004</ele>
   </trkpt>
   <trkpt lat="-37.86193" lon="145.34642000000002">
    <ele>399.5</ele>
   </trkpt>
   <trkpt lat="-37.86186" lon="145.34658000000002">
    <ele>400.33</ele>
   </trkpt>
   <trkpt lat="-37.861790000000006" lon="145.34698">
    <ele>402.35</ele>
   </trkpt>
   <trkpt lat="-37.86162" lon="145.34737">
    <ele>397.31000000000006</ele>
   </trkpt>
   <trkpt lat="-37.86162" lon="145.34753">
    <ele>396.17</ele>
   </trkpt>
   <trkpt lat="-37.86168" lon="145.34779">
    <ele>394.13000000000005</ele>
   </trkpt>
   <trkpt lat="-37.86164" lon="145.34794000000002">
    <ele>393.5</ele>
   </trkpt>
   <trkpt lat="-37.86159" lon="145.34802000000002">
    <ele>392.72</ele>
   </trkpt>
   <trkpt lat="-37.86128" lon="145.34822">
    <ele>389.43000000000006</ele>
   </trkpt>
   <trkpt lat="-37.86121" lon="145.34824">
    <ele>388.69000000000005</ele>
   </trkpt>
   <trkpt lat="-37.86112" lon="145.34822">
    <ele>386.31000000000006</ele>
   </trkpt>
   <trkpt lat="-37.86104" lon="145.34814">
    <ele>384.85</ele>
   </trkpt>
   <trkpt lat="-37.86097" lon="145.34804000000003">
    <ele>383.18</ele>
   </trkpt>
   <trkpt lat="-37.86097" lon="145.34788">
    <ele>381.79</ele>
   </trkpt>
   <trkpt lat="-37.86101" lon="145.34771">
    <ele>380.22</ele>
   </trkpt>
   <trkpt lat="-37.86101" lon="145.34763">
    <ele>379.58000000000004</ele>
   </trkpt>
   <trkpt lat="-37.86097" lon="145.34757000000002">
    <ele>378.07</ele>
   </trkpt>
   <trkpt lat="-37.86068" lon="145.34759000000003">
    <ele>372.85</ele>
   </trkpt>
   <trkpt lat="-37.86032" lon="145.34775000000002">
    <ele>366.77000000000004</ele>
   </trkpt>
   <trkpt lat="-37.86027" lon="145.34776000000002">
    <ele>366.77000000000004</ele>
   </trkpt>
   <trkpt lat="-37.859500000000004" lon="145.34782">
    <ele>358.45000000000005</ele>
   </trkpt>
   <trkpt lat="-37.85942" lon="145.34772">
    <ele>351.98</ele>
   </trkpt>
   <trkpt lat="-37.859370000000006" lon="145.34754">
    <ele>346.03</ele>
   </trkpt>
   <trkpt lat="-37.85931" lon="145.34758000000002">
    <ele>346.03</ele>
   </trkpt>
   <trkpt lat="-37.85918" lon="145.3476">
    <ele>348.48</ele>
   </trkpt>
   <trkpt lat="-37.8586" lon="145.34761">
    <ele>351.92</ele>
   </trkpt>
   <trkpt lat="-37.85853" lon="145.34743">
    <ele>350.23</ele>
   </trkpt>
   <trkpt lat="-37.85833" lon="145.34718">
    <ele>346.15000000000003</ele>
   </trkpt>
   <trkpt lat="-37.85806" lon="145.34698">
    <ele>342.11</ele>
   </trkpt>
   <trkpt lat="-37.85797" lon="145.34686000000002">
    <ele>340.93</ele>
   </trkpt>
   <trkpt lat="-37.85783" lon="145.34678000000002">
    <ele>339.99</ele>
   </trkpt>
   <trkpt lat="-37.8575" lon="145.34649000000002">
    <ele>333.6</ele>
   </trkpt>
   <trkpt lat="-37.8573" lon="145.34642000000002">
    <ele>330.98</ele>
   </trkpt>
   <trkpt lat="-37.85703" lon="145.34640000000002">
    <ele>330.21</ele>
   </trkpt>
   <trkpt lat="-37.85663" lon="145.34618">
    <ele>335.40000000000003</ele>
   </trkpt>
   <trkpt lat="-37.85622" lon="145.34578000000002">
    <ele>342.88</ele>
   </trkpt>
   <trkpt lat="-37.85609" lon="145.34559000000002">
    <ele>347.26</ele>
   </trkpt>
   <trkpt lat="-37.855940000000004" lon="145.34545">
    <ele>349.22</ele>
   </trkpt>
   <trkpt lat="-37.85593" lon="145.34545">
    <ele>349.22</ele>
   </trkpt>
   <trkpt lat="-37.85553" lon="145.34492">
    <ele>353.02000000000004</ele>
   </trkpt>
   <trkpt lat="-37.85544" lon="145.34475">
    <ele>353.35</ele>
   </trkpt>
   <trkpt lat="-37.85528" lon="145.34457">
    <ele>354.77000000000004</ele>
   </trkpt>
   <trkpt lat="-37.85515" lon="145.34415">
    <ele>354.81</ele>
   </trkpt>
   <trkpt lat="-37.8551" lon="145.34404">
    <ele>353.6</ele>
   </trkpt>
   <trkpt lat="-37.855050000000006" lon="145.34368">
    <ele>351.27000000000004</ele>
   </trkpt>
   <trkpt lat="-37.85492" lon="145.34354000000002">
    <ele>347.04</ele>
   </trkpt>
   <trkpt lat="-37.8549" lon="145.34348">
    <ele>347.04</ele>
   </trkpt>
   <trkpt lat="-37.85488" lon="145.34337000000002">
    <ele>345.02000000000004</ele>
   </trkpt>
   <trkpt lat="-37.85492" lon="145.34293000000002">
    <ele>339.01000000000005</ele>
   </trkpt>
   <trkpt lat="-37.85474" lon="145.3426">
    <ele>333.66</ele>
   </trkpt>
   <trkpt lat="-37.85472" lon="145.34233">
    <ele>330.02000000000004</ele>
   </trkpt>
   <trkpt lat="-37.85468" lon="145.34225">
    <ele>327.40000000000003</ele>
   </trkpt>
   <trkpt lat="-37.85448" lon="145.34206">
    <ele>318.36</ele>
   </trkpt>
   <trkpt lat="-37.85419" lon="145.34158000000002">
    <ele>307.96</ele>
   </trkpt>
   <trkpt lat="-37.85387" lon="145.34123000000002">
    <ele>310.82000000000005</ele>
   </trkpt>
   <trkpt lat="-37.85374" lon="145.34099">
    <ele>311.3</ele>
   </trkpt>
   <trkpt lat="-37.85365" lon="145.34067000000002">
    <ele>308.19</ele>
   </trkpt>
   <trkpt lat="-37.85358" lon="145.33991">
    <ele>298.48</ele>
   </trkpt>
   <trkpt lat="-37.853460000000005" lon="145.33943000000002">
    <ele>297.35</ele>
   </trkpt>
   <trkpt lat="-37.8534" lon="145.33894">
    <ele>294.32</ele>
   </trkpt>
   <trkpt lat="-37.85333" lon="145.33871000000002">
    <ele>292.59000000000003</ele>
   </trkpt>
   <trkpt lat="-37.85333" lon="145.33833">
    <ele>288.26</ele>
   </trkpt>
   <trkpt lat="-37.85327" lon="145.33823">
    <ele>287.74000000000007</ele>
   </trkpt>
   <trkpt lat="-37.85313" lon="145.33813">
    <ele>289.53000000000003</ele>
   </trkpt>
   <trkpt lat="-37.85304" lon="145.33812">
    <ele>291.79</ele>
   </trkpt>
   <trkpt lat="-37.85293" lon="145.33818000000002">
    <ele>294.56000000000006</ele>
   </trkpt>
   <trkpt lat="-37.85242" lon="145.33856">
    <ele>314.09000000000003</ele>
   </trkpt>
   <trkpt lat="-37.85233" lon="145.33851">
    <ele>315.78</ele>
   </trkpt>
   <trkpt lat="-37.85215" lon="145.33823">
    <ele>317.51</ele>
   </trkpt>
   <trkpt lat="-37.85206" lon="145.33798000000002">
    <ele>317.42</ele>
   </trkpt>
   <trkpt lat="-37.8519" lon="145.33773000000002">
    <ele>317.8</ele>
   </trkpt>
   <trkpt lat="-37.85177" lon="145.33761">
    <ele>317.71999999999997</ele>
   </trkpt>
   <trkpt lat="-37.85172" lon="145.33751">
    <ele>317.32000000000005</ele>
   </trkpt>
   <trkpt lat="-37.85168" lon="145.33735000000001">
    <ele>316.6</ele>
   </trkpt>
   <trkpt lat="-37.85139" lon="145.33696">
    <ele>315.12</ele>
   </trkpt>
   <trkpt lat="-37.85116" lon="145.33651">
    <ele>311.23</ele>
   </trkpt>
   <trkpt lat="-37.851060000000004" lon="145.33639000000002">
    <ele>310.65000000000003</ele>
   </trkpt>
   <trkpt lat="-37.85096" lon="145.33634">
    <ele>310.70000000000005</ele>
   </trkpt>
   <trkpt lat="-37.85085" lon="145.33637000000002">
    <ele>310.65000000000003</ele>
   </trkpt>
   <trkpt lat="-37.85074" lon="145.33634">
    <ele>310.42</ele>
   </trkpt>
   <trkpt lat="-37.85063" lon="145.33599">
    <ele>306.27000000000004</ele>
   </trkpt>
   <trkpt lat="-37.85051" lon="145.33530000000002">
    <ele>294.26</ele>
   </trkpt>
   <trkpt lat="-37.85051" lon="145.33468000000002">
    <ele>280.65</ele>
   </trkpt>
   <trkpt lat="-37.850645001564736" lon="145.33407000115557">
    <ele>265.21</ele>
   </trkpt>
   <trkpt lat="-37.85078" lon="145.33346">
    <ele>254.45000000000002</ele>
   </trkpt>
   <trkpt lat="-37.8508" lon="145.33325000000002">
    <ele>251.17</ele>
   </trkpt>
   <trkpt lat="-37.85076" lon="145.33294">
    <ele>244.96</ele>
   </trkpt>
   <trkpt lat="-37.85085" lon="145.33266">
    <ele>239.23000000000002</ele>
   </trkpt>
   <trkpt lat="-37.850860000000004" lon="145.33247">
    <ele>235.46000000000004</ele>
   </trkpt>
   <trkpt lat="-37.850860000000004" lon="145.33245000000002">
    <ele>235.24000000000004</ele>
   </trkpt>
   <trkpt lat="-37.85083" lon="145.33255">
    <ele>235.72</ele>
   </trkpt>
   <trkpt lat="-37.85038" lon="145.33280000000002">
    <ele>238.92000000000002</ele>
   </trkpt>
   <trkpt lat="-37.85" lon="145.33321">
    <ele>240.46</ele>
   </trkpt>
   <trkpt lat="-37.84982" lon="145.33328">
    <ele>241.05</ele>
   </trkpt>
   <trkpt lat="-37.84939" lon="145.33314000000001">
    <ele>242.90000000000003</ele>
   </trkpt>
   <trkpt lat="-37.84915" lon="145.33314000000001">
    <ele>243.86</ele>
   </trkpt>
   <trkpt lat="-37.84892" lon="145.33322">
    <ele>245.34000000000003</ele>
   </trkpt>
   <trkpt lat="-37.848870000000005" lon="145.33331">
    <ele>245.71</ele>
   </trkpt>
   <trkpt lat="-37.84866" lon="145.33382">
    <ele>248.00000000000003</ele>
   </trkpt>
   <trkpt lat="-37.84857" lon="145.33423000000002">
    <ele>250.01</ele>
   </trkpt>
   <trkpt lat="-37.84861" lon="145.3349">
    <ele>252.60000000000005</ele>
   </trkpt>
   <trkpt lat="-37.84857" lon="145.33526">
    <ele>253.68</ele>
   </trkpt>
   <trkpt lat="-37.84852" lon="145.33542">
    <ele>253.68</ele>
   </trkpt>
   <trkpt lat="-37.84848" lon="145.33583000000002">
    <ele>254.79000000000002</ele>
   </trkpt>
   <trkpt lat="-37.8485" lon="145.33616">
    <ele>255.4</ele>
   </trkpt>
   <trkpt lat="-37.848500001841764" lon="145.33681999984685">
    <ele>256.20000000000005</ele>
   </trkpt>
   <trkpt lat="-37.8485" lon="145.33748">
    <ele>257.20000000000005</ele>
   </trkpt>
   <trkpt lat="-37.84852" lon="145.33778">
    <ele>257.28000000000003</ele>
   </trkpt>
   <trkpt lat="-37.84848" lon="145.33865">
    <ele>258.87000000000006</ele>
   </trkpt>
   <trkpt lat="-37.84854" lon="145.33921">
    <ele>259.0</ele>
   </trkpt>
   <trkpt lat="-37.84854" lon="145.33938">
    <ele>259.14000000000004</ele>
   </trkpt>
   <trkpt lat="-37.848645001422646" lon="145.33996499903154">
    <ele>260.19000000000005</ele>
   </trkpt>
   <trkpt lat="-37.84875" lon="145.34055">
    <ele>260.82</ele>
   </trkpt>
   <trkpt lat="-37.84877" lon="145.34085000000002">
    <ele>261.3</ele>
   </trkpt>
   <trkpt lat="-37.84886" lon="145.34134">
    <ele>262.87000000000006</ele>
   </trkpt>
   <trkpt lat="-37.8489" lon="145.34173">
    <ele>263.66</ele>
   </trkpt>
   <trkpt lat="-37.84895" lon="145.34202000000002">
    <ele>265.18</ele>
   </trkpt>
   <trkpt lat="-37.84895" lon="145.34268">
    <ele>267.84000000000003</ele>
   </trkpt>
   <trkpt lat="-37.8489" lon="145.34310000000002">
    <ele>268.57000000000005</ele>
   </trkpt>
   <trkpt lat="-37.84886" lon="145.34342">
    <ele>268.46000000000004</ele>
   </trkpt>
   <trkpt lat="-37.84884" lon="145.3435">
    <ele>268.09</ele>
   </trkpt>
   <trkpt lat="-37.848760000000006" lon="145.34358">
    <ele>267.88</ele>
   </trkpt>
   <trkpt lat="-37.84868" lon="145.34415">
    <ele>268.33</ele>
   </trkpt>
   <trkpt lat="-37.84861" lon="145.34492">
    <ele>269.71</ele>
   </trkpt>
   <trkpt lat="-37.848600001896216" lon="145.34559000020948">
    <ele>272.29</ele>
   </trkpt>
   <trkpt lat="-37.84859" lon="145.34626">
    <ele>276.26</ele>
   </trkpt>
   <trkpt lat="-37.84857" lon="145.34640000000002">
    <ele>277.24</ele>
   </trkpt>
   <trkpt lat="-37.84854" lon="145.34643">
    <ele>277.81</ele>
   </trkpt>
   <trkpt lat="-37.84848" lon="145.34639">
    <ele>278.90000000000003</ele>
   </trkpt>
   <trkpt lat="-37.848200000000006" lon="145.3459">
    <ele>282.2</ele>
   </trkpt>
   <trkpt lat="-37.84798" lon="145.34563">
    <ele>285.27000000000004</ele>
   </trkpt>
   <trkpt lat="-37.84789" lon="145.34557">
    <ele>285.27000000000004</ele>
   </trkpt>
   <trkpt lat="-37.84781" lon="145.34555">
    <ele>286.86</ele>
   </trkpt>
   <trkpt lat="-37.84756" lon="145.34556">
    <ele>288.16</ele>
   </trkpt>
   <trkpt lat="-37.84745" lon="145.34555">
    <ele>288.49</ele>
   </trkpt>
   <trkpt lat="-37.84731" lon="145.34550000000002">
    <ele>288.68000000000006</ele>
   </trkpt>
   <trkpt lat="-37.84722" lon="145.34541000000002">
    <ele>288.68000000000006</ele>
   </trkpt>
   <trkpt lat="-37.847170000000006" lon="145.34528">
    <ele>288.62000000000006</ele>
   </trkpt>
   <trkpt lat="-37.84707" lon="145.34496000000001">
    <ele>287.86</ele>
   </trkpt>
   <trkpt lat="-37.84707" lon="145.34472000000002">
    <ele>287.8</ele>
   </trkpt>
   <trkpt lat="-37.84716" lon="145.34429">
    <ele>289.84999999999997</ele>
   </trkpt>
   <trkpt lat="-37.84733000000001" lon="145.34415">
    <ele>297.19</ele>
   </trkpt>
   <trkpt lat="-37.84716" lon="145.34429">
    <ele>298.83000000000004</ele>
   </trkpt>
   <trkpt lat="-37.8472" lon="145.34408000000002">
    <ele>298.83000000000004</ele>
   </trkpt>
   <trkpt lat="-37.84718" lon="145.34387">
    <ele>298.83000000000004</ele>
   </trkpt>
   <trkpt lat="-37.847170000000006" lon="145.34381000000002">
    <ele>298.83000000000004</ele>
   </trkpt>
   <trkpt lat="-37.84709" lon="145.34374000000003">
    <ele>298.83000000000004</ele>
   </trkpt>
   <trkpt lat="-37.84702" lon="145.34371000000002">
    <ele>298.83000000000004</ele>
   </trkpt>
   <trkpt lat="-37.84691" lon="145.34377">
    <ele>298.83000000000004</ele>
   </trkpt>
   <trkpt lat="-37.84666" lon="145.3442">
    <ele>298.83000000000004</ele>
   </trkpt>
   <trkpt lat="-37.84657" lon="145.34428">
    <ele>298.83000000000004</ele>
   </trkpt>
   <trkpt lat="-37.84642" lon="145.34432">
    <ele>298.83000000000004</ele>
   </trkpt>
   <trkpt lat="-37.84599" lon="145.34422">
    <ele>298.83000000000004</ele>
   </trkpt>
   <trkpt lat="-37.84579" lon="145.34413">
    <ele>298.83000000000004</ele>
   </trkpt>
   <trkpt lat="-37.84568" lon="145.34411">
    <ele>298.83000000000004</ele>
   </trkpt>
   <trkpt lat="-37.8457" lon="145.34397">
    <ele>298.83000000000004</ele>
   </trkpt>
   <trkpt lat="-37.8457" lon="145.34371000000002">
    <ele>298.83000000000004</ele>
   </trkpt>
   <trkpt lat="-37.84561" lon="145.34342">
    <ele>298.83000000000004</ele>
   </trkpt>
   <trkpt lat="-37.8455" lon="145.34315">
    <ele>298.83000000000004</ele>
   </trkpt>
   <trkpt lat="-37.84532" lon="145.34259">
    <ele>298.83000000000004</ele>
   </trkpt>
   <trkpt lat="-37.8451" lon="145.34224">
    <ele>298.83000000000004</ele>
   </trkpt>
   <trkpt lat="-37.84496" lon="145.34209">
    <ele>298.83000000000004</ele>
   </trkpt>
   <trkpt lat="-37.84451500060959" lon="145.3417299978776">
    <ele>289.84999999999997</ele>
   </trkpt>
   <trkpt lat="-37.84407" lon="145.34137">
    <ele>289.84999999999997</ele>
   </trkpt>
   <trkpt lat="-37.8438" lon="145.34104000000002">
    <ele>289.84999999999997</ele>
   </trkpt>
   <trkpt lat="-37.84369" lon="145.34098">
    <ele>289.84999999999997</ele>
   </trkpt>
   <trkpt lat="-37.84348" lon="145.34089">
    <ele>289.84999999999997</ele>
   </trkpt>
   <trkpt lat="-37.84297" lon="145.34079">
    <ele>289.84999999999997</ele>
   </trkpt>
   <trkpt lat="-37.84275" lon="145.3407">
    <ele>289.84999999999997</ele>
   </trkpt>
   <trkpt lat="-37.84252" lon="145.34050000000002">
    <ele>289.84999999999997</ele>
   </trkpt>
   <trkpt lat="-37.84225" lon="145.34014000000002">
    <ele>289.84999999999997</ele>
   </trkpt>
   <trkpt lat="-37.8421" lon="145.33983">
    <ele>289.84999999999997</ele>
   </trkpt>
   <trkpt lat="-37.841950000000004" lon="145.33969000000002">
    <ele>289.84999999999997</ele>
   </trkpt>
   <trkpt lat="-37.84178" lon="145.33959000000002">
    <ele>289.84999999999997</ele>
   </trkpt>
   <trkpt lat="-37.8416" lon="145.33959000000002">
    <ele>289.84999999999997</ele>
   </trkpt>
   <trkpt lat="-37.84143" lon="145.33965">
    <ele>289.84999999999997</ele>
   </trkpt>
   <trkpt lat="-37.84098" lon="145.33985">
    <ele>292.77000000000004</ele>
   </trkpt>
   <trkpt lat="-37.84069" lon="145.33977000000002">
    <ele>295.08</ele>
   </trkpt>
   <trkpt lat="-37.84042" lon="145.33958">
    <ele>299.64</ele>
   </trkpt>
   <trkpt lat="-37.84015" lon="145.33934000000002">
    <ele>306.07</ele>
   </trkpt>
   <trkpt lat="-37.83977" lon="145.33871000000002">
    <ele>314.71000000000004</ele>
   </trkpt>
   <trkpt lat="-37.83961" lon="145.33852000000002">
    <ele>317.62</ele>
   </trkpt>
   <trkpt lat="-37.83928" lon="145.33822">
    <ele>321.86</ele>
   </trkpt>
   <trkpt lat="-37.83876" lon="145.33791000000002">
    <ele>323.81000000000006</ele>
   </trkpt>
   <trkpt lat="-37.83845" lon="145.33756000000002">
    <ele>321.42</ele>
   </trkpt>
   <trkpt lat="-37.83825" lon="145.33732">
    <ele>320.55</ele>
   </trkpt>
   <trkpt lat="-37.83816" lon="145.33717000000001">
    <ele>320.19</ele>
   </trkpt>
   <trkpt lat="-37.83813" lon="145.33708000000001">
    <ele>320.19</ele>
   </trkpt>
   <trkpt lat="-37.83805" lon="145.33651">
    <ele>318.96000000000004</ele>
   </trkpt>
   <trkpt lat="-37.83789" lon="145.33617">
    <ele>317.45</ele>
   </trkpt>
   <trkpt lat="-37.83731" lon="145.33561">
    <ele>315.56</ele>
   </trkpt>
   <trkpt lat="-37.837050000000005" lon="145.33555">
    <ele>314.77000000000004</ele>
   </trkpt>
   <trkpt lat="-37.836740000000006" lon="145.3356">
    <ele>314.76000000000005</ele>
   </trkpt>
   <trkpt lat="-37.83655" lon="145.33538000000001">
    <ele>314.07</ele>
   </trkpt>
   <trkpt lat="-37.83619" lon="145.3351">
    <ele>309.47</ele>
   </trkpt>
   <trkpt lat="-37.83619" lon="145.33502000000001">
    <ele>309.11000000000007</ele>
   </trkpt>
   <trkpt lat="-37.83614" lon="145.33494000000002">
    <ele>308.6</ele>
   </trkpt>
   <trkpt lat="-37.836090000000006" lon="145.33488">
    <ele>308.44000000000005</ele>
   </trkpt>
   <trkpt lat="-37.83601" lon="145.33486000000002">
    <ele>308.22</ele>
   </trkpt>
   <trkpt lat="-37.83592" lon="145.33474">
    <ele>308.01</ele>
   </trkpt>
   <trkpt lat="-37.83578" lon="145.33463">
    <ele>307.67</ele>
   </trkpt>
   <trkpt lat="-37.83572" lon="145.33446">
    <ele>307.17</ele>
   </trkpt>
   <trkpt lat="-37.83568" lon="145.33441000000002">
    <ele>307.17</ele>
   </trkpt>
   <trkpt lat="-37.835190000000004" lon="145.33453">
    <ele>310.31</ele>
   </trkpt>
   <trkpt lat="-37.83509" lon="145.33440000000002">
    <ele>311.49000000000007</ele>
   </trkpt>
   <trkpt lat="-37.835" lon="145.33423000000002">
    <ele>314.1</ele>
   </trkpt>
   <trkpt lat="-37.83484" lon="145.33417">
    <ele>316.01</ele>
   </trkpt>
   <trkpt lat="-37.83455" lon="145.33398000000003">
    <ele>317.97</ele>
   </trkpt>
   <trkpt lat="-37.83419" lon="145.33354">
    <ele>323.74</ele>
   </trkpt>
   <trkpt lat="-37.8339" lon="145.33331">
    <ele>330.39</ele>
   </trkpt>
   <trkpt lat="-37.83328" lon="145.33304">
    <ele>335.01000000000005</ele>
   </trkpt>
   <trkpt lat="-37.83321" lon="145.33290000000002">
    <ele>334.91</ele>
   </trkpt>
   <trkpt lat="-37.833200000000005" lon="145.33290000000002">
    <ele>203.43000000000004</ele>
   </trkpt>
   <trkpt lat="-37.83241500081526" lon="145.33331000430772">
    <ele>194.67000000000002</ele>
   </trkpt>
   <trkpt lat="-37.831630000000004" lon="145.33372">
    <ele>194.65</ele>
   </trkpt>
   <trkpt lat="-37.83155" lon="145.33374">
    <ele>195.07000000000002</ele>
   </trkpt>
   <trkpt lat="-37.83162" lon="145.33414000000002">
    <ele>200.25</ele>
   </trkpt>
   <trkpt lat="-37.831686671993126" lon="145.33493333196105">
    <ele>210.14000000000001</ele>
   </trkpt>
   <trkpt lat="-37.83175333866496" lon="145.3357266653558">
    <ele>218.02</ele>
   </trkpt>
   <trkpt lat="-37.83182" lon="145.33652">
    <ele>224.08</ele>
   </trkpt>
   <trkpt lat="-37.831830000000004" lon="145.33692000000002">
    <ele>228.5</ele>
   </trkpt>
   <trkpt lat="-37.83189" lon="145.33772000000002">
    <ele>241.47</ele>
   </trkpt>
   <trkpt lat="-37.83191" lon="145.33862000000002">
    <ele>257.61</ele>
   </trkpt>
   <trkpt lat="-37.831990000000005" lon="145.33924000000002">
    <ele>268.90000000000003</ele>
   </trkpt>
   <trkpt lat="-37.83211" lon="145.33979000000002">
    <ele>279.06</ele>
   </trkpt>
   <trkpt lat="-37.83212" lon="145.34007000000003">
    <ele>283.40000000000003</ele>
   </trkpt>
   <trkpt lat="-37.83225" lon="145.34052">
    <ele>290.88</ele>
   </trkpt>
   <trkpt lat="-37.83225" lon="145.34067000000002">
    <ele>293.88000000000005</ele>
   </trkpt>
   <trkpt lat="-37.832240000000006" lon="145.34091">
    <ele>299.31</ele>
   </trkpt>
   <trkpt lat="-37.83225" lon="145.34114000000002">
    <ele>306.85</ele>
   </trkpt>
   <trkpt lat="-37.83238" lon="145.34191">
    <ele>332.89</ele>
   </trkpt>
   <trkpt lat="-37.83243" lon="145.34215">
    <ele>338.2</ele>
   </trkpt>
   <trkpt lat="-37.83245" lon="145.34245">
    <ele>345.79</ele>
   </trkpt>
   <trkpt lat="-37.83249" lon="145.34262">
    <ele>355.82</ele>
   </trkpt>
   <trkpt lat="-37.83249" lon="145.34288">
    <ele>362.18</ele>
   </trkpt>
   <trkpt lat="-37.83261" lon="145.34326000000001">
    <ele>379.70000000000005</ele>
   </trkpt>
   <trkpt lat="-37.83258" lon="145.34358">
    <ele>389.12</ele>
   </trkpt>
   <trkpt lat="-37.83261" lon="145.34380000000002">
    <ele>396.44</ele>
   </trkpt>
   <trkpt lat="-37.83267" lon="145.34406">
    <ele>411.36000000000007</ele>
   </trkpt>
   <trkpt lat="-37.83276" lon="145.34487000000001">
    <ele>445.52000000000004</ele>
   </trkpt>
   <trkpt lat="-37.83278" lon="145.34532000000002">
    <ele>450.20000000000005</ele>
   </trkpt>
   <trkpt lat="-37.83283" lon="145.34573">
    <ele>477.37</ele>
   </trkpt>
   <trkpt lat="-37.83283" lon="145.34615000000002">
    <ele>498.93</ele>
   </trkpt>
   <trkpt lat="-37.83294" lon="145.34682">
    <ele>532.3</ele>
   </trkpt>
   <trkpt lat="-37.83294" lon="145.347">
    <ele>540.3</ele>
   </trkpt>
   <trkpt lat="-37.833000000000006" lon="145.34723000000002">
    <ele>545.46</ele>
   </trkpt>
   <trkpt lat="-37.833110000000005" lon="145.34797">
    <ele>579.67</ele>
   </trkpt>
   <trkpt lat="-37.833270000000006" lon="145.34803000000002">
    <ele>587.2400000000001</ele>
   </trkpt>
   <trkpt lat="-37.83346" lon="145.34808">
    <ele>595.53</ele>
   </trkpt>
   <trkpt lat="-37.833330000000004" lon="145.3484">
    <ele>596.14</ele>
   </trkpt>
   <trkpt lat="-37.83323" lon="145.34911000000002">
    <ele>592.0000000000001</ele>
   </trkpt>
   <trkpt lat="-37.83296" lon="145.34934">
    <ele>587.83</ele>
   </trkpt>
   <trkpt lat="-37.83287" lon="145.34947000000003">
    <ele>586.61</ele>
   </trkpt>
   <trkpt lat="-37.83274" lon="145.34954000000002">
    <ele>586.09</ele>
   </trkpt>
   <trkpt lat="-37.83267" lon="145.34969">
    <ele>585.47</ele>
   </trkpt>
   <trkpt lat="-37.83231" lon="145.35010000000003">
    <ele>577.88</ele>
   </trkpt>
   <trkpt lat="-37.83196" lon="145.35046">
    <ele>569.8000000000001</ele>
   </trkpt>
   <trkpt lat="-37.83162" lon="145.35071000000002">
    <ele>561.44</ele>
   </trkpt>
   <trkpt lat="-37.83122" lon="145.35091">
    <ele>555.71</ele>
   </trkpt>
   <trkpt lat="-37.83093" lon="145.35097000000002">
    <ele>555.6000000000001</ele>
   </trkpt>
   <trkpt lat="-37.83066" lon="145.35092">
    <ele>557.5300000000001</ele>
   </trkpt>
   <trkpt lat="-37.83032" lon="145.35069000000001">
    <ele>559.9000000000001</ele>
   </trkpt>
   <trkpt lat="-37.82999" lon="145.35055">
    <ele>563.08</ele>
   </trkpt>
   <trkpt lat="-37.82963" lon="145.35047">
    <ele>565.99</ele>
   </trkpt>
   <trkpt lat="-37.82943" lon="145.35047">
    <ele>568.4300000000001</ele>
   </trkpt>
   <trkpt lat="-37.82911" lon="145.35060000000001">
    <ele>574.07</ele>
   </trkpt>
   <trkpt lat="-37.828629999903704" lon="145.35060500003354">
    <ele>576.2400000000001</ele>
   </trkpt>
   <trkpt lat="-37.82815" lon="145.35061000000002">
    <ele>574.0200000000001</ele>
   </trkpt>
   <trkpt lat="-37.82758000003291" lon="145.35072500089296">
    <ele>574.86</ele>
   </trkpt>
   <trkpt lat="-37.82701" lon="145.35084">
    <ele>576.34</ele>
   </trkpt>
   <trkpt lat="-37.82658" lon="145.35101">
    <ele>575.73</ele>
   </trkpt>
   <trkpt lat="-37.82625" lon="145.35122">
    <ele>577.43</ele>
   </trkpt>
   <trkpt lat="-37.82625" lon="145.35123000000002">
    <ele>577.43</ele>
   </trkpt>
   <trkpt lat="-37.82596" lon="145.35162000000003">
    <ele>580.31</ele>
   </trkpt>
   <trkpt lat="-37.82558" lon="145.35231000000002">
    <ele>583.74</ele>
   </trkpt>
   <trkpt lat="-37.82551" lon="145.35260000000002">
    <ele>584.46</ele>
   </trkpt>
   <trkpt lat="-37.82547" lon="145.35287000000002">
    <ele>585.08</ele>
   </trkpt>
   <trkpt lat="-37.82553" lon="145.35331000000002">
    <ele>585.01</ele>
   </trkpt>
   <trkpt lat="-37.82555" lon="145.35337">
    <ele>585.01</ele>
   </trkpt>
   <trkpt lat="-37.82544" lon="145.35431">
    <ele>576.86</ele>
   </trkpt>
   <trkpt lat="-37.82535" lon="145.35486">
    <ele>573.43</ele>
   </trkpt>
   <trkpt lat="-37.82531" lon="145.35505">
    <ele>572.3900000000001</ele>
   </trkpt>
   <trkpt lat="-37.82529" lon="145.35529000000002">
    <ele>571.8000000000001</ele>
   </trkpt>
   <trkpt lat="-37.82529" lon="145.35569">
    <ele>571.1700000000001</ele>
   </trkpt>
   <trkpt lat="-37.82536" lon="145.35629">
    <ele>567.4800000000001</ele>
   </trkpt>
   <trkpt lat="-37.82526" lon="145.35688000000002">
    <ele>563.4100000000001</ele>
   </trkpt>
   <trkpt lat="-37.82524" lon="145.35717000000002">
    <ele>559.46</ele>
   </trkpt>
   <trkpt lat="-37.825250000000004" lon="145.35765">
    <ele>555.18</ele>
   </trkpt>
   <trkpt lat="-37.825" lon="145.35804000000002">
    <ele>546.76</ele>
   </trkpt>
   <trkpt lat="-37.82459401143359" lon="145.35886201807085">
    <ele>546.0400000000001</ele>
   </trkpt>
   <trkpt lat="-37.82418801715453" lon="145.3596840270975">
    <ele>546.9000000000001</ele>
   </trkpt>
   <trkpt lat="-37.82378201716296" lon="145.36050602708002">
    <ele>547.6500000000001</ele>
   </trkpt>
   <trkpt lat="-37.823376011459025" lon="145.36132801801855">
    <ele>545.18</ele>
   </trkpt>
   <trkpt lat="-37.822970000000005" lon="145.36215">
    <ele>540.4100000000001</ele>
   </trkpt>
   <trkpt lat="-37.82370500232016" lon="145.36257998713828">
    <ele>533.1100000000001</ele>
   </trkpt>
   <trkpt lat="-37.82444000307716" lon="145.3630099828412">
    <ele>520.45</ele>
   </trkpt>
   <trkpt lat="-37.82517500227097" lon="145.3634399871091">
    <ele>513.99</ele>
   </trkpt>
   <trkpt lat="-37.82591" lon="145.36387000000002">
    <ele>510.70000000000005</ele>
   </trkpt>
   <trkpt lat="-37.82669571955849" lon="145.36432568517512">
    <ele>509.69000000000005</ele>
   </trkpt>
   <trkpt lat="-37.827481437361385" lon="145.364781380054">
    <ele>503.96000000000004</ele>
   </trkpt>
   <trkpt lat="-37.82826715340857" lon="145.36523708463724">
    <ele>498.68000000000006</ele>
   </trkpt>
   <trkpt lat="-37.829052867699986" lon="145.36569279892524">
    <ele>494.52</ele>
   </trkpt>
   <trkpt lat="-37.82983858023553" lon="145.36614852291845">
    <ele>493.03000000000003</ele>
   </trkpt>
   <trkpt lat="-37.83062429101513" lon="145.36660425661736">
    <ele>486.98</ele>
   </trkpt>
   <trkpt lat="-37.831410000000005" lon="145.36706">
    <ele>475.68000000000006</ele>
   </trkpt>
   <trkpt lat="-37.83216500091277" lon="145.36748999567442">
    <ele>462.91</ele>
   </trkpt>
   <trkpt lat="-37.83292" lon="145.36792">
    <ele>452.25000000000006</ele>
   </trkpt>
   <trkpt lat="-37.833250003703235" lon="145.36857999413616">
    <ele>445.00000000000006</ele>
   </trkpt>
   <trkpt lat="-37.83358000372351" lon="145.36923999417667">
    <ele>440.09000000000003</ele>
   </trkpt>
   <trkpt lat="-37.83391" lon="145.3699">
    <ele>434.88000000000005</ele>
   </trkpt>
   <trkpt lat="-37.834120000000006" lon="145.36987000000002">
    <ele>442.47</ele>
   </trkpt>
   <trkpt lat="-37.8346" lon="145.36926000000003">
    <ele>444.40000000000003</ele>
   </trkpt>
   <trkpt lat="-37.83482" lon="145.36849">
    <ele>433.8</ele>
   </trkpt>
   <trkpt lat="-37.83514" lon="145.36766">
    <ele>420.54</ele>
   </trkpt>
   <trkpt lat="-37.83522" lon="145.36747000000003">
    <ele>418.49</ele>
   </trkpt>
   <trkpt lat="-37.835280000000004" lon="145.3676">
    <ele>418.12000000000006</ele>
   </trkpt>
   <trkpt lat="-37.83527" lon="145.36759">
    <ele>418.12000000000006</ele>
   </trkpt>
   <trkpt lat="-37.83536" lon="145.3684">
    <ele>419.2</ele>
   </trkpt>
   <trkpt lat="-37.83547" lon="145.36883">
    <ele>418.58</ele>
   </trkpt>
   <trkpt lat="-37.83558" lon="145.36916000000002">
    <ele>417.92</ele>
   </trkpt>
   <trkpt lat="-37.83572" lon="145.36931">
    <ele>416.38</ele>
   </trkpt>
   <trkpt lat="-37.83583" lon="145.36949">
    <ele>413.32</ele>
   </trkpt>
   <trkpt lat="-37.83583" lon="145.36973">
    <ele>412.47</ele>
   </trkpt>
   <trkpt lat="-37.83578" lon="145.37018">
    <ele>409.84000000000003</ele>
   </trkpt>
   <trkpt lat="-37.83576" lon="145.37064">
    <ele>404.14000000000004</ele>
   </trkpt>
   <trkpt lat="-37.83574" lon="145.37077000000002">
    <ele>403.19000000000005</ele>
   </trkpt>
   <trkpt lat="-37.83542500136263" lon="145.37131500214215">
    <ele>400.3</ele>
   </trkpt>
   <trkpt lat="-37.83511" lon="145.37186">
    <ele>425.64</ele>
   </trkpt>
   <trkpt lat="-37.835330000000006" lon="145.37207">
    <ele>421.04</ele>
   </trkpt>
   <trkpt lat="-37.83534" lon="145.37275000000002">
    <ele>410.99</ele>
   </trkpt>
   <trkpt lat="-37.835190000000004" lon="145.37310000000002">
    <ele>401.88</ele>
   </trkpt>
   <trkpt lat="-37.835060000000006" lon="145.37332">
    <ele>401.38</ele>
   </trkpt>
   <trkpt lat="-37.834790000000005" lon="145.37364000000002">
    <ele>399.44</ele>
   </trkpt>
   <trkpt lat="-37.834880000000005" lon="145.37409000000002">
    <ele>387.48</ele>
   </trkpt>
   <trkpt lat="-37.83478" lon="145.37412">
    <ele>380.72</ele>
   </trkpt>
   <trkpt lat="-37.83442" lon="145.37417000000002">
    <ele>374.4</ele>
   </trkpt>
   <trkpt lat="-37.83413" lon="145.37428">
    <ele>363.72</ele>
   </trkpt>
   <trkpt lat="-37.83379" lon="145.3745">
    <ele>354.16</ele>
   </trkpt>
   <trkpt lat="-37.8337" lon="145.37454000000002">
    <ele>352.22</ele>
   </trkpt>
   <trkpt lat="-37.83357" lon="145.37456">
    <ele>350.01000000000005</ele>
   </trkpt>
   <trkpt lat="-37.83328" lon="145.37453000000002">
    <ele>347.14</ele>
   </trkpt>
   <trkpt lat="-37.83283" lon="145.37455">
    <ele>342.76</ele>
   </trkpt>
   <trkpt lat="-37.83261" lon="145.37459">
    <ele>339.33000000000004</ele>
   </trkpt>
   <trkpt lat="-37.83238" lon="145.37460000000002">
    <ele>336.64000000000004</ele>
   </trkpt>
   <trkpt lat="-37.83209" lon="145.37465">
    <ele>335.48</ele>
   </trkpt>
   <trkpt lat="-37.8316" lon="145.37477">
    <ele>335.71</ele>
   </trkpt>
   <trkpt lat="-37.83142" lon="145.37479000000002">
    <ele>335.9200000000001</ele>
   </trkpt>
   <trkpt lat="-37.83099" lon="145.37507000000002">
    <ele>331.44</ele>
   </trkpt>
   <trkpt lat="-37.8305" lon="145.3753">
    <ele>326.63000000000005</ele>
   </trkpt>
   <trkpt lat="-37.83019" lon="145.37533000000002">
    <ele>324.99</ele>
   </trkpt>
   <trkpt lat="-37.8299" lon="145.37518">
    <ele>316.69</ele>
   </trkpt>
   <trkpt lat="-37.8297" lon="145.37526000000003">
    <ele>308.53000000000003</ele>
   </trkpt>
   <trkpt lat="-37.82947" lon="145.37548">
    <ele>300.94000000000005</ele>
   </trkpt>
   <trkpt lat="-37.82934" lon="145.37553">
    <ele>299.81</ele>
   </trkpt>
   <trkpt lat="-37.82909" lon="145.37557">
    <ele>293.25</ele>
   </trkpt>
   <trkpt lat="-37.82898" lon="145.37562">
    <ele>288.32</ele>
   </trkpt>
   <trkpt lat="-37.82884" lon="145.37587000000002">
    <ele>282.29</ele>
   </trkpt>
   <trkpt lat="-37.82876" lon="145.37608">
    <ele>275.55</ele>
   </trkpt>
   <trkpt lat="-37.82837" lon="145.37608">
    <ele>305.19</ele>
   </trkpt>
   <trkpt lat="-37.828250000000004" lon="145.37604000000002">
    <ele>281.91</ele>
   </trkpt>
   <trkpt lat="-37.82835" lon="145.37609">
    <ele>280.03</ele>
   </trkpt>
   <trkpt lat="-37.82876" lon="145.37608">
    <ele>275.55</ele>
   </trkpt>
   <trkpt lat="-37.828880000000005" lon="145.37612000000001">
    <ele>275.65</ele>
   </trkpt>
   <trkpt lat="-37.828920000000004" lon="145.37623000000002">
    <ele>275.59</ele>
   </trkpt>
   <trkpt lat="-37.82893" lon="145.37641000000002">
    <ele>275.16</ele>
   </trkpt>
   <trkpt lat="-37.82887" lon="145.37672">
    <ele>274.98</ele>
   </trkpt>
   <trkpt lat="-37.82873" lon="145.37708">
    <ele>274.09</ele>
   </trkpt>
   <trkpt lat="-37.8286" lon="145.37732000000003">
    <ele>273.2</ele>
   </trkpt>
   <trkpt lat="-37.82824" lon="145.37775000000002">
    <ele>267.64000000000004</ele>
   </trkpt>
   <trkpt lat="-37.827920000000006" lon="145.37805">
    <ele>265.43</ele>
   </trkpt>
   <trkpt lat="-37.82799" lon="145.37812000000002">
    <ele>265.77</ele>
   </trkpt>
   <trkpt lat="-37.82799" lon="145.37820000000002">
    <ele>266.26</ele>
   </trkpt>
   <trkpt lat="-37.82793" lon="145.37837000000002">
    <ele>267.36</ele>
   </trkpt>
   <trkpt lat="-37.8279" lon="145.3785">
    <ele>268.45</ele>
   </trkpt>
   <trkpt lat="-37.82797" lon="145.37873000000002">
    <ele>272.09</ele>
   </trkpt>
   <trkpt lat="-37.82797" lon="145.37874000000002">
    <ele>272.09</ele>
   </trkpt>
   <trkpt lat="-37.828120000000006" lon="145.37881000000002">
    <ele>274.12</ele>
   </trkpt>
   <trkpt lat="-37.8282" lon="145.37878">
    <ele>277.17</ele>
   </trkpt>
   <trkpt lat="-37.82833" lon="145.37879">
    <ele>278.82</ele>
   </trkpt>
   <trkpt lat="-37.82882" lon="145.37863000000002">
    <ele>288.09000000000003</ele>
   </trkpt>
   <trkpt lat="-37.82907" lon="145.3786">
    <ele>293.34999999999997</ele>
   </trkpt>
   <trkpt lat="-37.82954" lon="145.37861">
    <ele>305.93</ele>
   </trkpt>
   <trkpt lat="-37.82981" lon="145.37858">
    <ele>314.1</ele>
   </trkpt>
   <trkpt lat="-37.8299" lon="145.37852">
    <ele>314.1</ele>
   </trkpt>
   <trkpt lat="-37.8301" lon="145.37836000000001">
    <ele>320.27</ele>
   </trkpt>
   <trkpt lat="-37.83032" lon="145.37802000000002">
    <ele>329.32</ele>
   </trkpt>
   <trkpt lat="-37.83088" lon="145.37755">
    <ele>349.0</ele>
   </trkpt>
   <trkpt lat="-37.83106" lon="145.37746">
    <ele>358.04</ele>
   </trkpt>
   <trkpt lat="-37.83131" lon="145.37743">
    <ele>363.46</ele>
   </trkpt>
   <trkpt lat="-37.83164" lon="145.37725">
    <ele>370.00000000000006</ele>
   </trkpt>
   <trkpt lat="-37.83187" lon="145.37702000000002">
    <ele>372.57</ele>
   </trkpt>
   <trkpt lat="-37.83202" lon="145.37691">
    <ele>373.96</ele>
   </trkpt>
   <trkpt lat="-37.83211" lon="145.37687000000003">
    <ele>375.03000000000003</ele>
   </trkpt>
   <trkpt lat="-37.8324" lon="145.37684000000002">
    <ele>380.62</ele>
   </trkpt>
   <trkpt lat="-37.83274" lon="145.37673">
    <ele>385.08000000000004</ele>
   </trkpt>
   <trkpt lat="-37.8329" lon="145.37657000000002">
    <ele>386.51</ele>
   </trkpt>
   <trkpt lat="-37.83314" lon="145.37650000000002">
    <ele>388.06</ele>
   </trkpt>
   <trkpt lat="-37.83343" lon="145.37654">
    <ele>390.48</ele>
   </trkpt>
   <trkpt lat="-37.83388" lon="145.37678000000002">
    <ele>394.06</ele>
   </trkpt>
   <trkpt lat="-37.83408" lon="145.37692">
    <ele>397.49</ele>
   </trkpt>
   <trkpt lat="-37.83446" lon="145.37709">
    <ele>404.03000000000003</ele>
   </trkpt>
   <trkpt lat="-37.83475" lon="145.37727">
    <ele>411.16</ele>
   </trkpt>
   <trkpt lat="-37.83498" lon="145.3775">
    <ele>415.06000000000006</ele>
   </trkpt>
   <trkpt lat="-37.83518" lon="145.37775000000002">
    <ele>419.28000000000003</ele>
   </trkpt>
   <trkpt lat="-37.83545" lon="145.37794000000002">
    <ele>425.28000000000003</ele>
   </trkpt>
   <trkpt lat="-37.83556" lon="145.37798">
    <ele>426.64</ele>
   </trkpt>
   <trkpt lat="-37.83565" lon="145.37799">
    <ele>427.86</ele>
   </trkpt>
   <trkpt lat="-37.83592" lon="145.37798">
    <ele>431.24</ele>
   </trkpt>
   <trkpt lat="-37.8361" lon="145.37802000000002">
    <ele>434.1</ele>
   </trkpt>
   <trkpt lat="-37.83619" lon="145.37801000000002">
    <ele>435.34000000000003</ele>
   </trkpt>
   <trkpt lat="-37.836310000000005" lon="145.37792000000002">
    <ele>436.65000000000003</ele>
   </trkpt>
   <trkpt lat="-37.83672000053975" lon="145.3775850018086">
    <ele>431.39000000000004</ele>
   </trkpt>
   <trkpt lat="-37.83713" lon="145.37725">
    <ele>426.44000000000005</ele>
   </trkpt>
   <trkpt lat="-37.83722" lon="145.37716">
    <ele>424.63</ele>
   </trkpt>
   <trkpt lat="-37.83731" lon="145.37695000000002">
    <ele>421.18000000000006</ele>
   </trkpt>
   <trkpt lat="-37.83731" lon="145.37681">
    <ele>420.58</ele>
   </trkpt>
   <trkpt lat="-37.83722" lon="145.37645">
    <ele>415.89000000000004</ele>
   </trkpt>
   <trkpt lat="-37.83724" lon="145.3762">
    <ele>414.51000000000005</ele>
   </trkpt>
   <trkpt lat="-37.83724" lon="145.37557">
    <ele>409.77000000000004</ele>
   </trkpt>
   <trkpt lat="-37.83728" lon="145.37513">
    <ele>407.82</ele>
   </trkpt>
   <trkpt lat="-37.83731" lon="145.37496000000002">
    <ele>407.77000000000004</ele>
   </trkpt>
   <trkpt lat="-37.83738" lon="145.37475">
    <ele>408.05</ele>
   </trkpt>
   <trkpt lat="-37.83735" lon="145.37466">
    <ele>407.9200000000001</ele>
   </trkpt>
   <trkpt lat="-37.83746" lon="145.37449">
    <ele>406.88</ele>
   </trkpt>
   <trkpt lat="-37.83764" lon="145.37427000000002">
    <ele>401.87000000000006</ele>
   </trkpt>
   <trkpt lat="-37.83784" lon="145.37368">
    <ele>392.67</ele>
   </trkpt>
   <trkpt lat="-37.83793" lon="145.37357">
    <ele>389.41</ele>
   </trkpt>
   <trkpt lat="-37.83805" lon="145.37351">
    <ele>388.36</ele>
   </trkpt>
   <trkpt lat="-37.83823" lon="145.37348">
    <ele>384.15000000000003</ele>
   </trkpt>
   <trkpt lat="-37.83822" lon="145.37348">
    <ele>384.15000000000003</ele>
   </trkpt>
   <trkpt lat="-37.83847" lon="145.37354000000002">
    <ele>379.68</ele>
   </trkpt>
   <trkpt lat="-37.83858" lon="145.37359">
    <ele>378.59000000000003</ele>
   </trkpt>
   <trkpt lat="-37.83883" lon="145.37376">
    <ele>378.48</ele>
   </trkpt>
   <trkpt lat="-37.8391" lon="145.37399000000002">
    <ele>377.94000000000005</ele>
   </trkpt>
   <trkpt lat="-37.83921" lon="145.37414">
    <ele>377.37</ele>
   </trkpt>
   <trkpt lat="-37.83948000278583" lon="145.374949997071">
    <ele>369.41</ele>
   </trkpt>
   <trkpt lat="-37.83975" lon="145.37576">
    <ele>361.17</ele>
   </trkpt>
   <trkpt lat="-37.839995001151586" lon="145.37628499822682">
    <ele>354.26</ele>
   </trkpt>
   <trkpt lat="-37.84024" lon="145.37681">
    <ele>348.63000000000005</ele>
   </trkpt>
   <trkpt lat="-37.84046" lon="145.37711000000002">
    <ele>344.44</ele>
   </trkpt>
   <trkpt lat="-37.84089" lon="145.37754">
    <ele>336.08000000000004</ele>
   </trkpt>
   <trkpt lat="-37.840970000000006" lon="145.37764">
    <ele>335.14000000000004</ele>
   </trkpt>
   <trkpt lat="-37.840990000000005" lon="145.37779">
    <ele>334.66</ele>
   </trkpt>
   <trkpt lat="-37.84103" lon="145.37786">
    <ele>334.64000000000004</ele>
   </trkpt>
   <trkpt lat="-37.84122" lon="145.37847000000002">
    <ele>331.70000000000005</ele>
   </trkpt>
   <trkpt lat="-37.84154" lon="145.37922">
    <ele>329.65000000000003</ele>
   </trkpt>
   <trkpt lat="-37.84185" lon="145.37971000000002">
    <ele>327.38</ele>
   </trkpt>
   <trkpt lat="-37.84201" lon="145.38002">
    <ele>325.8</ele>
   </trkpt>
   <trkpt lat="-37.84205" lon="145.38012">
    <ele>325.55</ele>
   </trkpt>
   <trkpt lat="-37.84223" lon="145.38017000000002">
    <ele>327.79</ele>
   </trkpt>
   <trkpt lat="-37.842380000000006" lon="145.38016000000002">
    <ele>331.11</ele>
   </trkpt>
   <trkpt lat="-37.8425" lon="145.38008000000002">
    <ele>334.27</ele>
   </trkpt>
   <trkpt lat="-37.84257" lon="145.37998000000002">
    <ele>335.94</ele>
   </trkpt>
   <trkpt lat="-37.84277" lon="145.37985">
    <ele>340.41</ele>
   </trkpt>
   <trkpt lat="-37.84297" lon="145.37982000000002">
    <ele>342.75000000000006</ele>
   </trkpt>
   <trkpt lat="-37.84315" lon="145.37983">
    <ele>346.2</ele>
   </trkpt>
   <trkpt lat="-37.84396" lon="145.38022">
    <ele>358.23</ele>
   </trkpt>
   <trkpt lat="-37.84431" lon="145.38042000000002">
    <ele>363.65000000000003</ele>
   </trkpt>
   <trkpt lat="-37.844440000000006" lon="145.3804">
    <ele>366.75</ele>
   </trkpt>
   <trkpt lat="-37.84449" lon="145.38033000000001">
    <ele>369.20000000000005</ele>
   </trkpt>
   <trkpt lat="-37.84451" lon="145.3802">
    <ele>369.96</ele>
   </trkpt>
   <trkpt lat="-37.84451" lon="145.38000000000002">
    <ele>370.68</ele>
   </trkpt>
   <trkpt lat="-37.8444" lon="145.37967">
    <ele>375.33000000000004</ele>
   </trkpt>
   <trkpt lat="-37.84427" lon="145.37936000000002">
    <ele>380.78</ele>
   </trkpt>
   <trkpt lat="-37.84411" lon="145.37913">
    <ele>384.83</ele>
   </trkpt>
   <trkpt lat="-37.84375" lon="145.37878">
    <ele>389.31000000000006</ele>
   </trkpt>
   <trkpt lat="-37.84333" lon="145.37800000000001">
    <ele>399.66</ele>
   </trkpt>
   <trkpt lat="-37.84326" lon="145.3778">
    <ele>402.07000000000005</ele>
   </trkpt>
   <trkpt lat="-37.84324" lon="145.37767000000002">
    <ele>403.20000000000005</ele>
   </trkpt>
   <trkpt lat="-37.84326" lon="145.37756000000002">
    <ele>404.58000000000004</ele>
   </trkpt>
   <trkpt lat="-37.84333" lon="145.37742">
    <ele>407.13000000000005</ele>
   </trkpt>
   <trkpt lat="-37.84346" lon="145.37734">
    <ele>408.09</ele>
   </trkpt>
   <trkpt lat="-37.8436" lon="145.37728">
    <ele>412.13000000000005</ele>
   </trkpt>
   <trkpt lat="-37.84384" lon="145.37723000000003">
    <ele>418.44</ele>
   </trkpt>
   <trkpt lat="-37.84431" lon="145.37730000000002">
    <ele>428.97</ele>
   </trkpt>
   <trkpt lat="-37.84492" lon="145.37729000000002">
    <ele>439.92</ele>
   </trkpt>
   <trkpt lat="-37.84523" lon="145.37737">
    <ele>444.01</ele>
   </trkpt>
   <trkpt lat="-37.84582" lon="145.37730000000002">
    <ele>457.39</ele>
   </trkpt>
   <trkpt lat="-37.8459" lon="145.37727">
    <ele>457.39</ele>
   </trkpt>
   <trkpt lat="-37.8461" lon="145.37725">
    <ele>461.55</ele>
   </trkpt>
   <trkpt lat="-37.84633" lon="145.37718">
    <ele>466.3</ele>
   </trkpt>
   <trkpt lat="-37.84646" lon="145.37716">
    <ele>469.30000000000007</ele>
   </trkpt>
   <trkpt lat="-37.84666" lon="145.37718">
    <ele>472.73</ele>
   </trkpt>
   <trkpt lat="-37.8468" lon="145.37722000000002">
    <ele>472.73</ele>
   </trkpt>
   <trkpt lat="-37.84729" lon="145.37757000000002">
    <ele>482.26</ele>
   </trkpt>
   <trkpt lat="-37.84742" lon="145.3778">
    <ele>483.42</ele>
   </trkpt>
   <trkpt lat="-37.84747" lon="145.37811000000002">
    <ele>483.46000000000004</ele>
   </trkpt>
   <trkpt lat="-37.8476" lon="145.37832">
    <ele>482.98</ele>
   </trkpt>
   <trkpt lat="-37.84774" lon="145.37846000000002">
    <ele>483.17</ele>
   </trkpt>
   <trkpt lat="-37.84794" lon="145.37849">
    <ele>483.79</ele>
   </trkpt>
   <trkpt lat="-37.84825" lon="145.37846000000002">
    <ele>485.69000000000005</ele>
   </trkpt>
   <trkpt lat="-37.84848" lon="145.3784">
    <ele>486.93</ele>
   </trkpt>
   <trkpt lat="-37.8491" lon="145.37814">
    <ele>492.7</ele>
   </trkpt>
   <trkpt lat="-37.84951" lon="145.37792000000002">
    <ele>498.75</ele>
   </trkpt>
   <trkpt lat="-37.84964" lon="145.37782">
    <ele>500.46</ele>
   </trkpt>
   <trkpt lat="-37.85029" lon="145.3775">
    <ele>508.28000000000003</ele>
   </trkpt>
   <trkpt lat="-37.85047" lon="145.37738000000002">
    <ele>509.46000000000004</ele>
   </trkpt>
   <trkpt lat="-37.85085" lon="145.37730000000002">
    <ele>512.27</ele>
   </trkpt>
   <trkpt lat="-37.85121" lon="145.37741000000003">
    <ele>513.02</ele>
   </trkpt>
   <trkpt lat="-37.85157" lon="145.3776">
    <ele>510.75</ele>
   </trkpt>
   <trkpt lat="-37.85172" lon="145.37773">
    <ele>509.9100000000001</ele>
   </trkpt>
   <trkpt lat="-37.85188" lon="145.37808">
    <ele>507.13000000000005</ele>
   </trkpt>
   <trkpt lat="-37.85201" lon="145.37857000000002">
    <ele>505.2000000000001</ele>
   </trkpt>
   <trkpt lat="-37.85228" lon="145.37909000000002">
    <ele>507.6</ele>
   </trkpt>
   <trkpt lat="-37.85251" lon="145.37935000000002">
    <ele>509.06000000000006</ele>
   </trkpt>
   <trkpt lat="-37.85282" lon="145.3796">
    <ele>511.57000000000005</ele>
   </trkpt>
   <trkpt lat="-37.85293" lon="145.37961">
    <ele>512.0300000000001</ele>
   </trkpt>
   <trkpt lat="-37.85293" lon="145.37962000000002">
    <ele>512.0300000000001</ele>
   </trkpt>
   <trkpt lat="-37.853080000000006" lon="145.37959">
    <ele>512.57</ele>
   </trkpt>
   <trkpt lat="-37.85336" lon="145.37931">
    <ele>512.9100000000001</ele>
   </trkpt>
   <trkpt lat="-37.85351" lon="145.37909000000002">
    <ele>515.35</ele>
   </trkpt>
   <trkpt lat="-37.85387" lon="145.37866000000002">
    <ele>522.5500000000001</ele>
   </trkpt>
   <trkpt lat="-37.85427" lon="145.37793000000002">
    <ele>534.5500000000001</ele>
   </trkpt>
   <trkpt lat="-37.85468" lon="145.37728">
    <ele>546.7</ele>
   </trkpt>
   <trkpt lat="-37.854960000000005" lon="145.37689">
    <ele>552.22</ele>
   </trkpt>
   <trkpt lat="-37.85501" lon="145.37684000000002">
    <ele>554.2900000000001</ele>
   </trkpt>
   <trkpt lat="-37.85533" lon="145.37614000000002">
    <ele>564.44</ele>
   </trkpt>
   <trkpt lat="-37.85571" lon="145.37552000000002">
    <ele>570.85</ele>
   </trkpt>
   <trkpt lat="-37.85604" lon="145.37508000000003">
    <ele>573.6</ele>
   </trkpt>
   <trkpt lat="-37.85622" lon="145.37490000000003">
    <ele>575.71</ele>
   </trkpt>
   <trkpt lat="-37.856260000000006" lon="145.37480000000002">
    <ele>573.5600000000001</ele>
   </trkpt>
   <trkpt lat="-37.85568" lon="145.3742">
    <ele>578.0500000000001</ele>
   </trkpt>
   <trkpt lat="-37.85535" lon="145.37377">
    <ele>577.69</ele>
   </trkpt>
   <trkpt lat="-37.85488000120315" lon="145.37321999640463">
    <ele>573.28</ele>
   </trkpt>
   <trkpt lat="-37.85441" lon="145.37267">
    <ele>575.11</ele>
   </trkpt>
   <trkpt lat="-37.85423" lon="145.37241">
    <ele>575.34</ele>
   </trkpt>
   <trkpt lat="-37.85414" lon="145.37214">
    <ele>575.83</ele>
   </trkpt>
   <trkpt lat="-37.854110000000006" lon="145.37167000000002">
    <ele>575.6300000000001</ele>
   </trkpt>
   <trkpt lat="-37.85412" lon="145.37136">
    <ele>575.5300000000001</ele>
   </trkpt>
   <trkpt lat="-37.85418500258436" lon="145.3705750009485">
    <ele>573.16</ele>
   </trkpt>
   <trkpt lat="-37.85425" lon="145.36979000000002">
    <ele>568.8100000000001</ele>
   </trkpt>
   <trkpt lat="-37.854290000000006" lon="145.36961000000002">
    <ele>568.15</ele>
   </trkpt>
   <trkpt lat="-37.85439" lon="145.36938">
    <ele>567.99</ele>
   </trkpt>
   <trkpt lat="-37.854490000000006" lon="145.36918">
    <ele>568.06</ele>
   </trkpt>
   <trkpt lat="-37.854670000000006" lon="145.36894">
    <ele>567.9399999999999</ele>
   </trkpt>
   <trkpt lat="-37.85506" lon="145.36844000000002">
    <ele>568.49</ele>
   </trkpt>
   <trkpt lat="-37.85515" lon="145.3683">
    <ele>568.49</ele>
   </trkpt>
   <trkpt lat="-37.8553" lon="145.36786">
    <ele>569.19</ele>
   </trkpt>
   <trkpt lat="-37.85546000624432" lon="145.36700000378815">
    <ele>568.55</ele>
   </trkpt>
   <trkpt lat="-37.85562000623413" lon="145.36614000384301">
    <ele>568.33</ele>
   </trkpt>
   <trkpt lat="-37.85578" lon="145.36528">
    <ele>569.07</ele>
   </trkpt>
   <trkpt lat="-37.85582" lon="145.36509">
    <ele>568.52</ele>
   </trkpt>
   <trkpt lat="-37.85589" lon="145.36499">
    <ele>568.0400000000001</ele>
   </trkpt>
   <trkpt lat="-37.85589" lon="145.36474">
    <ele>568.8100000000001</ele>
   </trkpt>
   <trkpt lat="-37.85595" lon="145.36441000000002">
    <ele>569.2900000000001</ele>
   </trkpt>
   <trkpt lat="-37.855940000000004" lon="145.36425">
    <ele>569.08</ele>
   </trkpt>
   <trkpt lat="-37.85591" lon="145.36418">
    <ele>569.08</ele>
   </trkpt>
   <trkpt lat="-37.85598" lon="145.36412">
    <ele>571.84</ele>
   </trkpt>
   <trkpt lat="-37.85604" lon="145.36396000000002">
    <ele>572.25</ele>
   </trkpt>
   <trkpt lat="-37.85622" lon="145.36302">
    <ele>577.5600000000001</ele>
   </trkpt>
   <trkpt lat="-37.856280000000005" lon="145.36256">
    <ele>580.0300000000001</ele>
   </trkpt>
   <trkpt lat="-37.85645500221492" lon="145.36184000161498">
    <ele>587.0000000000001</ele>
   </trkpt>
   <trkpt lat="-37.85663" lon="145.36112">
    <ele>595.6700000000001</ele>
   </trkpt>
   <trkpt lat="-37.85667" lon="145.36065000000002">
    <ele>600.5</ele>
   </trkpt>
   <trkpt lat="-37.856880000000004" lon="145.35975000000002">
    <ele>598.41</ele>
   </trkpt>
   <trkpt lat="-37.857020000000006" lon="145.35925">
    <ele>592.2400000000001</ele>
   </trkpt>
   <trkpt lat="-37.85711500268657" lon="145.35845500090642">
    <ele>581.2900000000001</ele>
   </trkpt>
   <trkpt lat="-37.85721" lon="145.35766">
    <ele>575.0500000000001</ele>
   </trkpt>
   <trkpt lat="-37.85748" lon="145.35684">
    <ele>574.67</ele>
   </trkpt>
   <trkpt lat="-37.85752" lon="145.35645000000002">
    <ele>574.62</ele>
   </trkpt>
   <trkpt lat="-37.85745" lon="145.35598000000002">
    <ele>573.9399999999999</ele>
   </trkpt>
   <trkpt lat="-37.85756000000001" lon="145.35572000000002">
    <ele>576.61</ele>
   </trkpt>
   <trkpt lat="-37.85765" lon="145.35573000000002">
    <ele>575.95</ele>
   </trkpt>
   <trkpt lat="-37.85774" lon="145.3557">
    <ele>575.0200000000001</ele>
   </trkpt>
   <trkpt lat="-37.85792" lon="145.35547000000003">
    <ele>571.45</ele>
   </trkpt>
   <trkpt lat="-37.85826" lon="145.35524">
    <ele>562.79</ele>
   </trkpt>
   <trkpt lat="-37.85846" lon="145.35508000000002">
    <ele>555.03</ele>
   </trkpt>
   <trkpt lat="-37.85866" lon="145.35498">
    <ele>550.59</ele>
   </trkpt>
   <trkpt lat="-37.85877" lon="145.35487">
    <ele>545.71</ele>
   </trkpt>
   <trkpt lat="-37.85889" lon="145.35466000000002">
    <ele>543.1600000000001</ele>
   </trkpt>
   <trkpt lat="-37.85915" lon="145.35439000000002">
    <ele>530.08</ele>
   </trkpt>
   <trkpt lat="-37.85942" lon="145.35421000000002">
    <ele>523.6500000000001</ele>
   </trkpt>
   <trkpt lat="-37.85956" lon="145.35415">
    <ele>517.85</ele>
   </trkpt>
   <trkpt lat="-37.85978" lon="145.35421000000002">
    <ele>514.2800000000001</ele>
   </trkpt>
   <trkpt lat="-37.860060000000004" lon="145.35438000000002">
    <ele>513.07</ele>
   </trkpt>
   <trkpt lat="-37.860325000891734" lon="145.35484499828854">
    <ele>515.1</ele>
   </trkpt>
   <trkpt lat="-37.86059" lon="145.35531">
    <ele>511.46000000000004</ele>
   </trkpt>
   <trkpt lat="-37.86061" lon="145.35545000000002">
    <ele>510.33000000000004</ele>
   </trkpt>
   <trkpt lat="-37.86063" lon="145.35594">
    <ele>498.27000000000004</ele>
   </trkpt>
   <trkpt lat="-37.86074" lon="145.3561">
    <ele>494.18000000000006</ele>
   </trkpt>
   <trkpt lat="-37.86084" lon="145.3562">
    <ele>491.69</ele>
   </trkpt>
   <trkpt lat="-37.86079" lon="145.35600000000002">
    <ele>491.27000000000004</ele>
   </trkpt>
   <trkpt lat="-37.86079" lon="145.35580000000002">
    <ele>491.06000000000006</ele>
   </trkpt>
   <trkpt lat="-37.86086" lon="145.35562000000002">
    <ele>490.63000000000005</ele>
   </trkpt>
   <trkpt lat="-37.86108" lon="145.35531">
    <ele>489.25</ele>
   </trkpt>
   <trkpt lat="-37.86153" lon="145.35481000000001">
    <ele>486.16</ele>
   </trkpt>
   <trkpt lat="-37.86198" lon="145.35437000000002">
    <ele>481.56000000000006</ele>
   </trkpt>
   <trkpt lat="-37.86229" lon="145.35409">
    <ele>480.28000000000003</ele>
   </trkpt>
   <trkpt lat="-37.8626" lon="145.35387">
    <ele>479.12000000000006</ele>
   </trkpt>
  </trkseg>
 </trk>
</gpx>
