<?xml version="1.0" encoding="UTF-8"?>
<gpx creator="StravaGPX" version="1.1" xmlns="http://www.topografix.com/GPX/1/1" xmlns:xsi="http://www.w3.org/2001/XMLSchema-instance" xsi:schemaLocation="http://www.topografix.com/GPX/1/1 http://www.topografix.com/GPX/1/1/gpx.xsd">
 <metadata>
  <name>DTR 18 Sept 20k</name>
  <author>
   <name>john csorgo</name>
  </author>
  <copyright author="OpenStreetMap contributors">
   <year>2020</year>
   <license>https://www.openstreetmap.org/copyright</license>
  </copyright>
 </metadata>
 <trk>
  <name>DTR 18 Sept 20k</name>
  <link href=""/>
  <type>running</type>
  <trkseg>
   <trkpt lat="-37.877100000000006" lon="145.35656">
    <ele>459.91</ele>
   </trkpt>
   <trkpt lat="-37.877030000000005" lon="145.35636000000002">
    <ele>460.14000000000004</ele>
   </trkpt>
   <trkpt lat="-37.87684500131269" lon="145.3558149987978">
    <ele>460.05</ele>
   </trkpt>
   <trkpt lat="-37.87666" lon="145.35527000000002">
    <ele>463.11</ele>
   </trkpt>
   <trkpt lat="-37.87666" lon="145.35511000000002">
    <ele>465.23</ele>
   </trkpt>
   <trkpt lat="-37.8767" lon="145.35494">
    <ele>467.20000000000005</ele>
   </trkpt>
   <trkpt lat="-37.87684" lon="145.35466000000002">
    <ele>469.51000000000005</ele>
   </trkpt>
   <trkpt lat="-37.87702" lon="145.35441">
    <ele>472.08000000000004</ele>
   </trkpt>
   <trkpt lat="-37.87731" lon="145.35406">
    <ele>473.67</ele>
   </trkpt>
   <trkpt lat="-37.8776" lon="145.35354">
    <ele>476.69000000000005</ele>
   </trkpt>
   <trkpt lat="-37.87773" lon="145.35335">
    <ele>477.96000000000004</ele>
   </trkpt>
   <trkpt lat="-37.87782" lon="145.35314000000002">
    <ele>479.26</ele>
   </trkpt>
   <trkpt lat="-37.87816" lon="145.35258000000002">
    <ele>481.41</ele>
   </trkpt>
   <trkpt lat="-37.87827" lon="145.35227">
    <ele>483.30000000000007</ele>
   </trkpt>
   <trkpt lat="-37.87832" lon="145.35207000000003">
    <ele>483.95000000000005</ele>
   </trkpt>
   <trkpt lat="-37.87841" lon="145.3519">
    <ele>484.87</ele>
   </trkpt>
   <trkpt lat="-37.87859" lon="145.35132000000002">
    <ele>486.57000000000005</ele>
   </trkpt>
   <trkpt lat="-37.87876" lon="145.35029">
    <ele>490.8</ele>
   </trkpt>
   <trkpt lat="-37.87872" lon="145.34991000000002">
    <ele>492.28000000000003</ele>
   </trkpt>
   <trkpt lat="-37.87847" lon="145.34895">
    <ele>494.56000000000006</ele>
   </trkpt>
   <trkpt lat="-37.87825" lon="145.34847000000002">
    <ele>498.39000000000004</ele>
   </trkpt>
   <trkpt lat="-37.878040000000006" lon="145.34804000000003">
    <ele>501.0300000000001</ele>
   </trkpt>
   <trkpt lat="-37.87794" lon="145.34774000000002">
    <ele>502.77000000000004</ele>
   </trkpt>
   <trkpt lat="-37.87776" lon="145.34745">
    <ele>505.14000000000004</ele>
   </trkpt>
   <trkpt lat="-37.87758" lon="145.34729000000002">
    <ele>505.83</ele>
   </trkpt>
   <trkpt lat="-37.87726" lon="145.34721000000002">
    <ele>506.45000000000005</ele>
   </trkpt>
   <trkpt lat="-37.876760000000004" lon="145.34722000000002">
    <ele>506.8</ele>
   </trkpt>
   <trkpt lat="-37.87693" lon="145.34699">
    <ele>506.0</ele>
   </trkpt>
   <trkpt lat="-37.876940000000005" lon="145.34699">
    <ele>505.9800000000001</ele>
   </trkpt>
   <trkpt lat="-37.876760000000004" lon="145.34722000000002">
    <ele>506.8</ele>
   </trkpt>
   <trkpt lat="-37.87648" lon="145.34716">
    <ele>506.88</ele>
   </trkpt>
   <trkpt lat="-37.8763" lon="145.34708">
    <ele>507.45000000000005</ele>
   </trkpt>
   <trkpt lat="-37.87621" lon="145.34698">
    <ele>508.17</ele>
   </trkpt>
   <trkpt lat="-37.87615" lon="145.34678000000002">
    <ele>509.93</ele>
   </trkpt>
   <trkpt lat="-37.87603" lon="145.34592">
    <ele>512.1</ele>
   </trkpt>
   <trkpt lat="-37.87603" lon="145.34573">
    <ele>512.12</ele>
   </trkpt>
   <trkpt lat="-37.87599" lon="145.3454">
    <ele>511.83</ele>
   </trkpt>
   <trkpt lat="-37.87599" lon="145.34493">
    <ele>511.12</ele>
   </trkpt>
   <trkpt lat="-37.8759" lon="145.34467">
    <ele>509.43000000000006</ele>
   </trkpt>
   <trkpt lat="-37.87565" lon="145.34411">
    <ele>507.29</ele>
   </trkpt>
   <trkpt lat="-37.87556" lon="145.34399000000002">
    <ele>506.88</ele>
   </trkpt>
   <trkpt lat="-37.875510000000006" lon="145.34384">
    <ele>506.12</ele>
   </trkpt>
   <trkpt lat="-37.87545" lon="145.3436">
    <ele>504.92</ele>
   </trkpt>
   <trkpt lat="-37.87552" lon="145.34341">
    <ele>503.25000000000006</ele>
   </trkpt>
   <trkpt lat="-37.875510000000006" lon="145.34301000000002">
    <ele>503.27</ele>
   </trkpt>
   <trkpt lat="-37.87541" lon="145.34295">
    <ele>502.17</ele>
   </trkpt>
   <trkpt lat="-37.87523" lon="145.34291000000002">
    <ele>500.6400000000001</ele>
   </trkpt>
   <trkpt lat="-37.87511000000001" lon="145.34298">
    <ele>500.50000000000006</ele>
   </trkpt>
   <trkpt lat="-37.87498" lon="145.3428">
    <ele>499.94000000000005</ele>
   </trkpt>
   <trkpt lat="-37.8744" lon="145.34218">
    <ele>495.08</ele>
   </trkpt>
   <trkpt lat="-37.87406" lon="145.34185000000002">
    <ele>494.07000000000005</ele>
   </trkpt>
   <trkpt lat="-37.87375" lon="145.34154">
    <ele>491.00000000000006</ele>
   </trkpt>
   <trkpt lat="-37.87315" lon="145.34105000000002">
    <ele>485.16</ele>
   </trkpt>
   <trkpt lat="-37.87288" lon="145.3409">
    <ele>483.63000000000005</ele>
   </trkpt>
   <trkpt lat="-37.87272" lon="145.34083">
    <ele>481.96000000000004</ele>
   </trkpt>
   <trkpt lat="-37.87263" lon="145.34076000000002">
    <ele>481.96000000000004</ele>
   </trkpt>
   <trkpt lat="-37.87214" lon="145.34024000000002">
    <ele>476.58000000000004</ele>
   </trkpt>
   <trkpt lat="-37.87185" lon="145.33998000000003">
    <ele>475.13000000000005</ele>
   </trkpt>
   <trkpt lat="-37.871320000000004" lon="145.33969000000002">
    <ele>469.36000000000007</ele>
   </trkpt>
   <trkpt lat="-37.8712" lon="145.33964">
    <ele>468.43</ele>
   </trkpt>
   <trkpt lat="-37.87106" lon="145.33963">
    <ele>466.77</ele>
   </trkpt>
   <trkpt lat="-37.87082" lon="145.33948">
    <ele>463.81000000000006</ele>
   </trkpt>
   <trkpt lat="-37.87059" lon="145.33917000000002">
    <ele>462.61</ele>
   </trkpt>
   <trkpt lat="-37.87037" lon="145.33894">
    <ele>461.27</ele>
   </trkpt>
   <trkpt lat="-37.87026" lon="145.33888000000002">
    <ele>459.78000000000003</ele>
   </trkpt>
   <trkpt lat="-37.87035" lon="145.33879000000002">
    <ele>456.46000000000004</ele>
   </trkpt>
   <trkpt lat="-37.87046" lon="145.33875">
    <ele>454.88000000000005</ele>
   </trkpt>
   <trkpt lat="-37.87059" lon="145.33873">
    <ele>453.37000000000006</ele>
   </trkpt>
   <trkpt lat="-37.87075" lon="145.33874">
    <ele>451.20000000000005</ele>
   </trkpt>
   <trkpt lat="-37.87078" lon="145.33871000000002">
    <ele>449.85</ele>
   </trkpt>
   <trkpt lat="-37.87088" lon="145.33873">
    <ele>449.06</ele>
   </trkpt>
   <trkpt lat="-37.87115" lon="145.33883">
    <ele>447.97</ele>
   </trkpt>
   <trkpt lat="-37.87122" lon="145.33881000000002">
    <ele>447.78000000000003</ele>
   </trkpt>
   <trkpt lat="-37.87135" lon="145.33871000000002">
    <ele>446.38000000000005</ele>
   </trkpt>
   <trkpt lat="-37.871500000000005" lon="145.33863000000002">
    <ele>444.27000000000004</ele>
   </trkpt>
   <trkpt lat="-37.87222500021824" lon="145.3384300019546">
    <ele>448.49000000000007</ele>
   </trkpt>
   <trkpt lat="-37.87295" lon="145.33823">
    <ele>471.39000000000004</ele>
   </trkpt>
   <trkpt lat="-37.872960000000006" lon="145.33823">
    <ele>471.39000000000004</ele>
   </trkpt>
   <trkpt lat="-37.87356500023256" lon="145.33802000170863">
    <ele>486.15000000000003</ele>
   </trkpt>
   <trkpt lat="-37.87417000000001" lon="145.33781000000002">
    <ele>493.15000000000003</ele>
   </trkpt>
   <trkpt lat="-37.87417000000001" lon="145.33780000000002">
    <ele>493.15000000000003</ele>
   </trkpt>
   <trkpt lat="-37.87368" lon="145.33718000000002">
    <ele>491.68000000000006</ele>
   </trkpt>
   <trkpt lat="-37.87368" lon="145.33717000000001">
    <ele>491.68000000000006</ele>
   </trkpt>
   <trkpt lat="-37.873430000000006" lon="145.33666000000002">
    <ele>488.28000000000003</ele>
   </trkpt>
   <trkpt lat="-37.873430002042724" lon="145.3359649997975">
    <ele>481.19000000000005</ele>
   </trkpt>
   <trkpt lat="-37.873430000000006" lon="145.33527">
    <ele>473.03000000000003</ele>
   </trkpt>
   <trkpt lat="-37.87323000000001" lon="145.33476000000002">
    <ele>457.46000000000004</ele>
   </trkpt>
   <trkpt lat="-37.87323000000001" lon="145.33475">
    <ele>457.46000000000004</ele>
   </trkpt>
   <trkpt lat="-37.87286" lon="145.33532000000002">
    <ele>459.62</ele>
   </trkpt>
   <trkpt lat="-37.872870000000006" lon="145.33532000000002">
    <ele>459.62</ele>
   </trkpt>
   <trkpt lat="-37.87259" lon="145.33585000000002">
    <ele>454.15000000000003</ele>
   </trkpt>
   <trkpt lat="-37.872600000000006" lon="145.33585000000002">
    <ele>454.15000000000003</ele>
   </trkpt>
   <trkpt lat="-37.87246000138372" lon="145.3352749988478">
    <ele>440.82000000000005</ele>
   </trkpt>
   <trkpt lat="-37.87232" lon="145.3347">
    <ele>431.06000000000006</ele>
   </trkpt>
   <trkpt lat="-37.872510000000005" lon="145.33394">
    <ele>412.96000000000004</ele>
   </trkpt>
   <trkpt lat="-37.87252" lon="145.33394">
    <ele>396.87000000000006</ele>
   </trkpt>
   <trkpt lat="-37.872600000000006" lon="145.33388000000002">
    <ele>395.35</ele>
   </trkpt>
   <trkpt lat="-37.8729" lon="145.33347">
    <ele>392.67</ele>
   </trkpt>
   <trkpt lat="-37.87303" lon="145.33321">
    <ele>390.5</ele>
   </trkpt>
   <trkpt lat="-37.87306" lon="145.33308000000002">
    <ele>389.14000000000004</ele>
   </trkpt>
   <trkpt lat="-37.872890000000005" lon="145.3325">
    <ele>379.18</ele>
   </trkpt>
   <trkpt lat="-37.87268" lon="145.33283">
    <ele>377.64000000000004</ele>
   </trkpt>
   <trkpt lat="-37.87238" lon="145.33305000000001">
    <ele>375.63</ele>
   </trkpt>
   <trkpt lat="-37.87207" lon="145.33307000000002">
    <ele>371.07</ele>
   </trkpt>
   <trkpt lat="-37.87181" lon="145.33295">
    <ele>368.36</ele>
   </trkpt>
   <trkpt lat="-37.87167" lon="145.33290000000002">
    <ele>366.88000000000005</ele>
   </trkpt>
   <trkpt lat="-37.871280000000006" lon="145.33282">
    <ele>362.74</ele>
   </trkpt>
   <trkpt lat="-37.87113" lon="145.33284">
    <ele>362.41</ele>
   </trkpt>
   <trkpt lat="-37.87102" lon="145.33292">
    <ele>362.38000000000005</ele>
   </trkpt>
   <trkpt lat="-37.87091" lon="145.33315000000002">
    <ele>362.3</ele>
   </trkpt>
   <trkpt lat="-37.87082" lon="145.33339">
    <ele>361.22</ele>
   </trkpt>
   <trkpt lat="-37.87075" lon="145.33419">
    <ele>355.83000000000004</ele>
   </trkpt>
   <trkpt lat="-37.870810000000006" lon="145.33446">
    <ele>354.74000000000007</ele>
   </trkpt>
   <trkpt lat="-37.870810000000006" lon="145.3347">
    <ele>353.31</ele>
   </trkpt>
   <trkpt lat="-37.87075" lon="145.33478000000002">
    <ele>353.31</ele>
   </trkpt>
   <trkpt lat="-37.87066" lon="145.33478000000002">
    <ele>351.56000000000006</ele>
   </trkpt>
   <trkpt lat="-37.870450000000005" lon="145.33465">
    <ele>350.57000000000005</ele>
   </trkpt>
   <trkpt lat="-37.87026" lon="145.33449000000002">
    <ele>339.44</ele>
   </trkpt>
   <trkpt lat="-37.87024" lon="145.33442000000002">
    <ele>339.44</ele>
   </trkpt>
   <trkpt lat="-37.87022" lon="145.33425000000003">
    <ele>334.8</ele>
   </trkpt>
   <trkpt lat="-37.86992" lon="145.3343">
    <ele>336.06</ele>
   </trkpt>
   <trkpt lat="-37.86959" lon="145.33418">
    <ele>338.58000000000004</ele>
   </trkpt>
   <trkpt lat="-37.86925" lon="145.33411">
    <ele>339.73</ele>
   </trkpt>
   <trkpt lat="-37.86903" lon="145.33386000000002">
    <ele>340.52000000000004</ele>
   </trkpt>
   <trkpt lat="-37.868840000000006" lon="145.33314000000001">
    <ele>341.27000000000004</ele>
   </trkpt>
   <trkpt lat="-37.868840000000006" lon="145.33312">
    <ele>341.28000000000003</ele>
   </trkpt>
   <trkpt lat="-37.868950000000005" lon="145.33355">
    <ele>340.96000000000004</ele>
   </trkpt>
   <trkpt lat="-37.86898" lon="145.33324000000002">
    <ele>338.57000000000005</ele>
   </trkpt>
   <trkpt lat="-37.86896" lon="145.33297000000002">
    <ele>337.55</ele>
   </trkpt>
   <trkpt lat="-37.86891" lon="145.33268">
    <ele>336.25000000000006</ele>
   </trkpt>
   <trkpt lat="-37.868840000000006" lon="145.33249">
    <ele>335.33</ele>
   </trkpt>
   <trkpt lat="-37.86858" lon="145.33205">
    <ele>332.09000000000003</ele>
   </trkpt>
   <trkpt lat="-37.86838" lon="145.33186">
    <ele>330.44</ele>
   </trkpt>
   <trkpt lat="-37.86815" lon="145.3317">
    <ele>328.55</ele>
   </trkpt>
   <trkpt lat="-37.867720000000006" lon="145.33149">
    <ele>327.47</ele>
   </trkpt>
   <trkpt lat="-37.8675" lon="145.33145000000002">
    <ele>326.79</ele>
   </trkpt>
   <trkpt lat="-37.86728" lon="145.33145000000002">
    <ele>325.92</ele>
   </trkpt>
   <trkpt lat="-37.86672" lon="145.33155000000002">
    <ele>321.99000000000007</ele>
   </trkpt>
   <trkpt lat="-37.86643" lon="145.33152">
    <ele>320.49000000000007</ele>
   </trkpt>
   <trkpt lat="-37.86627" lon="145.33148">
    <ele>318.91</ele>
   </trkpt>
   <trkpt lat="-37.86587" lon="145.33126000000001">
    <ele>316.43000000000006</ele>
   </trkpt>
   <trkpt lat="-37.86565" lon="145.33109000000002">
    <ele>315.11</ele>
   </trkpt>
   <trkpt lat="-37.8652" lon="145.33063">
    <ele>312.97</ele>
   </trkpt>
   <trkpt lat="-37.86475" lon="145.33010000000002">
    <ele>308.84</ele>
   </trkpt>
   <trkpt lat="-37.86459" lon="145.32996">
    <ele>308.84</ele>
   </trkpt>
   <trkpt lat="-37.86446" lon="145.32988">
    <ele>308.84</ele>
   </trkpt>
   <trkpt lat="-37.86424" lon="145.32978">
    <ele>306.83000000000004</ele>
   </trkpt>
   <trkpt lat="-37.86403" lon="145.32975000000002">
    <ele>305.89000000000004</ele>
   </trkpt>
   <trkpt lat="-37.86361" lon="145.32976000000002">
    <ele>303.83000000000004</ele>
   </trkpt>
   <trkpt lat="-37.86352" lon="145.3298">
    <ele>303.65000000000003</ele>
   </trkpt>
   <trkpt lat="-37.863400000000006" lon="145.32991">
    <ele>303.44000000000005</ele>
   </trkpt>
   <trkpt lat="-37.86316" lon="145.33042">
    <ele>302.8</ele>
   </trkpt>
   <trkpt lat="-37.86303" lon="145.33113">
    <ele>302.62</ele>
   </trkpt>
   <trkpt lat="-37.86294" lon="145.33152">
    <ele>302.39000000000004</ele>
   </trkpt>
   <trkpt lat="-37.8628" lon="145.33177">
    <ele>302.18</ele>
   </trkpt>
   <trkpt lat="-37.862480000000005" lon="145.33209000000002">
    <ele>301.53000000000003</ele>
   </trkpt>
   <trkpt lat="-37.86236" lon="145.33227000000002">
    <ele>301.50000000000006</ele>
   </trkpt>
   <trkpt lat="-37.86227" lon="145.33246000000003">
    <ele>301.32000000000005</ele>
   </trkpt>
   <trkpt lat="-37.86224" lon="145.33262000000002">
    <ele>301.03000000000003</ele>
   </trkpt>
   <trkpt lat="-37.86224" lon="145.33325000000002">
    <ele>300.87</ele>
   </trkpt>
   <trkpt lat="-37.862260000000006" lon="145.33352000000002">
    <ele>301.09000000000003</ele>
   </trkpt>
   <trkpt lat="-37.86227" lon="145.33360000000002">
    <ele>301.1</ele>
   </trkpt>
   <trkpt lat="-37.86242" lon="145.33416000000003">
    <ele>301.66</ele>
   </trkpt>
   <trkpt lat="-37.8628" lon="145.33489">
    <ele>302.27000000000004</ele>
   </trkpt>
   <trkpt lat="-37.86314" lon="145.3357">
    <ele>302.89000000000004</ele>
   </trkpt>
   <trkpt lat="-37.86309" lon="145.33587">
    <ele>303.82000000000005</ele>
   </trkpt>
   <trkpt lat="-37.86303" lon="145.33592000000002">
    <ele>303.82000000000005</ele>
   </trkpt>
   <trkpt lat="-37.86292" lon="145.33596">
    <ele>304.06000000000006</ele>
   </trkpt>
   <trkpt lat="-37.86231" lon="145.33606">
    <ele>302.25</ele>
   </trkpt>
   <trkpt lat="-37.86204" lon="145.33606">
    <ele>300.94000000000005</ele>
   </trkpt>
   <trkpt lat="-37.86164" lon="145.33602000000002">
    <ele>298.17</ele>
   </trkpt>
   <trkpt lat="-37.8609" lon="145.33604000000003">
    <ele>298.97</ele>
   </trkpt>
   <trkpt lat="-37.86065" lon="145.33601000000002">
    <ele>298.51</ele>
   </trkpt>
   <trkpt lat="-37.85996" lon="145.33583000000002">
    <ele>290.34999999999997</ele>
   </trkpt>
   <trkpt lat="-37.85965" lon="145.33569">
    <ele>287.69</ele>
   </trkpt>
   <trkpt lat="-37.85931" lon="145.33543">
    <ele>283.13000000000005</ele>
   </trkpt>
   <trkpt lat="-37.85887500127963" lon="145.33486999663535">
    <ele>277.97</ele>
   </trkpt>
   <trkpt lat="-37.85844" lon="145.33431000000002">
    <ele>273.57000000000005</ele>
   </trkpt>
   <trkpt lat="-37.85833" lon="145.33419">
    <ele>272.15</ele>
   </trkpt>
   <trkpt lat="-37.85821" lon="145.33414000000002">
    <ele>271.41</ele>
   </trkpt>
   <trkpt lat="-37.857960000000006" lon="145.33415000000002">
    <ele>269.27</ele>
   </trkpt>
   <trkpt lat="-37.857980000000005" lon="145.33416000000003">
    <ele>269.42</ele>
   </trkpt>
   <trkpt lat="-37.8581" lon="145.33454">
    <ele>274.22</ele>
   </trkpt>
   <trkpt lat="-37.85824" lon="145.33467000000002">
    <ele>277.57000000000005</ele>
   </trkpt>
   <trkpt lat="-37.85826" lon="145.33476000000002">
    <ele>279.32</ele>
   </trkpt>
   <trkpt lat="-37.85826" lon="145.3349">
    <ele>281.18</ele>
   </trkpt>
   <trkpt lat="-37.85828" lon="145.33501">
    <ele>283.18000000000006</ele>
   </trkpt>
   <trkpt lat="-37.85848" lon="145.33535">
    <ele>292.42</ele>
   </trkpt>
   <trkpt lat="-37.85862" lon="145.33563">
    <ele>299.7</ele>
   </trkpt>
   <trkpt lat="-37.85866" lon="145.33603000000002">
    <ele>302.15000000000003</ele>
   </trkpt>
   <trkpt lat="-37.85889" lon="145.33676">
    <ele>323.22</ele>
   </trkpt>
   <trkpt lat="-37.85909" lon="145.33724">
    <ele>336.74</ele>
   </trkpt>
   <trkpt lat="-37.85915" lon="145.33746000000002">
    <ele>336.74</ele>
   </trkpt>
   <trkpt lat="-37.85922" lon="145.33785">
    <ele>354.35</ele>
   </trkpt>
   <trkpt lat="-37.85929" lon="145.33801000000003">
    <ele>360.1</ele>
   </trkpt>
   <trkpt lat="-37.859370000000006" lon="145.33810000000003">
    <ele>364.16</ele>
   </trkpt>
   <trkpt lat="-37.8596" lon="145.3383">
    <ele>369.32000000000005</ele>
   </trkpt>
   <trkpt lat="-37.8598" lon="145.33852000000002">
    <ele>378.12</ele>
   </trkpt>
   <trkpt lat="-37.85989" lon="145.33858">
    <ele>380.51</ele>
   </trkpt>
   <trkpt lat="-37.86028" lon="145.33869">
    <ele>389.86</ele>
   </trkpt>
   <trkpt lat="-37.860510000000005" lon="145.33876">
    <ele>394.6</ele>
   </trkpt>
   <trkpt lat="-37.8605" lon="145.33886">
    <ele>394.14000000000004</ele>
   </trkpt>
   <trkpt lat="-37.86056" lon="145.33914000000001">
    <ele>393.72</ele>
   </trkpt>
   <trkpt lat="-37.86081" lon="145.33949">
    <ele>393.72</ele>
   </trkpt>
   <trkpt lat="-37.86115" lon="145.33973">
    <ele>390.98</ele>
   </trkpt>
   <trkpt lat="-37.86117" lon="145.33978000000002">
    <ele>389.49000000000007</ele>
   </trkpt>
   <trkpt lat="-37.86117" lon="145.3399">
    <ele>385.78000000000003</ele>
   </trkpt>
   <trkpt lat="-37.86112" lon="145.34012">
    <ele>375.48</ele>
   </trkpt>
   <trkpt lat="-37.86086" lon="145.34071">
    <ele>358.43</ele>
   </trkpt>
   <trkpt lat="-37.86081" lon="145.34087000000002">
    <ele>355.3</ele>
   </trkpt>
   <trkpt lat="-37.86081" lon="145.34086000000002">
    <ele>355.44000000000005</ele>
   </trkpt>
   <trkpt lat="-37.860780000000005" lon="145.341">
    <ele>353.19</ele>
   </trkpt>
   <trkpt lat="-37.86092" lon="145.34113000000002">
    <ele>353.28000000000003</ele>
   </trkpt>
   <trkpt lat="-37.86097" lon="145.34123000000002">
    <ele>356.25</ele>
   </trkpt>
   <trkpt lat="-37.86108" lon="145.3417">
    <ele>358.26</ele>
   </trkpt>
   <trkpt lat="-37.86121" lon="145.34249">
    <ele>363.18</ele>
   </trkpt>
   <trkpt lat="-37.86128" lon="145.34276">
    <ele>364.2</ele>
   </trkpt>
   <trkpt lat="-37.86139" lon="145.34300000000002">
    <ele>365.57</ele>
   </trkpt>
   <trkpt lat="-37.861520000000006" lon="145.34317000000001">
    <ele>367.42</ele>
   </trkpt>
   <trkpt lat="-37.86168" lon="145.34332">
    <ele>369.76000000000005</ele>
   </trkpt>
   <trkpt lat="-37.86233" lon="145.34352">
    <ele>372.74</ele>
   </trkpt>
   <trkpt lat="-37.86231" lon="145.34352">
    <ele>372.74</ele>
   </trkpt>
   <trkpt lat="-37.86229" lon="145.34367">
    <ele>369.48</ele>
   </trkpt>
   <trkpt lat="-37.86211" lon="145.34383000000003">
    <ele>362.74</ele>
   </trkpt>
   <trkpt lat="-37.86204" lon="145.34386">
    <ele>361.63</ele>
   </trkpt>
   <trkpt lat="-37.862" lon="145.34399000000002">
    <ele>358.89000000000004</ele>
   </trkpt>
   <trkpt lat="-37.86195" lon="145.34400000000002">
    <ele>358.15000000000003</ele>
   </trkpt>
   <trkpt lat="-37.86189" lon="145.34416000000002">
    <ele>356.93</ele>
   </trkpt>
   <trkpt lat="-37.86168" lon="145.34411">
    <ele>354.92</ele>
   </trkpt>
   <trkpt lat="-37.8612000006555" lon="145.34450500257603">
    <ele>349.80000000000007</ele>
   </trkpt>
   <trkpt lat="-37.86072" lon="145.34490000000002">
    <ele>345.21000000000004</ele>
   </trkpt>
   <trkpt lat="-37.860400000000006" lon="145.3451">
    <ele>342.56</ele>
   </trkpt>
   <trkpt lat="-37.859930000000006" lon="145.34519">
    <ele>349.69000000000005</ele>
   </trkpt>
   <trkpt lat="-37.85994" lon="145.34545">
    <ele>352.93</ele>
   </trkpt>
   <trkpt lat="-37.860040000000005" lon="145.34560000000002">
    <ele>355.25</ele>
   </trkpt>
   <trkpt lat="-37.86012" lon="145.34572">
    <ele>356.14</ele>
   </trkpt>
   <trkpt lat="-37.86021" lon="145.34592">
    <ele>358.47</ele>
   </trkpt>
   <trkpt lat="-37.86027" lon="145.3463">
    <ele>360.62000000000006</ele>
   </trkpt>
   <trkpt lat="-37.8603" lon="145.34677000000002">
    <ele>363.90000000000003</ele>
   </trkpt>
   <trkpt lat="-37.86027" lon="145.34776000000002">
    <ele>366.77000000000004</ele>
   </trkpt>
   <trkpt lat="-37.85963" lon="145.34781">
    <ele>359.42</ele>
   </trkpt>
   <trkpt lat="-37.859640000000006" lon="145.34781">
    <ele>359.44000000000005</ele>
   </trkpt>
   <trkpt lat="-37.859500000000004" lon="145.34782">
    <ele>358.45000000000005</ele>
   </trkpt>
   <trkpt lat="-37.8594" lon="145.34808">
    <ele>360.33000000000004</ele>
   </trkpt>
   <trkpt lat="-37.85927" lon="145.34839000000002">
    <ele>365.17</ele>
   </trkpt>
   <trkpt lat="-37.8592" lon="145.34841">
    <ele>365.7300000000001</ele>
   </trkpt>
   <trkpt lat="-37.859080000000006" lon="145.34832">
    <ele>367.27000000000004</ele>
   </trkpt>
   <trkpt lat="-37.85902" lon="145.34832">
    <ele>367.96</ele>
   </trkpt>
   <trkpt lat="-37.859" lon="145.34836">
    <ele>368.81</ele>
   </trkpt>
   <trkpt lat="-37.85893" lon="145.34861">
    <ele>376.82000000000005</ele>
   </trkpt>
   <trkpt lat="-37.85877" lon="145.34889">
    <ele>379.59000000000003</ele>
   </trkpt>
   <trkpt lat="-37.8588" lon="145.34917000000002">
    <ele>383.25</ele>
   </trkpt>
   <trkpt lat="-37.85875" lon="145.34924">
    <ele>384.45</ele>
   </trkpt>
   <trkpt lat="-37.8581" lon="145.34938000000002">
    <ele>392.51</ele>
   </trkpt>
   <trkpt lat="-37.85801" lon="145.34944000000002">
    <ele>395.89</ele>
   </trkpt>
   <trkpt lat="-37.85781" lon="145.34966">
    <ele>399.29</ele>
   </trkpt>
   <trkpt lat="-37.85757" lon="145.34989000000002">
    <ele>404.62</ele>
   </trkpt>
   <trkpt lat="-37.85743" lon="145.34995">
    <ele>409.5</ele>
   </trkpt>
   <trkpt lat="-37.85716" lon="145.34998000000002">
    <ele>415.51000000000005</ele>
   </trkpt>
   <trkpt lat="-37.856860000000005" lon="145.34995">
    <ele>420.94000000000005</ele>
   </trkpt>
   <trkpt lat="-37.85631499989784" lon="145.3498399991558">
    <ele>436.14000000000004</ele>
   </trkpt>
   <trkpt lat="-37.85577" lon="145.34973000000002">
    <ele>449.11</ele>
   </trkpt>
   <trkpt lat="-37.85533" lon="145.34968">
    <ele>452.97</ele>
   </trkpt>
   <trkpt lat="-37.85474499989566" lon="145.34955499897166">
    <ele>452.22</ele>
   </trkpt>
   <trkpt lat="-37.85416" lon="145.34943">
    <ele>450.25000000000006</ele>
   </trkpt>
   <trkpt lat="-37.85389" lon="145.34941">
    <ele>449.58000000000004</ele>
   </trkpt>
   <trkpt lat="-37.853860000000005" lon="145.34941">
    <ele>449.5</ele>
   </trkpt>
   <trkpt lat="-37.85378" lon="145.34931">
    <ele>448.43000000000006</ele>
   </trkpt>
   <trkpt lat="-37.85349" lon="145.34869">
    <ele>443.51</ele>
   </trkpt>
   <trkpt lat="-37.85343" lon="145.34844">
    <ele>434.81</ele>
   </trkpt>
   <trkpt lat="-37.85349" lon="145.34775000000002">
    <ele>431.39000000000004</ele>
   </trkpt>
   <trkpt lat="-37.85347" lon="145.34764">
    <ele>430.49</ele>
   </trkpt>
   <trkpt lat="-37.85345" lon="145.34746">
    <ele>429.31</ele>
   </trkpt>
   <trkpt lat="-37.85338" lon="145.34727">
    <ele>429.31</ele>
   </trkpt>
   <trkpt lat="-37.85333" lon="145.34719">
    <ele>428.26000000000005</ele>
   </trkpt>
   <trkpt lat="-37.85304" lon="145.34687000000002">
    <ele>426.83000000000004</ele>
   </trkpt>
   <trkpt lat="-37.85265000079967" lon="145.3464599979246">
    <ele>424.07000000000005</ele>
   </trkpt>
   <trkpt lat="-37.85226" lon="145.34605000000002">
    <ele>418.6</ele>
   </trkpt>
   <trkpt lat="-37.85208" lon="145.34582">
    <ele>417.80000000000007</ele>
   </trkpt>
   <trkpt lat="-37.85188" lon="145.34548">
    <ele>416.11</ele>
   </trkpt>
   <trkpt lat="-37.85175" lon="145.34513">
    <ele>414.38</ele>
   </trkpt>
   <trkpt lat="-37.85168" lon="145.34493">
    <ele>414.38</ele>
   </trkpt>
   <trkpt lat="-37.851670000000006" lon="145.34467">
    <ele>413.17</ele>
   </trkpt>
   <trkpt lat="-37.8517" lon="145.34432">
    <ele>411.93</ele>
   </trkpt>
   <trkpt lat="-37.85179" lon="145.34403">
    <ele>411.1</ele>
   </trkpt>
   <trkpt lat="-37.8519" lon="145.34390000000002">
    <ele>410.13000000000005</ele>
   </trkpt>
   <trkpt lat="-37.8519" lon="145.34376">
    <ele>411.95000000000005</ele>
   </trkpt>
   <trkpt lat="-37.85154" lon="145.34304">
    <ele>393.72</ele>
   </trkpt>
   <trkpt lat="-37.851470000000006" lon="145.34241">
    <ele>384.99000000000007</ele>
   </trkpt>
   <trkpt lat="-37.85143" lon="145.34219000000002">
    <ele>381.96000000000004</ele>
   </trkpt>
   <trkpt lat="-37.85143" lon="145.34191">
    <ele>378.00000000000006</ele>
   </trkpt>
   <trkpt lat="-37.85132" lon="145.34087000000002">
    <ele>368.48</ele>
   </trkpt>
   <trkpt lat="-37.8513" lon="145.34011">
    <ele>362.65000000000003</ele>
   </trkpt>
   <trkpt lat="-37.85121" lon="145.33961000000002">
    <ele>353.83000000000004</ele>
   </trkpt>
   <trkpt lat="-37.85112" lon="145.33899000000002">
    <ele>345.99</ele>
   </trkpt>
   <trkpt lat="-37.85112" lon="145.33867">
    <ele>343.51000000000005</ele>
   </trkpt>
   <trkpt lat="-37.85105" lon="145.33794">
    <ele>329.93</ele>
   </trkpt>
   <trkpt lat="-37.851110000000006" lon="145.33723">
    <ele>318.71000000000004</ele>
   </trkpt>
   <trkpt lat="-37.85103" lon="145.33685">
    <ele>315.71999999999997</ele>
   </trkpt>
   <trkpt lat="-37.85074" lon="145.33634">
    <ele>310.42</ele>
   </trkpt>
   <trkpt lat="-37.85067" lon="145.33617">
    <ele>308.51</ele>
   </trkpt>
   <trkpt lat="-37.85063" lon="145.33599">
    <ele>306.27000000000004</ele>
   </trkpt>
   <trkpt lat="-37.85051" lon="145.33530000000002">
    <ele>294.26</ele>
   </trkpt>
   <trkpt lat="-37.85051" lon="145.33468000000002">
    <ele>280.65</ele>
   </trkpt>
   <trkpt lat="-37.85063" lon="145.33415000000002">
    <ele>269.79</ele>
   </trkpt>
   <trkpt lat="-37.85063" lon="145.33414000000002">
    <ele>269.97</ele>
   </trkpt>
   <trkpt lat="-37.85078" lon="145.33346">
    <ele>254.45000000000002</ele>
   </trkpt>
   <trkpt lat="-37.8508" lon="145.33325000000002">
    <ele>251.17</ele>
   </trkpt>
   <trkpt lat="-37.85076" lon="145.33294">
    <ele>244.96</ele>
   </trkpt>
   <trkpt lat="-37.85085" lon="145.33266">
    <ele>239.23000000000002</ele>
   </trkpt>
   <trkpt lat="-37.850860000000004" lon="145.33241">
    <ele>231.24000000000004</ele>
   </trkpt>
   <trkpt lat="-37.85036" lon="145.33271000000002">
    <ele>233.84</ele>
   </trkpt>
   <trkpt lat="-37.8502" lon="145.33283">
    <ele>234.87</ele>
   </trkpt>
   <trkpt lat="-37.85004" lon="145.333">
    <ele>236.47</ele>
   </trkpt>
   <trkpt lat="-37.84989" lon="145.33313">
    <ele>237.38</ele>
   </trkpt>
   <trkpt lat="-37.84975" lon="145.33316000000002">
    <ele>238.57000000000002</ele>
   </trkpt>
   <trkpt lat="-37.84926" lon="145.33305000000001">
    <ele>240.34000000000003</ele>
   </trkpt>
   <trkpt lat="-37.849140000000006" lon="145.33307000000002">
    <ele>241.49</ele>
   </trkpt>
   <trkpt lat="-37.84899" lon="145.33313">
    <ele>241.89000000000001</ele>
   </trkpt>
   <trkpt lat="-37.848800000000004" lon="145.33329">
    <ele>243.04</ele>
   </trkpt>
   <trkpt lat="-37.84857" lon="145.33327">
    <ele>241.29000000000002</ele>
   </trkpt>
   <trkpt lat="-37.84848" lon="145.3333">
    <ele>240.24</ele>
   </trkpt>
   <trkpt lat="-37.84836" lon="145.33341000000001">
    <ele>239.37000000000003</ele>
   </trkpt>
   <trkpt lat="-37.84837" lon="145.33341000000001">
    <ele>239.38</ele>
   </trkpt>
   <trkpt lat="-37.84792" lon="145.33391">
    <ele>235.57000000000002</ele>
   </trkpt>
   <trkpt lat="-37.847820000000006" lon="145.33396000000002">
    <ele>234.89000000000001</ele>
   </trkpt>
   <trkpt lat="-37.84769" lon="145.33421">
    <ele>234.41</ele>
   </trkpt>
   <trkpt lat="-37.84725" lon="145.33479">
    <ele>230.06</ele>
   </trkpt>
   <trkpt lat="-37.84709" lon="145.33493">
    <ele>229.56</ele>
   </trkpt>
   <trkpt lat="-37.84675" lon="145.33514000000002">
    <ele>226.82000000000002</ele>
   </trkpt>
   <trkpt lat="-37.8466" lon="145.33527">
    <ele>225.62</ele>
   </trkpt>
   <trkpt lat="-37.84642" lon="145.33547000000002">
    <ele>224.5</ele>
   </trkpt>
   <trkpt lat="-37.84624" lon="145.33588">
    <ele>222.74</ele>
   </trkpt>
   <trkpt lat="-37.84631" lon="145.33607">
    <ele>222.63000000000002</ele>
   </trkpt>
   <trkpt lat="-37.84626" lon="145.33624">
    <ele>222.51000000000002</ele>
   </trkpt>
   <trkpt lat="-37.84633" lon="145.33636">
    <ele>223.35000000000002</ele>
   </trkpt>
   <trkpt lat="-37.8466" lon="145.33685">
    <ele>226.12</ele>
   </trkpt>
   <trkpt lat="-37.84684" lon="145.33762000000002">
    <ele>228.80000000000004</ele>
   </trkpt>
   <trkpt lat="-37.84698" lon="145.33795">
    <ele>231.14000000000001</ele>
   </trkpt>
   <trkpt lat="-37.84729" lon="145.33877">
    <ele>236.78</ele>
   </trkpt>
   <trkpt lat="-37.84756" lon="145.33926000000002">
    <ele>241.40000000000003</ele>
   </trkpt>
   <trkpt lat="-37.84765" lon="145.33934000000002">
    <ele>243.62000000000003</ele>
   </trkpt>
   <trkpt lat="-37.84776" lon="145.33938">
    <ele>244.44000000000003</ele>
   </trkpt>
   <trkpt lat="-37.84807" lon="145.33973">
    <ele>247.86</ele>
   </trkpt>
   <trkpt lat="-37.84816" lon="145.33994">
    <ele>248.92000000000002</ele>
   </trkpt>
   <trkpt lat="-37.84845" lon="145.34047">
    <ele>254.37000000000003</ele>
   </trkpt>
   <trkpt lat="-37.84848" lon="145.34054">
    <ele>254.37000000000003</ele>
   </trkpt>
   <trkpt lat="-37.84867000198013" lon="145.3412249982213">
    <ele>259.53000000000003</ele>
   </trkpt>
   <trkpt lat="-37.84886" lon="145.34191">
    <ele>262.40000000000003</ele>
   </trkpt>
   <trkpt lat="-37.84888" lon="145.34232">
    <ele>264.29</ele>
   </trkpt>
   <trkpt lat="-37.84886" lon="145.34281000000001">
    <ele>266.36</ele>
   </trkpt>
   <trkpt lat="-37.848770001908534" lon="145.34348000073928">
    <ele>267.62</ele>
   </trkpt>
   <trkpt lat="-37.84868" lon="145.34415">
    <ele>268.33</ele>
   </trkpt>
   <trkpt lat="-37.84861" lon="145.34492">
    <ele>269.71</ele>
   </trkpt>
   <trkpt lat="-37.848600001896216" lon="145.34559000020948">
    <ele>272.29</ele>
   </trkpt>
   <trkpt lat="-37.84859" lon="145.34626">
    <ele>276.26</ele>
   </trkpt>
   <trkpt lat="-37.84857" lon="145.34639">
    <ele>277.24</ele>
   </trkpt>
   <trkpt lat="-37.84854" lon="145.34643">
    <ele>278.90000000000003</ele>
   </trkpt>
   <trkpt lat="-37.84848" lon="145.34639">
    <ele>278.90000000000003</ele>
   </trkpt>
   <trkpt lat="-37.84821" lon="145.34593">
    <ele>282.71000000000004</ele>
   </trkpt>
   <trkpt lat="-37.84798" lon="145.34563">
    <ele>285.27000000000004</ele>
   </trkpt>
   <trkpt lat="-37.84789" lon="145.34557">
    <ele>285.27000000000004</ele>
   </trkpt>
   <trkpt lat="-37.84781" lon="145.34555">
    <ele>286.86</ele>
   </trkpt>
   <trkpt lat="-37.84756" lon="145.34556">
    <ele>288.16</ele>
   </trkpt>
   <trkpt lat="-37.84745" lon="145.34555">
    <ele>288.49</ele>
   </trkpt>
   <trkpt lat="-37.84731" lon="145.34550000000002">
    <ele>288.68000000000006</ele>
   </trkpt>
   <trkpt lat="-37.84722" lon="145.34541000000002">
    <ele>288.68000000000006</ele>
   </trkpt>
   <trkpt lat="-37.847170000000006" lon="145.34528">
    <ele>288.62000000000006</ele>
   </trkpt>
   <trkpt lat="-37.84707" lon="145.34496000000001">
    <ele>287.86</ele>
   </trkpt>
   <trkpt lat="-37.84707" lon="145.34472000000002">
    <ele>287.8</ele>
   </trkpt>
   <trkpt lat="-37.8472" lon="145.34408000000002">
    <ele>290.46000000000004</ele>
   </trkpt>
   <trkpt lat="-37.84718" lon="145.34387">
    <ele>291.72</ele>
   </trkpt>
   <trkpt lat="-37.847170000000006" lon="145.34381000000002">
    <ele>292.77000000000004</ele>
   </trkpt>
   <trkpt lat="-37.84709" lon="145.34374000000003">
    <ele>292.77000000000004</ele>
   </trkpt>
   <trkpt lat="-37.84702" lon="145.34371000000002">
    <ele>293.37</ele>
   </trkpt>
   <trkpt lat="-37.84691" lon="145.34377">
    <ele>294.59000000000003</ele>
   </trkpt>
   <trkpt lat="-37.84666" lon="145.3442">
    <ele>299.64</ele>
   </trkpt>
   <trkpt lat="-37.84657" lon="145.34428">
    <ele>301.58</ele>
   </trkpt>
   <trkpt lat="-37.84642" lon="145.34432">
    <ele>303.01</ele>
   </trkpt>
   <trkpt lat="-37.84599" lon="145.34422">
    <ele>313.21000000000004</ele>
   </trkpt>
   <trkpt lat="-37.84579" lon="145.34413">
    <ele>314.71000000000004</ele>
   </trkpt>
   <trkpt lat="-37.84568" lon="145.34411">
    <ele>316.26000000000005</ele>
   </trkpt>
   <trkpt lat="-37.84559" lon="145.34419000000003">
    <ele>318.43000000000006</ele>
   </trkpt>
   <trkpt lat="-37.84557" lon="145.34426000000002">
    <ele>319.07</ele>
   </trkpt>
   <trkpt lat="-37.84559" lon="145.34452000000002">
    <ele>321.87000000000006</ele>
   </trkpt>
   <trkpt lat="-37.8457" lon="145.34482">
    <ele>324.35</ele>
   </trkpt>
   <trkpt lat="-37.84586" lon="145.34505000000001">
    <ele>326.0</ele>
   </trkpt>
   <trkpt lat="-37.84597" lon="145.34538">
    <ele>326.85</ele>
   </trkpt>
   <trkpt lat="-37.84595" lon="145.34548">
    <ele>327.46000000000004</ele>
   </trkpt>
   <trkpt lat="-37.8459" lon="145.34558">
    <ele>328.23</ele>
   </trkpt>
   <trkpt lat="-37.84572" lon="145.34585">
    <ele>333.5</ele>
   </trkpt>
   <trkpt lat="-37.84561" lon="145.34591">
    <ele>335.36</ele>
   </trkpt>
   <trkpt lat="-37.84548" lon="145.34592">
    <ele>337.88</ele>
   </trkpt>
   <trkpt lat="-37.84543" lon="145.3459">
    <ele>337.88</ele>
   </trkpt>
   <trkpt lat="-37.84519" lon="145.34607000000003">
    <ele>344.22</ele>
   </trkpt>
   <trkpt lat="-37.845060000000004" lon="145.34613000000002">
    <ele>346.85</ele>
   </trkpt>
   <trkpt lat="-37.84445" lon="145.34615000000002">
    <ele>359.96</ele>
   </trkpt>
   <trkpt lat="-37.84418" lon="145.34607000000003">
    <ele>364.3</ele>
   </trkpt>
   <trkpt lat="-37.84398" lon="145.34587000000002">
    <ele>368.27000000000004</ele>
   </trkpt>
   <trkpt lat="-37.84393" lon="145.34585">
    <ele>370.81</ele>
   </trkpt>
   <trkpt lat="-37.843880000000006" lon="145.34591">
    <ele>370.81</ele>
   </trkpt>
   <trkpt lat="-37.8438" lon="145.34609">
    <ele>377.46000000000004</ele>
   </trkpt>
   <trkpt lat="-37.84378" lon="145.34646">
    <ele>382.04</ele>
   </trkpt>
   <trkpt lat="-37.84384" lon="145.3469">
    <ele>387.11</ele>
   </trkpt>
   <trkpt lat="-37.84382" lon="145.34711000000001">
    <ele>392.55</ele>
   </trkpt>
   <trkpt lat="-37.84337" lon="145.34801000000002">
    <ele>404.95000000000005</ele>
   </trkpt>
   <trkpt lat="-37.84328" lon="145.34847000000002">
    <ele>407.0</ele>
   </trkpt>
   <trkpt lat="-37.84324" lon="145.34856000000002">
    <ele>407.55</ele>
   </trkpt>
   <trkpt lat="-37.84324" lon="145.34855000000002">
    <ele>407.51000000000005</ele>
   </trkpt>
   <trkpt lat="-37.84322" lon="145.34862">
    <ele>408.04</ele>
   </trkpt>
   <trkpt lat="-37.84313" lon="145.34868">
    <ele>409.03000000000003</ele>
   </trkpt>
   <trkpt lat="-37.84297" lon="145.34869">
    <ele>411.16</ele>
   </trkpt>
   <trkpt lat="-37.84286" lon="145.34865000000002">
    <ele>413.75</ele>
   </trkpt>
   <trkpt lat="-37.842760000000006" lon="145.34866000000002">
    <ele>416.56000000000006</ele>
   </trkpt>
   <trkpt lat="-37.84237" lon="145.3488">
    <ele>423.6</ele>
   </trkpt>
   <trkpt lat="-37.84219" lon="145.34892000000002">
    <ele>427.32000000000005</ele>
   </trkpt>
   <trkpt lat="-37.8421" lon="145.34902000000002">
    <ele>432.37</ele>
   </trkpt>
   <trkpt lat="-37.84201" lon="145.34904">
    <ele>433.35</ele>
   </trkpt>
   <trkpt lat="-37.841860000000004" lon="145.34887">
    <ele>436.54</ele>
   </trkpt>
   <trkpt lat="-37.84176" lon="145.34928000000002">
    <ele>444.55000000000007</ele>
   </trkpt>
   <trkpt lat="-37.84179" lon="145.34944000000002">
    <ele>447.48</ele>
   </trkpt>
   <trkpt lat="-37.84196" lon="145.34958">
    <ele>446.67</ele>
   </trkpt>
   <trkpt lat="-37.84219" lon="145.34969">
    <ele>443.78000000000003</ele>
   </trkpt>
   <trkpt lat="-37.84262500025573" lon="145.34986999898746">
    <ele>439.71000000000004</ele>
   </trkpt>
   <trkpt lat="-37.84306" lon="145.35005">
    <ele>436.86</ele>
   </trkpt>
   <trkpt lat="-37.84355" lon="145.35018000000002">
    <ele>433.63</ele>
   </trkpt>
   <trkpt lat="-37.843650000000004" lon="145.35018000000002">
    <ele>433.42</ele>
   </trkpt>
   <trkpt lat="-37.84409" lon="145.35022">
    <ele>431.65000000000003</ele>
   </trkpt>
   <trkpt lat="-37.844440000000006" lon="145.35021">
    <ele>428.40000000000003</ele>
   </trkpt>
   <trkpt lat="-37.84493500020032" lon="145.35014000044447">
    <ele>424.12000000000006</ele>
   </trkpt>
   <trkpt lat="-37.84543" lon="145.35007000000002">
    <ele>420.35</ele>
   </trkpt>
   <trkpt lat="-37.8459799999119" lon="145.3500550001143">
    <ele>419.00000000000006</ele>
   </trkpt>
   <trkpt lat="-37.84653" lon="145.35004">
    <ele>413.54</ele>
   </trkpt>
   <trkpt lat="-37.84678" lon="145.35007000000002">
    <ele>412.53</ele>
   </trkpt>
   <trkpt lat="-37.84695" lon="145.35014">
    <ele>412.69000000000005</ele>
   </trkpt>
   <trkpt lat="-37.8472" lon="145.35029">
    <ele>414.15000000000003</ele>
   </trkpt>
   <trkpt lat="-37.84767" lon="145.35063000000002">
    <ele>418.15000000000003</ele>
   </trkpt>
   <trkpt lat="-37.84792" lon="145.35087000000001">
    <ele>418.80000000000007</ele>
   </trkpt>
   <trkpt lat="-37.84819" lon="145.35123000000002">
    <ele>421.82</ele>
   </trkpt>
   <trkpt lat="-37.8485" lon="145.35187000000002">
    <ele>427.97</ele>
   </trkpt>
   <trkpt lat="-37.848670000000006" lon="145.35243">
    <ele>433.97</ele>
   </trkpt>
   <trkpt lat="-37.84877" lon="145.35304000000002">
    <ele>439.05000000000007</ele>
   </trkpt>
   <trkpt lat="-37.84884" lon="145.35374000000002">
    <ele>442.65000000000003</ele>
   </trkpt>
   <trkpt lat="-37.84881" lon="145.35385000000002">
    <ele>442.65000000000003</ele>
   </trkpt>
   <trkpt lat="-37.84863" lon="145.35433">
    <ele>447.45</ele>
   </trkpt>
   <trkpt lat="-37.848560000000006" lon="145.35448000000002">
    <ele>447.88000000000005</ele>
   </trkpt>
   <trkpt lat="-37.848560000000006" lon="145.35447000000002">
    <ele>447.87000000000006</ele>
   </trkpt>
   <trkpt lat="-37.84852" lon="145.35456000000002">
    <ele>447.67</ele>
   </trkpt>
   <trkpt lat="-37.84839" lon="145.35525">
    <ele>441.69</ele>
   </trkpt>
   <trkpt lat="-37.84814" lon="145.3557">
    <ele>440.29</ele>
   </trkpt>
   <trkpt lat="-37.84812" lon="145.35582000000002">
    <ele>440.78000000000003</ele>
   </trkpt>
   <trkpt lat="-37.84814" lon="145.35590000000002">
    <ele>441.55000000000007</ele>
   </trkpt>
   <trkpt lat="-37.84821" lon="145.35601">
    <ele>442.1700000000001</ele>
   </trkpt>
   <trkpt lat="-37.84859" lon="145.35638">
    <ele>439.59000000000003</ele>
   </trkpt>
   <trkpt lat="-37.84866" lon="145.35649">
    <ele>438.76000000000005</ele>
   </trkpt>
   <trkpt lat="-37.8487" lon="145.35663000000002">
    <ele>437.81</ele>
   </trkpt>
   <trkpt lat="-37.84872" lon="145.35680000000002">
    <ele>436.99</ele>
   </trkpt>
   <trkpt lat="-37.84877" lon="145.35692">
    <ele>436.03000000000003</ele>
   </trkpt>
   <trkpt lat="-37.84886" lon="145.35699000000002">
    <ele>433.6700000000001</ele>
   </trkpt>
   <trkpt lat="-37.84895" lon="145.35702">
    <ele>430.83000000000004</ele>
   </trkpt>
   <trkpt lat="-37.84951" lon="145.35711">
    <ele>421.37</ele>
   </trkpt>
   <trkpt lat="-37.849700000000006" lon="145.35709">
    <ele>418.05</ele>
   </trkpt>
   <trkpt lat="-37.84998" lon="145.35682">
    <ele>411.58000000000004</ele>
   </trkpt>
   <trkpt lat="-37.85009" lon="145.35676">
    <ele>410.91</ele>
   </trkpt>
   <trkpt lat="-37.85054" lon="145.35639">
    <ele>414.76</ele>
   </trkpt>
   <trkpt lat="-37.85083" lon="145.35617000000002">
    <ele>414.84000000000003</ele>
   </trkpt>
   <trkpt lat="-37.85101" lon="145.35612">
    <ele>414.11</ele>
   </trkpt>
   <trkpt lat="-37.851480000049214" lon="145.35608500021982">
    <ele>413.94</ele>
   </trkpt>
   <trkpt lat="-37.85195" lon="145.35605">
    <ele>419.75</ele>
   </trkpt>
   <trkpt lat="-37.8526" lon="145.35617000000002">
    <ele>435.34000000000003</ele>
   </trkpt>
   <trkpt lat="-37.85284" lon="145.3561">
    <ele>441.35</ele>
   </trkpt>
   <trkpt lat="-37.85289" lon="145.35602">
    <ele>441.56000000000006</ele>
   </trkpt>
   <trkpt lat="-37.85298" lon="145.3556">
    <ele>440.71000000000004</ele>
   </trkpt>
   <trkpt lat="-37.852990000000005" lon="145.35539">
    <ele>439.75</ele>
   </trkpt>
   <trkpt lat="-37.852990000000005" lon="145.35538000000003">
    <ele>439.73</ele>
   </trkpt>
   <trkpt lat="-37.853" lon="145.35505">
    <ele>438.07</ele>
   </trkpt>
   <trkpt lat="-37.85331" lon="145.35443">
    <ele>438.54</ele>
   </trkpt>
   <trkpt lat="-37.85342" lon="145.35415">
    <ele>442.08000000000004</ele>
   </trkpt>
   <trkpt lat="-37.85396" lon="145.35339000000002">
    <ele>448.58000000000004</ele>
   </trkpt>
   <trkpt lat="-37.854110000000006" lon="145.35328">
    <ele>451.96000000000004</ele>
   </trkpt>
   <trkpt lat="-37.854350000000004" lon="145.35299">
    <ele>454.62</ele>
   </trkpt>
   <trkpt lat="-37.85439" lon="145.35299">
    <ele>454.62</ele>
   </trkpt>
   <trkpt lat="-37.85452" lon="145.35320000000002">
    <ele>458.94</ele>
   </trkpt>
   <trkpt lat="-37.854580000000006" lon="145.35319">
    <ele>458.94</ele>
   </trkpt>
   <trkpt lat="-37.85461" lon="145.35309">
    <ele>460.96000000000004</ele>
   </trkpt>
   <trkpt lat="-37.85461" lon="145.35294000000002">
    <ele>462.37000000000006</ele>
   </trkpt>
   <trkpt lat="-37.85466" lon="145.35276000000002">
    <ele>463.93000000000006</ele>
   </trkpt>
   <trkpt lat="-37.85472" lon="145.3527">
    <ele>467.19000000000005</ele>
   </trkpt>
   <trkpt lat="-37.85486" lon="145.3523">
    <ele>473.44</ele>
   </trkpt>
   <trkpt lat="-37.855140000000006" lon="145.35198000000003">
    <ele>481.45000000000005</ele>
   </trkpt>
   <trkpt lat="-37.85521" lon="145.35193">
    <ele>483.05</ele>
   </trkpt>
   <trkpt lat="-37.85526" lon="145.35179000000002">
    <ele>484.21000000000004</ele>
   </trkpt>
   <trkpt lat="-37.85528" lon="145.35168000000002">
    <ele>485.48</ele>
   </trkpt>
   <trkpt lat="-37.855470000000004" lon="145.35148">
    <ele>488.12000000000006</ele>
   </trkpt>
   <trkpt lat="-37.85604" lon="145.35226">
    <ele>502.33000000000004</ele>
   </trkpt>
   <trkpt lat="-37.85614" lon="145.35240000000002">
    <ele>505.18000000000006</ele>
   </trkpt>
   <trkpt lat="-37.85622" lon="145.35247">
    <ele>506.17</ele>
   </trkpt>
   <trkpt lat="-37.85636" lon="145.35252">
    <ele>507.21000000000004</ele>
   </trkpt>
   <trkpt lat="-37.85683" lon="145.35260000000002">
    <ele>505.55000000000007</ele>
   </trkpt>
   <trkpt lat="-37.85701" lon="145.35266000000001">
    <ele>503.8</ele>
   </trkpt>
   <trkpt lat="-37.85712" lon="145.35268000000002">
    <ele>501.24</ele>
   </trkpt>
   <trkpt lat="-37.85763499999471" lon="145.35270499982497">
    <ele>496.91</ele>
   </trkpt>
   <trkpt lat="-37.85815" lon="145.35273">
    <ele>488.77000000000004</ele>
   </trkpt>
   <trkpt lat="-37.85851" lon="145.35268000000002">
    <ele>486.00000000000006</ele>
   </trkpt>
   <trkpt lat="-37.8592" lon="145.35248">
    <ele>473.28000000000003</ele>
   </trkpt>
   <trkpt lat="-37.85945" lon="145.35244">
    <ele>470.99</ele>
   </trkpt>
   <trkpt lat="-37.8596" lon="145.35241000000002">
    <ele>468.6</ele>
   </trkpt>
   <trkpt lat="-37.85994" lon="145.35221">
    <ele>464.28000000000003</ele>
   </trkpt>
   <trkpt lat="-37.86023" lon="145.35196000000002">
    <ele>458.75000000000006</ele>
   </trkpt>
   <trkpt lat="-37.860490000000006" lon="145.35181">
    <ele>455.18</ele>
   </trkpt>
   <trkpt lat="-37.860960000000006" lon="145.35146">
    <ele>445.17</ele>
   </trkpt>
   <trkpt lat="-37.86104" lon="145.35133000000002">
    <ele>443.83000000000004</ele>
   </trkpt>
   <trkpt lat="-37.86144" lon="145.35096000000001">
    <ele>444.62</ele>
   </trkpt>
   <trkpt lat="-37.86157" lon="145.35075">
    <ele>445.25</ele>
   </trkpt>
   <trkpt lat="-37.86175" lon="145.35062000000002">
    <ele>444.68</ele>
   </trkpt>
   <trkpt lat="-37.86218" lon="145.35036000000002">
    <ele>442.43000000000006</ele>
   </trkpt>
   <trkpt lat="-37.86233" lon="145.35036000000002">
    <ele>443.07</ele>
   </trkpt>
   <trkpt lat="-37.86274" lon="145.35068">
    <ele>453.70000000000005</ele>
   </trkpt>
   <trkpt lat="-37.862730000000006" lon="145.35069000000001">
    <ele>453.70000000000005</ele>
   </trkpt>
   <trkpt lat="-37.86258" lon="145.35084">
    <ele>455.41</ele>
   </trkpt>
   <trkpt lat="-37.86256" lon="145.35098000000002">
    <ele>458.39</ele>
   </trkpt>
   <trkpt lat="-37.8622" lon="145.3514">
    <ele>463.06</ele>
   </trkpt>
   <trkpt lat="-37.86218" lon="145.35177000000002">
    <ele>466.71</ele>
   </trkpt>
   <trkpt lat="-37.862190000000005" lon="145.3522">
    <ele>469.43</ele>
   </trkpt>
   <trkpt lat="-37.8624" lon="145.35274">
    <ele>473.02000000000004</ele>
   </trkpt>
   <trkpt lat="-37.862460000000006" lon="145.35279">
    <ele>473.02000000000004</ele>
   </trkpt>
   <trkpt lat="-37.862570000000005" lon="145.35281">
    <ele>473.85</ele>
   </trkpt>
   <trkpt lat="-37.86258" lon="145.35298">
    <ele>474.87</ele>
   </trkpt>
   <trkpt lat="-37.86265" lon="145.35319">
    <ele>476.31000000000006</ele>
   </trkpt>
   <trkpt lat="-37.862860000000005" lon="145.35369">
    <ele>478.45000000000005</ele>
   </trkpt>
   <trkpt lat="-37.862820000000006" lon="145.35372">
    <ele>478.58000000000004</ele>
   </trkpt>
   <trkpt lat="-37.86316" lon="145.35444">
    <ele>482.54</ele>
   </trkpt>
   <trkpt lat="-37.86334" lon="145.35477">
    <ele>483.79</ele>
   </trkpt>
   <trkpt lat="-37.86345" lon="145.35489">
    <ele>484.14</ele>
   </trkpt>
   <trkpt lat="-37.863600000000005" lon="145.35494">
    <ele>485.97</ele>
   </trkpt>
   <trkpt lat="-37.86374" lon="145.35495">
    <ele>482.46000000000004</ele>
   </trkpt>
   <trkpt lat="-37.86415" lon="145.35496">
    <ele>470.53000000000003</ele>
   </trkpt>
   <trkpt lat="-37.86435" lon="145.35499000000002">
    <ele>464.43000000000006</ele>
   </trkpt>
   <trkpt lat="-37.8645" lon="145.35506">
    <ele>456.05</ele>
   </trkpt>
   <trkpt lat="-37.86486" lon="145.35513">
    <ele>444.18</ele>
   </trkpt>
   <trkpt lat="-37.86502" lon="145.35512">
    <ele>441.57</ele>
   </trkpt>
   <trkpt lat="-37.8652" lon="145.35519000000002">
    <ele>435.36</ele>
   </trkpt>
   <trkpt lat="-37.86547" lon="145.35535000000002">
    <ele>427.17</ele>
   </trkpt>
   <trkpt lat="-37.86585" lon="145.3554">
    <ele>418.99</ele>
   </trkpt>
   <trkpt lat="-37.86598" lon="145.35555000000002">
    <ele>414.06</ele>
   </trkpt>
   <trkpt lat="-37.86598" lon="145.35567">
    <ele>414.06</ele>
   </trkpt>
   <trkpt lat="-37.86592" lon="145.35580000000002">
    <ele>411.11</ele>
   </trkpt>
   <trkpt lat="-37.86589" lon="145.35596">
    <ele>412.37</ele>
   </trkpt>
   <trkpt lat="-37.86589" lon="145.35612">
    <ele>413.51000000000005</ele>
   </trkpt>
   <trkpt lat="-37.86605" lon="145.35616000000002">
    <ele>414.65000000000003</ele>
   </trkpt>
   <trkpt lat="-37.86623" lon="145.35623">
    <ele>416.96000000000004</ele>
   </trkpt>
   <trkpt lat="-37.8665" lon="145.35665">
    <ele>420.83000000000004</ele>
   </trkpt>
   <trkpt lat="-37.86654" lon="145.35708000000002">
    <ele>423.00000000000006</ele>
   </trkpt>
   <trkpt lat="-37.86674" lon="145.35733000000002">
    <ele>420.31</ele>
   </trkpt>
   <trkpt lat="-37.86695" lon="145.35745">
    <ele>419.41</ele>
   </trkpt>
   <trkpt lat="-37.86715" lon="145.35776">
    <ele>419.30000000000007</ele>
   </trkpt>
   <trkpt lat="-37.86728" lon="145.35787000000002">
    <ele>418.59000000000003</ele>
   </trkpt>
   <trkpt lat="-37.867380000000004" lon="145.35797000000002">
    <ele>417.30000000000007</ele>
   </trkpt>
   <trkpt lat="-37.86748" lon="145.35804000000002">
    <ele>416.93</ele>
   </trkpt>
   <trkpt lat="-37.86766" lon="145.3582">
    <ele>416.39000000000004</ele>
   </trkpt>
   <trkpt lat="-37.86768" lon="145.35825">
    <ele>416.2</ele>
   </trkpt>
   <trkpt lat="-37.86773" lon="145.35860000000002">
    <ele>415.47</ele>
   </trkpt>
   <trkpt lat="-37.86793" lon="145.35878000000002">
    <ele>416.05</ele>
   </trkpt>
   <trkpt lat="-37.86806" lon="145.35901">
    <ele>415.74000000000007</ele>
   </trkpt>
   <trkpt lat="-37.8682" lon="145.35908">
    <ele>415.03000000000003</ele>
   </trkpt>
   <trkpt lat="-37.86871" lon="145.35917">
    <ele>414.73</ele>
   </trkpt>
   <trkpt lat="-37.86876" lon="145.35923000000003">
    <ele>414.41</ele>
   </trkpt>
   <trkpt lat="-37.86887" lon="145.35943">
    <ele>412.69000000000005</ele>
   </trkpt>
   <trkpt lat="-37.869220000000006" lon="145.35977000000003">
    <ele>410.45000000000005</ele>
   </trkpt>
   <trkpt lat="-37.8695" lon="145.36015">
    <ele>409.82</ele>
   </trkpt>
   <trkpt lat="-37.86963" lon="145.36053">
    <ele>407.0</ele>
   </trkpt>
   <trkpt lat="-37.86972" lon="145.36065000000002">
    <ele>406.40000000000003</ele>
   </trkpt>
   <trkpt lat="-37.86999" lon="145.36083000000002">
    <ele>405.57000000000005</ele>
   </trkpt>
   <trkpt lat="-37.87071" lon="145.36105">
    <ele>403.09000000000003</ele>
   </trkpt>
   <trkpt lat="-37.87113" lon="145.36123">
    <ele>401.89000000000004</ele>
   </trkpt>
   <trkpt lat="-37.87182" lon="145.36126000000002">
    <ele>401.05</ele>
   </trkpt>
   <trkpt lat="-37.87205" lon="145.36114">
    <ele>400.78000000000003</ele>
   </trkpt>
   <trkpt lat="-37.87221" lon="145.36118000000002">
    <ele>400.17</ele>
   </trkpt>
   <trkpt lat="-37.87234" lon="145.36127000000002">
    <ele>399.32</ele>
   </trkpt>
   <trkpt lat="-37.87243" lon="145.36129000000003">
    <ele>398.39</ele>
   </trkpt>
   <trkpt lat="-37.87292" lon="145.36119000000002">
    <ele>396.16</ele>
   </trkpt>
   <trkpt lat="-37.87326" lon="145.36121">
    <ele>392.72</ele>
   </trkpt>
   <trkpt lat="-37.87339" lon="145.36129000000003">
    <ele>390.45</ele>
   </trkpt>
   <trkpt lat="-37.87357" lon="145.36148">
    <ele>388.96000000000004</ele>
   </trkpt>
   <trkpt lat="-37.87377" lon="145.36196">
    <ele>388.66</ele>
   </trkpt>
   <trkpt lat="-37.873720000000006" lon="145.36151">
    <ele>399.32</ele>
   </trkpt>
   <trkpt lat="-37.87391" lon="145.36107">
    <ele>397.66</ele>
   </trkpt>
   <trkpt lat="-37.87406" lon="145.36083000000002">
    <ele>396.95</ele>
   </trkpt>
   <trkpt lat="-37.87436" lon="145.36058">
    <ele>400.07000000000005</ele>
   </trkpt>
   <trkpt lat="-37.87436" lon="145.36057000000002">
    <ele>400.43</ele>
   </trkpt>
   <trkpt lat="-37.87469" lon="145.36031">
    <ele>406.91</ele>
   </trkpt>
   <trkpt lat="-37.87505" lon="145.35992000000002">
    <ele>413.93</ele>
   </trkpt>
   <trkpt lat="-37.87509" lon="145.35984000000002">
    <ele>414.52000000000004</ele>
   </trkpt>
   <trkpt lat="-37.87512" lon="145.35974000000002">
    <ele>415.63000000000005</ele>
   </trkpt>
   <trkpt lat="-37.87509" lon="145.35962">
    <ele>416.59000000000003</ele>
   </trkpt>
   <trkpt lat="-37.875" lon="145.35952">
    <ele>417.48</ele>
   </trkpt>
   <trkpt lat="-37.874810000000004" lon="145.35939000000002">
    <ele>421.50000000000006</ele>
   </trkpt>
   <trkpt lat="-37.87471" lon="145.35918">
    <ele>423.61</ele>
   </trkpt>
   <trkpt lat="-37.87435" lon="145.35875000000001">
    <ele>429.87</ele>
   </trkpt>
   <trkpt lat="-37.87424" lon="145.35866000000001">
    <ele>429.87</ele>
   </trkpt>
   <trkpt lat="-37.87402" lon="145.35851000000002">
    <ele>432.47</ele>
   </trkpt>
   <trkpt lat="-37.87373" lon="145.3582">
    <ele>436.01</ele>
   </trkpt>
   <trkpt lat="-37.873630000000006" lon="145.35801">
    <ele>437.66</ele>
   </trkpt>
   <trkpt lat="-37.87357" lon="145.35787000000002">
    <ele>439.39000000000004</ele>
   </trkpt>
   <trkpt lat="-37.87346" lon="145.35765">
    <ele>441.47</ele>
   </trkpt>
   <trkpt lat="-37.87335" lon="145.35702">
    <ele>444.6</ele>
   </trkpt>
   <trkpt lat="-37.87326" lon="145.35669000000001">
    <ele>446.46000000000004</ele>
   </trkpt>
   <trkpt lat="-37.873290000000004" lon="145.35661000000002">
    <ele>446.72</ele>
   </trkpt>
   <trkpt lat="-37.873290000000004" lon="145.35660000000001">
    <ele>446.71000000000004</ele>
   </trkpt>
   <trkpt lat="-37.8733" lon="145.35656">
    <ele>446.96000000000004</ele>
   </trkpt>
   <trkpt lat="-37.87339" lon="145.35662000000002">
    <ele>447.35</ele>
   </trkpt>
   <trkpt lat="-37.87368" lon="145.35735000000003">
    <ele>451.18</ele>
   </trkpt>
   <trkpt lat="-37.87375" lon="145.35745">
    <ele>451.18</ele>
   </trkpt>
   <trkpt lat="-37.874" lon="145.35763">
    <ele>453.85</ele>
   </trkpt>
   <trkpt lat="-37.87433" lon="145.35779000000002">
    <ele>456.04</ele>
   </trkpt>
   <trkpt lat="-37.8746" lon="145.35783">
    <ele>456.04</ele>
   </trkpt>
   <trkpt lat="-37.87489" lon="145.35784">
    <ele>460.36</ele>
   </trkpt>
   <trkpt lat="-37.87545" lon="145.35776">
    <ele>464.41</ele>
   </trkpt>
   <trkpt lat="-37.87556" lon="145.35770000000002">
    <ele>465.88</ele>
   </trkpt>
   <trkpt lat="-37.87576" lon="145.35749">
    <ele>470.55</ele>
   </trkpt>
   <trkpt lat="-37.87585" lon="145.35729">
    <ele>471.63000000000005</ele>
   </trkpt>
   <trkpt lat="-37.87597" lon="145.35711">
    <ele>473.08000000000004</ele>
   </trkpt>
   <trkpt lat="-37.87604" lon="145.35701">
    <ele>473.40000000000003</ele>
   </trkpt>
   <trkpt lat="-37.876050000000006" lon="145.35701">
    <ele>473.41</ele>
   </trkpt>
   <trkpt lat="-37.87617" lon="145.35688000000002">
    <ele>473.49</ele>
   </trkpt>
   <trkpt lat="-37.8763" lon="145.35678000000001">
    <ele>473.33000000000004</ele>
   </trkpt>
   <trkpt lat="-37.87664" lon="145.35663000000002">
    <ele>471.68</ele>
   </trkpt>
   <trkpt lat="-37.87675" lon="145.35661000000002">
    <ele>471.27000000000004</ele>
   </trkpt>
   <trkpt lat="-37.87684" lon="145.35664">
    <ele>470.83000000000004</ele>
   </trkpt>
   <trkpt lat="-37.87688" lon="145.35664">
    <ele>465.3</ele>
   </trkpt>
  </trkseg>
 </trk>
</gpx>
