<?xml version="1.0" encoding="UTF-8"?>
<gpx creator="StravaGPX" version="1.1" xmlns="http://www.topografix.com/GPX/1/1" xmlns:xsi="http://www.w3.org/2001/XMLSchema-instance" xsi:schemaLocation="http://www.topografix.com/GPX/1/1 http://www.topografix.com/GPX/1/1/gpx.xsd">
 <metadata>
  <name>DTR Sherbrook 14K 1 July</name>
  <author>
   <name>john csorgo</name>
  </author>
  <copyright author="OpenStreetMap contributors">
   <year>2020</year>
   <license>https://www.openstreetmap.org/copyright</license>
  </copyright>
 </metadata>
 <trk>
  <name>DTR Sherbrook 14K 1 July</name>
  <link href=""/>
  <type>running</type>
  <trkseg>
   <trkpt lat="-37.88734" lon="145.37016">
    <ele>350.6</ele>
   </trkpt>
   <trkpt lat="-37.88738" lon="145.37008">
    <ele>350.61</ele>
   </trkpt>
   <trkpt lat="-37.88749" lon="145.36999">
    <ele>350.26</ele>
   </trkpt>
   <trkpt lat="-37.88765" lon="145.36970000000002">
    <ele>350.02000000000004</ele>
   </trkpt>
   <trkpt lat="-37.88794" lon="145.36951000000002">
    <ele>349.22</ele>
   </trkpt>
   <trkpt lat="-37.88852" lon="145.3692">
    <ele>346.18000000000006</ele>
   </trkpt>
   <trkpt lat="-37.88911" lon="145.36880000000002">
    <ele>342.37</ele>
   </trkpt>
   <trkpt lat="-37.88953500039064" lon="145.36848500183984">
    <ele>339.83000000000004</ele>
   </trkpt>
   <trkpt lat="-37.88996" lon="145.36817000000002">
    <ele>338.24</ele>
   </trkpt>
   <trkpt lat="-37.89052" lon="145.36778">
    <ele>336.98</ele>
   </trkpt>
   <trkpt lat="-37.8907" lon="145.36769">
    <ele>336.15</ele>
   </trkpt>
   <trkpt lat="-37.89094" lon="145.36749">
    <ele>334.98</ele>
   </trkpt>
   <trkpt lat="-37.89157" lon="145.36715">
    <ele>330.15000000000003</ele>
   </trkpt>
   <trkpt lat="-37.892120000000006" lon="145.36677">
    <ele>328.89</ele>
   </trkpt>
   <trkpt lat="-37.89233" lon="145.36657000000002">
    <ele>329.29</ele>
   </trkpt>
   <trkpt lat="-37.89262" lon="145.36622">
    <ele>329.56</ele>
   </trkpt>
   <trkpt lat="-37.89329" lon="145.36548000000002">
    <ele>327.27</ele>
   </trkpt>
   <trkpt lat="-37.89383" lon="145.365">
    <ele>322.89</ele>
   </trkpt>
   <trkpt lat="-37.89412" lon="145.3648">
    <ele>321.21000000000004</ele>
   </trkpt>
   <trkpt lat="-37.8945" lon="145.36457000000001">
    <ele>318.71999999999997</ele>
   </trkpt>
   <trkpt lat="-37.894780000000004" lon="145.36424000000002">
    <ele>314.81</ele>
   </trkpt>
   <trkpt lat="-37.895030000000006" lon="145.36387000000002">
    <ele>312.65000000000003</ele>
   </trkpt>
   <trkpt lat="-37.89526" lon="145.36332000000002">
    <ele>310.44000000000005</ele>
   </trkpt>
   <trkpt lat="-37.89537" lon="145.36299000000002">
    <ele>309.24</ele>
   </trkpt>
   <trkpt lat="-37.895500000000006" lon="145.36281000000002">
    <ele>308.38000000000005</ele>
   </trkpt>
   <trkpt lat="-37.8956" lon="145.36243000000002">
    <ele>306.41</ele>
   </trkpt>
   <trkpt lat="-37.89578" lon="145.36200000000002">
    <ele>304.38000000000005</ele>
   </trkpt>
   <trkpt lat="-37.89609" lon="145.36145000000002">
    <ele>299.75</ele>
   </trkpt>
   <trkpt lat="-37.89618" lon="145.36090000000002">
    <ele>297.1</ele>
   </trkpt>
   <trkpt lat="-37.89645" lon="145.36017">
    <ele>294.69</ele>
   </trkpt>
   <trkpt lat="-37.89661" lon="145.35992000000002">
    <ele>293.3</ele>
   </trkpt>
   <trkpt lat="-37.89665" lon="145.35958000000002">
    <ele>291.43</ele>
   </trkpt>
   <trkpt lat="-37.89672" lon="145.35945">
    <ele>291.16</ele>
   </trkpt>
   <trkpt lat="-37.89683" lon="145.35912000000002">
    <ele>290.66</ele>
   </trkpt>
   <trkpt lat="-37.89696" lon="145.3589">
    <ele>290.11</ele>
   </trkpt>
   <trkpt lat="-37.89699" lon="145.35877000000002">
    <ele>289.34999999999997</ele>
   </trkpt>
   <trkpt lat="-37.897090000000006" lon="145.35867000000002">
    <ele>288.34000000000003</ele>
   </trkpt>
   <trkpt lat="-37.89717" lon="145.35867000000002">
    <ele>288.34000000000003</ele>
   </trkpt>
   <trkpt lat="-37.89728" lon="145.35854">
    <ele>287.42</ele>
   </trkpt>
   <trkpt lat="-37.89741" lon="145.35832000000002">
    <ele>286.94</ele>
   </trkpt>
   <trkpt lat="-37.8975" lon="145.35823000000002">
    <ele>286.15000000000003</ele>
   </trkpt>
   <trkpt lat="-37.89768" lon="145.35815000000002">
    <ele>285.66</ele>
   </trkpt>
   <trkpt lat="-37.89781" lon="145.35814000000002">
    <ele>286.23</ele>
   </trkpt>
   <trkpt lat="-37.89817" lon="145.35786000000002">
    <ele>284.8</ele>
   </trkpt>
   <trkpt lat="-37.89824" lon="145.35765">
    <ele>283.7</ele>
   </trkpt>
   <trkpt lat="-37.89831" lon="145.35755">
    <ele>283.39000000000004</ele>
   </trkpt>
   <trkpt lat="-37.89837" lon="145.35737">
    <ele>282.93</ele>
   </trkpt>
   <trkpt lat="-37.89851" lon="145.35715000000002">
    <ele>282.49</ele>
   </trkpt>
   <trkpt lat="-37.89878" lon="145.35686">
    <ele>279.52000000000004</ele>
   </trkpt>
   <trkpt lat="-37.89905" lon="145.35671000000002">
    <ele>273.6</ele>
   </trkpt>
   <trkpt lat="-37.899150000000006" lon="145.35669000000001">
    <ele>272.40000000000003</ele>
   </trkpt>
   <trkpt lat="-37.89916" lon="145.35669000000001">
    <ele>272.24</ele>
   </trkpt>
   <trkpt lat="-37.89956" lon="145.35691">
    <ele>267.28000000000003</ele>
   </trkpt>
   <trkpt lat="-37.89967" lon="145.35702">
    <ele>266.31000000000006</ele>
   </trkpt>
   <trkpt lat="-37.89981" lon="145.35703">
    <ele>265.37</ele>
   </trkpt>
   <trkpt lat="-37.900000000000006" lon="145.35713">
    <ele>262.71</ele>
   </trkpt>
   <trkpt lat="-37.900000000000006" lon="145.35732000000002">
    <ele>268.08000000000004</ele>
   </trkpt>
   <trkpt lat="-37.89992" lon="145.35755">
    <ele>276.7</ele>
   </trkpt>
   <trkpt lat="-37.89992" lon="145.35763">
    <ele>276.7</ele>
   </trkpt>
   <trkpt lat="-37.900000000000006" lon="145.35778000000002">
    <ele>282.2</ele>
   </trkpt>
   <trkpt lat="-37.9001" lon="145.35835">
    <ele>298.27000000000004</ele>
   </trkpt>
   <trkpt lat="-37.9001" lon="145.35860000000002">
    <ele>302.48</ele>
   </trkpt>
   <trkpt lat="-37.9003" lon="145.35946">
    <ele>318.05</ele>
   </trkpt>
   <trkpt lat="-37.9005" lon="145.36012000000002">
    <ele>338.75000000000006</ele>
   </trkpt>
   <trkpt lat="-37.90057" lon="145.36046000000002">
    <ele>341.15</ele>
   </trkpt>
   <trkpt lat="-37.90059" lon="145.36069">
    <ele>340.87</ele>
   </trkpt>
   <trkpt lat="-37.90077" lon="145.36145000000002">
    <ele>335.44</ele>
   </trkpt>
   <trkpt lat="-37.900830000000006" lon="145.36186">
    <ele>334.0</ele>
   </trkpt>
   <trkpt lat="-37.90086" lon="145.36205">
    <ele>334.03000000000003</ele>
   </trkpt>
   <trkpt lat="-37.9010500020421" lon="145.36273999832102">
    <ele>336.9200000000001</ele>
   </trkpt>
   <trkpt lat="-37.90124" lon="145.36343000000002">
    <ele>340.14000000000004</ele>
   </trkpt>
   <trkpt lat="-37.901450000000004" lon="145.36382">
    <ele>339.40000000000003</ele>
   </trkpt>
   <trkpt lat="-37.90189" lon="145.36350000000002">
    <ele>334.4800000000001</ele>
   </trkpt>
   <trkpt lat="-37.90216" lon="145.36339">
    <ele>330.93</ele>
   </trkpt>
   <trkpt lat="-37.90263" lon="145.36328">
    <ele>324.56</ele>
   </trkpt>
   <trkpt lat="-37.90283" lon="145.36315000000002">
    <ele>322.58000000000004</ele>
   </trkpt>
   <trkpt lat="-37.90307" lon="145.36296000000002">
    <ele>319.54</ele>
   </trkpt>
   <trkpt lat="-37.90366" lon="145.36271000000002">
    <ele>315.71999999999997</ele>
   </trkpt>
   <trkpt lat="-37.90417" lon="145.36270000000002">
    <ele>311.36</ele>
   </trkpt>
   <trkpt lat="-37.90442" lon="145.36266">
    <ele>309.71000000000004</ele>
   </trkpt>
   <trkpt lat="-37.9046" lon="145.36269000000001">
    <ele>307.93</ele>
   </trkpt>
   <trkpt lat="-37.90522" lon="145.36309">
    <ele>298.67</ele>
   </trkpt>
   <trkpt lat="-37.905350000000006" lon="145.36324000000002">
    <ele>295.18</ele>
   </trkpt>
   <trkpt lat="-37.90545" lon="145.36334000000002">
    <ele>295.18</ele>
   </trkpt>
   <trkpt lat="-37.90574" lon="145.36347">
    <ele>288.86</ele>
   </trkpt>
   <trkpt lat="-37.906060000000004" lon="145.36378000000002">
    <ele>282.24000000000007</ele>
   </trkpt>
   <trkpt lat="-37.90614" lon="145.36394">
    <ele>279.96999999999997</ele>
   </trkpt>
   <trkpt lat="-37.906150000000004" lon="145.36395000000002">
    <ele>279.87</ele>
   </trkpt>
   <trkpt lat="-37.90623" lon="145.36459000000002">
    <ele>269.0</ele>
   </trkpt>
   <trkpt lat="-37.90646" lon="145.36564">
    <ele>243.77</ele>
   </trkpt>
   <trkpt lat="-37.90663" lon="145.36637000000002">
    <ele>225.82000000000002</ele>
   </trkpt>
   <trkpt lat="-37.90657" lon="145.36668">
    <ele>218.65</ele>
   </trkpt>
   <trkpt lat="-37.90661" lon="145.36685">
    <ele>216.76</ele>
   </trkpt>
   <trkpt lat="-37.90663" lon="145.36713">
    <ele>214.88000000000002</ele>
   </trkpt>
   <trkpt lat="-37.90675" lon="145.36773000000002">
    <ele>216.67000000000002</ele>
   </trkpt>
   <trkpt lat="-37.90668" lon="145.36825000000002">
    <ele>219.15</ele>
   </trkpt>
   <trkpt lat="-37.90677" lon="145.36884">
    <ele>218.38000000000002</ele>
   </trkpt>
   <trkpt lat="-37.90677" lon="145.36897000000002">
    <ele>218.38000000000002</ele>
   </trkpt>
   <trkpt lat="-37.9067" lon="145.36924000000002">
    <ele>218.21</ele>
   </trkpt>
   <trkpt lat="-37.9065" lon="145.36961000000002">
    <ele>217.79000000000002</ele>
   </trkpt>
   <trkpt lat="-37.90634" lon="145.36982">
    <ele>217.92000000000002</ele>
   </trkpt>
   <trkpt lat="-37.9063" lon="145.37003">
    <ele>217.85000000000002</ele>
   </trkpt>
   <trkpt lat="-37.90628" lon="145.37043">
    <ele>216.66000000000003</ele>
   </trkpt>
   <trkpt lat="-37.90639" lon="145.37087000000002">
    <ele>213.86</ele>
   </trkpt>
   <trkpt lat="-37.90672" lon="145.37188">
    <ele>211.68</ele>
   </trkpt>
   <trkpt lat="-37.90701" lon="145.37227000000001">
    <ele>217.32000000000002</ele>
   </trkpt>
   <trkpt lat="-37.90713" lon="145.37253">
    <ele>220.43</ele>
   </trkpt>
   <trkpt lat="-37.90713" lon="145.37263000000002">
    <ele>221.32000000000002</ele>
   </trkpt>
   <trkpt lat="-37.90713" lon="145.37262">
    <ele>221.32000000000002</ele>
   </trkpt>
   <trkpt lat="-37.90699" lon="145.37323">
    <ele>230.56</ele>
   </trkpt>
   <trkpt lat="-37.9069" lon="145.37378">
    <ele>236.98000000000002</ele>
   </trkpt>
   <trkpt lat="-37.90643" lon="145.37461000000002">
    <ele>248.89000000000001</ele>
   </trkpt>
   <trkpt lat="-37.905910000000006" lon="145.37546">
    <ele>257.51</ele>
   </trkpt>
   <trkpt lat="-37.90549" lon="145.37617">
    <ele>261.02000000000004</ele>
   </trkpt>
   <trkpt lat="-37.905230001641456" lon="145.3768050024006">
    <ele>264.19000000000005</ele>
   </trkpt>
   <trkpt lat="-37.904970000000006" lon="145.37744">
    <ele>273.06</ele>
   </trkpt>
   <trkpt lat="-37.90475" lon="145.37804">
    <ele>284.75</ele>
   </trkpt>
   <trkpt lat="-37.9046" lon="145.3784">
    <ele>294.49</ele>
   </trkpt>
   <trkpt lat="-37.904320001130316" lon="145.3788850016111">
    <ele>306.71000000000004</ele>
   </trkpt>
   <trkpt lat="-37.90404" lon="145.37937000000002">
    <ele>316.1</ele>
   </trkpt>
   <trkpt lat="-37.90368" lon="145.37987">
    <ele>327.42</ele>
   </trkpt>
   <trkpt lat="-37.90339" lon="145.38022">
    <ele>334.91</ele>
   </trkpt>
   <trkpt lat="-37.90325" lon="145.38043000000002">
    <ele>337.59</ele>
   </trkpt>
   <trkpt lat="-37.90307" lon="145.38094">
    <ele>347.61</ele>
   </trkpt>
   <trkpt lat="-37.902860000000004" lon="145.38126000000003">
    <ele>354.04</ele>
   </trkpt>
   <trkpt lat="-37.90285" lon="145.38128">
    <ele>354.26</ele>
   </trkpt>
   <trkpt lat="-37.90278" lon="145.38134000000002">
    <ele>355.6</ele>
   </trkpt>
   <trkpt lat="-37.9026" lon="145.38141000000002">
    <ele>357.71000000000004</ele>
   </trkpt>
   <trkpt lat="-37.90243" lon="145.38138">
    <ele>358.50000000000006</ele>
   </trkpt>
   <trkpt lat="-37.9022" lon="145.38132000000002">
    <ele>359.54</ele>
   </trkpt>
   <trkpt lat="-37.90166" lon="145.38102">
    <ele>360.40000000000003</ele>
   </trkpt>
   <trkpt lat="-37.90095" lon="145.38066">
    <ele>363.85</ele>
   </trkpt>
   <trkpt lat="-37.90025" lon="145.38027000000002">
    <ele>368.37</ele>
   </trkpt>
   <trkpt lat="-37.89983" lon="145.38012">
    <ele>370.96</ele>
   </trkpt>
   <trkpt lat="-37.89911500059762" lon="145.37975999652772">
    <ele>379.33000000000004</ele>
   </trkpt>
   <trkpt lat="-37.8984" lon="145.3794">
    <ele>386.05</ele>
   </trkpt>
   <trkpt lat="-37.89822" lon="145.37928000000002">
    <ele>386.69</ele>
   </trkpt>
   <trkpt lat="-37.897980000000004" lon="145.37919000000002">
    <ele>386.39</ele>
   </trkpt>
   <trkpt lat="-37.89797" lon="145.37917000000002">
    <ele>386.38000000000005</ele>
   </trkpt>
   <trkpt lat="-37.89788" lon="145.37979">
    <ele>385.75000000000006</ele>
   </trkpt>
   <trkpt lat="-37.89784" lon="145.38036000000002">
    <ele>383.98</ele>
   </trkpt>
   <trkpt lat="-37.89779" lon="145.38079000000002">
    <ele>382.36</ele>
   </trkpt>
   <trkpt lat="-37.897690001991506" lon="145.3814800010917">
    <ele>381.99000000000007</ele>
   </trkpt>
   <trkpt lat="-37.89759" lon="145.38217">
    <ele>382.75</ele>
   </trkpt>
   <trkpt lat="-37.89755" lon="145.3827">
    <ele>383.62</ele>
   </trkpt>
   <trkpt lat="-37.89742500201526" lon="145.38339500133532">
    <ele>386.11</ele>
   </trkpt>
   <trkpt lat="-37.8973" lon="145.38409000000001">
    <ele>389.43000000000006</ele>
   </trkpt>
   <trkpt lat="-37.89719" lon="145.38446000000002">
    <ele>392.16</ele>
   </trkpt>
   <trkpt lat="-37.89703" lon="145.38479">
    <ele>394.87000000000006</ele>
   </trkpt>
   <trkpt lat="-37.8969" lon="145.38498">
    <ele>397.18</ele>
   </trkpt>
   <trkpt lat="-37.896530000000006" lon="145.38533">
    <ele>401.93</ele>
   </trkpt>
   <trkpt lat="-37.89609" lon="145.38563000000002">
    <ele>406.86000000000007</ele>
   </trkpt>
   <trkpt lat="-37.89593" lon="145.38579000000001">
    <ele>408.13000000000005</ele>
   </trkpt>
   <trkpt lat="-37.89551" lon="145.38614">
    <ele>409.48</ele>
   </trkpt>
   <trkpt lat="-37.89535" lon="145.38631">
    <ele>410.56</ele>
   </trkpt>
   <trkpt lat="-37.89495" lon="145.38648">
    <ele>412.30000000000007</ele>
   </trkpt>
   <trkpt lat="-37.89432" lon="145.38645000000002">
    <ele>413.53</ele>
   </trkpt>
   <trkpt lat="-37.89369000000001" lon="145.38629">
    <ele>414.39000000000004</ele>
   </trkpt>
   <trkpt lat="-37.893100000000004" lon="145.38577">
    <ele>416.5</ele>
   </trkpt>
   <trkpt lat="-37.89309" lon="145.38576">
    <ele>416.55</ele>
   </trkpt>
   <trkpt lat="-37.892830000000004" lon="145.38529">
    <ele>418.59000000000003</ele>
   </trkpt>
   <trkpt lat="-37.8926" lon="145.38464000000002">
    <ele>418.65000000000003</ele>
   </trkpt>
   <trkpt lat="-37.89251" lon="145.38418000000001">
    <ele>419.01000000000005</ele>
   </trkpt>
   <trkpt lat="-37.89249" lon="145.38371">
    <ele>418.36</ele>
   </trkpt>
   <trkpt lat="-37.89252000187539" lon="145.3830450001623">
    <ele>418.19000000000005</ele>
   </trkpt>
   <trkpt lat="-37.89255" lon="145.38238">
    <ele>419.28000000000003</ele>
   </trkpt>
   <trkpt lat="-37.89242" lon="145.38186000000002">
    <ele>420.99</ele>
   </trkpt>
   <trkpt lat="-37.89233" lon="145.38163">
    <ele>421.29</ele>
   </trkpt>
   <trkpt lat="-37.89222" lon="145.38146">
    <ele>421.22</ele>
   </trkpt>
   <trkpt lat="-37.89206" lon="145.38125000000002">
    <ele>420.92</ele>
   </trkpt>
   <trkpt lat="-37.89186" lon="145.38104">
    <ele>421.59000000000003</ele>
   </trkpt>
   <trkpt lat="-37.89135500092286" lon="145.38059499702274">
    <ele>422.03000000000003</ele>
   </trkpt>
   <trkpt lat="-37.89085" lon="145.38015000000001">
    <ele>422.51000000000005</ele>
   </trkpt>
   <trkpt lat="-37.89045" lon="145.37973000000002">
    <ele>418.99</ele>
   </trkpt>
   <trkpt lat="-37.890150000000006" lon="145.3795">
    <ele>417.59000000000003</ele>
   </trkpt>
   <trkpt lat="-37.88973" lon="145.37923">
    <ele>414.26</ele>
   </trkpt>
   <trkpt lat="-37.889170000302975" lon="145.37892999767666">
    <ele>409.51000000000005</ele>
   </trkpt>
   <trkpt lat="-37.88861" lon="145.37863000000002">
    <ele>404.49</ele>
   </trkpt>
   <trkpt lat="-37.88832" lon="145.3785">
    <ele>402.23</ele>
   </trkpt>
   <trkpt lat="-37.88812" lon="145.37844">
    <ele>400.87000000000006</ele>
   </trkpt>
   <trkpt lat="-37.887890000000006" lon="145.37830000000002">
    <ele>400.09000000000003</ele>
   </trkpt>
   <trkpt lat="-37.8877" lon="145.37814">
    <ele>398.25000000000006</ele>
   </trkpt>
   <trkpt lat="-37.887710000000006" lon="145.37814">
    <ele>398.11</ele>
   </trkpt>
   <trkpt lat="-37.888510000172204" lon="145.37797500178098">
    <ele>389.44</ele>
   </trkpt>
   <trkpt lat="-37.88931" lon="145.37781">
    <ele>382.65000000000003</ele>
   </trkpt>
   <trkpt lat="-37.89016" lon="145.37795">
    <ele>378.85</ele>
   </trkpt>
   <trkpt lat="-37.89085" lon="145.37794000000002">
    <ele>375.39000000000004</ele>
   </trkpt>
   <trkpt lat="-37.89112" lon="145.3779">
    <ele>373.37</ele>
   </trkpt>
   <trkpt lat="-37.89123" lon="145.37791">
    <ele>372.84</ele>
   </trkpt>
   <trkpt lat="-37.89139" lon="145.37794000000002">
    <ele>371.83000000000004</ele>
   </trkpt>
   <trkpt lat="-37.89177" lon="145.37807">
    <ele>369.25</ele>
   </trkpt>
   <trkpt lat="-37.89222" lon="145.37835">
    <ele>366.75</ele>
   </trkpt>
   <trkpt lat="-37.89229" lon="145.37834">
    <ele>366.3</ele>
   </trkpt>
   <trkpt lat="-37.89235" lon="145.37830000000002">
    <ele>365.08</ele>
   </trkpt>
   <trkpt lat="-37.89249" lon="145.37814">
    <ele>362.62000000000006</ele>
   </trkpt>
   <trkpt lat="-37.89262" lon="145.37792000000002">
    <ele>357.19</ele>
   </trkpt>
   <trkpt lat="-37.89267" lon="145.37773">
    <ele>354.74000000000007</ele>
   </trkpt>
   <trkpt lat="-37.892630000000004" lon="145.37729000000002">
    <ele>349.45000000000005</ele>
   </trkpt>
   <trkpt lat="-37.89265" lon="145.37734">
    <ele>349.76</ele>
   </trkpt>
   <trkpt lat="-37.89258" lon="145.37708">
    <ele>347.48</ele>
   </trkpt>
   <trkpt lat="-37.892350001316714" lon="145.37650499799926">
    <ele>341.61</ele>
   </trkpt>
   <trkpt lat="-37.892120000000006" lon="145.37593">
    <ele>335.49</ele>
   </trkpt>
   <trkpt lat="-37.89166" lon="145.37524000000002">
    <ele>328.67</ele>
   </trkpt>
   <trkpt lat="-37.89146" lon="145.37505000000002">
    <ele>327.07</ele>
   </trkpt>
   <trkpt lat="-37.89137" lon="145.37499000000003">
    <ele>326.8</ele>
   </trkpt>
   <trkpt lat="-37.89114" lon="145.37492">
    <ele>327.09000000000003</ele>
   </trkpt>
   <trkpt lat="-37.89079" lon="145.37492">
    <ele>327.43000000000006</ele>
   </trkpt>
   <trkpt lat="-37.89052" lon="145.37509">
    <ele>327.73</ele>
   </trkpt>
   <trkpt lat="-37.89025" lon="145.37519">
    <ele>328.17</ele>
   </trkpt>
   <trkpt lat="-37.89007" lon="145.37515000000002">
    <ele>327.55</ele>
   </trkpt>
   <trkpt lat="-37.88996" lon="145.37504">
    <ele>326.41</ele>
   </trkpt>
   <trkpt lat="-37.88993" lon="145.37490000000003">
    <ele>326.24</ele>
   </trkpt>
   <trkpt lat="-37.89" lon="145.37468">
    <ele>327.04</ele>
   </trkpt>
   <trkpt lat="-37.89009" lon="145.37448">
    <ele>327.04</ele>
   </trkpt>
   <trkpt lat="-37.89011" lon="145.37428">
    <ele>329.02000000000004</ele>
   </trkpt>
   <trkpt lat="-37.89007" lon="145.37402">
    <ele>330.42</ele>
   </trkpt>
   <trkpt lat="-37.88998" lon="145.37389000000002">
    <ele>331.36</ele>
   </trkpt>
   <trkpt lat="-37.889500000758154" lon="145.3734749973202">
    <ele>335.48</ele>
   </trkpt>
   <trkpt lat="-37.88902" lon="145.37306">
    <ele>339.25000000000006</ele>
   </trkpt>
   <trkpt lat="-37.88841000112411" lon="145.37258499619705">
    <ele>344.90000000000003</ele>
   </trkpt>
   <trkpt lat="-37.887800000000006" lon="145.37211000000002">
    <ele>349.82</ele>
   </trkpt>
   <trkpt lat="-37.88742500038631" lon="145.37178999833037">
    <ele>353.90000000000003</ele>
   </trkpt>
   <trkpt lat="-37.88705" lon="145.37147000000002">
    <ele>356.50000000000006</ele>
   </trkpt>
   <trkpt lat="-37.88698" lon="145.37135">
    <ele>356.49</ele>
   </trkpt>
   <trkpt lat="-37.88694" lon="145.37120000000002">
    <ele>356.3</ele>
   </trkpt>
   <trkpt lat="-37.88689" lon="145.37094000000002">
    <ele>354.65000000000003</ele>
   </trkpt>
   <trkpt lat="-37.88682" lon="145.37078000000002">
    <ele>352.09000000000003</ele>
   </trkpt>
   <trkpt lat="-37.88682" lon="145.37073">
    <ele>352.09000000000003</ele>
   </trkpt>
   <trkpt lat="-37.88693" lon="145.37054">
    <ele>351.96999999999997</ele>
   </trkpt>
   <trkpt lat="-37.88729" lon="145.37024000000002">
    <ele>350.62000000000006</ele>
   </trkpt>
   <trkpt lat="-37.88738" lon="145.37008">
    <ele>350.61</ele>
   </trkpt>
   <trkpt lat="-37.88732" lon="145.36981">
    <ele>349.08</ele>
   </trkpt>
   <trkpt lat="-37.88736" lon="145.36978000000002">
    <ele>349.08</ele>
   </trkpt>
   <trkpt lat="-37.88667" lon="145.36906000000002">
    <ele>347.57000000000005</ele>
   </trkpt>
   <trkpt lat="-37.88642" lon="145.36872000000002">
    <ele>344.04</ele>
   </trkpt>
   <trkpt lat="-37.88617" lon="145.3685">
    <ele>341.07000000000005</ele>
   </trkpt>
   <trkpt lat="-37.886100000000006" lon="145.36837">
    <ele>340.98</ele>
   </trkpt>
   <trkpt lat="-37.88602" lon="145.36834000000002">
    <ele>343.91</ele>
   </trkpt>
   <trkpt lat="-37.88564" lon="145.36801">
    <ele>357.74</ele>
   </trkpt>
   <trkpt lat="-37.8855" lon="145.36785">
    <ele>359.88000000000005</ele>
   </trkpt>
   <trkpt lat="-37.88517" lon="145.36757">
    <ele>366.84000000000003</ele>
   </trkpt>
   <trkpt lat="-37.88499" lon="145.36737000000002">
    <ele>373.61000000000007</ele>
   </trkpt>
   <trkpt lat="-37.884820000000005" lon="145.36711000000003">
    <ele>378.73</ele>
   </trkpt>
   <trkpt lat="-37.88481" lon="145.36710000000002">
    <ele>378.90000000000003</ele>
   </trkpt>
   <trkpt lat="-37.8847" lon="145.36672000000002">
    <ele>388.57</ele>
   </trkpt>
   <trkpt lat="-37.8847" lon="145.36657000000002">
    <ele>389.78000000000003</ele>
   </trkpt>
   <trkpt lat="-37.88465" lon="145.36651">
    <ele>394.48</ele>
   </trkpt>
   <trkpt lat="-37.88465" lon="145.36642">
    <ele>394.48</ele>
   </trkpt>
   <trkpt lat="-37.88461" lon="145.36635">
    <ele>395.74</ele>
   </trkpt>
   <trkpt lat="-37.88458" lon="145.36623">
    <ele>400.9800000000001</ele>
   </trkpt>
   <trkpt lat="-37.88463" lon="145.36617">
    <ele>402.20000000000005</ele>
   </trkpt>
   <trkpt lat="-37.88474" lon="145.36611000000002">
    <ele>404.33000000000004</ele>
   </trkpt>
   <trkpt lat="-37.884980000000006" lon="145.36612000000002">
    <ele>408.87</ele>
   </trkpt>
   <trkpt lat="-37.885270000000006" lon="145.36607">
    <ele>416.83000000000004</ele>
   </trkpt>
   <trkpt lat="-37.88546" lon="145.36592000000002">
    <ele>418.79</ele>
   </trkpt>
   <trkpt lat="-37.88548" lon="145.36577">
    <ele>420.84000000000003</ele>
   </trkpt>
   <trkpt lat="-37.88546" lon="145.36561">
    <ele>422.83000000000004</ele>
   </trkpt>
   <trkpt lat="-37.88539" lon="145.36557000000002">
    <ele>428.58</ele>
   </trkpt>
   <trkpt lat="-37.885360000000006" lon="145.36547000000002">
    <ele>428.58</ele>
   </trkpt>
   <trkpt lat="-37.88519" lon="145.36531000000002">
    <ele>431.84000000000003</ele>
   </trkpt>
   <trkpt lat="-37.88517" lon="145.36524">
    <ele>432.50000000000006</ele>
   </trkpt>
   <trkpt lat="-37.88499" lon="145.36505000000002">
    <ele>435.70000000000005</ele>
   </trkpt>
   <trkpt lat="-37.88494" lon="145.36503000000002">
    <ele>436.20000000000005</ele>
   </trkpt>
   <trkpt lat="-37.88483" lon="145.36484000000002">
    <ele>439.32000000000005</ele>
   </trkpt>
   <trkpt lat="-37.88476" lon="145.36459000000002">
    <ele>443.64000000000004</ele>
   </trkpt>
   <trkpt lat="-37.88479" lon="145.36451000000002">
    <ele>445.67</ele>
   </trkpt>
   <trkpt lat="-37.88476" lon="145.36443">
    <ele>447.44000000000005</ele>
   </trkpt>
   <trkpt lat="-37.88463" lon="145.36419">
    <ele>451.55000000000007</ele>
   </trkpt>
   <trkpt lat="-37.88445" lon="145.36369000000002">
    <ele>461.1000000000001</ele>
   </trkpt>
   <trkpt lat="-37.884420000000006" lon="145.36347">
    <ele>465.62</ele>
   </trkpt>
   <trkpt lat="-37.88443" lon="145.36341000000002">
    <ele>466.5400000000001</ele>
   </trkpt>
   <trkpt lat="-37.88449" lon="145.36339">
    <ele>468.02000000000004</ele>
   </trkpt>
   <trkpt lat="-37.88456" lon="145.3634">
    <ele>469.31000000000006</ele>
   </trkpt>
   <trkpt lat="-37.8847" lon="145.36339">
    <ele>470.76</ele>
   </trkpt>
   <trkpt lat="-37.88472" lon="145.36334000000002">
    <ele>471.6</ele>
   </trkpt>
   <trkpt lat="-37.88474" lon="145.36315000000002">
    <ele>474.34000000000003</ele>
   </trkpt>
   <trkpt lat="-37.88483" lon="145.36289000000002">
    <ele>480.08000000000004</ele>
   </trkpt>
   <trkpt lat="-37.88517" lon="145.36249">
    <ele>486.92</ele>
   </trkpt>
   <trkpt lat="-37.88526" lon="145.36229">
    <ele>486.92</ele>
   </trkpt>
   <trkpt lat="-37.8853" lon="145.36199000000002">
    <ele>490.28000000000003</ele>
   </trkpt>
   <trkpt lat="-37.885270000000006" lon="145.36174000000003">
    <ele>490.44000000000005</ele>
   </trkpt>
   <trkpt lat="-37.88555" lon="145.36100000000002">
    <ele>495.39000000000004</ele>
   </trkpt>
   <trkpt lat="-37.88576500211019" lon="145.3602850022606">
    <ele>500.36</ele>
   </trkpt>
   <trkpt lat="-37.88598" lon="145.35957000000002">
    <ele>501.4700000000001</ele>
   </trkpt>
   <trkpt lat="-37.88595" lon="145.35933">
    <ele>501.21000000000004</ele>
   </trkpt>
   <trkpt lat="-37.885940000000005" lon="145.35928">
    <ele>501.21000000000004</ele>
   </trkpt>
   <trkpt lat="-37.885960000000004" lon="145.35933">
    <ele>501.26000000000005</ele>
   </trkpt>
   <trkpt lat="-37.88591" lon="145.35922000000002">
    <ele>500.86000000000007</ele>
   </trkpt>
   <trkpt lat="-37.88564" lon="145.35886000000002">
    <ele>498.7900000000001</ele>
   </trkpt>
   <trkpt lat="-37.88539" lon="145.35863">
    <ele>496.3</ele>
   </trkpt>
   <trkpt lat="-37.88521" lon="145.35854">
    <ele>495.52</ele>
   </trkpt>
   <trkpt lat="-37.88479" lon="145.35839">
    <ele>493.61</ele>
   </trkpt>
   <trkpt lat="-37.88438" lon="145.35836">
    <ele>492.16</ele>
   </trkpt>
   <trkpt lat="-37.884060000000005" lon="145.35844">
    <ele>491.51000000000005</ele>
   </trkpt>
   <trkpt lat="-37.88402" lon="145.35827">
    <ele>490.98</ele>
   </trkpt>
   <trkpt lat="-37.884" lon="145.35808">
    <ele>490.04</ele>
   </trkpt>
   <trkpt lat="-37.88382" lon="145.35777000000002">
    <ele>486.96000000000004</ele>
   </trkpt>
   <trkpt lat="-37.8838" lon="145.35755">
    <ele>485.73</ele>
   </trkpt>
   <trkpt lat="-37.883790000000005" lon="145.35717000000002">
    <ele>492.99</ele>
   </trkpt>
   <trkpt lat="-37.88389" lon="145.35675">
    <ele>498.82000000000005</ele>
   </trkpt>
   <trkpt lat="-37.88391" lon="145.35645000000002">
    <ele>502.29</ele>
   </trkpt>
   <trkpt lat="-37.88391" lon="145.35613">
    <ele>503.2000000000001</ele>
   </trkpt>
   <trkpt lat="-37.88387" lon="145.35593">
    <ele>505.93</ele>
   </trkpt>
   <trkpt lat="-37.8838" lon="145.35575">
    <ele>507.7900000000001</ele>
   </trkpt>
   <trkpt lat="-37.88351" lon="145.3553">
    <ele>514.99</ele>
   </trkpt>
   <trkpt lat="-37.883520000000004" lon="145.35510000000002">
    <ele>514.9200000000001</ele>
   </trkpt>
   <trkpt lat="-37.88351" lon="145.35512">
    <ele>514.94</ele>
   </trkpt>
   <trkpt lat="-37.88371" lon="145.35464000000002">
    <ele>514.6</ele>
   </trkpt>
   <trkpt lat="-37.88423" lon="145.35381">
    <ele>518.57</ele>
   </trkpt>
   <trkpt lat="-37.88434" lon="145.35368000000003">
    <ele>519.93</ele>
   </trkpt>
   <trkpt lat="-37.88497" lon="145.35328">
    <ele>518.5300000000001</ele>
   </trkpt>
   <trkpt lat="-37.88508" lon="145.35324">
    <ele>518.5300000000001</ele>
   </trkpt>
   <trkpt lat="-37.88544" lon="145.35307">
    <ele>515.58</ele>
   </trkpt>
   <trkpt lat="-37.88555" lon="145.35296000000002">
    <ele>514.8600000000001</ele>
   </trkpt>
   <trkpt lat="-37.88588" lon="145.35242000000002">
    <ele>509.85</ele>
   </trkpt>
   <trkpt lat="-37.88606" lon="145.35204000000002">
    <ele>504.76</ele>
   </trkpt>
   <trkpt lat="-37.88615" lon="145.35176">
    <ele>500.99</ele>
   </trkpt>
   <trkpt lat="-37.88626" lon="145.35184">
    <ele>492.90000000000003</ele>
   </trkpt>
   <trkpt lat="-37.88662" lon="145.352">
    <ele>475.79</ele>
   </trkpt>
   <trkpt lat="-37.88678" lon="145.35203">
    <ele>471.27000000000004</ele>
   </trkpt>
   <trkpt lat="-37.88696" lon="145.35204000000002">
    <ele>456.54</ele>
   </trkpt>
   <trkpt lat="-37.88725" lon="145.35215000000002">
    <ele>437.74</ele>
   </trkpt>
   <trkpt lat="-37.88745" lon="145.35251000000002">
    <ele>431.41</ele>
   </trkpt>
   <trkpt lat="-37.88758" lon="145.35283">
    <ele>424.49</ele>
   </trkpt>
   <trkpt lat="-37.88767" lon="145.35317">
    <ele>420.19</ele>
   </trkpt>
   <trkpt lat="-37.88783" lon="145.35355">
    <ele>415.71000000000004</ele>
   </trkpt>
   <trkpt lat="-37.88794" lon="145.35376000000002">
    <ele>410.89000000000004</ele>
   </trkpt>
   <trkpt lat="-37.88801" lon="145.35417">
    <ele>407.27000000000004</ele>
   </trkpt>
   <trkpt lat="-37.88828" lon="145.35498">
    <ele>394.51</ele>
   </trkpt>
   <trkpt lat="-37.88839" lon="145.35508000000002">
    <ele>394.51</ele>
   </trkpt>
   <trkpt lat="-37.8885" lon="145.35511000000002">
    <ele>388.95</ele>
   </trkpt>
   <trkpt lat="-37.88861" lon="145.35492000000002">
    <ele>387.63</ele>
   </trkpt>
   <trkpt lat="-37.88868" lon="145.35495">
    <ele>386.66</ele>
   </trkpt>
   <trkpt lat="-37.88893" lon="145.35489">
    <ele>384.92</ele>
   </trkpt>
   <trkpt lat="-37.88915" lon="145.35486">
    <ele>384.01</ele>
   </trkpt>
   <trkpt lat="-37.88922" lon="145.35487">
    <ele>384.01</ele>
   </trkpt>
   <trkpt lat="-37.88971" lon="145.35509000000002">
    <ele>374.9</ele>
   </trkpt>
   <trkpt lat="-37.88991" lon="145.35511000000002">
    <ele>371.91</ele>
   </trkpt>
   <trkpt lat="-37.89034" lon="145.35532">
    <ele>365.87</ele>
   </trkpt>
   <trkpt lat="-37.89058" lon="145.35553000000002">
    <ele>363.33000000000004</ele>
   </trkpt>
   <trkpt lat="-37.89103" lon="145.35597">
    <ele>356.86</ele>
   </trkpt>
   <trkpt lat="-37.891740000000006" lon="145.35659">
    <ele>343.18</ele>
   </trkpt>
   <trkpt lat="-37.89186" lon="145.35682">
    <ele>340.90000000000003</ele>
   </trkpt>
   <trkpt lat="-37.89195" lon="145.35690000000002">
    <ele>336.34000000000003</ele>
   </trkpt>
   <trkpt lat="-37.89246" lon="145.35709">
    <ele>328.49</ele>
   </trkpt>
   <trkpt lat="-37.89258" lon="145.35709">
    <ele>328.49</ele>
   </trkpt>
   <trkpt lat="-37.89273" lon="145.35704">
    <ele>325.96000000000004</ele>
   </trkpt>
   <trkpt lat="-37.89287" lon="145.35705000000002">
    <ele>322.98</ele>
   </trkpt>
   <trkpt lat="-37.89298" lon="145.35709">
    <ele>321.89</ele>
   </trkpt>
   <trkpt lat="-37.89316" lon="145.35723000000002">
    <ele>319.75</ele>
   </trkpt>
   <trkpt lat="-37.89329" lon="145.35727">
    <ele>318.59000000000003</ele>
   </trkpt>
   <trkpt lat="-37.89372" lon="145.35718">
    <ele>313.75</ele>
   </trkpt>
   <trkpt lat="-37.89406" lon="145.3572">
    <ele>308.03000000000003</ele>
   </trkpt>
   <trkpt lat="-37.89457" lon="145.35722">
    <ele>303.4</ele>
   </trkpt>
   <trkpt lat="-37.89488" lon="145.35739">
    <ele>303.00000000000006</ele>
   </trkpt>
   <trkpt lat="-37.89531" lon="145.35732000000002">
    <ele>303.62</ele>
   </trkpt>
   <trkpt lat="-37.89558" lon="145.35742000000002">
    <ele>303.73</ele>
   </trkpt>
   <trkpt lat="-37.89598" lon="145.35739">
    <ele>304.9</ele>
   </trkpt>
   <trkpt lat="-37.8962" lon="145.35742000000002">
    <ele>305.95</ele>
   </trkpt>
   <trkpt lat="-37.896190000000004" lon="145.35742000000002">
    <ele>311.59000000000003</ele>
   </trkpt>
   <trkpt lat="-37.89663" lon="145.35723000000002">
    <ele>308.00000000000006</ele>
   </trkpt>
   <trkpt lat="-37.89701" lon="145.35696000000002">
    <ele>300.46</ele>
   </trkpt>
   <trkpt lat="-37.8971" lon="145.35679000000002">
    <ele>296.49</ele>
   </trkpt>
   <trkpt lat="-37.89719" lon="145.35669000000001">
    <ele>296.49</ele>
   </trkpt>
   <trkpt lat="-37.89728" lon="145.35647">
    <ele>292.62000000000006</ele>
   </trkpt>
   <trkpt lat="-37.89755" lon="145.35618000000002">
    <ele>283.38</ele>
   </trkpt>
   <trkpt lat="-37.89804" lon="145.35571000000002">
    <ele>272.68</ele>
   </trkpt>
   <trkpt lat="-37.89819" lon="145.35568">
    <ele>266.94</ele>
   </trkpt>
   <trkpt lat="-37.8984" lon="145.35568">
    <ele>266.14000000000004</ele>
   </trkpt>
   <trkpt lat="-37.89873" lon="145.35563000000002">
    <ele>263.39</ele>
   </trkpt>
   <trkpt lat="-37.89918" lon="145.35578">
    <ele>260.96000000000004</ele>
   </trkpt>
   <trkpt lat="-37.89927" lon="145.35586">
    <ele>260.48</ele>
   </trkpt>
   <trkpt lat="-37.89934" lon="145.35599000000002">
    <ele>259.98</ele>
   </trkpt>
   <trkpt lat="-37.89945" lon="145.35613">
    <ele>259.76000000000005</ele>
   </trkpt>
   <trkpt lat="-37.89960000000001" lon="145.35626000000002">
    <ele>259.23</ele>
   </trkpt>
   <trkpt lat="-37.89963" lon="145.35624">
    <ele>259.23</ele>
   </trkpt>
   <trkpt lat="-37.899660000000004" lon="145.35629">
    <ele>259.03000000000003</ele>
   </trkpt>
   <trkpt lat="-37.899860000000004" lon="145.35639">
    <ele>258.09999999999997</ele>
   </trkpt>
   <trkpt lat="-37.89992" lon="145.35652000000002">
    <ele>257.65000000000003</ele>
   </trkpt>
   <trkpt lat="-37.90014" lon="145.35665">
    <ele>257.43000000000006</ele>
   </trkpt>
   <trkpt lat="-37.90016" lon="145.35682">
    <ele>257.95</ele>
   </trkpt>
   <trkpt lat="-37.900090000000006" lon="145.35691">
    <ele>258.59000000000003</ele>
   </trkpt>
   <trkpt lat="-37.899840000000005" lon="145.35690000000002">
    <ele>254.37000000000003</ele>
   </trkpt>
   <trkpt lat="-37.89911" lon="145.35646">
    <ele>262.07</ele>
   </trkpt>
   <trkpt lat="-37.899" lon="145.35643000000002">
    <ele>262.79</ele>
   </trkpt>
   <trkpt lat="-37.89891" lon="145.35643000000002">
    <ele>263.45</ele>
   </trkpt>
   <trkpt lat="-37.89882" lon="145.35646">
    <ele>263.45</ele>
   </trkpt>
   <trkpt lat="-37.89866" lon="145.35657">
    <ele>265.47</ele>
   </trkpt>
   <trkpt lat="-37.89855" lon="145.35669000000001">
    <ele>266.44</ele>
   </trkpt>
   <trkpt lat="-37.89844" lon="145.35689000000002">
    <ele>266.89</ele>
   </trkpt>
   <trkpt lat="-37.898410000000005" lon="145.35699000000002">
    <ele>267.32</ele>
   </trkpt>
   <trkpt lat="-37.898410000000005" lon="145.35698000000002">
    <ele>267.32</ele>
   </trkpt>
   <trkpt lat="-37.89831" lon="145.35732000000002">
    <ele>268.15</ele>
   </trkpt>
   <trkpt lat="-37.89813" lon="145.35758">
    <ele>269.53000000000003</ele>
   </trkpt>
   <trkpt lat="-37.89759000081686" lon="145.35802000322968">
    <ele>272.6</ele>
   </trkpt>
   <trkpt lat="-37.89705" lon="145.35846">
    <ele>276.59</ele>
   </trkpt>
   <trkpt lat="-37.8969" lon="145.35855">
    <ele>276.59</ele>
   </trkpt>
   <trkpt lat="-37.89661" lon="145.35892">
    <ele>278.87</ele>
   </trkpt>
   <trkpt lat="-37.8963800023631" lon="145.35966500227792">
    <ele>281.99</ele>
   </trkpt>
   <trkpt lat="-37.896150000000006" lon="145.36041">
    <ele>284.62000000000006</ele>
   </trkpt>
   <trkpt lat="-37.89589" lon="145.36144000000002">
    <ele>289.45000000000005</ele>
   </trkpt>
   <trkpt lat="-37.89558" lon="145.36192">
    <ele>291.73</ele>
   </trkpt>
   <trkpt lat="-37.89536500106615" lon="145.36242500150448">
    <ele>294.43</ele>
   </trkpt>
   <trkpt lat="-37.89515" lon="145.36293">
    <ele>297.7</ele>
   </trkpt>
   <trkpt lat="-37.89484" lon="145.36356">
    <ele>300.12</ele>
   </trkpt>
   <trkpt lat="-37.89459" lon="145.36385">
    <ele>300.97</ele>
   </trkpt>
   <trkpt lat="-37.8941" lon="145.36422000000002">
    <ele>304.33000000000004</ele>
   </trkpt>
   <trkpt lat="-37.89336" lon="145.36472">
    <ele>308.6</ele>
   </trkpt>
   <trkpt lat="-37.89293" lon="145.3651">
    <ele>311.8</ele>
   </trkpt>
   <trkpt lat="-37.89244" lon="145.36593000000002">
    <ele>315.33</ele>
   </trkpt>
   <trkpt lat="-37.89233" lon="145.36626">
    <ele>317.46000000000004</ele>
   </trkpt>
   <trkpt lat="-37.89222" lon="145.36643">
    <ele>318.01</ele>
   </trkpt>
   <trkpt lat="-37.89179500057783" lon="145.36675500177597">
    <ele>321.04</ele>
   </trkpt>
   <trkpt lat="-37.89137" lon="145.36708000000002">
    <ele>323.29</ele>
   </trkpt>
   <trkpt lat="-37.89137" lon="145.36709000000002">
    <ele>323.34000000000003</ele>
   </trkpt>
   <trkpt lat="-37.89099" lon="145.36735000000002">
    <ele>326.91</ele>
   </trkpt>
   <trkpt lat="-37.89031750246942" lon="145.36779251213537">
    <ele>330.25000000000006</ele>
   </trkpt>
   <trkpt lat="-37.889645003282396" lon="145.36823501618693">
    <ele>332.82</ele>
   </trkpt>
   <trkpt lat="-37.88897250243901" lon="145.36867751215502">
    <ele>337.62</ele>
   </trkpt>
   <trkpt lat="-37.8883" lon="145.36912">
    <ele>341.83000000000004</ele>
   </trkpt>
   <trkpt lat="-37.88786500036836" lon="145.36942500181948">
    <ele>344.37</ele>
   </trkpt>
   <trkpt lat="-37.88743" lon="145.36973">
    <ele>348.81</ele>
   </trkpt>
   <trkpt lat="-37.88749" lon="145.36999">
    <ele>350.57000000000005</ele>
   </trkpt>
   <trkpt lat="-37.88738" lon="145.37008">
    <ele>351.07000000000005</ele>
   </trkpt>
   <trkpt lat="-37.88731000000001" lon="145.37021000000001">
    <ele>351.24000000000007</ele>
   </trkpt>
  </trkseg>
 </trk>
</gpx>
