<?xml version="1.0" encoding="UTF-8"?>
<gpx creator="StravaGPX" version="1.1" xmlns="http://www.topografix.com/GPX/1/1" xmlns:xsi="http://www.w3.org/2001/XMLSchema-instance" xsi:schemaLocation="http://www.topografix.com/GPX/1/1 http://www.topografix.com/GPX/1/1/gpx.xsd">
 <metadata>
  <name>DTR Sunday 8 June Sassafras 20k</name>
  <author>
   <name>john csorgo</name>
  </author>
  <copyright author="OpenStreetMap contributors">
   <year>2020</year>
   <license>https://www.openstreetmap.org/copyright</license>
  </copyright>
 </metadata>
 <trk>
  <name>DTR Sunday 8 June Sassafras 20k</name>
  <link href=""/>
  <type>running</type>
  <trkseg>
   <trkpt lat="-37.862840000000006" lon="145.35371">
    <ele>480.52000000000004</ele>
   </trkpt>
   <trkpt lat="-37.86298" lon="145.35408">
    <ele>481.26</ele>
   </trkpt>
   <trkpt lat="-37.86316" lon="145.35444">
    <ele>483.50000000000006</ele>
   </trkpt>
   <trkpt lat="-37.86334" lon="145.35477">
    <ele>476.11</ele>
   </trkpt>
   <trkpt lat="-37.86345" lon="145.35489">
    <ele>474.43</ele>
   </trkpt>
   <trkpt lat="-37.863600000000005" lon="145.35494">
    <ele>472.36000000000007</ele>
   </trkpt>
   <trkpt lat="-37.86415" lon="145.35496">
    <ele>460.12</ele>
   </trkpt>
   <trkpt lat="-37.86435" lon="145.35499000000002">
    <ele>451.6</ele>
   </trkpt>
   <trkpt lat="-37.8645" lon="145.35506">
    <ele>448.81000000000006</ele>
   </trkpt>
   <trkpt lat="-37.86486" lon="145.35513">
    <ele>438.75</ele>
   </trkpt>
   <trkpt lat="-37.86502" lon="145.35512">
    <ele>436.62</ele>
   </trkpt>
   <trkpt lat="-37.8652" lon="145.35519000000002">
    <ele>428.64</ele>
   </trkpt>
   <trkpt lat="-37.86547" lon="145.35535000000002">
    <ele>424.12000000000006</ele>
   </trkpt>
   <trkpt lat="-37.86585" lon="145.3554">
    <ele>417.15000000000003</ele>
   </trkpt>
   <trkpt lat="-37.86598" lon="145.35555000000002">
    <ele>415.38</ele>
   </trkpt>
   <trkpt lat="-37.86598" lon="145.35567">
    <ele>414.25</ele>
   </trkpt>
   <trkpt lat="-37.865930000000006" lon="145.35577">
    <ele>413.85</ele>
   </trkpt>
   <trkpt lat="-37.86589" lon="145.35596">
    <ele>420.43</ele>
   </trkpt>
   <trkpt lat="-37.86589" lon="145.35611">
    <ele>427.95000000000005</ele>
   </trkpt>
   <trkpt lat="-37.86623" lon="145.35623">
    <ele>446.00000000000006</ele>
   </trkpt>
   <trkpt lat="-37.8665" lon="145.35665">
    <ele>440.37</ele>
   </trkpt>
   <trkpt lat="-37.86654" lon="145.35708000000002">
    <ele>437.08000000000004</ele>
   </trkpt>
   <trkpt lat="-37.86674" lon="145.35733000000002">
    <ele>435.19</ele>
   </trkpt>
   <trkpt lat="-37.86694" lon="145.35745">
    <ele>433.61</ele>
   </trkpt>
   <trkpt lat="-37.86715" lon="145.35776">
    <ele>433.02</ele>
   </trkpt>
   <trkpt lat="-37.86728" lon="145.35787000000002">
    <ele>431.38000000000005</ele>
   </trkpt>
   <trkpt lat="-37.86737" lon="145.35797000000002">
    <ele>431.08</ele>
   </trkpt>
   <trkpt lat="-37.86748" lon="145.35804000000002">
    <ele>430.45000000000005</ele>
   </trkpt>
   <trkpt lat="-37.86766" lon="145.3582">
    <ele>429.91</ele>
   </trkpt>
   <trkpt lat="-37.86768" lon="145.35825">
    <ele>429.91</ele>
   </trkpt>
   <trkpt lat="-37.86773" lon="145.35860000000002">
    <ele>429.11</ele>
   </trkpt>
   <trkpt lat="-37.86793" lon="145.35878000000002">
    <ele>429.2300000000001</ele>
   </trkpt>
   <trkpt lat="-37.86806" lon="145.35901">
    <ele>429.04</ele>
   </trkpt>
   <trkpt lat="-37.8682" lon="145.35908">
    <ele>428.14</ele>
   </trkpt>
   <trkpt lat="-37.86871" lon="145.35917">
    <ele>427.03000000000003</ele>
   </trkpt>
   <trkpt lat="-37.86887" lon="145.35943">
    <ele>425.24000000000007</ele>
   </trkpt>
   <trkpt lat="-37.869220000000006" lon="145.35977000000003">
    <ele>422.77000000000004</ele>
   </trkpt>
   <trkpt lat="-37.8695" lon="145.36015">
    <ele>421.61</ele>
   </trkpt>
   <trkpt lat="-37.86963" lon="145.36053">
    <ele>418.44</ele>
   </trkpt>
   <trkpt lat="-37.86972" lon="145.36065000000002">
    <ele>417.82</ele>
   </trkpt>
   <trkpt lat="-37.86999" lon="145.36083000000002">
    <ele>417.14</ele>
   </trkpt>
   <trkpt lat="-37.87071" lon="145.36105">
    <ele>414.49</ele>
   </trkpt>
   <trkpt lat="-37.87113" lon="145.36123">
    <ele>412.37</ele>
   </trkpt>
   <trkpt lat="-37.87182" lon="145.36126000000002">
    <ele>411.35</ele>
   </trkpt>
   <trkpt lat="-37.87205" lon="145.36114">
    <ele>410.68000000000006</ele>
   </trkpt>
   <trkpt lat="-37.87221" lon="145.36118000000002">
    <ele>409.99</ele>
   </trkpt>
   <trkpt lat="-37.87234" lon="145.36127000000002">
    <ele>408.71000000000004</ele>
   </trkpt>
   <trkpt lat="-37.87243" lon="145.36129000000003">
    <ele>408.0</ele>
   </trkpt>
   <trkpt lat="-37.87292" lon="145.36119000000002">
    <ele>404.93</ele>
   </trkpt>
   <trkpt lat="-37.87322" lon="145.36120000000003">
    <ele>401.64000000000004</ele>
   </trkpt>
   <trkpt lat="-37.87326" lon="145.36121">
    <ele>401.64000000000004</ele>
   </trkpt>
   <trkpt lat="-37.87339" lon="145.36129000000003">
    <ele>398.45000000000005</ele>
   </trkpt>
   <trkpt lat="-37.87357" lon="145.36148">
    <ele>395.69000000000005</ele>
   </trkpt>
   <trkpt lat="-37.87377" lon="145.36196">
    <ele>393.70000000000005</ele>
   </trkpt>
   <trkpt lat="-37.873720000000006" lon="145.36151">
    <ele>396.95</ele>
   </trkpt>
   <trkpt lat="-37.87391" lon="145.36107">
    <ele>399.78000000000003</ele>
   </trkpt>
   <trkpt lat="-37.87406" lon="145.36083000000002">
    <ele>402.23</ele>
   </trkpt>
   <trkpt lat="-37.87456" lon="145.36044">
    <ele>409.28000000000003</ele>
   </trkpt>
   <trkpt lat="-37.87494" lon="145.36006">
    <ele>416.46999999999997</ele>
   </trkpt>
   <trkpt lat="-37.87516" lon="145.35986000000003">
    <ele>420.57000000000005</ele>
   </trkpt>
   <trkpt lat="-37.87521" lon="145.35967000000002">
    <ele>421.96000000000004</ele>
   </trkpt>
   <trkpt lat="-37.875130000000006" lon="145.35951">
    <ele>423.09000000000003</ele>
   </trkpt>
   <trkpt lat="-37.87496" lon="145.35946">
    <ele>424.84000000000003</ele>
   </trkpt>
   <trkpt lat="-37.87487" lon="145.35939000000002">
    <ele>425.07000000000005</ele>
   </trkpt>
   <trkpt lat="-37.874770000000005" lon="145.35926">
    <ele>425.8</ele>
   </trkpt>
   <trkpt lat="-37.87458" lon="145.35937">
    <ele>425.14</ele>
   </trkpt>
   <trkpt lat="-37.874500000000005" lon="145.35922000000002">
    <ele>424.99</ele>
   </trkpt>
   <trkpt lat="-37.87449" lon="145.35915">
    <ele>425.45000000000005</ele>
   </trkpt>
   <trkpt lat="-37.874460000000006" lon="145.35913000000002">
    <ele>425.62000000000006</ele>
   </trkpt>
   <trkpt lat="-37.87445" lon="145.35906">
    <ele>425.82000000000005</ele>
   </trkpt>
   <trkpt lat="-37.8744" lon="145.359">
    <ele>425.83000000000004</ele>
   </trkpt>
   <trkpt lat="-37.874210000000005" lon="145.35897">
    <ele>425.69</ele>
   </trkpt>
   <trkpt lat="-37.87406" lon="145.35889">
    <ele>425.72</ele>
   </trkpt>
   <trkpt lat="-37.87393" lon="145.35877000000002">
    <ele>425.62000000000006</ele>
   </trkpt>
   <trkpt lat="-37.87382" lon="145.35876000000002">
    <ele>425.62000000000006</ele>
   </trkpt>
   <trkpt lat="-37.873630000000006" lon="145.35879">
    <ele>425.71000000000004</ele>
   </trkpt>
   <trkpt lat="-37.8736" lon="145.35864">
    <ele>426.2</ele>
   </trkpt>
   <trkpt lat="-37.8735" lon="145.35858000000002">
    <ele>428.07000000000005</ele>
   </trkpt>
   <trkpt lat="-37.87342" lon="145.35847">
    <ele>429.75</ele>
   </trkpt>
   <trkpt lat="-37.87335" lon="145.35840000000002">
    <ele>431.59000000000003</ele>
   </trkpt>
   <trkpt lat="-37.87319" lon="145.35809">
    <ele>435.39000000000004</ele>
   </trkpt>
   <trkpt lat="-37.87312" lon="145.35764">
    <ele>440.84</ele>
   </trkpt>
   <trkpt lat="-37.87321" lon="145.35702">
    <ele>444.37000000000006</ele>
   </trkpt>
   <trkpt lat="-37.87326" lon="145.35636000000002">
    <ele>450.87000000000006</ele>
   </trkpt>
   <trkpt lat="-37.873310000000004" lon="145.35644000000002">
    <ele>451.56</ele>
   </trkpt>
   <trkpt lat="-37.87335" lon="145.35644000000002">
    <ele>451.56</ele>
   </trkpt>
   <trkpt lat="-37.87339" lon="145.35649">
    <ele>451.89</ele>
   </trkpt>
   <trkpt lat="-37.87341" lon="145.35657">
    <ele>452.13</ele>
   </trkpt>
   <trkpt lat="-37.87353" lon="145.35718">
    <ele>453.72</ele>
   </trkpt>
   <trkpt lat="-37.87379" lon="145.35763">
    <ele>456.99000000000007</ele>
   </trkpt>
   <trkpt lat="-37.87413" lon="145.35781">
    <ele>459.77</ele>
   </trkpt>
   <trkpt lat="-37.87435" lon="145.35784">
    <ele>460.97</ele>
   </trkpt>
   <trkpt lat="-37.87473" lon="145.35783">
    <ele>463.47</ele>
   </trkpt>
   <trkpt lat="-37.87482" lon="145.35784">
    <ele>463.76000000000005</ele>
   </trkpt>
   <trkpt lat="-37.87541" lon="145.35777000000002">
    <ele>469.20000000000005</ele>
   </trkpt>
   <trkpt lat="-37.87559" lon="145.35771000000003">
    <ele>470.31000000000006</ele>
   </trkpt>
   <trkpt lat="-37.87572" lon="145.35758">
    <ele>471.88</ele>
   </trkpt>
   <trkpt lat="-37.875840000000004" lon="145.3574">
    <ele>474.73</ele>
   </trkpt>
   <trkpt lat="-37.875930000000004" lon="145.35714000000002">
    <ele>476.11</ele>
   </trkpt>
   <trkpt lat="-37.876160000000006" lon="145.35686">
    <ele>476.6</ele>
   </trkpt>
   <trkpt lat="-37.8763" lon="145.35674">
    <ele>476.51000000000005</ele>
   </trkpt>
   <trkpt lat="-37.87646" lon="145.35667">
    <ele>476.26</ele>
   </trkpt>
   <trkpt lat="-37.876870000000004" lon="145.35659">
    <ele>464.24</ele>
   </trkpt>
   <trkpt lat="-37.876780000000004" lon="145.35642">
    <ele>463.66</ele>
   </trkpt>
   <trkpt lat="-37.876870000000004" lon="145.35659">
    <ele>464.24</ele>
   </trkpt>
   <trkpt lat="-37.876900000000006" lon="145.35659">
    <ele>459.76000000000005</ele>
   </trkpt>
   <trkpt lat="-37.87708000000001" lon="145.35653000000002">
    <ele>472.81000000000006</ele>
   </trkpt>
   <trkpt lat="-37.87673" lon="145.35552">
    <ele>469.64000000000004</ele>
   </trkpt>
   <trkpt lat="-37.87666" lon="145.35527000000002">
    <ele>472.14000000000004</ele>
   </trkpt>
   <trkpt lat="-37.87666" lon="145.35511000000002">
    <ele>474.80000000000007</ele>
   </trkpt>
   <trkpt lat="-37.8767" lon="145.35494">
    <ele>475.96000000000004</ele>
   </trkpt>
   <trkpt lat="-37.87684" lon="145.35466000000002">
    <ele>477.96000000000004</ele>
   </trkpt>
   <trkpt lat="-37.87702" lon="145.35441">
    <ele>479.66</ele>
   </trkpt>
   <trkpt lat="-37.877250000000004" lon="145.35412000000002">
    <ele>481.26</ele>
   </trkpt>
   <trkpt lat="-37.87791" lon="145.35368000000003">
    <ele>484.80000000000007</ele>
   </trkpt>
   <trkpt lat="-37.878130000000006" lon="145.35348000000002">
    <ele>485.29</ele>
   </trkpt>
   <trkpt lat="-37.87834" lon="145.35319">
    <ele>487.65000000000003</ele>
   </trkpt>
   <trkpt lat="-37.87847" lon="145.35307">
    <ele>489.14</ele>
   </trkpt>
   <trkpt lat="-37.87859" lon="145.35291">
    <ele>490.43</ele>
   </trkpt>
   <trkpt lat="-37.87888" lon="145.35219">
    <ele>492.97</ele>
   </trkpt>
   <trkpt lat="-37.87903" lon="145.35192">
    <ele>494.48</ele>
   </trkpt>
   <trkpt lat="-37.87932" lon="145.35161000000002">
    <ele>496.92</ele>
   </trkpt>
   <trkpt lat="-37.87953" lon="145.35151000000002">
    <ele>497.7300000000001</ele>
   </trkpt>
   <trkpt lat="-37.87975" lon="145.35148">
    <ele>498.40000000000003</ele>
   </trkpt>
   <trkpt lat="-37.87993" lon="145.35151000000002">
    <ele>498.86</ele>
   </trkpt>
   <trkpt lat="-37.88011" lon="145.35161000000002">
    <ele>499.82000000000005</ele>
   </trkpt>
   <trkpt lat="-37.88051000023621" lon="145.35190999826239">
    <ele>501.77000000000004</ele>
   </trkpt>
   <trkpt lat="-37.88091" lon="145.35221">
    <ele>502.77000000000004</ele>
   </trkpt>
   <trkpt lat="-37.88107" lon="145.3523">
    <ele>503.01000000000005</ele>
   </trkpt>
   <trkpt lat="-37.88116" lon="145.35231000000002">
    <ele>503.06000000000006</ele>
   </trkpt>
   <trkpt lat="-37.881170000000004" lon="145.35232000000002">
    <ele>503.07</ele>
   </trkpt>
   <trkpt lat="-37.88134" lon="145.35236">
    <ele>503.25000000000006</ele>
   </trkpt>
   <trkpt lat="-37.881510000000006" lon="145.35235">
    <ele>503.7900000000001</ele>
   </trkpt>
   <trkpt lat="-37.88176" lon="145.35221">
    <ele>503.96000000000004</ele>
   </trkpt>
   <trkpt lat="-37.8819" lon="145.3521">
    <ele>503.81000000000006</ele>
   </trkpt>
   <trkpt lat="-37.88266" lon="145.35169000000002">
    <ele>499.71000000000004</ele>
   </trkpt>
   <trkpt lat="-37.88311" lon="145.35141000000002">
    <ele>495.27000000000004</ele>
   </trkpt>
   <trkpt lat="-37.8834" lon="145.35133000000002">
    <ele>493.00000000000006</ele>
   </trkpt>
   <trkpt lat="-37.88385" lon="145.3513">
    <ele>469.09000000000003</ele>
   </trkpt>
   <trkpt lat="-37.88369" lon="145.35151000000002">
    <ele>470.66</ele>
   </trkpt>
   <trkpt lat="-37.88353" lon="145.35180000000003">
    <ele>471.74000000000007</ele>
   </trkpt>
   <trkpt lat="-37.88342" lon="145.35195000000002">
    <ele>472.09000000000003</ele>
   </trkpt>
   <trkpt lat="-37.88311" lon="145.35219">
    <ele>472.35</ele>
   </trkpt>
   <trkpt lat="-37.883" lon="145.35234">
    <ele>472.75000000000006</ele>
   </trkpt>
   <trkpt lat="-37.88266" lon="145.3531">
    <ele>475.72</ele>
   </trkpt>
   <trkpt lat="-37.88266" lon="145.35319">
    <ele>475.72</ele>
   </trkpt>
   <trkpt lat="-37.88282" lon="145.35356000000002">
    <ele>478.49</ele>
   </trkpt>
   <trkpt lat="-37.88291" lon="145.35394000000002">
    <ele>479.89000000000004</ele>
   </trkpt>
   <trkpt lat="-37.88293" lon="145.35439000000002">
    <ele>481.23</ele>
   </trkpt>
   <trkpt lat="-37.88315" lon="145.35522">
    <ele>484.72</ele>
   </trkpt>
   <trkpt lat="-37.88318" lon="145.3554">
    <ele>486.04</ele>
   </trkpt>
   <trkpt lat="-37.88351" lon="145.3553">
    <ele>487.52000000000004</ele>
   </trkpt>
   <trkpt lat="-37.883590000000005" lon="145.35542">
    <ele>487.47</ele>
   </trkpt>
   <trkpt lat="-37.88358" lon="145.35541">
    <ele>487.47</ele>
   </trkpt>
   <trkpt lat="-37.8838" lon="145.35575">
    <ele>487.74000000000007</ele>
   </trkpt>
   <trkpt lat="-37.88387" lon="145.35593">
    <ele>488.34000000000003</ele>
   </trkpt>
   <trkpt lat="-37.88391" lon="145.35613">
    <ele>489.06000000000006</ele>
   </trkpt>
   <trkpt lat="-37.88391" lon="145.35645000000002">
    <ele>491.48</ele>
   </trkpt>
   <trkpt lat="-37.88389" lon="145.35675">
    <ele>492.25</ele>
   </trkpt>
   <trkpt lat="-37.883790000000005" lon="145.35711">
    <ele>493.00000000000006</ele>
   </trkpt>
   <trkpt lat="-37.8838" lon="145.35725000000002">
    <ele>497.8</ele>
   </trkpt>
   <trkpt lat="-37.88385" lon="145.35776">
    <ele>499.27000000000004</ele>
   </trkpt>
   <trkpt lat="-37.884" lon="145.35808">
    <ele>500.48999999999995</ele>
   </trkpt>
   <trkpt lat="-37.88402" lon="145.35827">
    <ele>502.13000000000005</ele>
   </trkpt>
   <trkpt lat="-37.88407" lon="145.35852">
    <ele>501.99</ele>
   </trkpt>
   <trkpt lat="-37.88441" lon="145.35840000000002">
    <ele>503.17</ele>
   </trkpt>
   <trkpt lat="-37.88456" lon="145.35838">
    <ele>503.17</ele>
   </trkpt>
   <trkpt lat="-37.88476" lon="145.35842000000002">
    <ele>504.86000000000007</ele>
   </trkpt>
   <trkpt lat="-37.88532" lon="145.35860000000002">
    <ele>507.06000000000006</ele>
   </trkpt>
   <trkpt lat="-37.885450000000006" lon="145.35868000000002">
    <ele>507.6700000000001</ele>
   </trkpt>
   <trkpt lat="-37.8858" lon="145.35913000000002">
    <ele>511.27</ele>
   </trkpt>
   <trkpt lat="-37.88591" lon="145.35922000000002">
    <ele>511.5200000000001</ele>
   </trkpt>
   <trkpt lat="-37.88595" lon="145.35933">
    <ele>511.6400000000001</ele>
   </trkpt>
   <trkpt lat="-37.88598" lon="145.35957000000002">
    <ele>511.77000000000004</ele>
   </trkpt>
   <trkpt lat="-37.88573" lon="145.36033">
    <ele>510.30000000000007</ele>
   </trkpt>
   <trkpt lat="-37.88568" lon="145.36059">
    <ele>508.75</ele>
   </trkpt>
   <trkpt lat="-37.88555" lon="145.36100000000002">
    <ele>505.6400000000001</ele>
   </trkpt>
   <trkpt lat="-37.88537" lon="145.36136000000002">
    <ele>503.5900000000001</ele>
   </trkpt>
   <trkpt lat="-37.88514" lon="145.36202">
    <ele>499.20000000000005</ele>
   </trkpt>
   <trkpt lat="-37.88503" lon="145.36224">
    <ele>497.75</ele>
   </trkpt>
   <trkpt lat="-37.88496000000001" lon="145.36231">
    <ele>497.1</ele>
   </trkpt>
   <trkpt lat="-37.8851" lon="145.36238">
    <ele>496.62000000000006</ele>
   </trkpt>
   <trkpt lat="-37.88514" lon="145.36243000000002">
    <ele>496.42</ele>
   </trkpt>
   <trkpt lat="-37.88514" lon="145.36251000000001">
    <ele>496.19</ele>
   </trkpt>
   <trkpt lat="-37.8849" lon="145.36279000000002">
    <ele>491.83000000000004</ele>
   </trkpt>
   <trkpt lat="-37.88479" lon="145.36302">
    <ele>488.53000000000003</ele>
   </trkpt>
   <trkpt lat="-37.88474" lon="145.36315000000002">
    <ele>484.86</ele>
   </trkpt>
   <trkpt lat="-37.88472" lon="145.36334000000002">
    <ele>482.33000000000004</ele>
   </trkpt>
   <trkpt lat="-37.8847" lon="145.36339">
    <ele>481.6</ele>
   </trkpt>
   <trkpt lat="-37.88456" lon="145.3634">
    <ele>479.31</ele>
   </trkpt>
   <trkpt lat="-37.88449" lon="145.36339">
    <ele>478.68000000000006</ele>
   </trkpt>
   <trkpt lat="-37.88443" lon="145.36341000000002">
    <ele>477.93</ele>
   </trkpt>
   <trkpt lat="-37.884420000000006" lon="145.36347">
    <ele>476.07000000000005</ele>
   </trkpt>
   <trkpt lat="-37.88443" lon="145.36357">
    <ele>474.47</ele>
   </trkpt>
   <trkpt lat="-37.88445" lon="145.36369000000002">
    <ele>472.90000000000003</ele>
   </trkpt>
   <trkpt lat="-37.88463" lon="145.36419">
    <ele>463.12</ele>
   </trkpt>
   <trkpt lat="-37.88476" lon="145.36443">
    <ele>459.43000000000006</ele>
   </trkpt>
   <trkpt lat="-37.88479" lon="145.36451000000002">
    <ele>457.56</ele>
   </trkpt>
   <trkpt lat="-37.88476" lon="145.36459000000002">
    <ele>457.56</ele>
   </trkpt>
   <trkpt lat="-37.88483" lon="145.36484000000002">
    <ele>451.52000000000004</ele>
   </trkpt>
   <trkpt lat="-37.88494" lon="145.36503000000002">
    <ele>449.82000000000005</ele>
   </trkpt>
   <trkpt lat="-37.88499" lon="145.36505000000002">
    <ele>449.59000000000003</ele>
   </trkpt>
   <trkpt lat="-37.88517" lon="145.36524">
    <ele>448.18</ele>
   </trkpt>
   <trkpt lat="-37.88519" lon="145.36531000000002">
    <ele>446.59000000000003</ele>
   </trkpt>
   <trkpt lat="-37.885360000000006" lon="145.36547000000002">
    <ele>440.86</ele>
   </trkpt>
   <trkpt lat="-37.88539" lon="145.36557000000002">
    <ele>440.86</ele>
   </trkpt>
   <trkpt lat="-37.88546" lon="145.36561">
    <ele>438.29</ele>
   </trkpt>
   <trkpt lat="-37.88548" lon="145.36577">
    <ele>436.43</ele>
   </trkpt>
   <trkpt lat="-37.88546" lon="145.36592000000002">
    <ele>433.03000000000003</ele>
   </trkpt>
   <trkpt lat="-37.885270000000006" lon="145.36607">
    <ele>430.08</ele>
   </trkpt>
   <trkpt lat="-37.884980000000006" lon="145.36612000000002">
    <ele>423.83000000000004</ele>
   </trkpt>
   <trkpt lat="-37.88474" lon="145.36611000000002">
    <ele>419.82</ele>
   </trkpt>
   <trkpt lat="-37.88463" lon="145.36617">
    <ele>417.96000000000004</ele>
   </trkpt>
   <trkpt lat="-37.88458" lon="145.36623">
    <ele>416.93</ele>
   </trkpt>
   <trkpt lat="-37.88461" lon="145.36635">
    <ele>412.5</ele>
   </trkpt>
   <trkpt lat="-37.88465" lon="145.36642">
    <ele>412.5</ele>
   </trkpt>
   <trkpt lat="-37.88465" lon="145.36651">
    <ele>408.17</ele>
   </trkpt>
   <trkpt lat="-37.8847" lon="145.36657000000002">
    <ele>408.17</ele>
   </trkpt>
   <trkpt lat="-37.8847" lon="145.36672000000002">
    <ele>405.89000000000004</ele>
   </trkpt>
   <trkpt lat="-37.88481" lon="145.36711000000003">
    <ele>397.55</ele>
   </trkpt>
   <trkpt lat="-37.88499" lon="145.36737000000002">
    <ele>390.16</ele>
   </trkpt>
   <trkpt lat="-37.88517" lon="145.36757">
    <ele>384.92</ele>
   </trkpt>
   <trkpt lat="-37.8855" lon="145.36785">
    <ele>378.37</ele>
   </trkpt>
   <trkpt lat="-37.88564" lon="145.36801">
    <ele>372.51</ele>
   </trkpt>
   <trkpt lat="-37.88602" lon="145.36834000000002">
    <ele>362.23</ele>
   </trkpt>
   <trkpt lat="-37.886100000000006" lon="145.36837">
    <ele>360.11</ele>
   </trkpt>
   <trkpt lat="-37.88611" lon="145.36851000000001">
    <ele>360.02</ele>
   </trkpt>
   <trkpt lat="-37.88642" lon="145.36872000000002">
    <ele>364.27000000000004</ele>
   </trkpt>
   <trkpt lat="-37.88667" lon="145.36906000000002">
    <ele>367.12000000000006</ele>
   </trkpt>
   <trkpt lat="-37.88736" lon="145.36978000000002">
    <ele>351.21000000000004</ele>
   </trkpt>
   <trkpt lat="-37.88743" lon="145.36973">
    <ele>351.03000000000003</ele>
   </trkpt>
   <trkpt lat="-37.88749" lon="145.36999">
    <ele>360.63</ele>
   </trkpt>
   <trkpt lat="-37.887620000000005" lon="145.36993">
    <ele>360.48</ele>
   </trkpt>
   <trkpt lat="-37.88812" lon="145.36999">
    <ele>361.41</ele>
   </trkpt>
   <trkpt lat="-37.88833" lon="145.36999">
    <ele>361.56000000000006</ele>
   </trkpt>
   <trkpt lat="-37.88855" lon="145.36996000000002">
    <ele>362.62000000000006</ele>
   </trkpt>
   <trkpt lat="-37.88917" lon="145.3701">
    <ele>366.67</ele>
   </trkpt>
   <trkpt lat="-37.889770000000006" lon="145.37002">
    <ele>369.04</ele>
   </trkpt>
   <trkpt lat="-37.88996" lon="145.37003">
    <ele>369.39000000000004</ele>
   </trkpt>
   <trkpt lat="-37.890150000000006" lon="145.36999">
    <ele>369.6</ele>
   </trkpt>
   <trkpt lat="-37.89077" lon="145.36962000000003">
    <ele>368.96</ele>
   </trkpt>
   <trkpt lat="-37.89101" lon="145.36944000000003">
    <ele>367.42</ele>
   </trkpt>
   <trkpt lat="-37.89146" lon="145.369">
    <ele>364.85</ele>
   </trkpt>
   <trkpt lat="-37.89184" lon="145.36885">
    <ele>363.05</ele>
   </trkpt>
   <trkpt lat="-37.89226" lon="145.36863000000002">
    <ele>362.32000000000005</ele>
   </trkpt>
   <trkpt lat="-37.89269" lon="145.36831">
    <ele>361.98</ele>
   </trkpt>
   <trkpt lat="-37.89316" lon="145.36801">
    <ele>363.16</ele>
   </trkpt>
   <trkpt lat="-37.89349" lon="145.36792">
    <ele>364.49</ele>
   </trkpt>
   <trkpt lat="-37.89414" lon="145.36802">
    <ele>367.48</ele>
   </trkpt>
   <trkpt lat="-37.89439" lon="145.3681">
    <ele>368.39000000000004</ele>
   </trkpt>
   <trkpt lat="-37.89464" lon="145.36809000000002">
    <ele>369.03000000000003</ele>
   </trkpt>
   <trkpt lat="-37.89508" lon="145.36802">
    <ele>369.96</ele>
   </trkpt>
   <trkpt lat="-37.89578" lon="145.36797">
    <ele>370.76000000000005</ele>
   </trkpt>
   <trkpt lat="-37.896" lon="145.36790000000002">
    <ele>371.13</ele>
   </trkpt>
   <trkpt lat="-37.89622" lon="145.36780000000002">
    <ele>371.88000000000005</ele>
   </trkpt>
   <trkpt lat="-37.8964" lon="145.36767">
    <ele>373.27000000000004</ele>
   </trkpt>
   <trkpt lat="-37.89685" lon="145.36728000000002">
    <ele>374.71000000000004</ele>
   </trkpt>
   <trkpt lat="-37.89743" lon="145.36684000000002">
    <ele>375.06</ele>
   </trkpt>
   <trkpt lat="-37.89802" lon="145.36632">
    <ele>372.23</ele>
   </trkpt>
   <trkpt lat="-37.8984" lon="145.36607">
    <ele>368.91</ele>
   </trkpt>
   <trkpt lat="-37.89851" lon="145.36595">
    <ele>368.07</ele>
   </trkpt>
   <trkpt lat="-37.89871" lon="145.36567000000002">
    <ele>366.71000000000004</ele>
   </trkpt>
   <trkpt lat="-37.89887" lon="145.36534">
    <ele>365.66</ele>
   </trkpt>
   <trkpt lat="-37.89909" lon="145.36476000000002">
    <ele>363.3</ele>
   </trkpt>
   <trkpt lat="-37.8992" lon="145.36459000000002">
    <ele>362.31</ele>
   </trkpt>
   <trkpt lat="-37.89931" lon="145.36448000000001">
    <ele>361.84000000000003</ele>
   </trkpt>
   <trkpt lat="-37.8994" lon="145.36443">
    <ele>361.21000000000004</ele>
   </trkpt>
   <trkpt lat="-37.899530000000006" lon="145.36441000000002">
    <ele>360.66</ele>
   </trkpt>
   <trkpt lat="-37.89952" lon="145.36432000000002">
    <ele>359.91</ele>
   </trkpt>
   <trkpt lat="-37.899330000000006" lon="145.36407">
    <ele>358.96000000000004</ele>
   </trkpt>
   <trkpt lat="-37.89909" lon="145.36382">
    <ele>357.73</ele>
   </trkpt>
   <trkpt lat="-37.89851" lon="145.36356">
    <ele>357.83000000000004</ele>
   </trkpt>
   <trkpt lat="-37.89849" lon="145.36351000000002">
    <ele>357.72</ele>
   </trkpt>
   <trkpt lat="-37.89842" lon="145.36327">
    <ele>356.17</ele>
   </trkpt>
   <trkpt lat="-37.89871" lon="145.3623">
    <ele>349.04</ele>
   </trkpt>
   <trkpt lat="-37.89875" lon="145.36209000000002">
    <ele>348.59000000000003</ele>
   </trkpt>
   <trkpt lat="-37.89882" lon="145.36192">
    <ele>347.31</ele>
   </trkpt>
   <trkpt lat="-37.89887" lon="145.36185">
    <ele>347.31</ele>
   </trkpt>
   <trkpt lat="-37.89902" lon="145.36179">
    <ele>346.93</ele>
   </trkpt>
   <trkpt lat="-37.89916" lon="145.36178">
    <ele>346.48</ele>
   </trkpt>
   <trkpt lat="-37.89985" lon="145.36188">
    <ele>342.02000000000004</ele>
   </trkpt>
   <trkpt lat="-37.9001" lon="145.36188">
    <ele>339.71</ele>
   </trkpt>
   <trkpt lat="-37.90028" lon="145.36190000000002">
    <ele>338.39000000000004</ele>
   </trkpt>
   <trkpt lat="-37.90046" lon="145.36187">
    <ele>337.63000000000005</ele>
   </trkpt>
   <trkpt lat="-37.900830000000006" lon="145.36186">
    <ele>333.1</ele>
   </trkpt>
   <trkpt lat="-37.90077" lon="145.36145000000002">
    <ele>334.0</ele>
   </trkpt>
   <trkpt lat="-37.90059" lon="145.36069">
    <ele>339.05</ele>
   </trkpt>
   <trkpt lat="-37.90057" lon="145.36046000000002">
    <ele>338.82</ele>
   </trkpt>
   <trkpt lat="-37.9005" lon="145.36012000000002">
    <ele>335.73</ele>
   </trkpt>
   <trkpt lat="-37.9003" lon="145.35946">
    <ele>317.08000000000004</ele>
   </trkpt>
   <trkpt lat="-37.9001" lon="145.35860000000002">
    <ele>302.29</ele>
   </trkpt>
   <trkpt lat="-37.9001" lon="145.35835">
    <ele>299.09000000000003</ele>
   </trkpt>
   <trkpt lat="-37.900000000000006" lon="145.35778000000002">
    <ele>283.86</ele>
   </trkpt>
   <trkpt lat="-37.89992" lon="145.35763">
    <ele>276.37</ele>
   </trkpt>
   <trkpt lat="-37.89992" lon="145.35755">
    <ele>274.59</ele>
   </trkpt>
   <trkpt lat="-37.900000000000006" lon="145.35732000000002">
    <ele>268.35</ele>
   </trkpt>
   <trkpt lat="-37.900000000000006" lon="145.35713">
    <ele>264.46000000000004</ele>
   </trkpt>
   <trkpt lat="-37.89996" lon="145.35696000000002">
    <ele>255.75000000000003</ele>
   </trkpt>
   <trkpt lat="-37.89985" lon="145.35690000000002">
    <ele>255.37000000000003</ele>
   </trkpt>
   <trkpt lat="-37.89994" lon="145.35687000000001">
    <ele>255.37000000000003</ele>
   </trkpt>
   <trkpt lat="-37.90001" lon="145.35687000000001">
    <ele>266.24</ele>
   </trkpt>
   <trkpt lat="-37.9001" lon="145.35691">
    <ele>266.24</ele>
   </trkpt>
   <trkpt lat="-37.900110000000005" lon="145.35685">
    <ele>266.66</ele>
   </trkpt>
   <trkpt lat="-37.89996" lon="145.35677">
    <ele>267.82</ele>
   </trkpt>
   <trkpt lat="-37.89985" lon="145.35665">
    <ele>268.77</ele>
   </trkpt>
   <trkpt lat="-37.89974" lon="145.35645000000002">
    <ele>269.55</ele>
   </trkpt>
   <trkpt lat="-37.899730000000005" lon="145.35632">
    <ele>269.99</ele>
   </trkpt>
   <trkpt lat="-37.89967" lon="145.35628">
    <ele>270.99</ele>
   </trkpt>
   <trkpt lat="-37.89958" lon="145.35626000000002">
    <ele>270.99</ele>
   </trkpt>
   <trkpt lat="-37.89932" lon="145.35603">
    <ele>273.09</ele>
   </trkpt>
   <trkpt lat="-37.89934" lon="145.35593">
    <ele>274.04</ele>
   </trkpt>
   <trkpt lat="-37.899170000000005" lon="145.35578">
    <ele>274.51000000000005</ele>
   </trkpt>
   <trkpt lat="-37.89898" lon="145.3557">
    <ele>276.26</ele>
   </trkpt>
   <trkpt lat="-37.898770000000006" lon="145.35564000000002">
    <ele>277.69000000000005</ele>
   </trkpt>
   <trkpt lat="-37.89873" lon="145.35563000000002">
    <ele>277.69000000000005</ele>
   </trkpt>
   <trkpt lat="-37.8984" lon="145.35568">
    <ele>279.91</ele>
   </trkpt>
   <trkpt lat="-37.89819" lon="145.35568">
    <ele>282.40000000000003</ele>
   </trkpt>
   <trkpt lat="-37.89804" lon="145.35571000000002">
    <ele>284.32</ele>
   </trkpt>
   <trkpt lat="-37.89755" lon="145.35618000000002">
    <ele>290.89000000000004</ele>
   </trkpt>
   <trkpt lat="-37.89728" lon="145.35647">
    <ele>294.59000000000003</ele>
   </trkpt>
   <trkpt lat="-37.89719" lon="145.35669000000001">
    <ele>298.23</ele>
   </trkpt>
   <trkpt lat="-37.8971" lon="145.35679000000002">
    <ele>298.23</ele>
   </trkpt>
   <trkpt lat="-37.89701" lon="145.35696000000002">
    <ele>300.33000000000004</ele>
   </trkpt>
   <trkpt lat="-37.89663" lon="145.35723000000002">
    <ele>303.1</ele>
   </trkpt>
   <trkpt lat="-37.89618" lon="145.35743000000002">
    <ele>306.07</ele>
   </trkpt>
   <trkpt lat="-37.89598" lon="145.35739">
    <ele>307.58000000000004</ele>
   </trkpt>
   <trkpt lat="-37.89558" lon="145.35742000000002">
    <ele>311.05000000000007</ele>
   </trkpt>
   <trkpt lat="-37.89531" lon="145.35732000000002">
    <ele>313.95</ele>
   </trkpt>
   <trkpt lat="-37.89488" lon="145.35739">
    <ele>318.67</ele>
   </trkpt>
   <trkpt lat="-37.89457" lon="145.35722">
    <ele>322.84000000000003</ele>
   </trkpt>
   <trkpt lat="-37.89408" lon="145.35721">
    <ele>332.99</ele>
   </trkpt>
   <trkpt lat="-37.89372" lon="145.35718">
    <ele>338.78000000000003</ele>
   </trkpt>
   <trkpt lat="-37.89368" lon="145.35718">
    <ele>338.78000000000003</ele>
   </trkpt>
   <trkpt lat="-37.89369000000001" lon="145.35718">
    <ele>338.82</ele>
   </trkpt>
   <trkpt lat="-37.89329" lon="145.35727">
    <ele>343.05</ele>
   </trkpt>
   <trkpt lat="-37.89316" lon="145.35723000000002">
    <ele>343.64</ele>
   </trkpt>
   <trkpt lat="-37.89298" lon="145.35709">
    <ele>345.21000000000004</ele>
   </trkpt>
   <trkpt lat="-37.89287" lon="145.35705000000002">
    <ele>346.15000000000003</ele>
   </trkpt>
   <trkpt lat="-37.89273" lon="145.35704">
    <ele>347.23</ele>
   </trkpt>
   <trkpt lat="-37.89258" lon="145.35709">
    <ele>349.56</ele>
   </trkpt>
   <trkpt lat="-37.89246" lon="145.35709">
    <ele>351.69</ele>
   </trkpt>
   <trkpt lat="-37.89195" lon="145.35690000000002">
    <ele>361.45000000000005</ele>
   </trkpt>
   <trkpt lat="-37.89186" lon="145.35682">
    <ele>362.31</ele>
   </trkpt>
   <trkpt lat="-37.891740000000006" lon="145.35659">
    <ele>365.35</ele>
   </trkpt>
   <trkpt lat="-37.891200000000005" lon="145.35612">
    <ele>374.66</ele>
   </trkpt>
   <trkpt lat="-37.89049" lon="145.35545000000002">
    <ele>383.43000000000006</ele>
   </trkpt>
   <trkpt lat="-37.89034" lon="145.35532">
    <ele>386.48</ele>
   </trkpt>
   <trkpt lat="-37.89014" lon="145.35523">
    <ele>388.07</ele>
   </trkpt>
   <trkpt lat="-37.889880000000005" lon="145.35507">
    <ele>391.56</ele>
   </trkpt>
   <trkpt lat="-37.88985" lon="145.35506">
    <ele>391.56</ele>
   </trkpt>
   <trkpt lat="-37.88964" lon="145.35511000000002">
    <ele>398.78000000000003</ele>
   </trkpt>
   <trkpt lat="-37.88958" lon="145.35502000000002">
    <ele>399.83</ele>
   </trkpt>
   <trkpt lat="-37.88922" lon="145.35487">
    <ele>401.94</ele>
   </trkpt>
   <trkpt lat="-37.88915" lon="145.35486">
    <ele>402.5</ele>
   </trkpt>
   <trkpt lat="-37.88893" lon="145.35489">
    <ele>404.53000000000003</ele>
   </trkpt>
   <trkpt lat="-37.888630000000006" lon="145.35499000000002">
    <ele>411.81</ele>
   </trkpt>
   <trkpt lat="-37.888600000000004" lon="145.35502000000002">
    <ele>412.29</ele>
   </trkpt>
   <trkpt lat="-37.88855" lon="145.35496">
    <ele>412.58000000000004</ele>
   </trkpt>
   <trkpt lat="-37.88857" lon="145.35492000000002">
    <ele>414.02000000000004</ele>
   </trkpt>
   <trkpt lat="-37.88848" lon="145.35468">
    <ele>418.75</ele>
   </trkpt>
   <trkpt lat="-37.88828" lon="145.35435">
    <ele>424.52</ele>
   </trkpt>
   <trkpt lat="-37.8881" lon="145.35416">
    <ele>428.76000000000005</ele>
   </trkpt>
   <trkpt lat="-37.88792" lon="145.35378">
    <ele>434.94000000000005</ele>
   </trkpt>
   <trkpt lat="-37.88781" lon="145.35358000000002">
    <ele>437.34000000000003</ele>
   </trkpt>
   <trkpt lat="-37.88772" lon="145.35336">
    <ele>440.55000000000007</ele>
   </trkpt>
   <trkpt lat="-37.88765" lon="145.35301">
    <ele>443.94000000000005</ele>
   </trkpt>
   <trkpt lat="-37.88745" lon="145.35251000000002">
    <ele>452.53000000000003</ele>
   </trkpt>
   <trkpt lat="-37.88727" lon="145.35218">
    <ele>457.95</ele>
   </trkpt>
   <trkpt lat="-37.88727" lon="145.35205000000002">
    <ele>457.91</ele>
   </trkpt>
   <trkpt lat="-37.88729" lon="145.35195000000002">
    <ele>457.91</ele>
   </trkpt>
   <trkpt lat="-37.88734" lon="145.35183">
    <ele>457.28000000000003</ele>
   </trkpt>
   <trkpt lat="-37.887330000000006" lon="145.35177000000002">
    <ele>457.28000000000003</ele>
   </trkpt>
   <trkpt lat="-37.88716" lon="145.35176">
    <ele>459.70000000000005</ele>
   </trkpt>
   <trkpt lat="-37.88669" lon="145.35166">
    <ele>463.73</ele>
   </trkpt>
   <trkpt lat="-37.886410000000005" lon="145.35162000000003">
    <ele>463.02000000000004</ele>
   </trkpt>
   <trkpt lat="-37.886070000000004" lon="145.35163">
    <ele>465.1</ele>
   </trkpt>
   <trkpt lat="-37.88598" lon="145.35162000000003">
    <ele>465.73</ele>
   </trkpt>
   <trkpt lat="-37.886070000000004" lon="145.35163">
    <ele>465.1</ele>
   </trkpt>
   <trkpt lat="-37.88552" lon="145.35153000000003">
    <ele>469.12</ele>
   </trkpt>
   <trkpt lat="-37.8853" lon="145.3514">
    <ele>469.93</ele>
   </trkpt>
   <trkpt lat="-37.884730000000005" lon="145.35098000000002">
    <ele>469.36000000000007</ele>
   </trkpt>
   <trkpt lat="-37.88461" lon="145.35066">
    <ele>471.46000000000004</ele>
   </trkpt>
   <trkpt lat="-37.88461" lon="145.35046">
    <ele>473.40000000000003</ele>
   </trkpt>
   <trkpt lat="-37.884640000000005" lon="145.35035000000002">
    <ele>475.05</ele>
   </trkpt>
   <trkpt lat="-37.88461" lon="145.35017000000002">
    <ele>477.22</ele>
   </trkpt>
   <trkpt lat="-37.88456" lon="145.35004">
    <ele>477.22</ele>
   </trkpt>
   <trkpt lat="-37.88436" lon="145.34969">
    <ele>479.64000000000004</ele>
   </trkpt>
   <trkpt lat="-37.88405" lon="145.34945000000002">
    <ele>480.21000000000004</ele>
   </trkpt>
   <trkpt lat="-37.8836" lon="145.34926000000002">
    <ele>481.17</ele>
   </trkpt>
   <trkpt lat="-37.88311" lon="145.34876">
    <ele>482.2</ele>
   </trkpt>
   <trkpt lat="-37.88302" lon="145.3487">
    <ele>482.21000000000004</ele>
   </trkpt>
   <trkpt lat="-37.88290000000001" lon="145.34866000000002">
    <ele>482.14</ele>
   </trkpt>
   <trkpt lat="-37.88255" lon="145.34856000000002">
    <ele>482.40000000000003</ele>
   </trkpt>
   <trkpt lat="-37.88226" lon="145.34839000000002">
    <ele>483.22</ele>
   </trkpt>
   <trkpt lat="-37.88201" lon="145.34819000000002">
    <ele>484.59000000000003</ele>
   </trkpt>
   <trkpt lat="-37.88167" lon="145.34744">
    <ele>489.46000000000004</ele>
   </trkpt>
   <trkpt lat="-37.88154" lon="145.34723000000002">
    <ele>491.55</ele>
   </trkpt>
   <trkpt lat="-37.88105" lon="145.34695000000002">
    <ele>494.09000000000003</ele>
   </trkpt>
   <trkpt lat="-37.880860000000006" lon="145.34682">
    <ele>494.09000000000003</ele>
   </trkpt>
   <trkpt lat="-37.88067" lon="145.34663">
    <ele>495.26000000000005</ele>
   </trkpt>
   <trkpt lat="-37.88042" lon="145.34634">
    <ele>496.40000000000003</ele>
   </trkpt>
   <trkpt lat="-37.8802" lon="145.34602">
    <ele>498.65000000000003</ele>
   </trkpt>
   <trkpt lat="-37.87973" lon="145.34534000000002">
    <ele>502.0300000000001</ele>
   </trkpt>
   <trkpt lat="-37.87944" lon="145.34486">
    <ele>503.53000000000003</ele>
   </trkpt>
   <trkpt lat="-37.87919" lon="145.34452000000002">
    <ele>501.53000000000003</ele>
   </trkpt>
   <trkpt lat="-37.879070000000006" lon="145.34405">
    <ele>500.84000000000003</ele>
   </trkpt>
   <trkpt lat="-37.87892" lon="145.34343">
    <ele>498.50000000000006</ele>
   </trkpt>
   <trkpt lat="-37.87877" lon="145.34292000000002">
    <ele>494.28000000000003</ele>
   </trkpt>
   <trkpt lat="-37.87865" lon="145.34273000000002">
    <ele>492.84000000000003</ele>
   </trkpt>
   <trkpt lat="-37.87865" lon="145.34264000000002">
    <ele>493.43</ele>
   </trkpt>
   <trkpt lat="-37.878690000000006" lon="145.34248000000002">
    <ele>494.75</ele>
   </trkpt>
   <trkpt lat="-37.87874" lon="145.34236">
    <ele>496.88000000000005</ele>
   </trkpt>
   <trkpt lat="-37.8787" lon="145.34225">
    <ele>501.40000000000003</ele>
   </trkpt>
   <trkpt lat="-37.87856" lon="145.34212000000002">
    <ele>503.49</ele>
   </trkpt>
   <trkpt lat="-37.87847" lon="145.34209">
    <ele>505.9100000000001</ele>
   </trkpt>
   <trkpt lat="-37.87832" lon="145.34217">
    <ele>506.94000000000005</ele>
   </trkpt>
   <trkpt lat="-37.87807" lon="145.34255000000002">
    <ele>505.53999999999996</ele>
   </trkpt>
   <trkpt lat="-37.87791" lon="145.34269">
    <ele>505.6</ele>
   </trkpt>
   <trkpt lat="-37.87778" lon="145.34271">
    <ele>506.06000000000006</ele>
   </trkpt>
   <trkpt lat="-37.87722" lon="145.34272">
    <ele>508.06000000000006</ele>
   </trkpt>
   <trkpt lat="-37.87688" lon="145.3428">
    <ele>507.6400000000001</ele>
   </trkpt>
   <trkpt lat="-37.8763" lon="145.34273000000002">
    <ele>510.87000000000006</ele>
   </trkpt>
   <trkpt lat="-37.87599" lon="145.34278">
    <ele>511.93</ele>
   </trkpt>
   <trkpt lat="-37.87585" lon="145.34284000000002">
    <ele>512.5300000000001</ele>
   </trkpt>
   <trkpt lat="-37.87574" lon="145.34297">
    <ele>513.37</ele>
   </trkpt>
   <trkpt lat="-37.87561" lon="145.34316">
    <ele>510.6700000000001</ele>
   </trkpt>
   <trkpt lat="-37.87552" lon="145.34341">
    <ele>507.02000000000004</ele>
   </trkpt>
   <trkpt lat="-37.87552" lon="145.34328000000002">
    <ele>505.92</ele>
   </trkpt>
   <trkpt lat="-37.875510000000006" lon="145.34301000000002">
    <ele>504.24</ele>
   </trkpt>
   <trkpt lat="-37.875370000000004" lon="145.34295">
    <ele>502.58000000000004</ele>
   </trkpt>
   <trkpt lat="-37.875350000000005" lon="145.3428">
    <ele>502.26000000000005</ele>
   </trkpt>
   <trkpt lat="-37.87581" lon="145.34248000000002">
    <ele>501.41</ele>
   </trkpt>
   <trkpt lat="-37.875980000000006" lon="145.34243">
    <ele>501.56</ele>
   </trkpt>
   <trkpt lat="-37.876000000000005" lon="145.34233">
    <ele>501.50000000000006</ele>
   </trkpt>
   <trkpt lat="-37.875870000000006" lon="145.34231000000003">
    <ele>502.30000000000007</ele>
   </trkpt>
   <trkpt lat="-37.87592" lon="145.34225">
    <ele>502.30000000000007</ele>
   </trkpt>
   <trkpt lat="-37.87634500042798" lon="145.3419300018501">
    <ele>506.70000000000005</ele>
   </trkpt>
   <trkpt lat="-37.87677" lon="145.34161">
    <ele>510.65999999999997</ele>
   </trkpt>
   <trkpt lat="-37.87706" lon="145.34135">
    <ele>512.45</ele>
   </trkpt>
   <trkpt lat="-37.87755333932869" lon="145.34050667799787">
    <ele>517.96</ele>
   </trkpt>
   <trkpt lat="-37.878046672641794" lon="145.3396633446993">
    <ele>524.57</ele>
   </trkpt>
   <trkpt lat="-37.87854" lon="145.33882">
    <ele>531.2</ele>
   </trkpt>
   <trkpt lat="-37.87785250082" lon="145.33856999300968">
    <ele>545.37</ele>
   </trkpt>
   <trkpt lat="-37.877165001111315" lon="145.33831999068624">
    <ele>551.6300000000001</ele>
   </trkpt>
   <trkpt lat="-37.876477500874" lon="145.33806999302953">
    <ele>543.21</ele>
   </trkpt>
   <trkpt lat="-37.87579" lon="145.33782000000002">
    <ele>528.48</ele>
   </trkpt>
   <trkpt lat="-37.87497500006771" lon="145.33764499805065">
    <ele>516.64</ele>
   </trkpt>
   <trkpt lat="-37.87416" lon="145.33747000000002">
    <ele>496.36</ele>
   </trkpt>
   <trkpt lat="-37.87411" lon="145.33749">
    <ele>495.98</ele>
   </trkpt>
   <trkpt lat="-37.874" lon="145.33705">
    <ele>497.13</ele>
   </trkpt>
   <trkpt lat="-37.874010000000006" lon="145.33712">
    <ele>497.14000000000004</ele>
   </trkpt>
   <trkpt lat="-37.87391" lon="145.33668">
    <ele>493.2</ele>
   </trkpt>
   <trkpt lat="-37.87393" lon="145.33620000000002">
    <ele>488.39000000000004</ele>
   </trkpt>
   <trkpt lat="-37.87406" lon="145.33561">
    <ele>483.63000000000005</ele>
   </trkpt>
   <trkpt lat="-37.87414000145162" lon="145.33503000041983">
    <ele>479.19000000000005</ele>
   </trkpt>
   <trkpt lat="-37.87422" lon="145.33445">
    <ele>473.71000000000004</ele>
   </trkpt>
   <trkpt lat="-37.87443500202568" lon="145.33376000197453">
    <ele>469.06</ele>
   </trkpt>
   <trkpt lat="-37.87465" lon="145.33307000000002">
    <ele>462.08000000000004</ele>
   </trkpt>
   <trkpt lat="-37.87489" lon="145.33247">
    <ele>455.6</ele>
   </trkpt>
   <trkpt lat="-37.87534" lon="145.33156000000002">
    <ele>443.02000000000004</ele>
   </trkpt>
   <trkpt lat="-37.87543" lon="145.33131">
    <ele>441.00000000000006</ele>
   </trkpt>
   <trkpt lat="-37.87545" lon="145.33118000000002">
    <ele>440.56000000000006</ele>
   </trkpt>
   <trkpt lat="-37.87543" lon="145.33104">
    <ele>440.4</ele>
   </trkpt>
   <trkpt lat="-37.875400000000006" lon="145.33097">
    <ele>439.98</ele>
   </trkpt>
   <trkpt lat="-37.875" lon="145.33088">
    <ele>435.02</ele>
   </trkpt>
   <trkpt lat="-37.87465" lon="145.33086">
    <ele>431.36</ele>
   </trkpt>
   <trkpt lat="-37.87444" lon="145.33082000000002">
    <ele>429.68000000000006</ele>
   </trkpt>
   <trkpt lat="-37.87415" lon="145.33067">
    <ele>424.06000000000006</ele>
   </trkpt>
   <trkpt lat="-37.87397" lon="145.33055000000002">
    <ele>421.36</ele>
   </trkpt>
   <trkpt lat="-37.87384" lon="145.33040000000003">
    <ele>420.41</ele>
   </trkpt>
   <trkpt lat="-37.87341" lon="145.33013000000003">
    <ele>415.38</ele>
   </trkpt>
   <trkpt lat="-37.87292" lon="145.32993000000002">
    <ele>408.52000000000004</ele>
   </trkpt>
   <trkpt lat="-37.8725" lon="145.32989">
    <ele>404.02000000000004</ele>
   </trkpt>
   <trkpt lat="-37.87227" lon="145.33004000000003">
    <ele>398.66</ele>
   </trkpt>
   <trkpt lat="-37.87223" lon="145.33017">
    <ele>397.38</ele>
   </trkpt>
   <trkpt lat="-37.87221" lon="145.33038000000002">
    <ele>395.43000000000006</ele>
   </trkpt>
   <trkpt lat="-37.87221" lon="145.3305">
    <ele>394.83</ele>
   </trkpt>
   <trkpt lat="-37.87223" lon="145.3309">
    <ele>392.05</ele>
   </trkpt>
   <trkpt lat="-37.87225" lon="145.33113">
    <ele>391.56</ele>
   </trkpt>
   <trkpt lat="-37.87236" lon="145.33138000000002">
    <ele>391.01</ele>
   </trkpt>
   <trkpt lat="-37.87263" lon="145.33171000000002">
    <ele>389.38000000000005</ele>
   </trkpt>
   <trkpt lat="-37.87279" lon="145.33183000000002">
    <ele>388.02000000000004</ele>
   </trkpt>
   <trkpt lat="-37.87297" lon="145.33206">
    <ele>385.67</ele>
   </trkpt>
   <trkpt lat="-37.87301" lon="145.33218000000002">
    <ele>385.14000000000004</ele>
   </trkpt>
   <trkpt lat="-37.87301" lon="145.33226000000002">
    <ele>385.0</ele>
   </trkpt>
   <trkpt lat="-37.872890000000005" lon="145.3325">
    <ele>384.96000000000004</ele>
   </trkpt>
   <trkpt lat="-37.87268" lon="145.33283">
    <ele>383.71000000000004</ele>
   </trkpt>
   <trkpt lat="-37.87238" lon="145.33305000000001">
    <ele>381.71999999999997</ele>
   </trkpt>
   <trkpt lat="-37.87207" lon="145.33307000000002">
    <ele>377.28</ele>
   </trkpt>
   <trkpt lat="-37.87167" lon="145.33290000000002">
    <ele>371.94000000000005</ele>
   </trkpt>
   <trkpt lat="-37.871280000000006" lon="145.33282">
    <ele>368.32000000000005</ele>
   </trkpt>
   <trkpt lat="-37.87113" lon="145.33284">
    <ele>368.05</ele>
   </trkpt>
   <trkpt lat="-37.87102" lon="145.33292">
    <ele>368.12</ele>
   </trkpt>
   <trkpt lat="-37.87091" lon="145.33315000000002">
    <ele>367.76000000000005</ele>
   </trkpt>
   <trkpt lat="-37.87082" lon="145.33339">
    <ele>366.46</ele>
   </trkpt>
   <trkpt lat="-37.87075" lon="145.33419">
    <ele>361.02</ele>
   </trkpt>
   <trkpt lat="-37.870810000000006" lon="145.33446">
    <ele>359.59000000000003</ele>
   </trkpt>
   <trkpt lat="-37.870810000000006" lon="145.3347">
    <ele>358.92</ele>
   </trkpt>
   <trkpt lat="-37.87075" lon="145.33478000000002">
    <ele>356.98</ele>
   </trkpt>
   <trkpt lat="-37.87066" lon="145.33478000000002">
    <ele>356.98</ele>
   </trkpt>
   <trkpt lat="-37.870450000000005" lon="145.33465">
    <ele>355.43</ele>
   </trkpt>
   <trkpt lat="-37.87055" lon="145.33518">
    <ele>365.54</ele>
   </trkpt>
   <trkpt lat="-37.87035" lon="145.3356">
    <ele>376.91</ele>
   </trkpt>
   <trkpt lat="-37.8701" lon="145.33595000000003">
    <ele>383.66</ele>
   </trkpt>
   <trkpt lat="-37.87001" lon="145.33628000000002">
    <ele>389.33</ele>
   </trkpt>
   <trkpt lat="-37.86983" lon="145.33668">
    <ele>395.84000000000003</ele>
   </trkpt>
   <trkpt lat="-37.86968" lon="145.33686">
    <ele>396.84000000000003</ele>
   </trkpt>
   <trkpt lat="-37.86927" lon="145.33711000000002">
    <ele>396.61</ele>
   </trkpt>
   <trkpt lat="-37.86914" lon="145.33722">
    <ele>398.71</ele>
   </trkpt>
   <trkpt lat="-37.86905" lon="145.33726000000001">
    <ele>399.51000000000005</ele>
   </trkpt>
   <trkpt lat="-37.86891" lon="145.33724">
    <ele>399.39</ele>
   </trkpt>
   <trkpt lat="-37.8686" lon="145.33698">
    <ele>396.02000000000004</ele>
   </trkpt>
   <trkpt lat="-37.86831" lon="145.3368">
    <ele>397.0400000000001</ele>
   </trkpt>
   <trkpt lat="-37.86813" lon="145.33664000000002">
    <ele>397.16</ele>
   </trkpt>
   <trkpt lat="-37.867900000000006" lon="145.33622000000003">
    <ele>398.37000000000006</ele>
   </trkpt>
   <trkpt lat="-37.86762" lon="145.33587">
    <ele>399.67</ele>
   </trkpt>
   <trkpt lat="-37.86748" lon="145.33566000000002">
    <ele>400.97</ele>
   </trkpt>
   <trkpt lat="-37.86741" lon="145.33546">
    <ele>401.5</ele>
   </trkpt>
   <trkpt lat="-37.86735" lon="145.33513000000002">
    <ele>403.15</ele>
   </trkpt>
   <trkpt lat="-37.86735" lon="145.33496000000002">
    <ele>404.86000000000007</ele>
   </trkpt>
   <trkpt lat="-37.86744" lon="145.33439">
    <ele>407.47</ele>
   </trkpt>
   <trkpt lat="-37.86744" lon="145.33422000000002">
    <ele>408.05</ele>
   </trkpt>
   <trkpt lat="-37.86739" lon="145.33394">
    <ele>409.2</ele>
   </trkpt>
   <trkpt lat="-37.86737" lon="145.33386000000002">
    <ele>409.89000000000004</ele>
   </trkpt>
   <trkpt lat="-37.8673" lon="145.33371000000002">
    <ele>410.88</ele>
   </trkpt>
   <trkpt lat="-37.867200000000004" lon="145.33355">
    <ele>412.05</ele>
   </trkpt>
   <trkpt lat="-37.86697" lon="145.33335000000002">
    <ele>410.38</ele>
   </trkpt>
   <trkpt lat="-37.86634" lon="145.33317000000002">
    <ele>403.87</ele>
   </trkpt>
   <trkpt lat="-37.86568000015063" lon="145.33300499853112">
    <ele>399.01000000000005</ele>
   </trkpt>
   <trkpt lat="-37.86502" lon="145.33284">
    <ele>393.72</ele>
   </trkpt>
   <trkpt lat="-37.86482" lon="145.33287">
    <ele>391.38</ele>
   </trkpt>
   <trkpt lat="-37.86473" lon="145.33291">
    <ele>391.38</ele>
   </trkpt>
   <trkpt lat="-37.86464" lon="145.333">
    <ele>391.38</ele>
   </trkpt>
   <trkpt lat="-37.86451" lon="145.3332">
    <ele>389.25000000000006</ele>
   </trkpt>
   <trkpt lat="-37.86475" lon="145.33338">
    <ele>399.07000000000005</ele>
   </trkpt>
   <trkpt lat="-37.86493" lon="145.33347">
    <ele>403.18</ele>
   </trkpt>
   <trkpt lat="-37.86529" lon="145.33396000000002">
    <ele>415.84000000000003</ele>
   </trkpt>
   <trkpt lat="-37.8656" lon="145.33411">
    <ele>423.37</ele>
   </trkpt>
   <trkpt lat="-37.86571" lon="145.3342">
    <ele>425.49</ele>
   </trkpt>
   <trkpt lat="-37.86576" lon="145.33428">
    <ele>426.37</ele>
   </trkpt>
   <trkpt lat="-37.86581500171866" lon="145.3349149996823">
    <ele>425.41</ele>
   </trkpt>
   <trkpt lat="-37.86587" lon="145.33555">
    <ele>422.77000000000004</ele>
   </trkpt>
   <trkpt lat="-37.86583" lon="145.33618">
    <ele>419.58</ele>
   </trkpt>
   <trkpt lat="-37.86562" lon="145.33726000000001">
    <ele>418.57000000000005</ele>
   </trkpt>
   <trkpt lat="-37.865465001196924" lon="145.3377950011717">
    <ele>418.05</ele>
   </trkpt>
   <trkpt lat="-37.86531" lon="145.33833">
    <ele>418.39000000000004</ele>
   </trkpt>
   <trkpt lat="-37.86506" lon="145.33889000000002">
    <ele>421.55</ele>
   </trkpt>
   <trkpt lat="-37.86498" lon="145.33924000000002">
    <ele>422.45000000000005</ele>
   </trkpt>
   <trkpt lat="-37.86498" lon="145.33923000000001">
    <ele>422.43</ele>
   </trkpt>
   <trkpt lat="-37.86486" lon="145.33964">
    <ele>423.39000000000004</ele>
   </trkpt>
   <trkpt lat="-37.86475" lon="145.33980000000003">
    <ele>425.19</ele>
   </trkpt>
   <trkpt lat="-37.86464" lon="145.33988000000002">
    <ele>427.34000000000003</ele>
   </trkpt>
   <trkpt lat="-37.8645" lon="145.33989000000003">
    <ele>429.19</ele>
   </trkpt>
   <trkpt lat="-37.8641" lon="145.33975">
    <ele>431.8</ele>
   </trkpt>
   <trkpt lat="-37.863780000000006" lon="145.33974">
    <ele>434.18</ele>
   </trkpt>
   <trkpt lat="-37.86354" lon="145.33979000000002">
    <ele>435.96</ele>
   </trkpt>
   <trkpt lat="-37.86318" lon="145.33996000000002">
    <ele>439.39000000000004</ele>
   </trkpt>
   <trkpt lat="-37.862860000000005" lon="145.34025000000003">
    <ele>440.19</ele>
   </trkpt>
   <trkpt lat="-37.863360001222716" lon="145.34078999632519">
    <ele>456.87000000000006</ele>
   </trkpt>
   <trkpt lat="-37.86386" lon="145.34133">
    <ele>472.54</ele>
   </trkpt>
   <trkpt lat="-37.86406" lon="145.34144">
    <ele>476.89000000000004</ele>
   </trkpt>
   <trkpt lat="-37.86433" lon="145.34163">
    <ele>480.64</ele>
   </trkpt>
   <trkpt lat="-37.86489" lon="145.34179">
    <ele>483.18000000000006</ele>
   </trkpt>
   <trkpt lat="-37.86515" lon="145.3418">
    <ele>482.36000000000007</ele>
   </trkpt>
   <trkpt lat="-37.865610000000004" lon="145.34172">
    <ele>482.47</ele>
   </trkpt>
   <trkpt lat="-37.86565" lon="145.34188">
    <ele>481.95000000000005</ele>
   </trkpt>
   <trkpt lat="-37.86587" lon="145.34215">
    <ele>480.65000000000003</ele>
   </trkpt>
   <trkpt lat="-37.86634" lon="145.34241">
    <ele>479.39000000000004</ele>
   </trkpt>
   <trkpt lat="-37.86663" lon="145.34261">
    <ele>478.05</ele>
   </trkpt>
   <trkpt lat="-37.86717" lon="145.34283000000002">
    <ele>479.62000000000006</ele>
   </trkpt>
   <trkpt lat="-37.86741" lon="145.34287">
    <ele>482.39000000000004</ele>
   </trkpt>
   <trkpt lat="-37.86766" lon="145.34284000000002">
    <ele>486.36</ele>
   </trkpt>
   <trkpt lat="-37.86838" lon="145.34305">
    <ele>490.99</ele>
   </trkpt>
   <trkpt lat="-37.86903" lon="145.34319000000002">
    <ele>494.22</ele>
   </trkpt>
   <trkpt lat="-37.86947499993034" lon="145.3432899993709">
    <ele>496.15000000000003</ele>
   </trkpt>
   <trkpt lat="-37.86992" lon="145.34339">
    <ele>498.68000000000006</ele>
   </trkpt>
   <trkpt lat="-37.86992" lon="145.34348">
    <ele>497.71000000000004</ele>
   </trkpt>
   <trkpt lat="-37.86997" lon="145.34354000000002">
    <ele>497.03000000000003</ele>
   </trkpt>
   <trkpt lat="-37.87026" lon="145.34375">
    <ele>493.17</ele>
   </trkpt>
   <trkpt lat="-37.87037" lon="145.34387">
    <ele>493.94000000000005</ele>
   </trkpt>
   <trkpt lat="-37.87066" lon="145.34400000000002">
    <ele>501.21999999999997</ele>
   </trkpt>
   <trkpt lat="-37.87088" lon="145.34415">
    <ele>503.61</ele>
   </trkpt>
   <trkpt lat="-37.87109" lon="145.34422">
    <ele>508.29</ele>
   </trkpt>
   <trkpt lat="-37.87071" lon="145.34472000000002">
    <ele>507.6400000000001</ele>
   </trkpt>
   <trkpt lat="-37.87024" lon="145.34483">
    <ele>505.89000000000004</ele>
   </trkpt>
   <trkpt lat="-37.86983" lon="145.34474">
    <ele>505.49</ele>
   </trkpt>
   <trkpt lat="-37.86956" lon="145.34455">
    <ele>501.82000000000005</ele>
   </trkpt>
   <trkpt lat="-37.86941" lon="145.34448">
    <ele>499.39000000000004</ele>
   </trkpt>
   <trkpt lat="-37.86907" lon="145.34435000000002">
    <ele>494.99</ele>
   </trkpt>
   <trkpt lat="-37.86889" lon="145.34432">
    <ele>493.90000000000003</ele>
   </trkpt>
   <trkpt lat="-37.86862" lon="145.34431">
    <ele>492.01000000000005</ele>
   </trkpt>
   <trkpt lat="-37.86844" lon="145.34437">
    <ele>491.40000000000003</ele>
   </trkpt>
   <trkpt lat="-37.86792500002919" lon="145.3444400004881">
    <ele>488.54</ele>
   </trkpt>
   <trkpt lat="-37.86741" lon="145.34451">
    <ele>483.53000000000003</ele>
   </trkpt>
   <trkpt lat="-37.86697" lon="145.34459">
    <ele>478.86000000000007</ele>
   </trkpt>
   <trkpt lat="-37.866510000000005" lon="145.34494">
    <ele>472.52000000000004</ele>
   </trkpt>
   <trkpt lat="-37.86652" lon="145.34494">
    <ele>472.65</ele>
   </trkpt>
   <trkpt lat="-37.86621" lon="145.34518">
    <ele>470.43</ele>
   </trkpt>
   <trkpt lat="-37.865990000000004" lon="145.34539">
    <ele>475.63000000000005</ele>
   </trkpt>
   <trkpt lat="-37.86598" lon="145.34527">
    <ele>474.21000000000004</ele>
   </trkpt>
   <trkpt lat="-37.86607" lon="145.34514000000001">
    <ele>473.16</ele>
   </trkpt>
   <trkpt lat="-37.866220000000006" lon="145.34505000000001">
    <ele>471.41</ele>
   </trkpt>
   <trkpt lat="-37.86634" lon="145.34493">
    <ele>471.43</ele>
   </trkpt>
   <trkpt lat="-37.8665" lon="145.34471000000002">
    <ele>472.55</ele>
   </trkpt>
   <trkpt lat="-37.86652" lon="145.34461000000002">
    <ele>472.89000000000004</ele>
   </trkpt>
   <trkpt lat="-37.86652" lon="145.34453000000002">
    <ele>472.91</ele>
   </trkpt>
   <trkpt lat="-37.86645" lon="145.34432">
    <ele>470.45000000000005</ele>
   </trkpt>
   <trkpt lat="-37.86623" lon="145.3442">
    <ele>465.11</ele>
   </trkpt>
   <trkpt lat="-37.86605" lon="145.34417000000002">
    <ele>461.03000000000003</ele>
   </trkpt>
   <trkpt lat="-37.865930000000006" lon="145.34423">
    <ele>460.0</ele>
   </trkpt>
   <trkpt lat="-37.86536333450359" lon="145.34461333927783">
    <ele>461.24</ele>
   </trkpt>
   <trkpt lat="-37.86479666776438" lon="145.34499667266013">
    <ele>469.04</ele>
   </trkpt>
   <trkpt lat="-37.864230000000006" lon="145.34538">
    <ele>470.31000000000006</ele>
   </trkpt>
   <trkpt lat="-37.86410000133147" lon="145.34594000096476">
    <ele>474.07000000000005</ele>
   </trkpt>
   <trkpt lat="-37.86397" lon="145.34650000000002">
    <ele>478.92</ele>
   </trkpt>
   <trkpt lat="-37.864250000000006" lon="145.34738000000002">
    <ele>501.94000000000005</ele>
   </trkpt>
   <trkpt lat="-37.86458500124704" lon="145.34791499762656">
    <ele>514.23</ele>
   </trkpt>
   <trkpt lat="-37.864920000000005" lon="145.34845">
    <ele>528.98</ele>
   </trkpt>
   <trkpt lat="-37.86493" lon="145.34845">
    <ele>525.54</ele>
   </trkpt>
   <trkpt lat="-37.86496" lon="145.34829000000002">
    <ele>526.46</ele>
   </trkpt>
   <trkpt lat="-37.86491" lon="145.34857000000002">
    <ele>524.61</ele>
   </trkpt>
   <trkpt lat="-37.86458500340829" lon="145.34946500388932">
    <ele>516.03</ele>
   </trkpt>
   <trkpt lat="-37.86426" lon="145.35036000000002">
    <ele>506.7900000000001</ele>
   </trkpt>
   <trkpt lat="-37.86426" lon="145.35035000000002">
    <ele>506.8</ele>
   </trkpt>
   <trkpt lat="-37.86417" lon="145.35060000000001">
    <ele>502.40000000000003</ele>
   </trkpt>
   <trkpt lat="-37.8641" lon="145.35074">
    <ele>500.43</ele>
   </trkpt>
   <trkpt lat="-37.8641" lon="145.35089000000002">
    <ele>499.88000000000005</ele>
   </trkpt>
   <trkpt lat="-37.864050000000006" lon="145.35102">
    <ele>498.28000000000003</ele>
   </trkpt>
   <trkpt lat="-37.86379" lon="145.35118">
    <ele>490.09000000000003</ele>
   </trkpt>
   <trkpt lat="-37.86368" lon="145.35119">
    <ele>487.07000000000005</ele>
   </trkpt>
   <trkpt lat="-37.86359" lon="145.35126000000002">
    <ele>485.35</ele>
   </trkpt>
   <trkpt lat="-37.8635" lon="145.3513">
    <ele>483.92</ele>
   </trkpt>
   <trkpt lat="-37.863420000000005" lon="145.35147">
    <ele>481.82</ele>
   </trkpt>
   <trkpt lat="-37.8633" lon="145.35152000000002">
    <ele>481.46000000000004</ele>
   </trkpt>
   <trkpt lat="-37.863310000000006" lon="145.35152000000002">
    <ele>481.47</ele>
   </trkpt>
   <trkpt lat="-37.863110000000006" lon="145.35169000000002">
    <ele>481.12000000000006</ele>
   </trkpt>
   <trkpt lat="-37.86309" lon="145.35176">
    <ele>481.46000000000004</ele>
   </trkpt>
   <trkpt lat="-37.86312" lon="145.35186000000002">
    <ele>481.68000000000006</ele>
   </trkpt>
   <trkpt lat="-37.863385001367774" lon="145.35243999779462">
    <ele>484.90000000000003</ele>
   </trkpt>
   <trkpt lat="-37.86365" lon="145.35302000000001">
    <ele>479.90000000000003</ele>
   </trkpt>
   <trkpt lat="-37.86323500027689" lon="145.35331000168807">
    <ele>479.51000000000005</ele>
   </trkpt>
   <trkpt lat="-37.862820000000006" lon="145.3536">
    <ele>480.43</ele>
   </trkpt>
   <trkpt lat="-37.862860000000005" lon="145.35369">
    <ele>480.47</ele>
   </trkpt>
  </trkseg>
 </trk>
</gpx>
