<?xml version="1.0" encoding="UTF-8"?>
<gpx creator="StravaGPX" version="1.1" xmlns="http://www.topografix.com/GPX/1/1" xmlns:xsi="http://www.w3.org/2001/XMLSchema-instance" xsi:schemaLocation="http://www.topografix.com/GPX/1/1 http://www.topografix.com/GPX/1/1/gpx.xsd">
 <metadata>
  <name>DTR RCR fron Stables 14k</name>
  <author>
   <name>john csorgo</name>
  </author>
  <copyright author="OpenStreetMap contributors">
   <year>2020</year>
   <license>https://www.openstreetmap.org/copyright</license>
  </copyright>
 </metadata>
 <trk>
  <name>DTR RCR fron Stables 14k</name>
  <link href=""/>
  <type>running</type>
  <trkseg>
   <trkpt lat="-37.84716" lon="145.34429">
    <ele>289.84999999999997</ele>
   </trkpt>
   <trkpt lat="-37.84707" lon="145.34472000000002">
    <ele>287.8</ele>
   </trkpt>
   <trkpt lat="-37.84707" lon="145.34496000000001">
    <ele>287.86</ele>
   </trkpt>
   <trkpt lat="-37.847170000000006" lon="145.34528">
    <ele>288.44</ele>
   </trkpt>
   <trkpt lat="-37.84722" lon="145.34541000000002">
    <ele>288.62000000000006</ele>
   </trkpt>
   <trkpt lat="-37.84731" lon="145.34550000000002">
    <ele>288.68000000000006</ele>
   </trkpt>
   <trkpt lat="-37.84745" lon="145.34555">
    <ele>288.59000000000003</ele>
   </trkpt>
   <trkpt lat="-37.84756" lon="145.34556">
    <ele>288.16</ele>
   </trkpt>
   <trkpt lat="-37.84781" lon="145.34555">
    <ele>286.86</ele>
   </trkpt>
   <trkpt lat="-37.84789" lon="145.34557">
    <ele>286.86</ele>
   </trkpt>
   <trkpt lat="-37.84798" lon="145.34563">
    <ele>285.27000000000004</ele>
   </trkpt>
   <trkpt lat="-37.848200000000006" lon="145.3459">
    <ele>282.2</ele>
   </trkpt>
   <trkpt lat="-37.84848" lon="145.34639">
    <ele>278.90000000000003</ele>
   </trkpt>
   <trkpt lat="-37.84854" lon="145.34643">
    <ele>277.24</ele>
   </trkpt>
   <trkpt lat="-37.84857" lon="145.34639">
    <ele>277.24</ele>
   </trkpt>
   <trkpt lat="-37.84859" lon="145.34626">
    <ele>276.26</ele>
   </trkpt>
   <trkpt lat="-37.848600001899754" lon="145.34558999997228">
    <ele>272.29</ele>
   </trkpt>
   <trkpt lat="-37.84861" lon="145.34492">
    <ele>269.71</ele>
   </trkpt>
   <trkpt lat="-37.84868" lon="145.34415">
    <ele>268.33</ele>
   </trkpt>
   <trkpt lat="-37.84877000188744" lon="145.3434800008963">
    <ele>267.62</ele>
   </trkpt>
   <trkpt lat="-37.84886" lon="145.34281000000001">
    <ele>266.36</ele>
   </trkpt>
   <trkpt lat="-37.84888" lon="145.34232">
    <ele>264.29</ele>
   </trkpt>
   <trkpt lat="-37.84886" lon="145.34197">
    <ele>262.72</ele>
   </trkpt>
   <trkpt lat="-37.84886" lon="145.34191">
    <ele>262.40000000000003</ele>
   </trkpt>
   <trkpt lat="-37.84869000163196" lon="145.341289998595">
    <ele>259.87000000000006</ele>
   </trkpt>
   <trkpt lat="-37.84852" lon="145.34067000000002">
    <ele>254.9</ele>
   </trkpt>
   <trkpt lat="-37.84845" lon="145.34047">
    <ele>253.65000000000003</ele>
   </trkpt>
   <trkpt lat="-37.84816" lon="145.33994">
    <ele>248.53000000000003</ele>
   </trkpt>
   <trkpt lat="-37.84807" lon="145.33973">
    <ele>246.97000000000003</ele>
   </trkpt>
   <trkpt lat="-37.84776" lon="145.33938">
    <ele>243.62000000000003</ele>
   </trkpt>
   <trkpt lat="-37.84765" lon="145.33934000000002">
    <ele>243.62000000000003</ele>
   </trkpt>
   <trkpt lat="-37.84756" lon="145.33926000000002">
    <ele>241.40000000000003</ele>
   </trkpt>
   <trkpt lat="-37.84729" lon="145.33877">
    <ele>236.78</ele>
   </trkpt>
   <trkpt lat="-37.84698" lon="145.33795">
    <ele>231.14000000000001</ele>
   </trkpt>
   <trkpt lat="-37.84684" lon="145.33762000000002">
    <ele>228.80000000000004</ele>
   </trkpt>
   <trkpt lat="-37.84675" lon="145.33733">
    <ele>227.26000000000002</ele>
   </trkpt>
   <trkpt lat="-37.8466" lon="145.33685">
    <ele>226.12</ele>
   </trkpt>
   <trkpt lat="-37.84626" lon="145.33624">
    <ele>222.51000000000002</ele>
   </trkpt>
   <trkpt lat="-37.84613" lon="145.33619000000002">
    <ele>220.8</ele>
   </trkpt>
   <trkpt lat="-37.84601" lon="145.33611000000002">
    <ele>219.37</ele>
   </trkpt>
   <trkpt lat="-37.84595" lon="145.33595000000003">
    <ele>218.18</ele>
   </trkpt>
   <trkpt lat="-37.84584" lon="145.33534">
    <ele>214.44000000000003</ele>
   </trkpt>
   <trkpt lat="-37.84581" lon="145.33519">
    <ele>213.91000000000003</ele>
   </trkpt>
   <trkpt lat="-37.84581" lon="145.33486000000002">
    <ele>213.05</ele>
   </trkpt>
   <trkpt lat="-37.84593" lon="145.33428">
    <ele>212.34000000000003</ele>
   </trkpt>
   <trkpt lat="-37.84664" lon="145.33361000000002">
    <ele>216.4</ele>
   </trkpt>
   <trkpt lat="-37.84713" lon="145.33309">
    <ele>220.35000000000002</ele>
   </trkpt>
   <trkpt lat="-37.84731" lon="145.33297000000002">
    <ele>221.05</ele>
   </trkpt>
   <trkpt lat="-37.847390000000004" lon="145.33296">
    <ele>222.58</ele>
   </trkpt>
   <trkpt lat="-37.84745" lon="145.33298000000002">
    <ele>223.62</ele>
   </trkpt>
   <trkpt lat="-37.84754" lon="145.3331">
    <ele>225.60000000000002</ele>
   </trkpt>
   <trkpt lat="-37.84761" lon="145.33335000000002">
    <ele>227.24</ele>
   </trkpt>
   <trkpt lat="-37.84767" lon="145.33385">
    <ele>231.23000000000002</ele>
   </trkpt>
   <trkpt lat="-37.84772" lon="145.33393">
    <ele>233.72</ele>
   </trkpt>
   <trkpt lat="-37.84778" lon="145.33398000000003">
    <ele>233.72</ele>
   </trkpt>
   <trkpt lat="-37.84792" lon="145.33391">
    <ele>235.57000000000002</ele>
   </trkpt>
   <trkpt lat="-37.84839" lon="145.33338">
    <ele>239.70000000000002</ele>
   </trkpt>
   <trkpt lat="-37.84848" lon="145.3333">
    <ele>240.24</ele>
   </trkpt>
   <trkpt lat="-37.84857" lon="145.33327">
    <ele>240.55</ele>
   </trkpt>
   <trkpt lat="-37.848800000000004" lon="145.33329">
    <ele>243.04</ele>
   </trkpt>
   <trkpt lat="-37.84899" lon="145.33313">
    <ele>241.89000000000001</ele>
   </trkpt>
   <trkpt lat="-37.849140000000006" lon="145.33307000000002">
    <ele>241.49</ele>
   </trkpt>
   <trkpt lat="-37.84926" lon="145.33305000000001">
    <ele>240.34000000000003</ele>
   </trkpt>
   <trkpt lat="-37.84975" lon="145.33316000000002">
    <ele>238.57000000000002</ele>
   </trkpt>
   <trkpt lat="-37.84989" lon="145.33313">
    <ele>237.38</ele>
   </trkpt>
   <trkpt lat="-37.85004" lon="145.333">
    <ele>236.47</ele>
   </trkpt>
   <trkpt lat="-37.8502" lon="145.33283">
    <ele>234.87</ele>
   </trkpt>
   <trkpt lat="-37.85036" lon="145.33271000000002">
    <ele>233.84</ele>
   </trkpt>
   <trkpt lat="-37.850860000000004" lon="145.33241">
    <ele>231.24000000000004</ele>
   </trkpt>
   <trkpt lat="-37.85085" lon="145.33266">
    <ele>239.23000000000002</ele>
   </trkpt>
   <trkpt lat="-37.85076" lon="145.33294">
    <ele>244.96</ele>
   </trkpt>
   <trkpt lat="-37.85079" lon="145.33312">
    <ele>248.65</ele>
   </trkpt>
   <trkpt lat="-37.8508" lon="145.33325000000002">
    <ele>251.17</ele>
   </trkpt>
   <trkpt lat="-37.85078" lon="145.33346">
    <ele>254.45000000000002</ele>
   </trkpt>
   <trkpt lat="-37.85064500158185" lon="145.33407000107826">
    <ele>265.21</ele>
   </trkpt>
   <trkpt lat="-37.85051" lon="145.33468000000002">
    <ele>280.65</ele>
   </trkpt>
   <trkpt lat="-37.85051" lon="145.33530000000002">
    <ele>294.26</ele>
   </trkpt>
   <trkpt lat="-37.85063" lon="145.33599">
    <ele>306.27000000000004</ele>
   </trkpt>
   <trkpt lat="-37.85067" lon="145.33617">
    <ele>308.51</ele>
   </trkpt>
   <trkpt lat="-37.85074" lon="145.33634">
    <ele>310.42</ele>
   </trkpt>
   <trkpt lat="-37.85085" lon="145.33637000000002">
    <ele>310.65000000000003</ele>
   </trkpt>
   <trkpt lat="-37.85096" lon="145.33634">
    <ele>310.65000000000003</ele>
   </trkpt>
   <trkpt lat="-37.851060000000004" lon="145.33639000000002">
    <ele>310.65000000000003</ele>
   </trkpt>
   <trkpt lat="-37.85116" lon="145.33651">
    <ele>311.23</ele>
   </trkpt>
   <trkpt lat="-37.85139" lon="145.33696">
    <ele>315.12</ele>
   </trkpt>
   <trkpt lat="-37.85168" lon="145.33735000000001">
    <ele>316.82000000000005</ele>
   </trkpt>
   <trkpt lat="-37.85172" lon="145.33751">
    <ele>317.55</ele>
   </trkpt>
   <trkpt lat="-37.85177" lon="145.33761">
    <ele>317.83</ele>
   </trkpt>
   <trkpt lat="-37.8519" lon="145.33773000000002">
    <ele>317.8</ele>
   </trkpt>
   <trkpt lat="-37.85206" lon="145.33798000000002">
    <ele>317.42</ele>
   </trkpt>
   <trkpt lat="-37.85215" lon="145.33823">
    <ele>317.51</ele>
   </trkpt>
   <trkpt lat="-37.85233" lon="145.33851">
    <ele>315.02000000000004</ele>
   </trkpt>
   <trkpt lat="-37.8524" lon="145.33854000000002">
    <ele>314.34</ele>
   </trkpt>
   <trkpt lat="-37.85242" lon="145.33856">
    <ele>313.02000000000004</ele>
   </trkpt>
   <trkpt lat="-37.85293" lon="145.33818000000002">
    <ele>294.56000000000006</ele>
   </trkpt>
   <trkpt lat="-37.85304" lon="145.33812">
    <ele>290.58</ele>
   </trkpt>
   <trkpt lat="-37.85313" lon="145.33813">
    <ele>288.7</ele>
   </trkpt>
   <trkpt lat="-37.85327" lon="145.33823">
    <ele>287.74000000000007</ele>
   </trkpt>
   <trkpt lat="-37.85333" lon="145.33833">
    <ele>288.76</ele>
   </trkpt>
   <trkpt lat="-37.85333" lon="145.33871000000002">
    <ele>292.59000000000003</ele>
   </trkpt>
   <trkpt lat="-37.8534" lon="145.33894">
    <ele>294.32</ele>
   </trkpt>
   <trkpt lat="-37.853460000000005" lon="145.33943000000002">
    <ele>297.35</ele>
   </trkpt>
   <trkpt lat="-37.85354" lon="145.33974">
    <ele>297.72</ele>
   </trkpt>
   <trkpt lat="-37.85358" lon="145.33991">
    <ele>298.48</ele>
   </trkpt>
   <trkpt lat="-37.85365" lon="145.34067000000002">
    <ele>308.19</ele>
   </trkpt>
   <trkpt lat="-37.85374" lon="145.34099">
    <ele>311.3</ele>
   </trkpt>
   <trkpt lat="-37.85387" lon="145.34123000000002">
    <ele>310.82000000000005</ele>
   </trkpt>
   <trkpt lat="-37.85419" lon="145.34158000000002">
    <ele>307.96</ele>
   </trkpt>
   <trkpt lat="-37.85448" lon="145.34206">
    <ele>318.36</ele>
   </trkpt>
   <trkpt lat="-37.85468" lon="145.34225">
    <ele>327.40000000000003</ele>
   </trkpt>
   <trkpt lat="-37.85472" lon="145.34233">
    <ele>330.02000000000004</ele>
   </trkpt>
   <trkpt lat="-37.85474" lon="145.3426">
    <ele>333.66</ele>
   </trkpt>
   <trkpt lat="-37.854890000000005" lon="145.34286">
    <ele>338.53000000000003</ele>
   </trkpt>
   <trkpt lat="-37.85492" lon="145.34293000000002">
    <ele>339.01000000000005</ele>
   </trkpt>
   <trkpt lat="-37.85488" lon="145.34337000000002">
    <ele>345.02000000000004</ele>
   </trkpt>
   <trkpt lat="-37.8549" lon="145.34348">
    <ele>347.04</ele>
   </trkpt>
   <trkpt lat="-37.85492" lon="145.34354000000002">
    <ele>347.04</ele>
   </trkpt>
   <trkpt lat="-37.855050000000006" lon="145.34368">
    <ele>350.62000000000006</ele>
   </trkpt>
   <trkpt lat="-37.8551" lon="145.34404">
    <ele>353.6</ele>
   </trkpt>
   <trkpt lat="-37.85515" lon="145.34415">
    <ele>354.81</ele>
   </trkpt>
   <trkpt lat="-37.85528" lon="145.34457">
    <ele>354.77000000000004</ele>
   </trkpt>
   <trkpt lat="-37.85544" lon="145.34475">
    <ele>353.35</ele>
   </trkpt>
   <trkpt lat="-37.85553" lon="145.34492">
    <ele>353.02000000000004</ele>
   </trkpt>
   <trkpt lat="-37.85593" lon="145.34545">
    <ele>349.44</ele>
   </trkpt>
   <trkpt lat="-37.85609" lon="145.34559000000002">
    <ele>345.17</ele>
   </trkpt>
   <trkpt lat="-37.85622" lon="145.34578000000002">
    <ele>342.88</ele>
   </trkpt>
   <trkpt lat="-37.85663" lon="145.34618">
    <ele>333.07000000000005</ele>
   </trkpt>
   <trkpt lat="-37.85703" lon="145.34640000000002">
    <ele>330.21</ele>
   </trkpt>
   <trkpt lat="-37.8573" lon="145.34642000000002">
    <ele>332.27</ele>
   </trkpt>
   <trkpt lat="-37.8575" lon="145.34649000000002">
    <ele>333.6</ele>
   </trkpt>
   <trkpt lat="-37.857600000000005" lon="145.34657">
    <ele>335.55</ele>
   </trkpt>
   <trkpt lat="-37.85783" lon="145.34678000000002">
    <ele>339.99</ele>
   </trkpt>
   <trkpt lat="-37.85797" lon="145.34686000000002">
    <ele>340.93</ele>
   </trkpt>
   <trkpt lat="-37.85806" lon="145.34698">
    <ele>342.11</ele>
   </trkpt>
   <trkpt lat="-37.85833" lon="145.34718">
    <ele>346.15000000000003</ele>
   </trkpt>
   <trkpt lat="-37.85853" lon="145.34743">
    <ele>350.23</ele>
   </trkpt>
   <trkpt lat="-37.8586" lon="145.34761">
    <ele>351.92</ele>
   </trkpt>
   <trkpt lat="-37.85918" lon="145.3476">
    <ele>348.48</ele>
   </trkpt>
   <trkpt lat="-37.85931" lon="145.34758000000002">
    <ele>346.03</ele>
   </trkpt>
   <trkpt lat="-37.859370000000006" lon="145.34754">
    <ele>346.03</ele>
   </trkpt>
   <trkpt lat="-37.85942" lon="145.34772">
    <ele>351.98</ele>
   </trkpt>
   <trkpt lat="-37.859500000000004" lon="145.34782">
    <ele>358.45000000000005</ele>
   </trkpt>
   <trkpt lat="-37.85992" lon="145.34779">
    <ele>361.92</ele>
   </trkpt>
   <trkpt lat="-37.859930000000006" lon="145.34779">
    <ele>361.92</ele>
   </trkpt>
   <trkpt lat="-37.86027" lon="145.34776000000002">
    <ele>366.77000000000004</ele>
   </trkpt>
   <trkpt lat="-37.86032" lon="145.34775000000002">
    <ele>366.77000000000004</ele>
   </trkpt>
   <trkpt lat="-37.86068" lon="145.34759000000003">
    <ele>372.85</ele>
   </trkpt>
   <trkpt lat="-37.86097" lon="145.34757000000002">
    <ele>378.07</ele>
   </trkpt>
   <trkpt lat="-37.86101" lon="145.34763">
    <ele>379.58000000000004</ele>
   </trkpt>
   <trkpt lat="-37.86101" lon="145.34771">
    <ele>380.22</ele>
   </trkpt>
   <trkpt lat="-37.86097" lon="145.34788">
    <ele>381.79</ele>
   </trkpt>
   <trkpt lat="-37.86097" lon="145.34804000000003">
    <ele>383.18</ele>
   </trkpt>
   <trkpt lat="-37.86104" lon="145.34814">
    <ele>384.85</ele>
   </trkpt>
   <trkpt lat="-37.86112" lon="145.34822">
    <ele>386.31000000000006</ele>
   </trkpt>
   <trkpt lat="-37.86121" lon="145.34824">
    <ele>388.69000000000005</ele>
   </trkpt>
   <trkpt lat="-37.86128" lon="145.34822">
    <ele>389.43000000000006</ele>
   </trkpt>
   <trkpt lat="-37.86159" lon="145.34802000000002">
    <ele>392.72</ele>
   </trkpt>
   <trkpt lat="-37.86164" lon="145.34794000000002">
    <ele>393.5</ele>
   </trkpt>
   <trkpt lat="-37.86168" lon="145.34779">
    <ele>394.13000000000005</ele>
   </trkpt>
   <trkpt lat="-37.86162" lon="145.34753">
    <ele>396.17</ele>
   </trkpt>
   <trkpt lat="-37.86162" lon="145.34737">
    <ele>397.31000000000006</ele>
   </trkpt>
   <trkpt lat="-37.861790000000006" lon="145.34698">
    <ele>402.35</ele>
   </trkpt>
   <trkpt lat="-37.86186" lon="145.34658000000002">
    <ele>400.33</ele>
   </trkpt>
   <trkpt lat="-37.86193" lon="145.34642000000002">
    <ele>399.5</ele>
   </trkpt>
   <trkpt lat="-37.86202" lon="145.34712000000002">
    <ele>407.02000000000004</ele>
   </trkpt>
   <trkpt lat="-37.86206" lon="145.34726">
    <ele>410.1</ele>
   </trkpt>
   <trkpt lat="-37.8622" lon="145.34749000000002">
    <ele>413.36000000000007</ele>
   </trkpt>
   <trkpt lat="-37.862300000000005" lon="145.3476">
    <ele>414.15000000000003</ele>
   </trkpt>
   <trkpt lat="-37.8622" lon="145.34749000000002">
    <ele>413.36000000000007</ele>
   </trkpt>
   <trkpt lat="-37.86206" lon="145.34726">
    <ele>410.1</ele>
   </trkpt>
   <trkpt lat="-37.86202" lon="145.34712000000002">
    <ele>407.02000000000004</ele>
   </trkpt>
   <trkpt lat="-37.86193" lon="145.34642000000002">
    <ele>399.5</ele>
   </trkpt>
   <trkpt lat="-37.86186" lon="145.34658000000002">
    <ele>400.33</ele>
   </trkpt>
   <trkpt lat="-37.861790000000006" lon="145.34698">
    <ele>402.35</ele>
   </trkpt>
   <trkpt lat="-37.86186" lon="145.34747000000002">
    <ele>402.74</ele>
   </trkpt>
   <trkpt lat="-37.862115001274674" lon="145.34800999821977">
    <ele>402.12</ele>
   </trkpt>
   <trkpt lat="-37.862370000000006" lon="145.34855000000002">
    <ele>406.54</ele>
   </trkpt>
   <trkpt lat="-37.86238" lon="145.34883000000002">
    <ele>409.63000000000005</ele>
   </trkpt>
   <trkpt lat="-37.86236" lon="145.34893000000002">
    <ele>410.24000000000007</ele>
   </trkpt>
   <trkpt lat="-37.86224" lon="145.34912">
    <ele>414.59000000000003</ele>
   </trkpt>
   <trkpt lat="-37.86182" lon="145.34959">
    <ele>422.97</ele>
   </trkpt>
   <trkpt lat="-37.86166" lon="145.34982000000002">
    <ele>425.96000000000004</ele>
   </trkpt>
   <trkpt lat="-37.86135" lon="145.35045000000002">
    <ele>432.24</ele>
   </trkpt>
   <trkpt lat="-37.86115" lon="145.3511">
    <ele>442.00000000000006</ele>
   </trkpt>
   <trkpt lat="-37.86104" lon="145.35133000000002">
    <ele>443.83000000000004</ele>
   </trkpt>
   <trkpt lat="-37.860960000000006" lon="145.35146">
    <ele>446.59000000000003</ele>
   </trkpt>
   <trkpt lat="-37.860490000000006" lon="145.35181">
    <ele>455.18</ele>
   </trkpt>
   <trkpt lat="-37.86023" lon="145.35196000000002">
    <ele>460.65000000000003</ele>
   </trkpt>
   <trkpt lat="-37.85994" lon="145.35221">
    <ele>464.28000000000003</ele>
   </trkpt>
   <trkpt lat="-37.8596" lon="145.35241000000002">
    <ele>469.76</ele>
   </trkpt>
   <trkpt lat="-37.85945" lon="145.35244">
    <ele>470.99</ele>
   </trkpt>
   <trkpt lat="-37.8592" lon="145.35248">
    <ele>473.28000000000003</ele>
   </trkpt>
   <trkpt lat="-37.85851" lon="145.35268000000002">
    <ele>486.00000000000006</ele>
   </trkpt>
   <trkpt lat="-37.85815" lon="145.35273">
    <ele>488.77000000000004</ele>
   </trkpt>
   <trkpt lat="-37.857635000010575" lon="145.35270499982573">
    <ele>496.91</ele>
   </trkpt>
   <trkpt lat="-37.85712" lon="145.35268000000002">
    <ele>501.24</ele>
   </trkpt>
   <trkpt lat="-37.85701" lon="145.35266000000001">
    <ele>503.8</ele>
   </trkpt>
   <trkpt lat="-37.85683" lon="145.35260000000002">
    <ele>505.55000000000007</ele>
   </trkpt>
   <trkpt lat="-37.85636" lon="145.35252">
    <ele>507.21000000000004</ele>
   </trkpt>
   <trkpt lat="-37.85622" lon="145.35247">
    <ele>506.17</ele>
   </trkpt>
   <trkpt lat="-37.85614" lon="145.35240000000002">
    <ele>505.18000000000006</ele>
   </trkpt>
   <trkpt lat="-37.85584" lon="145.35198000000003">
    <ele>496.58</ele>
   </trkpt>
   <trkpt lat="-37.855470000000004" lon="145.35148">
    <ele>488.12000000000006</ele>
   </trkpt>
   <trkpt lat="-37.85507500121872" lon="145.3509249969086">
    <ele>479.81</ele>
   </trkpt>
   <trkpt lat="-37.85468" lon="145.35037">
    <ele>470.16</ele>
   </trkpt>
   <trkpt lat="-37.85419" lon="145.34983000000003">
    <ele>456.87000000000006</ele>
   </trkpt>
   <trkpt lat="-37.853860000000005" lon="145.34941">
    <ele>449.5</ele>
   </trkpt>
   <trkpt lat="-37.853730000000006" lon="145.34919000000002">
    <ele>447.67</ele>
   </trkpt>
   <trkpt lat="-37.85349" lon="145.34869">
    <ele>443.51</ele>
   </trkpt>
   <trkpt lat="-37.85343" lon="145.34844">
    <ele>434.81</ele>
   </trkpt>
   <trkpt lat="-37.853440000000006" lon="145.34834">
    <ele>434.65000000000003</ele>
   </trkpt>
   <trkpt lat="-37.85329" lon="145.34838000000002">
    <ele>432.35</ele>
   </trkpt>
   <trkpt lat="-37.85298" lon="145.34869">
    <ele>426.24</ele>
   </trkpt>
   <trkpt lat="-37.85284" lon="145.34871">
    <ele>424.03000000000003</ele>
   </trkpt>
   <trkpt lat="-37.85262" lon="145.34889">
    <ele>414.14</ele>
   </trkpt>
   <trkpt lat="-37.85246" lon="145.34893000000002">
    <ele>411.6</ele>
   </trkpt>
   <trkpt lat="-37.85237" lon="145.34899000000001">
    <ele>407.40000000000003</ele>
   </trkpt>
   <trkpt lat="-37.852380000000004" lon="145.34899000000001">
    <ele>407.72</ele>
   </trkpt>
   <trkpt lat="-37.85195" lon="145.34931">
    <ele>391.21000000000004</ele>
   </trkpt>
   <trkpt lat="-37.85116" lon="145.34979">
    <ele>361.09000000000003</ele>
   </trkpt>
   <trkpt lat="-37.85105" lon="145.34977">
    <ele>358.17</ele>
   </trkpt>
   <trkpt lat="-37.85098" lon="145.34968">
    <ele>353.33000000000004</ele>
   </trkpt>
   <trkpt lat="-37.8508" lon="145.34936000000002">
    <ele>344.2</ele>
   </trkpt>
   <trkpt lat="-37.851000000000006" lon="145.3497">
    <ele>355.93</ele>
   </trkpt>
   <trkpt lat="-37.8508" lon="145.34936000000002">
    <ele>344.2</ele>
   </trkpt>
   <trkpt lat="-37.8506" lon="145.34881000000001">
    <ele>338.06</ele>
   </trkpt>
   <trkpt lat="-37.85033" lon="145.34821000000002">
    <ele>329.46000000000004</ele>
   </trkpt>
   <trkpt lat="-37.85007" lon="145.34765000000002">
    <ele>320.69</ele>
   </trkpt>
   <trkpt lat="-37.84975" lon="145.34712000000002">
    <ele>312.03000000000003</ele>
   </trkpt>
   <trkpt lat="-37.84964" lon="145.34674">
    <ele>308.86</ele>
   </trkpt>
   <trkpt lat="-37.84937" lon="145.34567">
    <ele>298.91</ele>
   </trkpt>
   <trkpt lat="-37.84906" lon="145.34485">
    <ele>285.61</ele>
   </trkpt>
   <trkpt lat="-37.84895" lon="145.34452000000002">
    <ele>279.80000000000007</ele>
   </trkpt>
   <trkpt lat="-37.84886" lon="145.34412">
    <ele>272.95000000000005</ele>
   </trkpt>
   <trkpt lat="-37.84875" lon="145.34361">
    <ele>268.0</ele>
   </trkpt>
   <trkpt lat="-37.84868" lon="145.34415">
    <ele>268.33</ele>
   </trkpt>
   <trkpt lat="-37.84861" lon="145.34492">
    <ele>269.71</ele>
   </trkpt>
   <trkpt lat="-37.848600001896216" lon="145.34559000020948">
    <ele>272.29</ele>
   </trkpt>
   <trkpt lat="-37.84859" lon="145.34626">
    <ele>276.26</ele>
   </trkpt>
   <trkpt lat="-37.84857" lon="145.34639">
    <ele>277.24</ele>
   </trkpt>
   <trkpt lat="-37.84854" lon="145.34643">
    <ele>277.24</ele>
   </trkpt>
   <trkpt lat="-37.84848" lon="145.34639">
    <ele>278.90000000000003</ele>
   </trkpt>
   <trkpt lat="-37.848200000000006" lon="145.3459">
    <ele>282.2</ele>
   </trkpt>
   <trkpt lat="-37.84798" lon="145.34563">
    <ele>285.27000000000004</ele>
   </trkpt>
   <trkpt lat="-37.84789" lon="145.34557">
    <ele>285.27000000000004</ele>
   </trkpt>
   <trkpt lat="-37.84781" lon="145.34555">
    <ele>286.86</ele>
   </trkpt>
   <trkpt lat="-37.84756" lon="145.34556">
    <ele>288.16</ele>
   </trkpt>
   <trkpt lat="-37.84745" lon="145.34555">
    <ele>288.49</ele>
   </trkpt>
   <trkpt lat="-37.84731" lon="145.34550000000002">
    <ele>288.68000000000006</ele>
   </trkpt>
   <trkpt lat="-37.84722" lon="145.34541000000002">
    <ele>288.68000000000006</ele>
   </trkpt>
   <trkpt lat="-37.847170000000006" lon="145.34528">
    <ele>288.62000000000006</ele>
   </trkpt>
   <trkpt lat="-37.84707" lon="145.34496000000001">
    <ele>287.86</ele>
   </trkpt>
   <trkpt lat="-37.84707" lon="145.34472000000002">
    <ele>287.8</ele>
   </trkpt>
   <trkpt lat="-37.84716" lon="145.34429">
    <ele>289.84999999999997</ele>
   </trkpt>
   <trkpt lat="-37.8472" lon="145.34408000000002">
    <ele>291.42</ele>
   </trkpt>
   <trkpt lat="-37.84718" lon="145.34387">
    <ele>291.72</ele>
   </trkpt>
   <trkpt lat="-37.847170000000006" lon="145.34381000000002">
    <ele>292.77000000000004</ele>
   </trkpt>
   <trkpt lat="-37.84709" lon="145.34374000000003">
    <ele>293.06000000000006</ele>
   </trkpt>
   <trkpt lat="-37.84702" lon="145.34371000000002">
    <ele>293.37</ele>
   </trkpt>
   <trkpt lat="-37.84691" lon="145.34377">
    <ele>294.59000000000003</ele>
   </trkpt>
   <trkpt lat="-37.84666" lon="145.3442">
    <ele>299.64</ele>
   </trkpt>
   <trkpt lat="-37.84657" lon="145.34428">
    <ele>301.58</ele>
   </trkpt>
   <trkpt lat="-37.84642" lon="145.34432">
    <ele>303.01</ele>
   </trkpt>
   <trkpt lat="-37.84599" lon="145.34422">
    <ele>313.21000000000004</ele>
   </trkpt>
   <trkpt lat="-37.84579" lon="145.34413">
    <ele>314.71000000000004</ele>
   </trkpt>
   <trkpt lat="-37.84568" lon="145.34411">
    <ele>316.26000000000005</ele>
   </trkpt>
   <trkpt lat="-37.8457" lon="145.34397">
    <ele>317.62</ele>
   </trkpt>
   <trkpt lat="-37.8457" lon="145.34371000000002">
    <ele>320.99000000000007</ele>
   </trkpt>
   <trkpt lat="-37.84561" lon="145.34342">
    <ele>322.24</ele>
   </trkpt>
   <trkpt lat="-37.8455" lon="145.34315">
    <ele>323.59000000000003</ele>
   </trkpt>
   <trkpt lat="-37.84535" lon="145.34268">
    <ele>323.42</ele>
   </trkpt>
   <trkpt lat="-37.84532" lon="145.34259">
    <ele>322.96000000000004</ele>
   </trkpt>
   <trkpt lat="-37.8451" lon="145.34224">
    <ele>320.99000000000007</ele>
   </trkpt>
   <trkpt lat="-37.84496" lon="145.34209">
    <ele>320.55</ele>
   </trkpt>
   <trkpt lat="-37.84451500060959" lon="145.3417299978776">
    <ele>319.28000000000003</ele>
   </trkpt>
   <trkpt lat="-37.84407" lon="145.34137">
    <ele>317.45</ele>
   </trkpt>
   <trkpt lat="-37.8438" lon="145.34104000000002">
    <ele>316.51</ele>
   </trkpt>
   <trkpt lat="-37.84364" lon="145.34095000000002">
    <ele>315.81</ele>
   </trkpt>
   <trkpt lat="-37.843630000000005" lon="145.34095000000002">
    <ele>315.78</ele>
   </trkpt>
   <trkpt lat="-37.84348" lon="145.34089">
    <ele>315.56</ele>
   </trkpt>
   <trkpt lat="-37.84297" lon="145.34079">
    <ele>314.76000000000005</ele>
   </trkpt>
   <trkpt lat="-37.84275" lon="145.3407">
    <ele>314.07</ele>
   </trkpt>
   <trkpt lat="-37.84252" lon="145.34050000000002">
    <ele>312.45</ele>
   </trkpt>
   <trkpt lat="-37.84232" lon="145.34022000000002">
    <ele>308.77000000000004</ele>
   </trkpt>
   <trkpt lat="-37.84225" lon="145.34014000000002">
    <ele>308.44000000000005</ele>
   </trkpt>
   <trkpt lat="-37.8421" lon="145.33983">
    <ele>307.91</ele>
   </trkpt>
   <trkpt lat="-37.841950000000004" lon="145.33969000000002">
    <ele>307.22</ele>
   </trkpt>
   <trkpt lat="-37.84178" lon="145.33959000000002">
    <ele>307.19</ele>
   </trkpt>
   <trkpt lat="-37.8416" lon="145.33959000000002">
    <ele>307.94000000000005</ele>
   </trkpt>
   <trkpt lat="-37.84143" lon="145.33965">
    <ele>309.37</ele>
   </trkpt>
   <trkpt lat="-37.84107" lon="145.33980000000003">
    <ele>314.6</ele>
   </trkpt>
   <trkpt lat="-37.841060000000006" lon="145.33981">
    <ele>314.71999999999997</ele>
   </trkpt>
   <trkpt lat="-37.84098" lon="145.33985">
    <ele>315.65000000000003</ele>
   </trkpt>
   <trkpt lat="-37.84069" lon="145.33977000000002">
    <ele>317.21999999999997</ele>
   </trkpt>
   <trkpt lat="-37.84042" lon="145.33958">
    <ele>320.15000000000003</ele>
   </trkpt>
   <trkpt lat="-37.84015" lon="145.33934000000002">
    <ele>326.99</ele>
   </trkpt>
   <trkpt lat="-37.83977" lon="145.33871000000002">
    <ele>333.69000000000005</ele>
   </trkpt>
   <trkpt lat="-37.83961" lon="145.33852000000002">
    <ele>334.82</ele>
   </trkpt>
   <trkpt lat="-37.83928" lon="145.33822">
    <ele>334.32</ele>
   </trkpt>
   <trkpt lat="-37.83885" lon="145.33808000000002">
    <ele>331.1</ele>
   </trkpt>
   <trkpt lat="-37.83847" lon="145.33802">
    <ele>331.65</ele>
   </trkpt>
   <trkpt lat="-37.838300000000004" lon="145.33801000000003">
    <ele>332.97</ele>
   </trkpt>
   <trkpt lat="-37.83809" lon="145.33800000000002">
    <ele>335.61</ele>
   </trkpt>
   <trkpt lat="-37.83766" lon="145.33823">
    <ele>344.80000000000007</ele>
   </trkpt>
   <trkpt lat="-37.836940000000006" lon="145.33883">
    <ele>357.67</ele>
   </trkpt>
   <trkpt lat="-37.83677" lon="145.339">
    <ele>359.28000000000003</ele>
   </trkpt>
   <trkpt lat="-37.83625" lon="145.33926000000002">
    <ele>359.90000000000003</ele>
   </trkpt>
   <trkpt lat="-37.83606" lon="145.3394">
    <ele>359.47</ele>
   </trkpt>
   <trkpt lat="-37.83576" lon="145.33959000000002">
    <ele>355.94000000000005</ele>
   </trkpt>
   <trkpt lat="-37.83527" lon="145.33983">
    <ele>347.80000000000007</ele>
   </trkpt>
   <trkpt lat="-37.835280000000004" lon="145.33983">
    <ele>348.0</ele>
   </trkpt>
   <trkpt lat="-37.835150000000006" lon="145.33989000000003">
    <ele>345.96000000000004</ele>
   </trkpt>
   <trkpt lat="-37.83475" lon="145.34023000000002">
    <ele>339.47</ele>
   </trkpt>
   <trkpt lat="-37.83442" lon="145.34049000000002">
    <ele>344.6</ele>
   </trkpt>
   <trkpt lat="-37.83415" lon="145.34074">
    <ele>346.88</ele>
   </trkpt>
   <trkpt lat="-37.83397" lon="145.34079">
    <ele>343.68</ele>
   </trkpt>
   <trkpt lat="-37.83357" lon="145.34077000000002">
    <ele>333.71</ele>
   </trkpt>
   <trkpt lat="-37.83337" lon="145.34082">
    <ele>330.24</ele>
   </trkpt>
   <trkpt lat="-37.83323" lon="145.34098">
    <ele>329.25000000000006</ele>
   </trkpt>
   <trkpt lat="-37.83301" lon="145.34152">
    <ele>329.33</ele>
   </trkpt>
   <trkpt lat="-37.8327" lon="145.34184000000002">
    <ele>327.03000000000003</ele>
   </trkpt>
   <trkpt lat="-37.83238" lon="145.34191">
    <ele>329.62</ele>
   </trkpt>
   <trkpt lat="-37.8322" lon="145.34199">
    <ele>330.45</ele>
   </trkpt>
   <trkpt lat="-37.83221" lon="145.34198">
    <ele>330.39</ele>
   </trkpt>
   <trkpt lat="-37.83238" lon="145.34191">
    <ele>329.62</ele>
   </trkpt>
   <trkpt lat="-37.83243" lon="145.34215">
    <ele>338.2</ele>
   </trkpt>
   <trkpt lat="-37.83245" lon="145.34245">
    <ele>345.79</ele>
   </trkpt>
   <trkpt lat="-37.83249" lon="145.34262">
    <ele>355.82</ele>
   </trkpt>
   <trkpt lat="-37.83249" lon="145.34288">
    <ele>362.18</ele>
   </trkpt>
   <trkpt lat="-37.83261" lon="145.34326000000001">
    <ele>379.70000000000005</ele>
   </trkpt>
   <trkpt lat="-37.83258" lon="145.34358">
    <ele>389.12</ele>
   </trkpt>
   <trkpt lat="-37.83261" lon="145.34380000000002">
    <ele>396.44</ele>
   </trkpt>
   <trkpt lat="-37.83267" lon="145.34406">
    <ele>411.36000000000007</ele>
   </trkpt>
   <trkpt lat="-37.83276" lon="145.34487000000001">
    <ele>445.52000000000004</ele>
   </trkpt>
   <trkpt lat="-37.83279" lon="145.34539">
    <ele>461.77</ele>
   </trkpt>
   <trkpt lat="-37.832800000000006" lon="145.34541000000002">
    <ele>461.77</ele>
   </trkpt>
   <trkpt lat="-37.83283" lon="145.34573">
    <ele>477.37</ele>
   </trkpt>
   <trkpt lat="-37.83283" lon="145.34615000000002">
    <ele>493.34000000000003</ele>
   </trkpt>
   <trkpt lat="-37.83294" lon="145.34682">
    <ele>532.3</ele>
   </trkpt>
   <trkpt lat="-37.83294" lon="145.347">
    <ele>540.3</ele>
   </trkpt>
   <trkpt lat="-37.833000000000006" lon="145.34723000000002">
    <ele>545.46</ele>
   </trkpt>
   <trkpt lat="-37.833110000000005" lon="145.34797">
    <ele>579.67</ele>
   </trkpt>
   <trkpt lat="-37.833270000000006" lon="145.34803000000002">
    <ele>587.2400000000001</ele>
   </trkpt>
   <trkpt lat="-37.83346" lon="145.34808">
    <ele>595.53</ele>
   </trkpt>
   <trkpt lat="-37.833330000000004" lon="145.3484">
    <ele>596.14</ele>
   </trkpt>
   <trkpt lat="-37.83323" lon="145.34911000000002">
    <ele>591.6</ele>
   </trkpt>
   <trkpt lat="-37.83296" lon="145.34934">
    <ele>587.83</ele>
   </trkpt>
   <trkpt lat="-37.83287" lon="145.34947000000003">
    <ele>586.61</ele>
   </trkpt>
   <trkpt lat="-37.83274" lon="145.34954000000002">
    <ele>586.09</ele>
   </trkpt>
   <trkpt lat="-37.83267" lon="145.34969">
    <ele>585.47</ele>
   </trkpt>
   <trkpt lat="-37.83231" lon="145.35010000000003">
    <ele>577.88</ele>
   </trkpt>
   <trkpt lat="-37.83196" lon="145.35046">
    <ele>569.8000000000001</ele>
   </trkpt>
   <trkpt lat="-37.83162" lon="145.35071000000002">
    <ele>561.44</ele>
   </trkpt>
   <trkpt lat="-37.83122" lon="145.35091">
    <ele>555.71</ele>
   </trkpt>
   <trkpt lat="-37.83102" lon="145.35095">
    <ele>555.3100000000001</ele>
   </trkpt>
   <trkpt lat="-37.831010000000006" lon="145.35095">
    <ele>555.3299999999999</ele>
   </trkpt>
   <trkpt lat="-37.83122" lon="145.35091">
    <ele>555.71</ele>
   </trkpt>
   <trkpt lat="-37.83162" lon="145.35071000000002">
    <ele>561.44</ele>
   </trkpt>
   <trkpt lat="-37.83196" lon="145.35046">
    <ele>569.8000000000001</ele>
   </trkpt>
   <trkpt lat="-37.83231" lon="145.35010000000003">
    <ele>577.88</ele>
   </trkpt>
   <trkpt lat="-37.83267" lon="145.34969">
    <ele>585.47</ele>
   </trkpt>
   <trkpt lat="-37.83274" lon="145.34954000000002">
    <ele>586.09</ele>
   </trkpt>
   <trkpt lat="-37.83287" lon="145.34947000000003">
    <ele>586.87</ele>
   </trkpt>
   <trkpt lat="-37.83296" lon="145.34934">
    <ele>587.83</ele>
   </trkpt>
   <trkpt lat="-37.83323" lon="145.34911000000002">
    <ele>591.6</ele>
   </trkpt>
   <trkpt lat="-37.833330000000004" lon="145.3484">
    <ele>596.14</ele>
   </trkpt>
   <trkpt lat="-37.83346" lon="145.34808">
    <ele>595.53</ele>
   </trkpt>
   <trkpt lat="-37.83379500052499" lon="145.34767500204265">
    <ele>597.98</ele>
   </trkpt>
   <trkpt lat="-37.83413" lon="145.34727">
    <ele>597.49</ele>
   </trkpt>
   <trkpt lat="-37.834410000000005" lon="145.34702000000001">
    <ele>597.31</ele>
   </trkpt>
   <trkpt lat="-37.83442" lon="145.34702000000001">
    <ele>597.32</ele>
   </trkpt>
   <trkpt lat="-37.83487" lon="145.34681">
    <ele>597.16</ele>
   </trkpt>
   <trkpt lat="-37.835150000000006" lon="145.34676000000002">
    <ele>597.98</ele>
   </trkpt>
   <trkpt lat="-37.835730000000005" lon="145.34658000000002">
    <ele>601.3900000000001</ele>
   </trkpt>
   <trkpt lat="-37.83574" lon="145.34658000000002">
    <ele>601.36</ele>
   </trkpt>
   <trkpt lat="-37.83601" lon="145.34655">
    <ele>604.5400000000001</ele>
   </trkpt>
   <trkpt lat="-37.8363" lon="145.34654">
    <ele>606.86</ele>
   </trkpt>
   <trkpt lat="-37.83668" lon="145.34659000000002">
    <ele>611.35</ele>
   </trkpt>
   <trkpt lat="-37.83681" lon="145.34658000000002">
    <ele>611.0699999999999</ele>
   </trkpt>
   <trkpt lat="-37.83699" lon="145.34654">
    <ele>608.89</ele>
   </trkpt>
   <trkpt lat="-37.83706" lon="145.34649000000002">
    <ele>608.0300000000001</ele>
   </trkpt>
   <trkpt lat="-37.83726" lon="145.34629">
    <ele>600.6700000000001</ele>
   </trkpt>
   <trkpt lat="-37.83733" lon="145.34626">
    <ele>600.6700000000001</ele>
   </trkpt>
   <trkpt lat="-37.8376" lon="145.34623000000002">
    <ele>594.23</ele>
   </trkpt>
   <trkpt lat="-37.83771" lon="145.34619">
    <ele>592.1800000000001</ele>
   </trkpt>
   <trkpt lat="-37.83791" lon="145.34608">
    <ele>585.0200000000001</ele>
   </trkpt>
   <trkpt lat="-37.83813" lon="145.34605000000002">
    <ele>580.2400000000001</ele>
   </trkpt>
   <trkpt lat="-37.83834" lon="145.34596000000002">
    <ele>572.1</ele>
   </trkpt>
   <trkpt lat="-37.83843" lon="145.34587000000002">
    <ele>569.52</ele>
   </trkpt>
   <trkpt lat="-37.83856" lon="145.34584">
    <ele>566.52</ele>
   </trkpt>
   <trkpt lat="-37.83872" lon="145.34589000000003">
    <ele>565.09</ele>
   </trkpt>
   <trkpt lat="-37.83896" lon="145.34608">
    <ele>565.18</ele>
   </trkpt>
   <trkpt lat="-37.83912" lon="145.34611">
    <ele>563.64</ele>
   </trkpt>
   <trkpt lat="-37.83979" lon="145.34601">
    <ele>549.58</ele>
   </trkpt>
   <trkpt lat="-37.84004" lon="145.34603">
    <ele>543.6899999999999</ele>
   </trkpt>
   <trkpt lat="-37.84013" lon="145.34605000000002">
    <ele>542.22</ele>
   </trkpt>
   <trkpt lat="-37.84033" lon="145.34614000000002">
    <ele>538.96</ele>
   </trkpt>
   <trkpt lat="-37.84035" lon="145.34613000000002">
    <ele>538.96</ele>
   </trkpt>
   <trkpt lat="-37.84035" lon="145.34608">
    <ele>538.96</ele>
   </trkpt>
   <trkpt lat="-37.84004" lon="145.34539">
    <ele>529.58</ele>
   </trkpt>
   <trkpt lat="-37.83977" lon="145.34502">
    <ele>519.7</ele>
   </trkpt>
   <trkpt lat="-37.83977" lon="145.34496000000001">
    <ele>515.49</ele>
   </trkpt>
   <trkpt lat="-37.83979" lon="145.34494">
    <ele>515.49</ele>
   </trkpt>
   <trkpt lat="-37.840180000000004" lon="145.34494">
    <ele>510.13000000000005</ele>
   </trkpt>
   <trkpt lat="-37.84053" lon="145.34499000000002">
    <ele>502.71</ele>
   </trkpt>
   <trkpt lat="-37.84082" lon="145.34505000000001">
    <ele>501.37000000000006</ele>
   </trkpt>
   <trkpt lat="-37.84118" lon="145.34518">
    <ele>495.27000000000004</ele>
   </trkpt>
   <trkpt lat="-37.84122" lon="145.34518">
    <ele>492.07000000000005</ele>
   </trkpt>
   <trkpt lat="-37.8412" lon="145.34506000000002">
    <ele>492.07000000000005</ele>
   </trkpt>
   <trkpt lat="-37.84066" lon="145.34425000000002">
    <ele>474.93</ele>
   </trkpt>
   <trkpt lat="-37.84051" lon="145.34409000000002">
    <ele>471.78000000000003</ele>
   </trkpt>
   <trkpt lat="-37.84028" lon="145.34392000000003">
    <ele>467.95000000000005</ele>
   </trkpt>
   <trkpt lat="-37.84024" lon="145.34384">
    <ele>466.53000000000003</ele>
   </trkpt>
   <trkpt lat="-37.84057" lon="145.34386">
    <ele>463.52000000000004</ele>
   </trkpt>
   <trkpt lat="-37.84091" lon="145.34394">
    <ele>460.71000000000004</ele>
   </trkpt>
   <trkpt lat="-37.84125" lon="145.34408000000002">
    <ele>457.12</ele>
   </trkpt>
   <trkpt lat="-37.84163" lon="145.34426000000002">
    <ele>455.25000000000006</ele>
   </trkpt>
   <trkpt lat="-37.84183" lon="145.34441">
    <ele>453.98</ele>
   </trkpt>
   <trkpt lat="-37.842040000000004" lon="145.34463000000002">
    <ele>453.43000000000006</ele>
   </trkpt>
   <trkpt lat="-37.84223" lon="145.34454000000002">
    <ele>447.99000000000007</ele>
   </trkpt>
   <trkpt lat="-37.842560000000006" lon="145.34428">
    <ele>428.58</ele>
   </trkpt>
   <trkpt lat="-37.84257" lon="145.34427000000002">
    <ele>428.19</ele>
   </trkpt>
   <trkpt lat="-37.8427" lon="145.34416000000002">
    <ele>425.57000000000005</ele>
   </trkpt>
   <trkpt lat="-37.84281" lon="145.34412">
    <ele>417.04</ele>
   </trkpt>
   <trkpt lat="-37.84288" lon="145.34407000000002">
    <ele>413.80000000000007</ele>
   </trkpt>
   <trkpt lat="-37.84304" lon="145.34381000000002">
    <ele>407.51000000000005</ele>
   </trkpt>
   <trkpt lat="-37.84348" lon="145.34359">
    <ele>389.42</ele>
   </trkpt>
   <trkpt lat="-37.84371" lon="145.34359">
    <ele>383.0</ele>
   </trkpt>
   <trkpt lat="-37.84378" lon="145.34388">
    <ele>379.05000000000007</ele>
   </trkpt>
   <trkpt lat="-37.84373" lon="145.34419000000003">
    <ele>374.72</ele>
   </trkpt>
   <trkpt lat="-37.843790000000006" lon="145.34432">
    <ele>370.22</ele>
   </trkpt>
   <trkpt lat="-37.844" lon="145.34427000000002">
    <ele>365.01000000000005</ele>
   </trkpt>
   <trkpt lat="-37.84422" lon="145.3443">
    <ele>361.27000000000004</ele>
   </trkpt>
   <trkpt lat="-37.84416" lon="145.34442">
    <ele>359.79</ele>
   </trkpt>
   <trkpt lat="-37.84416" lon="145.34455">
    <ele>357.90000000000003</ele>
   </trkpt>
   <trkpt lat="-37.8442" lon="145.34464">
    <ele>356.39000000000004</ele>
   </trkpt>
   <trkpt lat="-37.84427" lon="145.34468">
    <ele>354.55</ele>
   </trkpt>
   <trkpt lat="-37.84436" lon="145.34470000000002">
    <ele>353.50000000000006</ele>
   </trkpt>
   <trkpt lat="-37.84451" lon="145.34465">
    <ele>349.02000000000004</ele>
   </trkpt>
   <trkpt lat="-37.84469" lon="145.34469">
    <ele>343.59</ele>
   </trkpt>
   <trkpt lat="-37.84496" lon="145.34451">
    <ele>341.45000000000005</ele>
   </trkpt>
   <trkpt lat="-37.84514" lon="145.34376">
    <ele>337.52000000000004</ele>
   </trkpt>
   <trkpt lat="-37.8455" lon="145.34315">
    <ele>323.59000000000003</ele>
   </trkpt>
   <trkpt lat="-37.84561" lon="145.34342">
    <ele>322.24</ele>
   </trkpt>
   <trkpt lat="-37.8457" lon="145.34371000000002">
    <ele>320.99000000000007</ele>
   </trkpt>
   <trkpt lat="-37.8457" lon="145.34397">
    <ele>317.62</ele>
   </trkpt>
   <trkpt lat="-37.84568" lon="145.34411">
    <ele>316.26000000000005</ele>
   </trkpt>
   <trkpt lat="-37.84579" lon="145.34413">
    <ele>314.71000000000004</ele>
   </trkpt>
   <trkpt lat="-37.84595" lon="145.34419000000003">
    <ele>312.07</ele>
   </trkpt>
   <trkpt lat="-37.845890000000004" lon="145.34417000000002">
    <ele>312.56</ele>
   </trkpt>
   <trkpt lat="-37.84599" lon="145.34422">
    <ele>312.56</ele>
   </trkpt>
   <trkpt lat="-37.84642" lon="145.34432">
    <ele>303.01</ele>
   </trkpt>
   <trkpt lat="-37.84657" lon="145.34428">
    <ele>300.9</ele>
   </trkpt>
   <trkpt lat="-37.84666" lon="145.3442">
    <ele>299.64</ele>
   </trkpt>
   <trkpt lat="-37.84691" lon="145.34377">
    <ele>294.59000000000003</ele>
   </trkpt>
   <trkpt lat="-37.84702" lon="145.34371000000002">
    <ele>293.37</ele>
   </trkpt>
   <trkpt lat="-37.84709" lon="145.34374000000003">
    <ele>292.77000000000004</ele>
   </trkpt>
   <trkpt lat="-37.847170000000006" lon="145.34381000000002">
    <ele>292.77000000000004</ele>
   </trkpt>
   <trkpt lat="-37.84718" lon="145.34387">
    <ele>291.72</ele>
   </trkpt>
   <trkpt lat="-37.8472" lon="145.34408000000002">
    <ele>290.46000000000004</ele>
   </trkpt>
   <trkpt lat="-37.84716" lon="145.34429">
    <ele>289.84999999999997</ele>
   </trkpt>
  </trkseg>
 </trk>
</gpx>
