<?xml version="1.0" encoding="UTF-8"?>
<gpx creator="StravaGPX" version="1.1" xmlns="http://www.topografix.com/GPX/1/1" xmlns:xsi="http://www.w3.org/2001/XMLSchema-instance" xsi:schemaLocation="http://www.topografix.com/GPX/1/1 http://www.topografix.com/GPX/1/1/gpx.xsd">
 <metadata>
  <name>DTR RCR fron Stables</name>
  <author>
   <name>john csorgo</name>
  </author>
  <copyright author="OpenStreetMap contributors">
   <year>2020</year>
   <license>https://www.openstreetmap.org/copyright</license>
  </copyright>
 </metadata>
 <trk>
  <name>DTR RCR fron Stables</name>
  <link href=""/>
  <type>running</type>
  <trkseg>
   <trkpt lat="-37.84716" lon="145.34429">
    <ele>289.84999999999997</ele>
   </trkpt>
   <trkpt lat="-37.8472" lon="145.34408000000002">
    <ele>291.42</ele>
   </trkpt>
   <trkpt lat="-37.84718" lon="145.34387">
    <ele>291.72</ele>
   </trkpt>
   <trkpt lat="-37.847170000000006" lon="145.34381000000002">
    <ele>292.77000000000004</ele>
   </trkpt>
   <trkpt lat="-37.84709" lon="145.34374000000003">
    <ele>293.06000000000006</ele>
   </trkpt>
   <trkpt lat="-37.84702" lon="145.34371000000002">
    <ele>293.37</ele>
   </trkpt>
   <trkpt lat="-37.84691" lon="145.34377">
    <ele>294.59000000000003</ele>
   </trkpt>
   <trkpt lat="-37.84666" lon="145.3442">
    <ele>299.64</ele>
   </trkpt>
   <trkpt lat="-37.84657" lon="145.34428">
    <ele>301.58</ele>
   </trkpt>
   <trkpt lat="-37.84642" lon="145.34432">
    <ele>303.01</ele>
   </trkpt>
   <trkpt lat="-37.84599" lon="145.34422">
    <ele>312.98</ele>
   </trkpt>
   <trkpt lat="-37.845870000000005" lon="145.34416000000002">
    <ele>312.98</ele>
   </trkpt>
   <trkpt lat="-37.845890000000004" lon="145.34417000000002">
    <ele>312.98</ele>
   </trkpt>
   <trkpt lat="-37.84579" lon="145.34413">
    <ele>314.71000000000004</ele>
   </trkpt>
   <trkpt lat="-37.84568" lon="145.34411">
    <ele>316.26000000000005</ele>
   </trkpt>
   <trkpt lat="-37.84559" lon="145.34419000000003">
    <ele>318.43000000000006</ele>
   </trkpt>
   <trkpt lat="-37.84557" lon="145.34426000000002">
    <ele>319.07</ele>
   </trkpt>
   <trkpt lat="-37.84559" lon="145.34452000000002">
    <ele>321.87000000000006</ele>
   </trkpt>
   <trkpt lat="-37.8457" lon="145.34482">
    <ele>324.79</ele>
   </trkpt>
   <trkpt lat="-37.84586" lon="145.34505000000001">
    <ele>326.0</ele>
   </trkpt>
   <trkpt lat="-37.84597" lon="145.34538">
    <ele>327.13000000000005</ele>
   </trkpt>
   <trkpt lat="-37.84595" lon="145.34548">
    <ele>327.83</ele>
   </trkpt>
   <trkpt lat="-37.8459" lon="145.34558">
    <ele>328.23</ele>
   </trkpt>
   <trkpt lat="-37.84572" lon="145.34585">
    <ele>333.5</ele>
   </trkpt>
   <trkpt lat="-37.84561" lon="145.34591">
    <ele>335.36</ele>
   </trkpt>
   <trkpt lat="-37.84548" lon="145.34592">
    <ele>337.88</ele>
   </trkpt>
   <trkpt lat="-37.84543" lon="145.3459">
    <ele>337.88</ele>
   </trkpt>
   <trkpt lat="-37.84519" lon="145.34607000000003">
    <ele>344.22</ele>
   </trkpt>
   <trkpt lat="-37.845060000000004" lon="145.34613000000002">
    <ele>348.82</ele>
   </trkpt>
   <trkpt lat="-37.84445" lon="145.34615000000002">
    <ele>360.63</ele>
   </trkpt>
   <trkpt lat="-37.84418" lon="145.34607000000003">
    <ele>364.3</ele>
   </trkpt>
   <trkpt lat="-37.84411" lon="145.34599">
    <ele>365.14</ele>
   </trkpt>
   <trkpt lat="-37.84398" lon="145.34587000000002">
    <ele>368.27000000000004</ele>
   </trkpt>
   <trkpt lat="-37.84393" lon="145.34585">
    <ele>370.81</ele>
   </trkpt>
   <trkpt lat="-37.843880000000006" lon="145.34591">
    <ele>370.81</ele>
   </trkpt>
   <trkpt lat="-37.8438" lon="145.34609">
    <ele>374.32000000000005</ele>
   </trkpt>
   <trkpt lat="-37.84378" lon="145.34646">
    <ele>382.04</ele>
   </trkpt>
   <trkpt lat="-37.84384" lon="145.3469">
    <ele>387.11</ele>
   </trkpt>
   <trkpt lat="-37.84382" lon="145.34711000000001">
    <ele>392.55</ele>
   </trkpt>
   <trkpt lat="-37.84337" lon="145.34801000000002">
    <ele>404.63000000000005</ele>
   </trkpt>
   <trkpt lat="-37.84328" lon="145.34847000000002">
    <ele>407.0</ele>
   </trkpt>
   <trkpt lat="-37.84322" lon="145.34862">
    <ele>408.04</ele>
   </trkpt>
   <trkpt lat="-37.84313" lon="145.34868">
    <ele>409.03000000000003</ele>
   </trkpt>
   <trkpt lat="-37.84304" lon="145.34869">
    <ele>410.37</ele>
   </trkpt>
   <trkpt lat="-37.84297" lon="145.34869">
    <ele>411.16</ele>
   </trkpt>
   <trkpt lat="-37.84286" lon="145.34865000000002">
    <ele>413.75</ele>
   </trkpt>
   <trkpt lat="-37.842760000000006" lon="145.34866000000002">
    <ele>416.56000000000006</ele>
   </trkpt>
   <trkpt lat="-37.84243" lon="145.34877">
    <ele>422.82</ele>
   </trkpt>
   <trkpt lat="-37.842420000000004" lon="145.34877">
    <ele>422.82</ele>
   </trkpt>
   <trkpt lat="-37.84237" lon="145.3488">
    <ele>422.82</ele>
   </trkpt>
   <trkpt lat="-37.84219" lon="145.34892000000002">
    <ele>427.32000000000005</ele>
   </trkpt>
   <trkpt lat="-37.8421" lon="145.34902000000002">
    <ele>432.37</ele>
   </trkpt>
   <trkpt lat="-37.84201" lon="145.34904">
    <ele>433.35</ele>
   </trkpt>
   <trkpt lat="-37.841860000000004" lon="145.34887">
    <ele>436.54</ele>
   </trkpt>
   <trkpt lat="-37.842000000000006" lon="145.34844">
    <ele>437.76000000000005</ele>
   </trkpt>
   <trkpt lat="-37.84221" lon="145.34804000000003">
    <ele>439.3</ele>
   </trkpt>
   <trkpt lat="-37.8423" lon="145.34775000000002">
    <ele>440.53000000000003</ele>
   </trkpt>
   <trkpt lat="-37.84232" lon="145.34731000000002">
    <ele>442.96000000000004</ele>
   </trkpt>
   <trkpt lat="-37.84228" lon="145.347">
    <ele>444.58000000000004</ele>
   </trkpt>
   <trkpt lat="-37.84228" lon="145.3468">
    <ele>445.54</ele>
   </trkpt>
   <trkpt lat="-37.8423" lon="145.34661">
    <ele>446.89</ele>
   </trkpt>
   <trkpt lat="-37.84239" lon="145.34612">
    <ele>448.65000000000003</ele>
   </trkpt>
   <trkpt lat="-37.84241" lon="145.34594">
    <ele>449.63</ele>
   </trkpt>
   <trkpt lat="-37.84239" lon="145.34554">
    <ele>451.22</ele>
   </trkpt>
   <trkpt lat="-37.8423" lon="145.34518">
    <ele>452.15000000000003</ele>
   </trkpt>
   <trkpt lat="-37.84221" lon="145.34493">
    <ele>452.40000000000003</ele>
   </trkpt>
   <trkpt lat="-37.842040000000004" lon="145.34463000000002">
    <ele>453.43000000000006</ele>
   </trkpt>
   <trkpt lat="-37.84183" lon="145.34441">
    <ele>453.98</ele>
   </trkpt>
   <trkpt lat="-37.84163" lon="145.34426000000002">
    <ele>455.25000000000006</ele>
   </trkpt>
   <trkpt lat="-37.84125" lon="145.34408000000002">
    <ele>457.12</ele>
   </trkpt>
   <trkpt lat="-37.84091" lon="145.34394">
    <ele>460.71000000000004</ele>
   </trkpt>
   <trkpt lat="-37.84057" lon="145.34386">
    <ele>463.52000000000004</ele>
   </trkpt>
   <trkpt lat="-37.84024" lon="145.34384">
    <ele>466.53000000000003</ele>
   </trkpt>
   <trkpt lat="-37.84028" lon="145.34392000000003">
    <ele>467.95000000000005</ele>
   </trkpt>
   <trkpt lat="-37.84051" lon="145.34409000000002">
    <ele>471.78000000000003</ele>
   </trkpt>
   <trkpt lat="-37.84066" lon="145.34425000000002">
    <ele>474.93</ele>
   </trkpt>
   <trkpt lat="-37.8412" lon="145.34506000000002">
    <ele>492.07000000000005</ele>
   </trkpt>
   <trkpt lat="-37.84122" lon="145.34518">
    <ele>492.07000000000005</ele>
   </trkpt>
   <trkpt lat="-37.84118" lon="145.34518">
    <ele>495.27000000000004</ele>
   </trkpt>
   <trkpt lat="-37.84082" lon="145.34505000000001">
    <ele>500.65999999999997</ele>
   </trkpt>
   <trkpt lat="-37.84053" lon="145.34499000000002">
    <ele>502.71</ele>
   </trkpt>
   <trkpt lat="-37.840180000000004" lon="145.34494">
    <ele>510.09999999999997</ele>
   </trkpt>
   <trkpt lat="-37.83979" lon="145.34494">
    <ele>515.49</ele>
   </trkpt>
   <trkpt lat="-37.83977" lon="145.34496000000001">
    <ele>515.49</ele>
   </trkpt>
   <trkpt lat="-37.83977" lon="145.34502">
    <ele>519.7</ele>
   </trkpt>
   <trkpt lat="-37.84004" lon="145.34539">
    <ele>529.58</ele>
   </trkpt>
   <trkpt lat="-37.84035" lon="145.34608">
    <ele>538.96</ele>
   </trkpt>
   <trkpt lat="-37.84035" lon="145.34613000000002">
    <ele>538.96</ele>
   </trkpt>
   <trkpt lat="-37.84033" lon="145.34614000000002">
    <ele>538.96</ele>
   </trkpt>
   <trkpt lat="-37.84013" lon="145.34605000000002">
    <ele>542.22</ele>
   </trkpt>
   <trkpt lat="-37.84004" lon="145.34603">
    <ele>543.6899999999999</ele>
   </trkpt>
   <trkpt lat="-37.83979" lon="145.34601">
    <ele>549.58</ele>
   </trkpt>
   <trkpt lat="-37.83912" lon="145.34611">
    <ele>562.9399999999999</ele>
   </trkpt>
   <trkpt lat="-37.83896" lon="145.34608">
    <ele>565.18</ele>
   </trkpt>
   <trkpt lat="-37.83872" lon="145.34589000000003">
    <ele>565.09</ele>
   </trkpt>
   <trkpt lat="-37.83856" lon="145.34584">
    <ele>566.52</ele>
   </trkpt>
   <trkpt lat="-37.83843" lon="145.34587000000002">
    <ele>569.52</ele>
   </trkpt>
   <trkpt lat="-37.83834" lon="145.34596000000002">
    <ele>572.1</ele>
   </trkpt>
   <trkpt lat="-37.83813" lon="145.34605000000002">
    <ele>580.2400000000001</ele>
   </trkpt>
   <trkpt lat="-37.83791" lon="145.34608">
    <ele>585.0200000000001</ele>
   </trkpt>
   <trkpt lat="-37.83771" lon="145.34619">
    <ele>592.1800000000001</ele>
   </trkpt>
   <trkpt lat="-37.8376" lon="145.34623000000002">
    <ele>594.23</ele>
   </trkpt>
   <trkpt lat="-37.83733" lon="145.34626">
    <ele>598.74</ele>
   </trkpt>
   <trkpt lat="-37.83726" lon="145.34629">
    <ele>600.6700000000001</ele>
   </trkpt>
   <trkpt lat="-37.83706" lon="145.34649000000002">
    <ele>608.0300000000001</ele>
   </trkpt>
   <trkpt lat="-37.83699" lon="145.34654">
    <ele>608.89</ele>
   </trkpt>
   <trkpt lat="-37.83681" lon="145.34658000000002">
    <ele>611.0699999999999</ele>
   </trkpt>
   <trkpt lat="-37.83668" lon="145.34659000000002">
    <ele>611.35</ele>
   </trkpt>
   <trkpt lat="-37.8363" lon="145.34654">
    <ele>606.86</ele>
   </trkpt>
   <trkpt lat="-37.83601" lon="145.34655">
    <ele>604.5400000000001</ele>
   </trkpt>
   <trkpt lat="-37.835750000000004" lon="145.34657">
    <ele>601.5200000000001</ele>
   </trkpt>
   <trkpt lat="-37.83574" lon="145.34658000000002">
    <ele>601.5200000000001</ele>
   </trkpt>
   <trkpt lat="-37.835150000000006" lon="145.34676000000002">
    <ele>597.98</ele>
   </trkpt>
   <trkpt lat="-37.83487" lon="145.34681">
    <ele>597.16</ele>
   </trkpt>
   <trkpt lat="-37.834430000000005" lon="145.34701">
    <ele>597.33</ele>
   </trkpt>
   <trkpt lat="-37.83442" lon="145.34701">
    <ele>597.33</ele>
   </trkpt>
   <trkpt lat="-37.83413" lon="145.34727">
    <ele>597.49</ele>
   </trkpt>
   <trkpt lat="-37.83379500086186" lon="145.3476750016354">
    <ele>597.98</ele>
   </trkpt>
   <trkpt lat="-37.83346" lon="145.34808">
    <ele>595.53</ele>
   </trkpt>
   <trkpt lat="-37.833330000000004" lon="145.3484">
    <ele>596.14</ele>
   </trkpt>
   <trkpt lat="-37.83323" lon="145.34911000000002">
    <ele>591.6</ele>
   </trkpt>
   <trkpt lat="-37.83296" lon="145.34934">
    <ele>587.83</ele>
   </trkpt>
   <trkpt lat="-37.83287" lon="145.34947000000003">
    <ele>586.61</ele>
   </trkpt>
   <trkpt lat="-37.83274" lon="145.34954000000002">
    <ele>586.09</ele>
   </trkpt>
   <trkpt lat="-37.83267" lon="145.34969">
    <ele>585.47</ele>
   </trkpt>
   <trkpt lat="-37.83231" lon="145.35010000000003">
    <ele>577.88</ele>
   </trkpt>
   <trkpt lat="-37.83196" lon="145.35046">
    <ele>569.8000000000001</ele>
   </trkpt>
   <trkpt lat="-37.83162" lon="145.35071000000002">
    <ele>561.44</ele>
   </trkpt>
   <trkpt lat="-37.83122" lon="145.35091">
    <ele>555.71</ele>
   </trkpt>
   <trkpt lat="-37.83102" lon="145.35095">
    <ele>555.3100000000001</ele>
   </trkpt>
   <trkpt lat="-37.83093" lon="145.35097000000002">
    <ele>555.6000000000001</ele>
   </trkpt>
   <trkpt lat="-37.83066" lon="145.35092">
    <ele>557.5300000000001</ele>
   </trkpt>
   <trkpt lat="-37.83032" lon="145.35069000000001">
    <ele>559.6300000000001</ele>
   </trkpt>
   <trkpt lat="-37.82999" lon="145.35055">
    <ele>563.08</ele>
   </trkpt>
   <trkpt lat="-37.82963" lon="145.35047">
    <ele>565.5600000000001</ele>
   </trkpt>
   <trkpt lat="-37.82943" lon="145.35047">
    <ele>568.4300000000001</ele>
   </trkpt>
   <trkpt lat="-37.82911" lon="145.35060000000001">
    <ele>573.49</ele>
   </trkpt>
   <trkpt lat="-37.828629999903704" lon="145.35060500003354">
    <ele>576.2400000000001</ele>
   </trkpt>
   <trkpt lat="-37.82815" lon="145.35061000000002">
    <ele>574.0200000000001</ele>
   </trkpt>
   <trkpt lat="-37.82766" lon="145.35071000000002">
    <ele>574.0</ele>
   </trkpt>
   <trkpt lat="-37.82701" lon="145.35084">
    <ele>576.26</ele>
   </trkpt>
   <trkpt lat="-37.82658" lon="145.35101">
    <ele>575.6600000000001</ele>
   </trkpt>
   <trkpt lat="-37.82625" lon="145.35123000000002">
    <ele>577.52</ele>
   </trkpt>
   <trkpt lat="-37.82596" lon="145.35162000000003">
    <ele>580.31</ele>
   </trkpt>
   <trkpt lat="-37.82585" lon="145.35181">
    <ele>582.55</ele>
   </trkpt>
   <trkpt lat="-37.82558" lon="145.35231000000002">
    <ele>583.74</ele>
   </trkpt>
   <trkpt lat="-37.82551" lon="145.35260000000002">
    <ele>584.46</ele>
   </trkpt>
   <trkpt lat="-37.82547" lon="145.35287000000002">
    <ele>585.08</ele>
   </trkpt>
   <trkpt lat="-37.82553" lon="145.35331000000002">
    <ele>585.01</ele>
   </trkpt>
   <trkpt lat="-37.82555" lon="145.35337">
    <ele>585.01</ele>
   </trkpt>
   <trkpt lat="-37.82544" lon="145.35431">
    <ele>576.86</ele>
   </trkpt>
   <trkpt lat="-37.82535" lon="145.35486">
    <ele>573.1200000000001</ele>
   </trkpt>
   <trkpt lat="-37.82531" lon="145.35505">
    <ele>572.3900000000001</ele>
   </trkpt>
   <trkpt lat="-37.82529" lon="145.35525">
    <ele>571.9200000000001</ele>
   </trkpt>
   <trkpt lat="-37.82529" lon="145.35524">
    <ele>571.9200000000001</ele>
   </trkpt>
   <trkpt lat="-37.82529" lon="145.35569">
    <ele>571.1700000000001</ele>
   </trkpt>
   <trkpt lat="-37.82536" lon="145.35629">
    <ele>567.4800000000001</ele>
   </trkpt>
   <trkpt lat="-37.825320000000005" lon="145.35658">
    <ele>565.3900000000001</ele>
   </trkpt>
   <trkpt lat="-37.82504" lon="145.35681000000002">
    <ele>559.24</ele>
   </trkpt>
   <trkpt lat="-37.82493" lon="145.35696000000002">
    <ele>556.3800000000001</ele>
   </trkpt>
   <trkpt lat="-37.82489" lon="145.35697000000002">
    <ele>556.3800000000001</ele>
   </trkpt>
   <trkpt lat="-37.824870000000004" lon="145.35698000000002">
    <ele>556.3800000000001</ele>
   </trkpt>
   <trkpt lat="-37.82419" lon="145.35738">
    <ele>546.27</ele>
   </trkpt>
   <trkpt lat="-37.82405" lon="145.35753000000003">
    <ele>546.1400000000001</ele>
   </trkpt>
   <trkpt lat="-37.8237" lon="145.35811">
    <ele>550.24</ele>
   </trkpt>
   <trkpt lat="-37.82334" lon="145.3588">
    <ele>547.71</ele>
   </trkpt>
   <trkpt lat="-37.82314" lon="145.35915">
    <ele>542.49</ele>
   </trkpt>
   <trkpt lat="-37.82291" lon="145.35968000000003">
    <ele>541.73</ele>
   </trkpt>
   <trkpt lat="-37.82251" lon="145.36048000000002">
    <ele>538.1100000000001</ele>
   </trkpt>
   <trkpt lat="-37.82247" lon="145.36068">
    <ele>539.24</ele>
   </trkpt>
   <trkpt lat="-37.82251" lon="145.36086">
    <ele>541.94</ele>
   </trkpt>
   <trkpt lat="-37.82287" lon="145.36139">
    <ele>550.9900000000001</ele>
   </trkpt>
   <trkpt lat="-37.82285" lon="145.36151">
    <ele>551.44</ele>
   </trkpt>
   <trkpt lat="-37.82278" lon="145.36161">
    <ele>551.62</ele>
   </trkpt>
   <trkpt lat="-37.82251" lon="145.36179">
    <ele>551.98</ele>
   </trkpt>
   <trkpt lat="-37.822390000000006" lon="145.36191000000002">
    <ele>552.25</ele>
   </trkpt>
   <trkpt lat="-37.82226" lon="145.36194">
    <ele>552.61</ele>
   </trkpt>
   <trkpt lat="-37.82186" lon="145.36196">
    <ele>552.91</ele>
   </trkpt>
   <trkpt lat="-37.82168" lon="145.36193">
    <ele>552.15</ele>
   </trkpt>
   <trkpt lat="-37.82114" lon="145.36204">
    <ele>544.82</ele>
   </trkpt>
   <trkpt lat="-37.82092" lon="145.36214">
    <ele>537.42</ele>
   </trkpt>
   <trkpt lat="-37.82016" lon="145.36235000000002">
    <ele>511.9100000000001</ele>
   </trkpt>
   <trkpt lat="-37.82005" lon="145.36249">
    <ele>508.13000000000005</ele>
   </trkpt>
   <trkpt lat="-37.82005" lon="145.36248">
    <ele>508.13000000000005</ele>
   </trkpt>
   <trkpt lat="-37.81996" lon="145.36259">
    <ele>506.21999999999997</ele>
   </trkpt>
   <trkpt lat="-37.81976" lon="145.36298000000002">
    <ele>504.07</ele>
   </trkpt>
   <trkpt lat="-37.81969" lon="145.36317000000003">
    <ele>504.09999999999997</ele>
   </trkpt>
   <trkpt lat="-37.81958" lon="145.36325000000002">
    <ele>502.6700000000001</ele>
   </trkpt>
   <trkpt lat="-37.81949" lon="145.36302">
    <ele>495.56000000000006</ele>
   </trkpt>
   <trkpt lat="-37.81931" lon="145.36299000000002">
    <ele>485.76</ele>
   </trkpt>
   <trkpt lat="-37.81877" lon="145.36299000000002">
    <ele>469.33000000000004</ele>
   </trkpt>
   <trkpt lat="-37.8183" lon="145.36328">
    <ele>463.88</ele>
   </trkpt>
   <trkpt lat="-37.817980000000006" lon="145.36344000000003">
    <ele>463.79</ele>
   </trkpt>
   <trkpt lat="-37.81779" lon="145.36370000000002">
    <ele>464.67</ele>
   </trkpt>
   <trkpt lat="-37.81765" lon="145.36397000000002">
    <ele>464.85</ele>
   </trkpt>
   <trkpt lat="-37.817600000000006" lon="145.36438">
    <ele>466.34000000000003</ele>
   </trkpt>
   <trkpt lat="-37.817600000000006" lon="145.36507">
    <ele>469.40000000000003</ele>
   </trkpt>
   <trkpt lat="-37.8177" lon="145.36568000000003">
    <ele>471.66</ele>
   </trkpt>
   <trkpt lat="-37.81774" lon="145.36581">
    <ele>473.0</ele>
   </trkpt>
   <trkpt lat="-37.81774" lon="145.36595">
    <ele>473.28000000000003</ele>
   </trkpt>
   <trkpt lat="-37.81765" lon="145.36620000000002">
    <ele>473.51000000000005</ele>
   </trkpt>
   <trkpt lat="-37.817510000000006" lon="145.36671">
    <ele>470.15</ele>
   </trkpt>
   <trkpt lat="-37.81743" lon="145.36671">
    <ele>469.87000000000006</ele>
   </trkpt>
   <trkpt lat="-37.81745" lon="145.36571">
    <ele>456.69000000000005</ele>
   </trkpt>
   <trkpt lat="-37.81745" lon="145.36562">
    <ele>456.69000000000005</ele>
   </trkpt>
   <trkpt lat="-37.81745" lon="145.36563">
    <ele>456.73</ele>
   </trkpt>
   <trkpt lat="-37.81745" lon="145.36571">
    <ele>458.1000000000001</ele>
   </trkpt>
   <trkpt lat="-37.81743" lon="145.36671">
    <ele>469.87000000000006</ele>
   </trkpt>
   <trkpt lat="-37.81679000004122" lon="145.36669999991395">
    <ele>462.38</ele>
   </trkpt>
   <trkpt lat="-37.81615" lon="145.36669">
    <ele>456.67</ele>
   </trkpt>
   <trkpt lat="-37.81588" lon="145.36676">
    <ele>453.34000000000003</ele>
   </trkpt>
   <trkpt lat="-37.81589" lon="145.36676">
    <ele>453.34000000000003</ele>
   </trkpt>
   <trkpt lat="-37.81573" lon="145.36681000000002">
    <ele>451.09000000000003</ele>
   </trkpt>
   <trkpt lat="-37.8155" lon="145.36708000000002">
    <ele>448.62</ele>
   </trkpt>
   <trkpt lat="-37.81537" lon="145.36716">
    <ele>447.76000000000005</ele>
   </trkpt>
   <trkpt lat="-37.81508" lon="145.36724">
    <ele>448.06</ele>
   </trkpt>
   <trkpt lat="-37.81488" lon="145.36741">
    <ele>450.15000000000003</ele>
   </trkpt>
   <trkpt lat="-37.8147" lon="145.36782000000002">
    <ele>455.70000000000005</ele>
   </trkpt>
   <trkpt lat="-37.81459" lon="145.36827000000002">
    <ele>459.26000000000005</ele>
   </trkpt>
   <trkpt lat="-37.81459" lon="145.36878000000002">
    <ele>463.35</ele>
   </trkpt>
   <trkpt lat="-37.81467" lon="145.36967">
    <ele>471.19000000000005</ele>
   </trkpt>
   <trkpt lat="-37.81481" lon="145.37055">
    <ele>478.82</ele>
   </trkpt>
   <trkpt lat="-37.81479" lon="145.37143">
    <ele>475.4200000000001</ele>
   </trkpt>
   <trkpt lat="-37.81461" lon="145.37204">
    <ele>470.38</ele>
   </trkpt>
   <trkpt lat="-37.81441" lon="145.37232">
    <ele>468.83000000000004</ele>
   </trkpt>
   <trkpt lat="-37.81396" lon="145.37239000000002">
    <ele>467.5</ele>
   </trkpt>
   <trkpt lat="-37.81358" lon="145.37265000000002">
    <ele>464.45000000000005</ele>
   </trkpt>
   <trkpt lat="-37.81331" lon="145.37307">
    <ele>463.71</ele>
   </trkpt>
   <trkpt lat="-37.813340000000004" lon="145.37318000000002">
    <ele>463.91</ele>
   </trkpt>
   <trkpt lat="-37.81349" lon="145.37412">
    <ele>462.86</ele>
   </trkpt>
   <trkpt lat="-37.81367000268485" lon="145.3749149981211">
    <ele>456.84000000000003</ele>
   </trkpt>
   <trkpt lat="-37.81385" lon="145.37571">
    <ele>447.61000000000007</ele>
   </trkpt>
   <trkpt lat="-37.81395000162117" lon="145.37632499930535">
    <ele>443.90000000000003</ele>
   </trkpt>
   <trkpt lat="-37.81405" lon="145.37694000000002">
    <ele>439.39000000000004</ele>
   </trkpt>
   <trkpt lat="-37.81451500141575" lon="145.37752499627666">
    <ele>433.1</ele>
   </trkpt>
   <trkpt lat="-37.814980000000006" lon="145.37811000000002">
    <ele>427.62000000000006</ele>
   </trkpt>
   <trkpt lat="-37.81523" lon="145.37830000000002">
    <ele>427.50000000000006</ele>
   </trkpt>
   <trkpt lat="-37.81566" lon="145.37857000000002">
    <ele>428.84000000000003</ele>
   </trkpt>
   <trkpt lat="-37.81579" lon="145.3788">
    <ele>429.31</ele>
   </trkpt>
   <trkpt lat="-37.816" lon="145.37896">
    <ele>431.08</ele>
   </trkpt>
   <trkpt lat="-37.81613" lon="145.37887">
    <ele>431.64</ele>
   </trkpt>
   <trkpt lat="-37.816" lon="145.37896">
    <ele>431.08</ele>
   </trkpt>
   <trkpt lat="-37.81579" lon="145.3788">
    <ele>429.31</ele>
   </trkpt>
   <trkpt lat="-37.81566" lon="145.37857000000002">
    <ele>428.84000000000003</ele>
   </trkpt>
   <trkpt lat="-37.81523" lon="145.37830000000002">
    <ele>427.50000000000006</ele>
   </trkpt>
   <trkpt lat="-37.814980000000006" lon="145.37811000000002">
    <ele>427.62000000000006</ele>
   </trkpt>
   <trkpt lat="-37.814515001477275" lon="145.37752499635408">
    <ele>433.1</ele>
   </trkpt>
   <trkpt lat="-37.81405" lon="145.37694000000002">
    <ele>439.39000000000004</ele>
   </trkpt>
   <trkpt lat="-37.813950001576174" lon="145.37632499902864">
    <ele>443.90000000000003</ele>
   </trkpt>
   <trkpt lat="-37.81385" lon="145.37571">
    <ele>450.20000000000005</ele>
   </trkpt>
   <trkpt lat="-37.81369" lon="145.37502">
    <ele>455.84000000000003</ele>
   </trkpt>
   <trkpt lat="-37.81349" lon="145.37412">
    <ele>462.86</ele>
   </trkpt>
   <trkpt lat="-37.81331" lon="145.37307">
    <ele>463.71</ele>
   </trkpt>
   <trkpt lat="-37.81358" lon="145.37265000000002">
    <ele>464.72</ele>
   </trkpt>
   <trkpt lat="-37.81396" lon="145.37239000000002">
    <ele>467.5</ele>
   </trkpt>
   <trkpt lat="-37.81441" lon="145.37232">
    <ele>469.01000000000005</ele>
   </trkpt>
   <trkpt lat="-37.81461" lon="145.37204">
    <ele>471.13000000000005</ele>
   </trkpt>
   <trkpt lat="-37.81474" lon="145.3716">
    <ele>474.27000000000004</ele>
   </trkpt>
   <trkpt lat="-37.81479" lon="145.37143">
    <ele>475.4200000000001</ele>
   </trkpt>
   <trkpt lat="-37.81481" lon="145.37055">
    <ele>478.82</ele>
   </trkpt>
   <trkpt lat="-37.81467" lon="145.36967">
    <ele>471.19000000000005</ele>
   </trkpt>
   <trkpt lat="-37.81459" lon="145.36878000000002">
    <ele>463.35</ele>
   </trkpt>
   <trkpt lat="-37.81459" lon="145.36827000000002">
    <ele>459.26000000000005</ele>
   </trkpt>
   <trkpt lat="-37.8147" lon="145.36782000000002">
    <ele>455.70000000000005</ele>
   </trkpt>
   <trkpt lat="-37.81488" lon="145.36741">
    <ele>450.15000000000003</ele>
   </trkpt>
   <trkpt lat="-37.81508" lon="145.36724">
    <ele>448.06</ele>
   </trkpt>
   <trkpt lat="-37.81537" lon="145.36716">
    <ele>447.76000000000005</ele>
   </trkpt>
   <trkpt lat="-37.8155" lon="145.36708000000002">
    <ele>448.62</ele>
   </trkpt>
   <trkpt lat="-37.81571" lon="145.36683000000002">
    <ele>451.40000000000003</ele>
   </trkpt>
   <trkpt lat="-37.81571" lon="145.36684000000002">
    <ele>451.40000000000003</ele>
   </trkpt>
   <trkpt lat="-37.81573" lon="145.36681000000002">
    <ele>451.40000000000003</ele>
   </trkpt>
   <trkpt lat="-37.81615" lon="145.36669">
    <ele>456.67</ele>
   </trkpt>
   <trkpt lat="-37.81678999995962" lon="145.36669999991267">
    <ele>462.38</ele>
   </trkpt>
   <trkpt lat="-37.81743" lon="145.36671">
    <ele>469.87000000000006</ele>
   </trkpt>
   <trkpt lat="-37.81745" lon="145.36571">
    <ele>458.1000000000001</ele>
   </trkpt>
   <trkpt lat="-37.81738" lon="145.3651">
    <ele>450.51</ele>
   </trkpt>
   <trkpt lat="-37.81739" lon="145.36511000000002">
    <ele>450.51</ele>
   </trkpt>
   <trkpt lat="-37.81723" lon="145.36425">
    <ele>439.83000000000004</ele>
   </trkpt>
   <trkpt lat="-37.81721" lon="145.36373">
    <ele>434.66</ele>
   </trkpt>
   <trkpt lat="-37.81734" lon="145.36311">
    <ele>425.77000000000004</ele>
   </trkpt>
   <trkpt lat="-37.8177" lon="145.36251000000001">
    <ele>418.32</ele>
   </trkpt>
   <trkpt lat="-37.8181" lon="145.36234000000002">
    <ele>410.23</ele>
   </trkpt>
   <trkpt lat="-37.81828" lon="145.36215">
    <ele>405.84000000000003</ele>
   </trkpt>
   <trkpt lat="-37.81861" lon="145.36159">
    <ele>398.02000000000004</ele>
   </trkpt>
   <trkpt lat="-37.8187" lon="145.36124">
    <ele>394.0</ele>
   </trkpt>
   <trkpt lat="-37.8187" lon="145.36111000000002">
    <ele>392.09000000000003</ele>
   </trkpt>
   <trkpt lat="-37.8187" lon="145.36094">
    <ele>388.81000000000006</ele>
   </trkpt>
   <trkpt lat="-37.81857" lon="145.36003000000002">
    <ele>378.42</ele>
   </trkpt>
   <trkpt lat="-37.81864" lon="145.35987">
    <ele>378.84</ele>
   </trkpt>
   <trkpt lat="-37.81866" lon="145.35975000000002">
    <ele>379.17</ele>
   </trkpt>
   <trkpt lat="-37.81893" lon="145.35938000000002">
    <ele>379.77000000000004</ele>
   </trkpt>
   <trkpt lat="-37.819355000739364" lon="145.35900000207263">
    <ele>379.5</ele>
   </trkpt>
   <trkpt lat="-37.81978" lon="145.35862">
    <ele>379.91</ele>
   </trkpt>
   <trkpt lat="-37.82005" lon="145.35831000000002">
    <ele>379.77000000000004</ele>
   </trkpt>
   <trkpt lat="-37.82011" lon="145.35802">
    <ele>379.99000000000007</ele>
   </trkpt>
   <trkpt lat="-37.82011" lon="145.35786000000002">
    <ele>380.3</ele>
   </trkpt>
   <trkpt lat="-37.82007" lon="145.35739">
    <ele>380.27000000000004</ele>
   </trkpt>
   <trkpt lat="-37.82009" lon="145.35717000000002">
    <ele>380.28</ele>
   </trkpt>
   <trkpt lat="-37.82014" lon="145.35699000000002">
    <ele>380.5</ele>
   </trkpt>
   <trkpt lat="-37.82034" lon="145.35669000000001">
    <ele>380.6</ele>
   </trkpt>
   <trkpt lat="-37.82081" lon="145.35627000000002">
    <ele>379.66</ele>
   </trkpt>
   <trkpt lat="-37.82101" lon="145.35605">
    <ele>379.63</ele>
   </trkpt>
   <trkpt lat="-37.8212650009946" lon="145.3555450019099">
    <ele>379.79</ele>
   </trkpt>
   <trkpt lat="-37.82152" lon="145.35504">
    <ele>379.83000000000004</ele>
   </trkpt>
   <trkpt lat="-37.82159" lon="145.3548">
    <ele>380.07</ele>
   </trkpt>
   <trkpt lat="-37.82155" lon="145.35462">
    <ele>380.13</ele>
   </trkpt>
   <trkpt lat="-37.8215" lon="145.3545">
    <ele>380.12</ele>
   </trkpt>
   <trkpt lat="-37.821450000000006" lon="145.35441">
    <ele>380.12</ele>
   </trkpt>
   <trkpt lat="-37.8213" lon="145.35433">
    <ele>380.08000000000004</ele>
   </trkpt>
   <trkpt lat="-37.821290000000005" lon="145.35433">
    <ele>380.08000000000004</ele>
   </trkpt>
   <trkpt lat="-37.82101" lon="145.35419000000002">
    <ele>380.0</ele>
   </trkpt>
   <trkpt lat="-37.82063" lon="145.35363">
    <ele>380.67</ele>
   </trkpt>
   <trkpt lat="-37.82052" lon="145.35340000000002">
    <ele>380.66</ele>
   </trkpt>
   <trkpt lat="-37.82047" lon="145.35327">
    <ele>380.66</ele>
   </trkpt>
   <trkpt lat="-37.82047" lon="145.35311000000002">
    <ele>380.42</ele>
   </trkpt>
   <trkpt lat="-37.82052" lon="145.35284000000001">
    <ele>380.36</ele>
   </trkpt>
   <trkpt lat="-37.82088" lon="145.35202">
    <ele>379.77000000000004</ele>
   </trkpt>
   <trkpt lat="-37.820980000000006" lon="145.35155">
    <ele>380.1</ele>
   </trkpt>
   <trkpt lat="-37.82101" lon="145.35114000000002">
    <ele>379.76000000000005</ele>
   </trkpt>
   <trkpt lat="-37.82101" lon="145.35113">
    <ele>379.76000000000005</ele>
   </trkpt>
   <trkpt lat="-37.82103" lon="145.35089000000002">
    <ele>378.21000000000004</ele>
   </trkpt>
   <trkpt lat="-37.82101" lon="145.35052000000002">
    <ele>375.12</ele>
   </trkpt>
   <trkpt lat="-37.82103" lon="145.34965000000003">
    <ele>365.43</ele>
   </trkpt>
   <trkpt lat="-37.82108" lon="145.3493">
    <ele>359.98</ele>
   </trkpt>
   <trkpt lat="-37.82126" lon="145.34882000000002">
    <ele>353.24000000000007</ele>
   </trkpt>
   <trkpt lat="-37.82166" lon="145.34824">
    <ele>344.95000000000005</ele>
   </trkpt>
   <trkpt lat="-37.82204" lon="145.3479">
    <ele>338.94</ele>
   </trkpt>
   <trkpt lat="-37.82244" lon="145.3478">
    <ele>335.94</ele>
   </trkpt>
   <trkpt lat="-37.82253" lon="145.34774000000002">
    <ele>335.11</ele>
   </trkpt>
   <trkpt lat="-37.82255" lon="145.34759000000003">
    <ele>333.15</ele>
   </trkpt>
   <trkpt lat="-37.82253" lon="145.34733">
    <ele>329.93</ele>
   </trkpt>
   <trkpt lat="-37.82253" lon="145.34703000000002">
    <ele>326.32</ele>
   </trkpt>
   <trkpt lat="-37.822590000000005" lon="145.34677000000002">
    <ele>322.35</ele>
   </trkpt>
   <trkpt lat="-37.822700000000005" lon="145.34657">
    <ele>319.51</ele>
   </trkpt>
   <trkpt lat="-37.82271" lon="145.34657">
    <ele>319.51</ele>
   </trkpt>
   <trkpt lat="-37.822770000000006" lon="145.34649000000002">
    <ele>318.59000000000003</ele>
   </trkpt>
   <trkpt lat="-37.822950000000006" lon="145.34635">
    <ele>316.98</ele>
   </trkpt>
   <trkpt lat="-37.823380000081364" lon="145.3461150014523">
    <ele>317.21000000000004</ele>
   </trkpt>
   <trkpt lat="-37.82381" lon="145.34588000000002">
    <ele>315.27000000000004</ele>
   </trkpt>
   <trkpt lat="-37.82408" lon="145.34560000000002">
    <ele>312.67</ele>
   </trkpt>
   <trkpt lat="-37.82428" lon="145.34546">
    <ele>308.78</ele>
   </trkpt>
   <trkpt lat="-37.82446" lon="145.34535000000002">
    <ele>306.26000000000005</ele>
   </trkpt>
   <trkpt lat="-37.824870000000004" lon="145.34524000000002">
    <ele>303.8</ele>
   </trkpt>
   <trkpt lat="-37.82495" lon="145.34516000000002">
    <ele>304.12</ele>
   </trkpt>
   <trkpt lat="-37.82538" lon="145.34456">
    <ele>304.77000000000004</ele>
   </trkpt>
   <trkpt lat="-37.825500000000005" lon="145.34444000000002">
    <ele>304.33000000000004</ele>
   </trkpt>
   <trkpt lat="-37.825720000000004" lon="145.34426000000002">
    <ele>303.46</ele>
   </trkpt>
   <trkpt lat="-37.82607" lon="145.34413">
    <ele>302.26000000000005</ele>
   </trkpt>
   <trkpt lat="-37.82638" lon="145.34404">
    <ele>301.32000000000005</ele>
   </trkpt>
   <trkpt lat="-37.82681" lon="145.34403">
    <ele>299.29</ele>
   </trkpt>
   <trkpt lat="-37.82692" lon="145.34395">
    <ele>298.32000000000005</ele>
   </trkpt>
   <trkpt lat="-37.82705" lon="145.34382000000002">
    <ele>298.32000000000005</ele>
   </trkpt>
   <trkpt lat="-37.8273" lon="145.34364000000002">
    <ele>294.55</ele>
   </trkpt>
   <trkpt lat="-37.82755" lon="145.34356000000002">
    <ele>291.95000000000005</ele>
   </trkpt>
   <trkpt lat="-37.82773" lon="145.34345000000002">
    <ele>290.76</ele>
   </trkpt>
   <trkpt lat="-37.82782" lon="145.34341">
    <ele>290.76</ele>
   </trkpt>
   <trkpt lat="-37.82831" lon="145.34295">
    <ele>288.79</ele>
   </trkpt>
   <trkpt lat="-37.82878" lon="145.34246000000002">
    <ele>289.75</ele>
   </trkpt>
   <trkpt lat="-37.828950000000006" lon="145.34237000000002">
    <ele>289.84999999999997</ele>
   </trkpt>
   <trkpt lat="-37.829240000000006" lon="145.34232">
    <ele>289.99</ele>
   </trkpt>
   <trkpt lat="-37.82943" lon="145.34233">
    <ele>290.50000000000006</ele>
   </trkpt>
   <trkpt lat="-37.82952" lon="145.34314">
    <ele>311.95</ele>
   </trkpt>
   <trkpt lat="-37.82963" lon="145.34352">
    <ele>315.38000000000005</ele>
   </trkpt>
   <trkpt lat="-37.829750000000004" lon="145.34373000000002">
    <ele>320.8</ele>
   </trkpt>
   <trkpt lat="-37.82976" lon="145.34374000000003">
    <ele>320.8</ele>
   </trkpt>
   <trkpt lat="-37.829930000000004" lon="145.34408000000002">
    <ele>329.85</ele>
   </trkpt>
   <trkpt lat="-37.83034" lon="145.34411">
    <ele>335.8</ele>
   </trkpt>
   <trkpt lat="-37.83095" lon="145.34385">
    <ele>333.56</ele>
   </trkpt>
   <trkpt lat="-37.83113" lon="145.34359">
    <ele>333.63000000000005</ele>
   </trkpt>
   <trkpt lat="-37.83124" lon="145.34334">
    <ele>332.75000000000006</ele>
   </trkpt>
   <trkpt lat="-37.83144" lon="145.34259">
    <ele>331.92</ele>
   </trkpt>
   <trkpt lat="-37.83153" lon="145.3424">
    <ele>331.53000000000003</ele>
   </trkpt>
   <trkpt lat="-37.83164" lon="145.34225">
    <ele>331.34000000000003</ele>
   </trkpt>
   <trkpt lat="-37.83178" lon="145.34217">
    <ele>331.66</ele>
   </trkpt>
   <trkpt lat="-37.83221" lon="145.34198">
    <ele>330.39</ele>
   </trkpt>
   <trkpt lat="-37.83238" lon="145.34191">
    <ele>329.62</ele>
   </trkpt>
   <trkpt lat="-37.8327" lon="145.34184000000002">
    <ele>327.03000000000003</ele>
   </trkpt>
   <trkpt lat="-37.83301" lon="145.34152">
    <ele>329.33</ele>
   </trkpt>
   <trkpt lat="-37.83323" lon="145.34098">
    <ele>329.25000000000006</ele>
   </trkpt>
   <trkpt lat="-37.83337" lon="145.34082">
    <ele>330.24</ele>
   </trkpt>
   <trkpt lat="-37.83357" lon="145.34077000000002">
    <ele>333.71</ele>
   </trkpt>
   <trkpt lat="-37.83397" lon="145.34079">
    <ele>343.68</ele>
   </trkpt>
   <trkpt lat="-37.83415" lon="145.34074">
    <ele>346.88</ele>
   </trkpt>
   <trkpt lat="-37.83442" lon="145.34049000000002">
    <ele>344.6</ele>
   </trkpt>
   <trkpt lat="-37.83475" lon="145.34023000000002">
    <ele>339.47</ele>
   </trkpt>
   <trkpt lat="-37.835150000000006" lon="145.33989000000003">
    <ele>345.96000000000004</ele>
   </trkpt>
   <trkpt lat="-37.835280000000004" lon="145.33983">
    <ele>348.08000000000004</ele>
   </trkpt>
   <trkpt lat="-37.83529" lon="145.33982">
    <ele>348.08000000000004</ele>
   </trkpt>
   <trkpt lat="-37.83576" lon="145.33959000000002">
    <ele>355.94000000000005</ele>
   </trkpt>
   <trkpt lat="-37.83606" lon="145.3394">
    <ele>359.47</ele>
   </trkpt>
   <trkpt lat="-37.83625" lon="145.33926000000002">
    <ele>359.90000000000003</ele>
   </trkpt>
   <trkpt lat="-37.83677" lon="145.339">
    <ele>359.28000000000003</ele>
   </trkpt>
   <trkpt lat="-37.836940000000006" lon="145.33883">
    <ele>357.67</ele>
   </trkpt>
   <trkpt lat="-37.83766" lon="145.33823">
    <ele>344.80000000000007</ele>
   </trkpt>
   <trkpt lat="-37.83809" lon="145.33800000000002">
    <ele>335.61</ele>
   </trkpt>
   <trkpt lat="-37.83831" lon="145.33801000000003">
    <ele>332.94</ele>
   </trkpt>
   <trkpt lat="-37.838300000000004" lon="145.33801000000003">
    <ele>332.94</ele>
   </trkpt>
   <trkpt lat="-37.83847" lon="145.33802">
    <ele>331.65</ele>
   </trkpt>
   <trkpt lat="-37.83885" lon="145.33808000000002">
    <ele>331.1</ele>
   </trkpt>
   <trkpt lat="-37.83928" lon="145.33822">
    <ele>334.32</ele>
   </trkpt>
   <trkpt lat="-37.83961" lon="145.33852000000002">
    <ele>334.82</ele>
   </trkpt>
   <trkpt lat="-37.83977" lon="145.33871000000002">
    <ele>333.69000000000005</ele>
   </trkpt>
   <trkpt lat="-37.84015" lon="145.33934000000002">
    <ele>323.74</ele>
   </trkpt>
   <trkpt lat="-37.84042" lon="145.33958">
    <ele>319.55</ele>
   </trkpt>
   <trkpt lat="-37.84069" lon="145.33977000000002">
    <ele>317.21999999999997</ele>
   </trkpt>
   <trkpt lat="-37.84098" lon="145.33985">
    <ele>315.65000000000003</ele>
   </trkpt>
   <trkpt lat="-37.841060000000006" lon="145.33981">
    <ele>314.70000000000005</ele>
   </trkpt>
   <trkpt lat="-37.84107" lon="145.33981">
    <ele>314.70000000000005</ele>
   </trkpt>
   <trkpt lat="-37.84143" lon="145.33965">
    <ele>309.37</ele>
   </trkpt>
   <trkpt lat="-37.8416" lon="145.33959000000002">
    <ele>308.26000000000005</ele>
   </trkpt>
   <trkpt lat="-37.84178" lon="145.33959000000002">
    <ele>307.19</ele>
   </trkpt>
   <trkpt lat="-37.841950000000004" lon="145.33969000000002">
    <ele>307.22</ele>
   </trkpt>
   <trkpt lat="-37.842200000000005" lon="145.33921">
    <ele>293.67</ele>
   </trkpt>
   <trkpt lat="-37.84219" lon="145.33922">
    <ele>293.67</ele>
   </trkpt>
   <trkpt lat="-37.842425001773286" lon="145.33857000210702">
    <ele>277.27000000000004</ele>
   </trkpt>
   <trkpt lat="-37.84266" lon="145.33792000000003">
    <ele>265.58000000000004</ele>
   </trkpt>
   <trkpt lat="-37.8427" lon="145.33763000000002">
    <ele>261.46000000000004</ele>
   </trkpt>
   <trkpt lat="-37.842850000000006" lon="145.33771000000002">
    <ele>259.15000000000003</ele>
   </trkpt>
   <trkpt lat="-37.84304" lon="145.33775">
    <ele>256.13</ele>
   </trkpt>
   <trkpt lat="-37.84317" lon="145.33780000000002">
    <ele>254.34</ele>
   </trkpt>
   <trkpt lat="-37.84357" lon="145.33804">
    <ele>252.52</ele>
   </trkpt>
   <trkpt lat="-37.84382" lon="145.33804">
    <ele>251.3</ele>
   </trkpt>
   <trkpt lat="-37.844" lon="145.33811">
    <ele>252.01000000000002</ele>
   </trkpt>
   <trkpt lat="-37.84398" lon="145.33809000000002">
    <ele>252.01000000000002</ele>
   </trkpt>
   <trkpt lat="-37.84422" lon="145.33827000000002">
    <ele>254.91000000000003</ele>
   </trkpt>
   <trkpt lat="-37.84458" lon="145.33867">
    <ele>256.14000000000004</ele>
   </trkpt>
   <trkpt lat="-37.8451" lon="145.33901">
    <ele>248.85000000000002</ele>
   </trkpt>
   <trkpt lat="-37.8457" lon="145.33971000000003">
    <ele>250.16</ele>
   </trkpt>
   <trkpt lat="-37.84595" lon="145.34006000000002">
    <ele>252.82999999999998</ele>
   </trkpt>
   <trkpt lat="-37.84617" lon="145.34048">
    <ele>253.38</ele>
   </trkpt>
   <trkpt lat="-37.84646" lon="145.34082">
    <ele>253.93000000000004</ele>
   </trkpt>
   <trkpt lat="-37.84666" lon="145.34091">
    <ele>255.04999999999998</ele>
   </trkpt>
   <trkpt lat="-37.846630000000005" lon="145.3409">
    <ele>255.04999999999998</ele>
   </trkpt>
   <trkpt lat="-37.84673" lon="145.34095000000002">
    <ele>255.74</ele>
   </trkpt>
   <trkpt lat="-37.84693" lon="145.3411">
    <ele>258.47</ele>
   </trkpt>
   <trkpt lat="-37.84713" lon="145.34135">
    <ele>260.5</ele>
   </trkpt>
   <trkpt lat="-37.84756" lon="145.34195000000003">
    <ele>268.94</ele>
   </trkpt>
   <trkpt lat="-37.84767" lon="145.34217">
    <ele>271.37</ele>
   </trkpt>
   <trkpt lat="-37.847730000000006" lon="145.34234">
    <ele>273.53</ele>
   </trkpt>
   <trkpt lat="-37.847730000000006" lon="145.34262">
    <ele>280.25</ele>
   </trkpt>
   <trkpt lat="-37.84767" lon="145.34276">
    <ele>280.25</ele>
   </trkpt>
   <trkpt lat="-37.84756" lon="145.34290000000001">
    <ele>283.36</ele>
   </trkpt>
   <trkpt lat="-37.84751" lon="145.34304">
    <ele>284.64</ele>
   </trkpt>
   <trkpt lat="-37.84745" lon="145.34362000000002">
    <ele>287.81</ele>
   </trkpt>
   <trkpt lat="-37.84747" lon="145.34383000000003">
    <ele>288.17</ele>
   </trkpt>
   <trkpt lat="-37.84745" lon="145.34394">
    <ele>288.65000000000003</ele>
   </trkpt>
   <trkpt lat="-37.84736" lon="145.34413">
    <ele>289.75</ele>
   </trkpt>
   <trkpt lat="-37.84716" lon="145.34429">
    <ele>289.84999999999997</ele>
   </trkpt>
   <trkpt lat="-37.84707" lon="145.34472000000002">
    <ele>287.8</ele>
   </trkpt>
   <trkpt lat="-37.84707" lon="145.34496000000001">
    <ele>287.86</ele>
   </trkpt>
   <trkpt lat="-37.847170000000006" lon="145.34528">
    <ele>288.44</ele>
   </trkpt>
   <trkpt lat="-37.84722" lon="145.34541000000002">
    <ele>288.62000000000006</ele>
   </trkpt>
   <trkpt lat="-37.84731" lon="145.34550000000002">
    <ele>288.68000000000006</ele>
   </trkpt>
   <trkpt lat="-37.84745" lon="145.34555">
    <ele>288.59000000000003</ele>
   </trkpt>
   <trkpt lat="-37.84756" lon="145.34556">
    <ele>288.16</ele>
   </trkpt>
   <trkpt lat="-37.84781" lon="145.34555">
    <ele>286.86</ele>
   </trkpt>
   <trkpt lat="-37.84789" lon="145.34557">
    <ele>286.86</ele>
   </trkpt>
   <trkpt lat="-37.84798" lon="145.34563">
    <ele>285.27000000000004</ele>
   </trkpt>
   <trkpt lat="-37.848200000000006" lon="145.3459">
    <ele>282.2</ele>
   </trkpt>
   <trkpt lat="-37.84848" lon="145.34639">
    <ele>278.90000000000003</ele>
   </trkpt>
   <trkpt lat="-37.84854" lon="145.34643">
    <ele>277.24</ele>
   </trkpt>
   <trkpt lat="-37.84857" lon="145.34639">
    <ele>277.24</ele>
   </trkpt>
   <trkpt lat="-37.84859" lon="145.34626">
    <ele>276.26</ele>
   </trkpt>
   <trkpt lat="-37.848600001899754" lon="145.34558999997228">
    <ele>272.29</ele>
   </trkpt>
   <trkpt lat="-37.84861" lon="145.34492">
    <ele>269.71</ele>
   </trkpt>
   <trkpt lat="-37.84868" lon="145.34415">
    <ele>268.33</ele>
   </trkpt>
   <trkpt lat="-37.84875" lon="145.34361">
    <ele>268.0</ele>
   </trkpt>
   <trkpt lat="-37.84886" lon="145.34412">
    <ele>272.2</ele>
   </trkpt>
   <trkpt lat="-37.84895" lon="145.34452000000002">
    <ele>279.80000000000007</ele>
   </trkpt>
   <trkpt lat="-37.84906" lon="145.34483">
    <ele>285.54</ele>
   </trkpt>
   <trkpt lat="-37.84906" lon="145.34485">
    <ele>285.54</ele>
   </trkpt>
   <trkpt lat="-37.84937" lon="145.34567">
    <ele>298.91</ele>
   </trkpt>
   <trkpt lat="-37.84964" lon="145.34674">
    <ele>308.86</ele>
   </trkpt>
   <trkpt lat="-37.84975" lon="145.34712000000002">
    <ele>312.03000000000003</ele>
   </trkpt>
   <trkpt lat="-37.85007" lon="145.34765000000002">
    <ele>320.69</ele>
   </trkpt>
   <trkpt lat="-37.85032" lon="145.34819000000002">
    <ele>329.46000000000004</ele>
   </trkpt>
   <trkpt lat="-37.85033" lon="145.34821000000002">
    <ele>329.46000000000004</ele>
   </trkpt>
   <trkpt lat="-37.8506" lon="145.34881000000001">
    <ele>338.06</ele>
   </trkpt>
   <trkpt lat="-37.8508" lon="145.34936000000002">
    <ele>344.2</ele>
   </trkpt>
   <trkpt lat="-37.851000000000006" lon="145.34969">
    <ele>355.65000000000003</ele>
   </trkpt>
   <trkpt lat="-37.851000000000006" lon="145.3497">
    <ele>355.65000000000003</ele>
   </trkpt>
   <trkpt lat="-37.85105" lon="145.34977">
    <ele>358.17</ele>
   </trkpt>
   <trkpt lat="-37.85116" lon="145.34979">
    <ele>361.09000000000003</ele>
   </trkpt>
   <trkpt lat="-37.85195" lon="145.34931">
    <ele>391.21000000000004</ele>
   </trkpt>
   <trkpt lat="-37.852380000000004" lon="145.34899000000001">
    <ele>407.78000000000003</ele>
   </trkpt>
   <trkpt lat="-37.852380000000004" lon="145.34898">
    <ele>407.78000000000003</ele>
   </trkpt>
   <trkpt lat="-37.85246" lon="145.34893000000002">
    <ele>411.6</ele>
   </trkpt>
   <trkpt lat="-37.85262" lon="145.34889">
    <ele>414.14</ele>
   </trkpt>
   <trkpt lat="-37.85284" lon="145.34871">
    <ele>424.03000000000003</ele>
   </trkpt>
   <trkpt lat="-37.85298" lon="145.34869">
    <ele>426.24</ele>
   </trkpt>
   <trkpt lat="-37.85329" lon="145.34838000000002">
    <ele>432.35</ele>
   </trkpt>
   <trkpt lat="-37.853440000000006" lon="145.34834">
    <ele>434.65000000000003</ele>
   </trkpt>
   <trkpt lat="-37.85343" lon="145.34844">
    <ele>434.81</ele>
   </trkpt>
   <trkpt lat="-37.85349" lon="145.34869">
    <ele>443.51</ele>
   </trkpt>
   <trkpt lat="-37.853730000000006" lon="145.34919000000002">
    <ele>447.70000000000005</ele>
   </trkpt>
   <trkpt lat="-37.853860000000005" lon="145.34941">
    <ele>449.5</ele>
   </trkpt>
   <trkpt lat="-37.85419" lon="145.34983000000003">
    <ele>456.87000000000006</ele>
   </trkpt>
   <trkpt lat="-37.85468" lon="145.35037">
    <ele>470.16</ele>
   </trkpt>
   <trkpt lat="-37.85507500138615" lon="145.35092499714384">
    <ele>479.81</ele>
   </trkpt>
   <trkpt lat="-37.855470000000004" lon="145.35148">
    <ele>488.12000000000006</ele>
   </trkpt>
   <trkpt lat="-37.85584" lon="145.35198000000003">
    <ele>496.68000000000006</ele>
   </trkpt>
   <trkpt lat="-37.85614" lon="145.35240000000002">
    <ele>505.18000000000006</ele>
   </trkpt>
   <trkpt lat="-37.85622" lon="145.35247">
    <ele>506.17</ele>
   </trkpt>
   <trkpt lat="-37.85636" lon="145.35252">
    <ele>507.21000000000004</ele>
   </trkpt>
   <trkpt lat="-37.85683" lon="145.35260000000002">
    <ele>505.55000000000007</ele>
   </trkpt>
   <trkpt lat="-37.85701" lon="145.35266000000001">
    <ele>503.8</ele>
   </trkpt>
   <trkpt lat="-37.85712" lon="145.35268000000002">
    <ele>501.24</ele>
   </trkpt>
   <trkpt lat="-37.85763499999471" lon="145.35270499982497">
    <ele>496.91</ele>
   </trkpt>
   <trkpt lat="-37.85815" lon="145.35273">
    <ele>488.77000000000004</ele>
   </trkpt>
   <trkpt lat="-37.85851" lon="145.35268000000002">
    <ele>486.00000000000006</ele>
   </trkpt>
   <trkpt lat="-37.8592" lon="145.35248">
    <ele>473.28000000000003</ele>
   </trkpt>
   <trkpt lat="-37.85945" lon="145.35244">
    <ele>470.99</ele>
   </trkpt>
   <trkpt lat="-37.8596" lon="145.35241000000002">
    <ele>468.6</ele>
   </trkpt>
   <trkpt lat="-37.85994" lon="145.35221">
    <ele>464.28000000000003</ele>
   </trkpt>
   <trkpt lat="-37.86023" lon="145.35196000000002">
    <ele>458.75000000000006</ele>
   </trkpt>
   <trkpt lat="-37.860490000000006" lon="145.35181">
    <ele>455.18</ele>
   </trkpt>
   <trkpt lat="-37.860960000000006" lon="145.35146">
    <ele>445.17</ele>
   </trkpt>
   <trkpt lat="-37.86104" lon="145.35133000000002">
    <ele>443.83000000000004</ele>
   </trkpt>
   <trkpt lat="-37.86115" lon="145.3511">
    <ele>439.69</ele>
   </trkpt>
   <trkpt lat="-37.86135" lon="145.35045000000002">
    <ele>432.24</ele>
   </trkpt>
   <trkpt lat="-37.86166" lon="145.34982000000002">
    <ele>425.96000000000004</ele>
   </trkpt>
   <trkpt lat="-37.86182" lon="145.34959">
    <ele>422.26</ele>
   </trkpt>
   <trkpt lat="-37.86224" lon="145.34912">
    <ele>411.61</ele>
   </trkpt>
   <trkpt lat="-37.86236" lon="145.34893000000002">
    <ele>409.63000000000005</ele>
   </trkpt>
   <trkpt lat="-37.86238" lon="145.34883000000002">
    <ele>408.53000000000003</ele>
   </trkpt>
   <trkpt lat="-37.862370000000006" lon="145.34855000000002">
    <ele>406.54</ele>
   </trkpt>
   <trkpt lat="-37.86211500119145" lon="145.3480099980435">
    <ele>401.99</ele>
   </trkpt>
   <trkpt lat="-37.86186" lon="145.34747000000002">
    <ele>402.74</ele>
   </trkpt>
   <trkpt lat="-37.861790000000006" lon="145.34698">
    <ele>402.35</ele>
   </trkpt>
   <trkpt lat="-37.86186" lon="145.34658000000002">
    <ele>400.33</ele>
   </trkpt>
   <trkpt lat="-37.86193" lon="145.34642000000002">
    <ele>399.5</ele>
   </trkpt>
   <trkpt lat="-37.86202" lon="145.34712000000002">
    <ele>407.02000000000004</ele>
   </trkpt>
   <trkpt lat="-37.86206" lon="145.34726">
    <ele>410.1</ele>
   </trkpt>
   <trkpt lat="-37.8622" lon="145.34749000000002">
    <ele>413.36000000000007</ele>
   </trkpt>
   <trkpt lat="-37.862300000000005" lon="145.3476">
    <ele>414.17</ele>
   </trkpt>
   <trkpt lat="-37.8622" lon="145.34749000000002">
    <ele>413.36000000000007</ele>
   </trkpt>
   <trkpt lat="-37.86206" lon="145.34726">
    <ele>410.1</ele>
   </trkpt>
   <trkpt lat="-37.86202" lon="145.34712000000002">
    <ele>407.02000000000004</ele>
   </trkpt>
   <trkpt lat="-37.86193" lon="145.34642000000002">
    <ele>399.5</ele>
   </trkpt>
   <trkpt lat="-37.86186" lon="145.34658000000002">
    <ele>400.33</ele>
   </trkpt>
   <trkpt lat="-37.861790000000006" lon="145.34698">
    <ele>402.35</ele>
   </trkpt>
   <trkpt lat="-37.86162" lon="145.34737">
    <ele>397.31000000000006</ele>
   </trkpt>
   <trkpt lat="-37.86162" lon="145.34753">
    <ele>396.17</ele>
   </trkpt>
   <trkpt lat="-37.86168" lon="145.34779">
    <ele>394.13000000000005</ele>
   </trkpt>
   <trkpt lat="-37.86164" lon="145.34794000000002">
    <ele>393.5</ele>
   </trkpt>
   <trkpt lat="-37.86159" lon="145.34802000000002">
    <ele>392.72</ele>
   </trkpt>
   <trkpt lat="-37.86128" lon="145.34822">
    <ele>389.43000000000006</ele>
   </trkpt>
   <trkpt lat="-37.86121" lon="145.34824">
    <ele>388.69000000000005</ele>
   </trkpt>
   <trkpt lat="-37.86112" lon="145.34822">
    <ele>386.31000000000006</ele>
   </trkpt>
   <trkpt lat="-37.86104" lon="145.34814">
    <ele>384.85</ele>
   </trkpt>
   <trkpt lat="-37.86097" lon="145.34804000000003">
    <ele>383.18</ele>
   </trkpt>
   <trkpt lat="-37.86097" lon="145.34788">
    <ele>381.79</ele>
   </trkpt>
   <trkpt lat="-37.86101" lon="145.34771">
    <ele>380.22</ele>
   </trkpt>
   <trkpt lat="-37.86101" lon="145.34763">
    <ele>379.58000000000004</ele>
   </trkpt>
   <trkpt lat="-37.86097" lon="145.34757000000002">
    <ele>378.07</ele>
   </trkpt>
   <trkpt lat="-37.86068" lon="145.34759000000003">
    <ele>372.85</ele>
   </trkpt>
   <trkpt lat="-37.86032" lon="145.34775000000002">
    <ele>366.77000000000004</ele>
   </trkpt>
   <trkpt lat="-37.86027" lon="145.34776000000002">
    <ele>366.77000000000004</ele>
   </trkpt>
   <trkpt lat="-37.85994" lon="145.34778">
    <ele>362.08</ele>
   </trkpt>
   <trkpt lat="-37.859930000000006" lon="145.34778">
    <ele>362.08</ele>
   </trkpt>
   <trkpt lat="-37.859500000000004" lon="145.34782">
    <ele>358.45000000000005</ele>
   </trkpt>
   <trkpt lat="-37.85942" lon="145.34772">
    <ele>351.98</ele>
   </trkpt>
   <trkpt lat="-37.859370000000006" lon="145.34754">
    <ele>346.03</ele>
   </trkpt>
   <trkpt lat="-37.85931" lon="145.34758000000002">
    <ele>346.03</ele>
   </trkpt>
   <trkpt lat="-37.85918" lon="145.3476">
    <ele>348.48</ele>
   </trkpt>
   <trkpt lat="-37.8586" lon="145.34761">
    <ele>351.92</ele>
   </trkpt>
   <trkpt lat="-37.85853" lon="145.34743">
    <ele>350.23</ele>
   </trkpt>
   <trkpt lat="-37.85833" lon="145.34718">
    <ele>346.15000000000003</ele>
   </trkpt>
   <trkpt lat="-37.85806" lon="145.34698">
    <ele>342.11</ele>
   </trkpt>
   <trkpt lat="-37.85797" lon="145.34686000000002">
    <ele>340.93</ele>
   </trkpt>
   <trkpt lat="-37.85783" lon="145.34678000000002">
    <ele>339.99</ele>
   </trkpt>
   <trkpt lat="-37.85761" lon="145.34657">
    <ele>335.66</ele>
   </trkpt>
   <trkpt lat="-37.857600000000005" lon="145.34657">
    <ele>335.66</ele>
   </trkpt>
   <trkpt lat="-37.8575" lon="145.34649000000002">
    <ele>333.6</ele>
   </trkpt>
   <trkpt lat="-37.8573" lon="145.34642000000002">
    <ele>332.27</ele>
   </trkpt>
   <trkpt lat="-37.85703" lon="145.34640000000002">
    <ele>330.21</ele>
   </trkpt>
   <trkpt lat="-37.85663" lon="145.34618">
    <ele>333.07000000000005</ele>
   </trkpt>
   <trkpt lat="-37.85622" lon="145.34578000000002">
    <ele>342.88</ele>
   </trkpt>
   <trkpt lat="-37.85609" lon="145.34559000000002">
    <ele>345.17</ele>
   </trkpt>
   <trkpt lat="-37.85593" lon="145.34545">
    <ele>349.44</ele>
   </trkpt>
   <trkpt lat="-37.85553" lon="145.34492">
    <ele>353.02000000000004</ele>
   </trkpt>
   <trkpt lat="-37.85544" lon="145.34475">
    <ele>353.35</ele>
   </trkpt>
   <trkpt lat="-37.85528" lon="145.34457">
    <ele>354.77000000000004</ele>
   </trkpt>
   <trkpt lat="-37.85515" lon="145.34415">
    <ele>354.23</ele>
   </trkpt>
   <trkpt lat="-37.8551" lon="145.34404">
    <ele>353.6</ele>
   </trkpt>
   <trkpt lat="-37.855050000000006" lon="145.34368">
    <ele>350.62000000000006</ele>
   </trkpt>
   <trkpt lat="-37.85492" lon="145.34354000000002">
    <ele>347.04</ele>
   </trkpt>
   <trkpt lat="-37.8549" lon="145.34348">
    <ele>347.04</ele>
   </trkpt>
   <trkpt lat="-37.85488" lon="145.34337000000002">
    <ele>345.02000000000004</ele>
   </trkpt>
   <trkpt lat="-37.85492" lon="145.34293000000002">
    <ele>339.01000000000005</ele>
   </trkpt>
   <trkpt lat="-37.854890000000005" lon="145.34286">
    <ele>338.46000000000004</ele>
   </trkpt>
   <trkpt lat="-37.85474" lon="145.3426">
    <ele>333.66</ele>
   </trkpt>
   <trkpt lat="-37.85472" lon="145.34233">
    <ele>330.02000000000004</ele>
   </trkpt>
   <trkpt lat="-37.85468" lon="145.34225">
    <ele>327.40000000000003</ele>
   </trkpt>
   <trkpt lat="-37.85448" lon="145.34206">
    <ele>318.36</ele>
   </trkpt>
   <trkpt lat="-37.85419" lon="145.34158000000002">
    <ele>307.96</ele>
   </trkpt>
   <trkpt lat="-37.85387" lon="145.34123000000002">
    <ele>310.22</ele>
   </trkpt>
   <trkpt lat="-37.85374" lon="145.34099">
    <ele>311.3</ele>
   </trkpt>
   <trkpt lat="-37.85365" lon="145.34067000000002">
    <ele>308.19</ele>
   </trkpt>
   <trkpt lat="-37.85358" lon="145.33991">
    <ele>298.48</ele>
   </trkpt>
   <trkpt lat="-37.85354" lon="145.33974">
    <ele>297.71000000000004</ele>
   </trkpt>
   <trkpt lat="-37.853460000000005" lon="145.33943000000002">
    <ele>297.35</ele>
   </trkpt>
   <trkpt lat="-37.8534" lon="145.33894">
    <ele>294.32</ele>
   </trkpt>
   <trkpt lat="-37.85333" lon="145.33871000000002">
    <ele>292.59000000000003</ele>
   </trkpt>
   <trkpt lat="-37.85333" lon="145.33833">
    <ele>288.26</ele>
   </trkpt>
   <trkpt lat="-37.85327" lon="145.33823">
    <ele>287.74000000000007</ele>
   </trkpt>
   <trkpt lat="-37.85313" lon="145.33813">
    <ele>289.53000000000003</ele>
   </trkpt>
   <trkpt lat="-37.85304" lon="145.33812">
    <ele>291.79</ele>
   </trkpt>
   <trkpt lat="-37.85293" lon="145.33818000000002">
    <ele>294.56000000000006</ele>
   </trkpt>
   <trkpt lat="-37.85242" lon="145.33856">
    <ele>313.02000000000004</ele>
   </trkpt>
   <trkpt lat="-37.85239" lon="145.33853000000002">
    <ele>314.25</ele>
   </trkpt>
   <trkpt lat="-37.8524" lon="145.33854000000002">
    <ele>314.25</ele>
   </trkpt>
   <trkpt lat="-37.85233" lon="145.33851">
    <ele>315.78</ele>
   </trkpt>
   <trkpt lat="-37.85215" lon="145.33823">
    <ele>317.51</ele>
   </trkpt>
   <trkpt lat="-37.85206" lon="145.33798000000002">
    <ele>317.42</ele>
   </trkpt>
   <trkpt lat="-37.8519" lon="145.33773000000002">
    <ele>317.8</ele>
   </trkpt>
   <trkpt lat="-37.85177" lon="145.33761">
    <ele>317.83</ele>
   </trkpt>
   <trkpt lat="-37.85172" lon="145.33751">
    <ele>317.55</ele>
   </trkpt>
   <trkpt lat="-37.85168" lon="145.33735000000001">
    <ele>316.82000000000005</ele>
   </trkpt>
   <trkpt lat="-37.85139" lon="145.33696">
    <ele>315.12</ele>
   </trkpt>
   <trkpt lat="-37.85116" lon="145.33651">
    <ele>311.23</ele>
   </trkpt>
   <trkpt lat="-37.851060000000004" lon="145.33639000000002">
    <ele>310.65000000000003</ele>
   </trkpt>
   <trkpt lat="-37.85096" lon="145.33634">
    <ele>310.70000000000005</ele>
   </trkpt>
   <trkpt lat="-37.85085" lon="145.33637000000002">
    <ele>310.65000000000003</ele>
   </trkpt>
   <trkpt lat="-37.85074" lon="145.33634">
    <ele>310.42</ele>
   </trkpt>
   <trkpt lat="-37.85067" lon="145.33617">
    <ele>308.51</ele>
   </trkpt>
   <trkpt lat="-37.85063" lon="145.33599">
    <ele>306.27000000000004</ele>
   </trkpt>
   <trkpt lat="-37.85051" lon="145.33530000000002">
    <ele>294.26</ele>
   </trkpt>
   <trkpt lat="-37.85051" lon="145.33468000000002">
    <ele>280.65</ele>
   </trkpt>
   <trkpt lat="-37.850645001564736" lon="145.33407000115557">
    <ele>265.21</ele>
   </trkpt>
   <trkpt lat="-37.85078" lon="145.33346">
    <ele>254.45000000000002</ele>
   </trkpt>
   <trkpt lat="-37.8508" lon="145.33325000000002">
    <ele>251.17</ele>
   </trkpt>
   <trkpt lat="-37.85079" lon="145.33313">
    <ele>248.52</ele>
   </trkpt>
   <trkpt lat="-37.85079" lon="145.33312">
    <ele>248.52</ele>
   </trkpt>
   <trkpt lat="-37.85076" lon="145.33294">
    <ele>244.96</ele>
   </trkpt>
   <trkpt lat="-37.85085" lon="145.33266">
    <ele>239.23000000000002</ele>
   </trkpt>
   <trkpt lat="-37.850860000000004" lon="145.33241">
    <ele>231.24000000000004</ele>
   </trkpt>
   <trkpt lat="-37.85036" lon="145.33271000000002">
    <ele>233.84</ele>
   </trkpt>
   <trkpt lat="-37.8502" lon="145.33283">
    <ele>234.87</ele>
   </trkpt>
   <trkpt lat="-37.85004" lon="145.333">
    <ele>236.47</ele>
   </trkpt>
   <trkpt lat="-37.84989" lon="145.33313">
    <ele>237.38</ele>
   </trkpt>
   <trkpt lat="-37.84975" lon="145.33316000000002">
    <ele>238.57000000000002</ele>
   </trkpt>
   <trkpt lat="-37.84926" lon="145.33305000000001">
    <ele>240.34000000000003</ele>
   </trkpt>
   <trkpt lat="-37.849140000000006" lon="145.33307000000002">
    <ele>241.49</ele>
   </trkpt>
   <trkpt lat="-37.84899" lon="145.33313">
    <ele>241.89000000000001</ele>
   </trkpt>
   <trkpt lat="-37.848800000000004" lon="145.33329">
    <ele>243.04</ele>
   </trkpt>
   <trkpt lat="-37.84857" lon="145.33327">
    <ele>240.55</ele>
   </trkpt>
   <trkpt lat="-37.84848" lon="145.3333">
    <ele>240.24</ele>
   </trkpt>
   <trkpt lat="-37.84839" lon="145.33338">
    <ele>239.70000000000002</ele>
   </trkpt>
   <trkpt lat="-37.84792" lon="145.33391">
    <ele>235.57000000000002</ele>
   </trkpt>
   <trkpt lat="-37.84778" lon="145.33398000000003">
    <ele>233.72</ele>
   </trkpt>
   <trkpt lat="-37.84772" lon="145.33393">
    <ele>233.72</ele>
   </trkpt>
   <trkpt lat="-37.84767" lon="145.33385">
    <ele>231.23000000000002</ele>
   </trkpt>
   <trkpt lat="-37.84761" lon="145.33336">
    <ele>227.25</ele>
   </trkpt>
   <trkpt lat="-37.84761" lon="145.33335000000002">
    <ele>227.25</ele>
   </trkpt>
   <trkpt lat="-37.84754" lon="145.3331">
    <ele>225.60000000000002</ele>
   </trkpt>
   <trkpt lat="-37.84745" lon="145.33298000000002">
    <ele>223.62</ele>
   </trkpt>
   <trkpt lat="-37.847390000000004" lon="145.33296">
    <ele>222.58</ele>
   </trkpt>
   <trkpt lat="-37.84731" lon="145.33297000000002">
    <ele>222.58</ele>
   </trkpt>
   <trkpt lat="-37.84713" lon="145.33309">
    <ele>220.35000000000002</ele>
   </trkpt>
   <trkpt lat="-37.84664" lon="145.33361000000002">
    <ele>216.4</ele>
   </trkpt>
   <trkpt lat="-37.84593" lon="145.33428">
    <ele>212.34000000000003</ele>
   </trkpt>
   <trkpt lat="-37.84581" lon="145.33486000000002">
    <ele>213.05</ele>
   </trkpt>
   <trkpt lat="-37.84581" lon="145.33519">
    <ele>213.74</ele>
   </trkpt>
   <trkpt lat="-37.84584" lon="145.33532000000002">
    <ele>214.4</ele>
   </trkpt>
   <trkpt lat="-37.84584" lon="145.33534">
    <ele>214.4</ele>
   </trkpt>
   <trkpt lat="-37.84595" lon="145.33595000000003">
    <ele>218.18</ele>
   </trkpt>
   <trkpt lat="-37.84601" lon="145.33611000000002">
    <ele>219.37</ele>
   </trkpt>
   <trkpt lat="-37.84613" lon="145.33619000000002">
    <ele>220.8</ele>
   </trkpt>
   <trkpt lat="-37.84626" lon="145.33624">
    <ele>222.51000000000002</ele>
   </trkpt>
   <trkpt lat="-37.8466" lon="145.33685">
    <ele>226.12</ele>
   </trkpt>
   <trkpt lat="-37.84676" lon="145.33734">
    <ele>227.25</ele>
   </trkpt>
   <trkpt lat="-37.84675" lon="145.33733">
    <ele>227.25</ele>
   </trkpt>
   <trkpt lat="-37.84684" lon="145.33762000000002">
    <ele>228.80000000000004</ele>
   </trkpt>
   <trkpt lat="-37.84698" lon="145.33795">
    <ele>231.14000000000001</ele>
   </trkpt>
   <trkpt lat="-37.84729" lon="145.33877">
    <ele>236.78</ele>
   </trkpt>
   <trkpt lat="-37.84756" lon="145.33926000000002">
    <ele>241.40000000000003</ele>
   </trkpt>
   <trkpt lat="-37.84765" lon="145.33934000000002">
    <ele>243.62000000000003</ele>
   </trkpt>
   <trkpt lat="-37.84776" lon="145.33938">
    <ele>244.44000000000003</ele>
   </trkpt>
   <trkpt lat="-37.84807" lon="145.33973">
    <ele>246.97000000000003</ele>
   </trkpt>
   <trkpt lat="-37.84816" lon="145.33994">
    <ele>248.92000000000002</ele>
   </trkpt>
   <trkpt lat="-37.84845" lon="145.34047">
    <ele>253.65000000000003</ele>
   </trkpt>
   <trkpt lat="-37.84852" lon="145.34067000000002">
    <ele>255.6</ele>
   </trkpt>
   <trkpt lat="-37.84869000161858" lon="145.3412899985462">
    <ele>260.14000000000004</ele>
   </trkpt>
   <trkpt lat="-37.84886" lon="145.34191">
    <ele>262.40000000000003</ele>
   </trkpt>
   <trkpt lat="-37.84888" lon="145.34232">
    <ele>264.29</ele>
   </trkpt>
   <trkpt lat="-37.84886" lon="145.34281000000001">
    <ele>266.36</ele>
   </trkpt>
   <trkpt lat="-37.848770001908534" lon="145.34348000073928">
    <ele>267.62</ele>
   </trkpt>
   <trkpt lat="-37.84868" lon="145.34415">
    <ele>268.33</ele>
   </trkpt>
   <trkpt lat="-37.84861" lon="145.34492">
    <ele>269.71</ele>
   </trkpt>
   <trkpt lat="-37.848600001896216" lon="145.34559000020948">
    <ele>272.29</ele>
   </trkpt>
   <trkpt lat="-37.84859" lon="145.34626">
    <ele>276.26</ele>
   </trkpt>
   <trkpt lat="-37.84857" lon="145.34639">
    <ele>277.24</ele>
   </trkpt>
   <trkpt lat="-37.84854" lon="145.34643">
    <ele>277.24</ele>
   </trkpt>
   <trkpt lat="-37.84848" lon="145.34639">
    <ele>278.90000000000003</ele>
   </trkpt>
   <trkpt lat="-37.848200000000006" lon="145.3459">
    <ele>282.2</ele>
   </trkpt>
   <trkpt lat="-37.84798" lon="145.34563">
    <ele>285.27000000000004</ele>
   </trkpt>
   <trkpt lat="-37.84789" lon="145.34557">
    <ele>286.86</ele>
   </trkpt>
   <trkpt lat="-37.84781" lon="145.34555">
    <ele>286.86</ele>
   </trkpt>
   <trkpt lat="-37.84756" lon="145.34556">
    <ele>288.16</ele>
   </trkpt>
   <trkpt lat="-37.84745" lon="145.34555">
    <ele>288.49</ele>
   </trkpt>
   <trkpt lat="-37.84731" lon="145.34550000000002">
    <ele>288.68000000000006</ele>
   </trkpt>
   <trkpt lat="-37.84722" lon="145.34541000000002">
    <ele>288.62000000000006</ele>
   </trkpt>
   <trkpt lat="-37.847170000000006" lon="145.34528">
    <ele>288.44</ele>
   </trkpt>
   <trkpt lat="-37.84707" lon="145.34496000000001">
    <ele>287.86</ele>
   </trkpt>
   <trkpt lat="-37.84707" lon="145.34472000000002">
    <ele>287.8</ele>
   </trkpt>
   <trkpt lat="-37.84716" lon="145.34429">
    <ele>289.84999999999997</ele>
   </trkpt>
  </trkseg>
 </trk>
</gpx>
