<?xml version="1.0" encoding="UTF-8"?>
<gpx creator="StravaGPX" version="1.1" xmlns="http://www.topografix.com/GPX/1/1" xmlns:xsi="http://www.w3.org/2001/XMLSchema-instance" xsi:schemaLocation="http://www.topografix.com/GPX/1/1 http://www.topografix.com/GPX/1/1/gpx.xsd">
 <metadata>
  <name>DTR Traditional 5/6/22 20k</name>
  <author>
   <name>john csorgo</name>
  </author>
  <copyright author="OpenStreetMap contributors">
   <year>2020</year>
   <license>https://www.openstreetmap.org/copyright</license>
  </copyright>
 </metadata>
 <trk>
  <name>DTR Traditional 5/6/22 20k</name>
  <link href=""/>
  <type>running</type>
  <trkseg>
   <trkpt lat="-37.847170000000006" lon="145.34429">
    <ele>289.87</ele>
   </trkpt>
   <trkpt lat="-37.84736" lon="145.34413">
    <ele>289.75</ele>
   </trkpt>
   <trkpt lat="-37.84745" lon="145.34394">
    <ele>288.65000000000003</ele>
   </trkpt>
   <trkpt lat="-37.84747" lon="145.34383000000003">
    <ele>288.17</ele>
   </trkpt>
   <trkpt lat="-37.84745" lon="145.34362000000002">
    <ele>287.81</ele>
   </trkpt>
   <trkpt lat="-37.84751" lon="145.34304">
    <ele>284.64</ele>
   </trkpt>
   <trkpt lat="-37.84756" lon="145.34290000000001">
    <ele>282.63000000000005</ele>
   </trkpt>
   <trkpt lat="-37.84767" lon="145.34276">
    <ele>280.25</ele>
   </trkpt>
   <trkpt lat="-37.847730000000006" lon="145.34262">
    <ele>275.15</ele>
   </trkpt>
   <trkpt lat="-37.847730000000006" lon="145.34234">
    <ele>273.53</ele>
   </trkpt>
   <trkpt lat="-37.84767" lon="145.34217">
    <ele>271.37</ele>
   </trkpt>
   <trkpt lat="-37.84756" lon="145.34195000000003">
    <ele>268.94</ele>
   </trkpt>
   <trkpt lat="-37.84713" lon="145.34135">
    <ele>260.5</ele>
   </trkpt>
   <trkpt lat="-37.84693" lon="145.3411">
    <ele>258.47</ele>
   </trkpt>
   <trkpt lat="-37.84685" lon="145.34103000000002">
    <ele>257.51</ele>
   </trkpt>
   <trkpt lat="-37.84687" lon="145.34105000000002">
    <ele>257.51</ele>
   </trkpt>
   <trkpt lat="-37.84673" lon="145.34095000000002">
    <ele>255.74</ele>
   </trkpt>
   <trkpt lat="-37.84646" lon="145.34082">
    <ele>253.93000000000004</ele>
   </trkpt>
   <trkpt lat="-37.84617" lon="145.34048">
    <ele>253.38</ele>
   </trkpt>
   <trkpt lat="-37.84595" lon="145.34006000000002">
    <ele>252.54999999999998</ele>
   </trkpt>
   <trkpt lat="-37.8457" lon="145.33971000000003">
    <ele>250.16</ele>
   </trkpt>
   <trkpt lat="-37.84539" lon="145.33934000000002">
    <ele>248.07000000000002</ele>
   </trkpt>
   <trkpt lat="-37.8451" lon="145.33901">
    <ele>249.60000000000002</ele>
   </trkpt>
   <trkpt lat="-37.84458" lon="145.33867">
    <ele>256.35</ele>
   </trkpt>
   <trkpt lat="-37.84422" lon="145.33827000000002">
    <ele>253.36</ele>
   </trkpt>
   <trkpt lat="-37.84398" lon="145.33810000000003">
    <ele>251.68</ele>
   </trkpt>
   <trkpt lat="-37.84382" lon="145.33804">
    <ele>251.26000000000005</ele>
   </trkpt>
   <trkpt lat="-37.84357" lon="145.33804">
    <ele>252.52</ele>
   </trkpt>
   <trkpt lat="-37.84317" lon="145.33780000000002">
    <ele>254.84</ele>
   </trkpt>
   <trkpt lat="-37.84304" lon="145.33775">
    <ele>256.13</ele>
   </trkpt>
   <trkpt lat="-37.842850000000006" lon="145.33771000000002">
    <ele>259.8</ele>
   </trkpt>
   <trkpt lat="-37.8427" lon="145.33763000000002">
    <ele>261.46000000000004</ele>
   </trkpt>
   <trkpt lat="-37.84264" lon="145.3374">
    <ele>257.71</ele>
   </trkpt>
   <trkpt lat="-37.84272" lon="145.33701000000002">
    <ele>250.75000000000003</ele>
   </trkpt>
   <trkpt lat="-37.84288" lon="145.33671">
    <ele>244.44000000000003</ele>
   </trkpt>
   <trkpt lat="-37.84297" lon="145.33640000000003">
    <ele>240.98000000000002</ele>
   </trkpt>
   <trkpt lat="-37.84322" lon="145.33603000000002">
    <ele>233.08</ele>
   </trkpt>
   <trkpt lat="-37.84344" lon="145.33578">
    <ele>226.89000000000001</ele>
   </trkpt>
   <trkpt lat="-37.84411" lon="145.33519">
    <ele>216.67000000000002</ele>
   </trkpt>
   <trkpt lat="-37.84438" lon="145.33501">
    <ele>212.67000000000002</ele>
   </trkpt>
   <trkpt lat="-37.84451" lon="145.33489">
    <ele>209.47</ele>
   </trkpt>
   <trkpt lat="-37.84458" lon="145.3348">
    <ele>208.87000000000003</ele>
   </trkpt>
   <trkpt lat="-37.84469" lon="145.33455">
    <ele>207.02</ele>
   </trkpt>
   <trkpt lat="-37.84469" lon="145.33442000000002">
    <ele>205.43000000000004</ele>
   </trkpt>
   <trkpt lat="-37.84465" lon="145.33432000000002">
    <ele>204.73000000000002</ele>
   </trkpt>
   <trkpt lat="-37.84458" lon="145.33425000000003">
    <ele>204.19</ele>
   </trkpt>
   <trkpt lat="-37.84431" lon="145.33408">
    <ele>204.01000000000002</ele>
   </trkpt>
   <trkpt lat="-37.84422" lon="145.33398000000003">
    <ele>204.0</ele>
   </trkpt>
   <trkpt lat="-37.84416" lon="145.33384">
    <ele>204.12000000000003</ele>
   </trkpt>
   <trkpt lat="-37.84409" lon="145.33361000000002">
    <ele>204.05</ele>
   </trkpt>
   <trkpt lat="-37.844100000000005" lon="145.33361000000002">
    <ele>204.01000000000002</ele>
   </trkpt>
   <trkpt lat="-37.84389" lon="145.33365">
    <ele>205.45000000000002</ele>
   </trkpt>
   <trkpt lat="-37.84371" lon="145.33363">
    <ele>205.91</ele>
   </trkpt>
   <trkpt lat="-37.84353" lon="145.33365">
    <ele>207.43</ele>
   </trkpt>
   <trkpt lat="-37.84313" lon="145.33376">
    <ele>212.16000000000003</ele>
   </trkpt>
   <trkpt lat="-37.84295" lon="145.33379000000002">
    <ele>216.89000000000001</ele>
   </trkpt>
   <trkpt lat="-37.84243" lon="145.33378000000002">
    <ele>223.72000000000003</ele>
   </trkpt>
   <trkpt lat="-37.84176" lon="145.3339">
    <ele>229.26000000000002</ele>
   </trkpt>
   <trkpt lat="-37.84116" lon="145.33403">
    <ele>230.59</ele>
   </trkpt>
   <trkpt lat="-37.84091" lon="145.33406000000002">
    <ele>230.31</ele>
   </trkpt>
   <trkpt lat="-37.84055" lon="145.33406000000002">
    <ele>229.38000000000002</ele>
   </trkpt>
   <trkpt lat="-37.84004" lon="145.3341">
    <ele>228.32000000000002</ele>
   </trkpt>
   <trkpt lat="-37.83979" lon="145.33409">
    <ele>227.34</ele>
   </trkpt>
   <trkpt lat="-37.839780000000005" lon="145.33409">
    <ele>227.34</ele>
   </trkpt>
   <trkpt lat="-37.83954000000001" lon="145.33409">
    <ele>226.14000000000001</ele>
   </trkpt>
   <trkpt lat="-37.83901" lon="145.33413000000002">
    <ele>223.88000000000002</ele>
   </trkpt>
   <trkpt lat="-37.83825" lon="145.33406000000002">
    <ele>226.9</ele>
   </trkpt>
   <trkpt lat="-37.838010000000004" lon="145.33407000000003">
    <ele>228.55000000000004</ele>
   </trkpt>
   <trkpt lat="-37.83722" lon="145.33425000000003">
    <ele>235.40000000000003</ele>
   </trkpt>
   <trkpt lat="-37.83677" lon="145.33428">
    <ele>236.14000000000001</ele>
   </trkpt>
   <trkpt lat="-37.83628" lon="145.33443000000003">
    <ele>237.24</ele>
   </trkpt>
   <trkpt lat="-37.835750000000004" lon="145.33454">
    <ele>237.44</ele>
   </trkpt>
   <trkpt lat="-37.835440000000006" lon="145.33481">
    <ele>237.39000000000001</ele>
   </trkpt>
   <trkpt lat="-37.8352" lon="145.33509">
    <ele>236.88</ele>
   </trkpt>
   <trkpt lat="-37.83496" lon="145.33540000000002">
    <ele>235.91</ele>
   </trkpt>
   <trkpt lat="-37.834970000000006" lon="145.33546">
    <ele>235.91</ele>
   </trkpt>
   <trkpt lat="-37.83498" lon="145.33549000000002">
    <ele>236.94</ele>
   </trkpt>
   <trkpt lat="-37.83518" lon="145.33557000000002">
    <ele>240.21</ele>
   </trkpt>
   <trkpt lat="-37.83538" lon="145.33562">
    <ele>242.65000000000003</ele>
   </trkpt>
   <trkpt lat="-37.83561" lon="145.33572">
    <ele>248.54</ele>
   </trkpt>
   <trkpt lat="-37.83574" lon="145.33575000000002">
    <ele>252.78</ele>
   </trkpt>
   <trkpt lat="-37.8359" lon="145.33574000000002">
    <ele>257.29</ele>
   </trkpt>
   <trkpt lat="-37.83619" lon="145.33565000000002">
    <ele>262.42</ele>
   </trkpt>
   <trkpt lat="-37.83634" lon="145.33562">
    <ele>266.72</ele>
   </trkpt>
   <trkpt lat="-37.83652" lon="145.33563">
    <ele>269.08000000000004</ele>
   </trkpt>
   <trkpt lat="-37.837050000000005" lon="145.33555">
    <ele>275.46000000000004</ele>
   </trkpt>
   <trkpt lat="-37.83731" lon="145.33561">
    <ele>278.63000000000005</ele>
   </trkpt>
   <trkpt lat="-37.83789" lon="145.33617">
    <ele>293.8</ele>
   </trkpt>
   <trkpt lat="-37.83805" lon="145.33651">
    <ele>298.87</ele>
   </trkpt>
   <trkpt lat="-37.83813" lon="145.33708000000001">
    <ele>308.61000000000007</ele>
   </trkpt>
   <trkpt lat="-37.83816" lon="145.33717000000001">
    <ele>310.53000000000003</ele>
   </trkpt>
   <trkpt lat="-37.83825" lon="145.33732">
    <ele>310.53000000000003</ele>
   </trkpt>
   <trkpt lat="-37.83845" lon="145.33756000000002">
    <ele>319.27000000000004</ele>
   </trkpt>
   <trkpt lat="-37.83876" lon="145.33791000000002">
    <ele>325.52000000000004</ele>
   </trkpt>
   <trkpt lat="-37.83928" lon="145.33822">
    <ele>334.32</ele>
   </trkpt>
   <trkpt lat="-37.83885" lon="145.33808000000002">
    <ele>331.1</ele>
   </trkpt>
   <trkpt lat="-37.8385" lon="145.33802">
    <ele>331.40000000000003</ele>
   </trkpt>
   <trkpt lat="-37.83851000000001" lon="145.33802">
    <ele>331.40000000000003</ele>
   </trkpt>
   <trkpt lat="-37.83809" lon="145.33800000000002">
    <ele>335.61</ele>
   </trkpt>
   <trkpt lat="-37.83766" lon="145.33823">
    <ele>344.80000000000007</ele>
   </trkpt>
   <trkpt lat="-37.836940000000006" lon="145.33883">
    <ele>357.67</ele>
   </trkpt>
   <trkpt lat="-37.83677" lon="145.339">
    <ele>359.28000000000003</ele>
   </trkpt>
   <trkpt lat="-37.83625" lon="145.33926000000002">
    <ele>359.90000000000003</ele>
   </trkpt>
   <trkpt lat="-37.83606" lon="145.3394">
    <ele>359.47</ele>
   </trkpt>
   <trkpt lat="-37.83576" lon="145.33959000000002">
    <ele>355.94000000000005</ele>
   </trkpt>
   <trkpt lat="-37.83543" lon="145.33977000000002">
    <ele>350.85</ele>
   </trkpt>
   <trkpt lat="-37.835150000000006" lon="145.33989000000003">
    <ele>345.96000000000004</ele>
   </trkpt>
   <trkpt lat="-37.83475" lon="145.34023000000002">
    <ele>339.47</ele>
   </trkpt>
   <trkpt lat="-37.83442" lon="145.34049000000002">
    <ele>344.6</ele>
   </trkpt>
   <trkpt lat="-37.83415" lon="145.34074">
    <ele>346.88</ele>
   </trkpt>
   <trkpt lat="-37.83410000000001" lon="145.34075">
    <ele>346.05</ele>
   </trkpt>
   <trkpt lat="-37.83397" lon="145.34079">
    <ele>343.68</ele>
   </trkpt>
   <trkpt lat="-37.83357" lon="145.34077000000002">
    <ele>333.71</ele>
   </trkpt>
   <trkpt lat="-37.83337" lon="145.34082">
    <ele>330.24</ele>
   </trkpt>
   <trkpt lat="-37.83323" lon="145.34098">
    <ele>329.25000000000006</ele>
   </trkpt>
   <trkpt lat="-37.83301" lon="145.34152">
    <ele>329.33</ele>
   </trkpt>
   <trkpt lat="-37.8327" lon="145.34184000000002">
    <ele>327.03000000000003</ele>
   </trkpt>
   <trkpt lat="-37.83238" lon="145.34191">
    <ele>329.62</ele>
   </trkpt>
   <trkpt lat="-37.83178" lon="145.34217">
    <ele>331.66</ele>
   </trkpt>
   <trkpt lat="-37.83164" lon="145.34224">
    <ele>331.35</ele>
   </trkpt>
   <trkpt lat="-37.83164" lon="145.34225">
    <ele>331.35</ele>
   </trkpt>
   <trkpt lat="-37.83153" lon="145.3424">
    <ele>331.40000000000003</ele>
   </trkpt>
   <trkpt lat="-37.83144" lon="145.34259">
    <ele>331.92</ele>
   </trkpt>
   <trkpt lat="-37.83124" lon="145.34334">
    <ele>332.75000000000006</ele>
   </trkpt>
   <trkpt lat="-37.83113" lon="145.34359">
    <ele>333.63000000000005</ele>
   </trkpt>
   <trkpt lat="-37.83095" lon="145.34385">
    <ele>333.56</ele>
   </trkpt>
   <trkpt lat="-37.83039" lon="145.34408000000002">
    <ele>336.03000000000003</ele>
   </trkpt>
   <trkpt lat="-37.830400000000004" lon="145.34408000000002">
    <ele>336.03000000000003</ele>
   </trkpt>
   <trkpt lat="-37.83034" lon="145.34411">
    <ele>335.8</ele>
   </trkpt>
   <trkpt lat="-37.829930000000004" lon="145.34408000000002">
    <ele>329.85</ele>
   </trkpt>
   <trkpt lat="-37.829620000000006" lon="145.34424">
    <ele>325.97</ele>
   </trkpt>
   <trkpt lat="-37.82929" lon="145.34414">
    <ele>322.79</ele>
   </trkpt>
   <trkpt lat="-37.82912" lon="145.34417000000002">
    <ele>324.26000000000005</ele>
   </trkpt>
   <trkpt lat="-37.82891" lon="145.3443">
    <ele>328.81000000000006</ele>
   </trkpt>
   <trkpt lat="-37.82862" lon="145.34468">
    <ele>338.93</ele>
   </trkpt>
   <trkpt lat="-37.82844" lon="145.34486">
    <ele>340.71</ele>
   </trkpt>
   <trkpt lat="-37.82797" lon="145.34504">
    <ele>338.89000000000004</ele>
   </trkpt>
   <trkpt lat="-37.82755" lon="145.34513">
    <ele>340.43</ele>
   </trkpt>
   <trkpt lat="-37.82681" lon="145.34565">
    <ele>351.31</ele>
   </trkpt>
   <trkpt lat="-37.82681" lon="145.34564">
    <ele>351.17</ele>
   </trkpt>
   <trkpt lat="-37.82656" lon="145.34569000000002">
    <ele>356.40000000000003</ele>
   </trkpt>
   <trkpt lat="-37.82627" lon="145.34583">
    <ele>363.46</ele>
   </trkpt>
   <trkpt lat="-37.82569" lon="145.34635">
    <ele>369.43</ele>
   </trkpt>
   <trkpt lat="-37.82531" lon="145.34704000000002">
    <ele>379.99000000000007</ele>
   </trkpt>
   <trkpt lat="-37.82506" lon="145.34728">
    <ele>393.95</ele>
   </trkpt>
   <trkpt lat="-37.824555002667815" lon="145.3480750054461">
    <ele>416.12000000000006</ele>
   </trkpt>
   <trkpt lat="-37.82405" lon="145.34887">
    <ele>423.13000000000005</ele>
   </trkpt>
   <trkpt lat="-37.823875002051466" lon="145.34956000148267">
    <ele>428.95000000000005</ele>
   </trkpt>
   <trkpt lat="-37.8237" lon="145.35025000000002">
    <ele>441.88000000000005</ele>
   </trkpt>
   <trkpt lat="-37.82343" lon="145.35046">
    <ele>443.55000000000007</ele>
   </trkpt>
   <trkpt lat="-37.823" lon="145.35069000000001">
    <ele>446.19</ele>
   </trkpt>
   <trkpt lat="-37.8226" lon="145.35107000000002">
    <ele>447.44000000000005</ele>
   </trkpt>
   <trkpt lat="-37.822590000000005" lon="145.35107000000002">
    <ele>447.44000000000005</ele>
   </trkpt>
   <trkpt lat="-37.82211" lon="145.35201">
    <ele>435.72</ele>
   </trkpt>
   <trkpt lat="-37.82159" lon="145.35263">
    <ele>418.78000000000003</ele>
   </trkpt>
   <trkpt lat="-37.82155" lon="145.35288">
    <ele>416.77000000000004</ele>
   </trkpt>
   <trkpt lat="-37.82159" lon="145.35368000000003">
    <ele>408.48</ele>
   </trkpt>
   <trkpt lat="-37.82164" lon="145.35381">
    <ele>407.65</ele>
   </trkpt>
   <trkpt lat="-37.82193" lon="145.3544">
    <ele>397.45000000000005</ele>
   </trkpt>
   <trkpt lat="-37.82204" lon="145.35479">
    <ele>394.93000000000006</ele>
   </trkpt>
   <trkpt lat="-37.82204" lon="145.35498">
    <ele>396.09000000000003</ele>
   </trkpt>
   <trkpt lat="-37.82202" lon="145.35513">
    <ele>396.5400000000001</ele>
   </trkpt>
   <trkpt lat="-37.82164" lon="145.35581000000002">
    <ele>398.4800000000001</ele>
   </trkpt>
   <trkpt lat="-37.821540000000006" lon="145.35603">
    <ele>397.57000000000005</ele>
   </trkpt>
   <trkpt lat="-37.82155" lon="145.35602">
    <ele>397.6</ele>
   </trkpt>
   <trkpt lat="-37.821450000000006" lon="145.35625000000002">
    <ele>397.25000000000006</ele>
   </trkpt>
   <trkpt lat="-37.82126" lon="145.35643000000002">
    <ele>397.1</ele>
   </trkpt>
   <trkpt lat="-37.82112" lon="145.35653000000002">
    <ele>395.03000000000003</ele>
   </trkpt>
   <trkpt lat="-37.82099" lon="145.35655">
    <ele>394.31000000000006</ele>
   </trkpt>
   <trkpt lat="-37.82085" lon="145.35671000000002">
    <ele>393.87000000000006</ele>
   </trkpt>
   <trkpt lat="-37.82045" lon="145.3573">
    <ele>394.08000000000004</ele>
   </trkpt>
   <trkpt lat="-37.82043" lon="145.35744000000003">
    <ele>393.98</ele>
   </trkpt>
   <trkpt lat="-37.820420000000006" lon="145.35778000000002">
    <ele>394.14000000000004</ele>
   </trkpt>
   <trkpt lat="-37.8205" lon="145.35833000000002">
    <ele>394.43000000000006</ele>
   </trkpt>
   <trkpt lat="-37.82043" lon="145.35848000000001">
    <ele>394.5400000000001</ele>
   </trkpt>
   <trkpt lat="-37.820330000000006" lon="145.35863">
    <ele>394.61</ele>
   </trkpt>
   <trkpt lat="-37.81987" lon="145.35896000000002">
    <ele>391.08000000000004</ele>
   </trkpt>
   <trkpt lat="-37.81951" lon="145.35937">
    <ele>391.44</ele>
   </trkpt>
   <trkpt lat="-37.81929" lon="145.35952">
    <ele>391.99</ele>
   </trkpt>
   <trkpt lat="-37.81895" lon="145.35959000000003">
    <ele>388.63</ele>
   </trkpt>
   <trkpt lat="-37.81873" lon="145.35982">
    <ele>378.84</ele>
   </trkpt>
   <trkpt lat="-37.81864" lon="145.35987">
    <ele>378.84</ele>
   </trkpt>
   <trkpt lat="-37.81857" lon="145.36002000000002">
    <ele>378.42</ele>
   </trkpt>
   <trkpt lat="-37.81857" lon="145.36003000000002">
    <ele>378.42</ele>
   </trkpt>
   <trkpt lat="-37.8187" lon="145.36094">
    <ele>388.81000000000006</ele>
   </trkpt>
   <trkpt lat="-37.8187" lon="145.36124">
    <ele>394.0</ele>
   </trkpt>
   <trkpt lat="-37.81861" lon="145.36159">
    <ele>398.02000000000004</ele>
   </trkpt>
   <trkpt lat="-37.81828" lon="145.36215">
    <ele>405.84000000000003</ele>
   </trkpt>
   <trkpt lat="-37.8181" lon="145.36234000000002">
    <ele>410.23</ele>
   </trkpt>
   <trkpt lat="-37.8177" lon="145.36251000000001">
    <ele>418.32</ele>
   </trkpt>
   <trkpt lat="-37.81734" lon="145.36311">
    <ele>425.77000000000004</ele>
   </trkpt>
   <trkpt lat="-37.81721" lon="145.36373">
    <ele>434.66</ele>
   </trkpt>
   <trkpt lat="-37.81723" lon="145.36425">
    <ele>439.83000000000004</ele>
   </trkpt>
   <trkpt lat="-37.81736" lon="145.36494000000002">
    <ele>450.81000000000006</ele>
   </trkpt>
   <trkpt lat="-37.81745" lon="145.36571">
    <ele>458.1000000000001</ele>
   </trkpt>
   <trkpt lat="-37.81743" lon="145.3667">
    <ele>469.82</ele>
   </trkpt>
   <trkpt lat="-37.81743" lon="145.36671">
    <ele>469.87000000000006</ele>
   </trkpt>
   <trkpt lat="-37.817510000000006" lon="145.36671">
    <ele>470.15</ele>
   </trkpt>
   <trkpt lat="-37.81765" lon="145.36620000000002">
    <ele>473.51000000000005</ele>
   </trkpt>
   <trkpt lat="-37.81774" lon="145.36595">
    <ele>473.28000000000003</ele>
   </trkpt>
   <trkpt lat="-37.81774" lon="145.36581">
    <ele>471.9800000000001</ele>
   </trkpt>
   <trkpt lat="-37.8177" lon="145.36568000000003">
    <ele>471.66</ele>
   </trkpt>
   <trkpt lat="-37.817600000000006" lon="145.36507">
    <ele>469.40000000000003</ele>
   </trkpt>
   <trkpt lat="-37.817600000000006" lon="145.36438">
    <ele>466.34000000000003</ele>
   </trkpt>
   <trkpt lat="-37.81765" lon="145.36397000000002">
    <ele>464.85</ele>
   </trkpt>
   <trkpt lat="-37.81779" lon="145.36370000000002">
    <ele>464.67</ele>
   </trkpt>
   <trkpt lat="-37.817980000000006" lon="145.36344000000003">
    <ele>463.79</ele>
   </trkpt>
   <trkpt lat="-37.8183" lon="145.36328">
    <ele>463.88</ele>
   </trkpt>
   <trkpt lat="-37.81877" lon="145.36299000000002">
    <ele>470.33000000000004</ele>
   </trkpt>
   <trkpt lat="-37.81931" lon="145.36299000000002">
    <ele>487.6</ele>
   </trkpt>
   <trkpt lat="-37.81949" lon="145.36302">
    <ele>495.56000000000006</ele>
   </trkpt>
   <trkpt lat="-37.81958" lon="145.36325000000002">
    <ele>502.6700000000001</ele>
   </trkpt>
   <trkpt lat="-37.81962" lon="145.36322">
    <ele>503.28000000000003</ele>
   </trkpt>
   <trkpt lat="-37.81958" lon="145.36324000000002">
    <ele>502.77000000000004</ele>
   </trkpt>
   <trkpt lat="-37.81969" lon="145.36317000000003">
    <ele>504.09999999999997</ele>
   </trkpt>
   <trkpt lat="-37.81976" lon="145.36298000000002">
    <ele>504.02000000000004</ele>
   </trkpt>
   <trkpt lat="-37.81996" lon="145.36259">
    <ele>506.21999999999997</ele>
   </trkpt>
   <trkpt lat="-37.82016" lon="145.36235000000002">
    <ele>511.9100000000001</ele>
   </trkpt>
   <trkpt lat="-37.82092" lon="145.36214">
    <ele>538.85</ele>
   </trkpt>
   <trkpt lat="-37.82114" lon="145.36204">
    <ele>544.82</ele>
   </trkpt>
   <trkpt lat="-37.82168" lon="145.36193">
    <ele>552.15</ele>
   </trkpt>
   <trkpt lat="-37.82186" lon="145.36196">
    <ele>552.91</ele>
   </trkpt>
   <trkpt lat="-37.822210000000005" lon="145.36195">
    <ele>552.8000000000001</ele>
   </trkpt>
   <trkpt lat="-37.822390000000006" lon="145.36191000000002">
    <ele>552.25</ele>
   </trkpt>
   <trkpt lat="-37.82251" lon="145.36179">
    <ele>551.98</ele>
   </trkpt>
   <trkpt lat="-37.82278" lon="145.36161">
    <ele>551.62</ele>
   </trkpt>
   <trkpt lat="-37.82305" lon="145.36157">
    <ele>551.46</ele>
   </trkpt>
   <trkpt lat="-37.823130000000006" lon="145.36151">
    <ele>551.44</ele>
   </trkpt>
   <trkpt lat="-37.823130000000006" lon="145.36145000000002">
    <ele>550.3</ele>
   </trkpt>
   <trkpt lat="-37.82278" lon="145.36100000000002">
    <ele>548.67</ele>
   </trkpt>
   <trkpt lat="-37.822630000000004" lon="145.36103">
    <ele>547.07</ele>
   </trkpt>
   <trkpt lat="-37.82251" lon="145.36086">
    <ele>541.94</ele>
   </trkpt>
   <trkpt lat="-37.82247" lon="145.36068">
    <ele>539.24</ele>
   </trkpt>
   <trkpt lat="-37.82251" lon="145.36048000000002">
    <ele>538.1100000000001</ele>
   </trkpt>
   <trkpt lat="-37.82291" lon="145.35968000000003">
    <ele>541.73</ele>
   </trkpt>
   <trkpt lat="-37.82305" lon="145.35935">
    <ele>541.82</ele>
   </trkpt>
   <trkpt lat="-37.82307" lon="145.35933">
    <ele>541.82</ele>
   </trkpt>
   <trkpt lat="-37.82314" lon="145.35915">
    <ele>542.12</ele>
   </trkpt>
   <trkpt lat="-37.82334" lon="145.3588">
    <ele>547.71</ele>
   </trkpt>
   <trkpt lat="-37.8237" lon="145.35811">
    <ele>550.24</ele>
   </trkpt>
   <trkpt lat="-37.82405" lon="145.35753000000003">
    <ele>546.1400000000001</ele>
   </trkpt>
   <trkpt lat="-37.82419" lon="145.35738">
    <ele>546.27</ele>
   </trkpt>
   <trkpt lat="-37.82493" lon="145.35696000000002">
    <ele>558.57</ele>
   </trkpt>
   <trkpt lat="-37.82504" lon="145.35681000000002">
    <ele>559.24</ele>
   </trkpt>
   <trkpt lat="-37.825320000000005" lon="145.35658">
    <ele>565.3900000000001</ele>
   </trkpt>
   <trkpt lat="-37.82536" lon="145.35629">
    <ele>567.4800000000001</ele>
   </trkpt>
   <trkpt lat="-37.82529" lon="145.35569">
    <ele>571.1700000000001</ele>
   </trkpt>
   <trkpt lat="-37.82529" lon="145.35529000000002">
    <ele>571.8000000000001</ele>
   </trkpt>
   <trkpt lat="-37.82531" lon="145.35505">
    <ele>572.3900000000001</ele>
   </trkpt>
   <trkpt lat="-37.82535" lon="145.35486">
    <ele>573.1200000000001</ele>
   </trkpt>
   <trkpt lat="-37.825410000000005" lon="145.35452">
    <ele>575.89</ele>
   </trkpt>
   <trkpt lat="-37.82548000142656" lon="145.35394500030768">
    <ele>580.4200000000001</ele>
   </trkpt>
   <trkpt lat="-37.82555" lon="145.35337">
    <ele>585.01</ele>
   </trkpt>
   <trkpt lat="-37.82553" lon="145.35331000000002">
    <ele>585.01</ele>
   </trkpt>
   <trkpt lat="-37.82553" lon="145.35330000000002">
    <ele>585.4</ele>
   </trkpt>
   <trkpt lat="-37.82564" lon="145.35313000000002">
    <ele>593.0000000000001</ele>
   </trkpt>
   <trkpt lat="-37.8258" lon="145.35314000000002">
    <ele>599.36</ele>
   </trkpt>
   <trkpt lat="-37.82589" lon="145.35312000000002">
    <ele>608.04</ele>
   </trkpt>
   <trkpt lat="-37.82602" lon="145.35317">
    <ele>612.29</ele>
   </trkpt>
   <trkpt lat="-37.82618" lon="145.35317">
    <ele>620.0500000000001</ele>
   </trkpt>
   <trkpt lat="-37.82602" lon="145.35317">
    <ele>612.29</ele>
   </trkpt>
   <trkpt lat="-37.82589" lon="145.35312000000002">
    <ele>608.04</ele>
   </trkpt>
   <trkpt lat="-37.8258" lon="145.35314000000002">
    <ele>599.36</ele>
   </trkpt>
   <trkpt lat="-37.82564" lon="145.35313000000002">
    <ele>593.0000000000001</ele>
   </trkpt>
   <trkpt lat="-37.82553" lon="145.35331000000002">
    <ele>585.01</ele>
   </trkpt>
   <trkpt lat="-37.82547" lon="145.35287000000002">
    <ele>585.08</ele>
   </trkpt>
   <trkpt lat="-37.82551" lon="145.35260000000002">
    <ele>584.46</ele>
   </trkpt>
   <trkpt lat="-37.82558" lon="145.35231000000002">
    <ele>583.74</ele>
   </trkpt>
   <trkpt lat="-37.82596" lon="145.35160000000002">
    <ele>580.22</ele>
   </trkpt>
   <trkpt lat="-37.825970000000005" lon="145.35160000000002">
    <ele>580.1700000000001</ele>
   </trkpt>
   <trkpt lat="-37.82625" lon="145.35123000000002">
    <ele>577.52</ele>
   </trkpt>
   <trkpt lat="-37.82658" lon="145.35101">
    <ele>575.6600000000001</ele>
   </trkpt>
   <trkpt lat="-37.82701" lon="145.35084">
    <ele>576.26</ele>
   </trkpt>
   <trkpt lat="-37.82758000007891" lon="145.35072500088367">
    <ele>574.86</ele>
   </trkpt>
   <trkpt lat="-37.82815" lon="145.35061000000002">
    <ele>574.0200000000001</ele>
   </trkpt>
   <trkpt lat="-37.82833" lon="145.35060000000001">
    <ele>575.62</ele>
   </trkpt>
   <trkpt lat="-37.82835" lon="145.35060000000001">
    <ele>575.6800000000001</ele>
   </trkpt>
   <trkpt lat="-37.82911" lon="145.35060000000001">
    <ele>573.49</ele>
   </trkpt>
   <trkpt lat="-37.82943" lon="145.35047">
    <ele>568.4300000000001</ele>
   </trkpt>
   <trkpt lat="-37.82963" lon="145.35047">
    <ele>565.5600000000001</ele>
   </trkpt>
   <trkpt lat="-37.82999" lon="145.35055">
    <ele>563.08</ele>
   </trkpt>
   <trkpt lat="-37.83032" lon="145.35069000000001">
    <ele>559.6300000000001</ele>
   </trkpt>
   <trkpt lat="-37.83066" lon="145.35092">
    <ele>557.5300000000001</ele>
   </trkpt>
   <trkpt lat="-37.83093" lon="145.35097000000002">
    <ele>555.6000000000001</ele>
   </trkpt>
   <trkpt lat="-37.83122" lon="145.35091">
    <ele>555.71</ele>
   </trkpt>
   <trkpt lat="-37.83162" lon="145.35071000000002">
    <ele>561.44</ele>
   </trkpt>
   <trkpt lat="-37.83196" lon="145.35046">
    <ele>569.8000000000001</ele>
   </trkpt>
   <trkpt lat="-37.83231" lon="145.35010000000003">
    <ele>577.88</ele>
   </trkpt>
   <trkpt lat="-37.83259" lon="145.34979">
    <ele>584.34</ele>
   </trkpt>
   <trkpt lat="-37.83259" lon="145.34978">
    <ele>584.4200000000001</ele>
   </trkpt>
   <trkpt lat="-37.83267" lon="145.34969">
    <ele>585.47</ele>
   </trkpt>
   <trkpt lat="-37.83274" lon="145.34954000000002">
    <ele>586.09</ele>
   </trkpt>
   <trkpt lat="-37.83287" lon="145.34947000000003">
    <ele>586.87</ele>
   </trkpt>
   <trkpt lat="-37.83296" lon="145.34934">
    <ele>587.83</ele>
   </trkpt>
   <trkpt lat="-37.83323" lon="145.34911000000002">
    <ele>592.71</ele>
   </trkpt>
   <trkpt lat="-37.833330000000004" lon="145.3484">
    <ele>596.14</ele>
   </trkpt>
   <trkpt lat="-37.83346" lon="145.34808">
    <ele>595.53</ele>
   </trkpt>
   <trkpt lat="-37.83379500052499" lon="145.34767500204265">
    <ele>597.98</ele>
   </trkpt>
   <trkpt lat="-37.83413" lon="145.34727">
    <ele>597.49</ele>
   </trkpt>
   <trkpt lat="-37.8344" lon="145.34703000000002">
    <ele>597.36</ele>
   </trkpt>
   <trkpt lat="-37.83487" lon="145.34681">
    <ele>597.16</ele>
   </trkpt>
   <trkpt lat="-37.83511" lon="145.34676000000002">
    <ele>597.84</ele>
   </trkpt>
   <trkpt lat="-37.83513000000001" lon="145.34676000000002">
    <ele>597.8800000000001</ele>
   </trkpt>
   <trkpt lat="-37.83574" lon="145.34658000000002">
    <ele>601.57</ele>
   </trkpt>
   <trkpt lat="-37.83601" lon="145.34655">
    <ele>604.5400000000001</ele>
   </trkpt>
   <trkpt lat="-37.8363" lon="145.34654">
    <ele>606.86</ele>
   </trkpt>
   <trkpt lat="-37.83668" lon="145.34659000000002">
    <ele>611.35</ele>
   </trkpt>
   <trkpt lat="-37.83681" lon="145.34658000000002">
    <ele>611.0699999999999</ele>
   </trkpt>
   <trkpt lat="-37.83699" lon="145.34654">
    <ele>608.89</ele>
   </trkpt>
   <trkpt lat="-37.83706" lon="145.34649000000002">
    <ele>608.0300000000001</ele>
   </trkpt>
   <trkpt lat="-37.83726" lon="145.34629">
    <ele>600.6700000000001</ele>
   </trkpt>
   <trkpt lat="-37.83733" lon="145.34626">
    <ele>598.74</ele>
   </trkpt>
   <trkpt lat="-37.8376" lon="145.34623000000002">
    <ele>594.23</ele>
   </trkpt>
   <trkpt lat="-37.83771" lon="145.34619">
    <ele>592.1800000000001</ele>
   </trkpt>
   <trkpt lat="-37.83791" lon="145.34608">
    <ele>585.0200000000001</ele>
   </trkpt>
   <trkpt lat="-37.83813" lon="145.34605000000002">
    <ele>580.2400000000001</ele>
   </trkpt>
   <trkpt lat="-37.83834" lon="145.34596000000002">
    <ele>572.1</ele>
   </trkpt>
   <trkpt lat="-37.83843" lon="145.34587000000002">
    <ele>569.52</ele>
   </trkpt>
   <trkpt lat="-37.83856" lon="145.34584">
    <ele>566.52</ele>
   </trkpt>
   <trkpt lat="-37.83872" lon="145.34589000000003">
    <ele>565.09</ele>
   </trkpt>
   <trkpt lat="-37.83896" lon="145.34608">
    <ele>565.18</ele>
   </trkpt>
   <trkpt lat="-37.83912" lon="145.34611">
    <ele>562.9399999999999</ele>
   </trkpt>
   <trkpt lat="-37.83979" lon="145.34601">
    <ele>549.58</ele>
   </trkpt>
   <trkpt lat="-37.84004" lon="145.34603">
    <ele>543.6899999999999</ele>
   </trkpt>
   <trkpt lat="-37.84013" lon="145.34605000000002">
    <ele>542.22</ele>
   </trkpt>
   <trkpt lat="-37.84033" lon="145.34614000000002">
    <ele>538.96</ele>
   </trkpt>
   <trkpt lat="-37.84035" lon="145.34613000000002">
    <ele>538.96</ele>
   </trkpt>
   <trkpt lat="-37.84035" lon="145.34608">
    <ele>538.96</ele>
   </trkpt>
   <trkpt lat="-37.84004" lon="145.34539">
    <ele>529.58</ele>
   </trkpt>
   <trkpt lat="-37.83977" lon="145.34502">
    <ele>519.7</ele>
   </trkpt>
   <trkpt lat="-37.83977" lon="145.34496000000001">
    <ele>515.49</ele>
   </trkpt>
   <trkpt lat="-37.83979" lon="145.34494">
    <ele>515.49</ele>
   </trkpt>
   <trkpt lat="-37.8401" lon="145.34494">
    <ele>511.65999999999997</ele>
   </trkpt>
   <trkpt lat="-37.84053" lon="145.34499000000002">
    <ele>502.71</ele>
   </trkpt>
   <trkpt lat="-37.84082" lon="145.34505000000001">
    <ele>500.65999999999997</ele>
   </trkpt>
   <trkpt lat="-37.84118" lon="145.34518">
    <ele>495.27000000000004</ele>
   </trkpt>
   <trkpt lat="-37.84122" lon="145.34518">
    <ele>492.07000000000005</ele>
   </trkpt>
   <trkpt lat="-37.84122" lon="145.34513">
    <ele>492.07000000000005</ele>
   </trkpt>
   <trkpt lat="-37.8412" lon="145.34506000000002">
    <ele>492.07000000000005</ele>
   </trkpt>
   <trkpt lat="-37.84066" lon="145.34425000000002">
    <ele>474.93</ele>
   </trkpt>
   <trkpt lat="-37.84051" lon="145.34409000000002">
    <ele>471.78000000000003</ele>
   </trkpt>
   <trkpt lat="-37.84028" lon="145.34392000000003">
    <ele>467.95000000000005</ele>
   </trkpt>
   <trkpt lat="-37.84024" lon="145.34384">
    <ele>466.53000000000003</ele>
   </trkpt>
   <trkpt lat="-37.84057" lon="145.34386">
    <ele>463.52000000000004</ele>
   </trkpt>
   <trkpt lat="-37.84091" lon="145.34394">
    <ele>460.71000000000004</ele>
   </trkpt>
   <trkpt lat="-37.84122" lon="145.34406">
    <ele>457.95</ele>
   </trkpt>
   <trkpt lat="-37.84163" lon="145.34426000000002">
    <ele>455.25000000000006</ele>
   </trkpt>
   <trkpt lat="-37.84183" lon="145.34441">
    <ele>453.98</ele>
   </trkpt>
   <trkpt lat="-37.842040000000004" lon="145.34463000000002">
    <ele>453.43000000000006</ele>
   </trkpt>
   <trkpt lat="-37.84221" lon="145.34493">
    <ele>452.40000000000003</ele>
   </trkpt>
   <trkpt lat="-37.8423" lon="145.34518">
    <ele>452.15000000000003</ele>
   </trkpt>
   <trkpt lat="-37.84239" lon="145.34554">
    <ele>451.22</ele>
   </trkpt>
   <trkpt lat="-37.84241" lon="145.34594">
    <ele>449.63</ele>
   </trkpt>
   <trkpt lat="-37.84239" lon="145.34612">
    <ele>448.65000000000003</ele>
   </trkpt>
   <trkpt lat="-37.8423" lon="145.34661">
    <ele>446.89</ele>
   </trkpt>
   <trkpt lat="-37.84228" lon="145.3468">
    <ele>445.54</ele>
   </trkpt>
   <trkpt lat="-37.84228" lon="145.347">
    <ele>444.58000000000004</ele>
   </trkpt>
   <trkpt lat="-37.84232" lon="145.34731000000002">
    <ele>442.96000000000004</ele>
   </trkpt>
   <trkpt lat="-37.8423" lon="145.34775000000002">
    <ele>440.53000000000003</ele>
   </trkpt>
   <trkpt lat="-37.84221" lon="145.34804000000003">
    <ele>439.3</ele>
   </trkpt>
   <trkpt lat="-37.842000000000006" lon="145.34844">
    <ele>437.76000000000005</ele>
   </trkpt>
   <trkpt lat="-37.841860000000004" lon="145.34887">
    <ele>436.54</ele>
   </trkpt>
   <trkpt lat="-37.84176" lon="145.34928000000002">
    <ele>444.55000000000007</ele>
   </trkpt>
   <trkpt lat="-37.84179" lon="145.34944000000002">
    <ele>447.48</ele>
   </trkpt>
   <trkpt lat="-37.84196" lon="145.34958">
    <ele>446.67</ele>
   </trkpt>
   <trkpt lat="-37.84219" lon="145.34969">
    <ele>443.78000000000003</ele>
   </trkpt>
   <trkpt lat="-37.84262500025573" lon="145.34986999898746">
    <ele>440.01</ele>
   </trkpt>
   <trkpt lat="-37.84306" lon="145.35005">
    <ele>436.86</ele>
   </trkpt>
   <trkpt lat="-37.84357" lon="145.35018000000002">
    <ele>433.96</ele>
   </trkpt>
   <trkpt lat="-37.84409" lon="145.35022">
    <ele>431.65000000000003</ele>
   </trkpt>
   <trkpt lat="-37.844440000000006" lon="145.35021">
    <ele>428.40000000000003</ele>
   </trkpt>
   <trkpt lat="-37.84493500020032" lon="145.35014000044447">
    <ele>424.12000000000006</ele>
   </trkpt>
   <trkpt lat="-37.84543" lon="145.35007000000002">
    <ele>420.35</ele>
   </trkpt>
   <trkpt lat="-37.846230000000006" lon="145.35004">
    <ele>415.86</ele>
   </trkpt>
   <trkpt lat="-37.84653" lon="145.35004">
    <ele>413.54</ele>
   </trkpt>
   <trkpt lat="-37.84678" lon="145.35007000000002">
    <ele>412.53</ele>
   </trkpt>
   <trkpt lat="-37.84695" lon="145.35014">
    <ele>412.69000000000005</ele>
   </trkpt>
   <trkpt lat="-37.8472" lon="145.35029">
    <ele>414.15000000000003</ele>
   </trkpt>
   <trkpt lat="-37.84767" lon="145.35063000000002">
    <ele>418.15000000000003</ele>
   </trkpt>
   <trkpt lat="-37.84792" lon="145.35087000000001">
    <ele>418.80000000000007</ele>
   </trkpt>
   <trkpt lat="-37.84819" lon="145.35123000000002">
    <ele>421.82</ele>
   </trkpt>
   <trkpt lat="-37.84845" lon="145.35175">
    <ele>427.1</ele>
   </trkpt>
   <trkpt lat="-37.84852" lon="145.35192">
    <ele>428.41</ele>
   </trkpt>
   <trkpt lat="-37.848670000000006" lon="145.35243">
    <ele>433.97</ele>
   </trkpt>
   <trkpt lat="-37.84877" lon="145.35304000000002">
    <ele>438.71000000000004</ele>
   </trkpt>
   <trkpt lat="-37.84884" lon="145.35374000000002">
    <ele>442.15000000000003</ele>
   </trkpt>
   <trkpt lat="-37.84881" lon="145.35385000000002">
    <ele>442.65000000000003</ele>
   </trkpt>
   <trkpt lat="-37.84863" lon="145.35433">
    <ele>447.45</ele>
   </trkpt>
   <trkpt lat="-37.84852" lon="145.35456000000002">
    <ele>447.67</ele>
   </trkpt>
   <trkpt lat="-37.84839" lon="145.35525">
    <ele>441.69</ele>
   </trkpt>
   <trkpt lat="-37.84814" lon="145.3557">
    <ele>440.29</ele>
   </trkpt>
   <trkpt lat="-37.84812" lon="145.35582000000002">
    <ele>440.78000000000003</ele>
   </trkpt>
   <trkpt lat="-37.84814" lon="145.35590000000002">
    <ele>441.55000000000007</ele>
   </trkpt>
   <trkpt lat="-37.84821" lon="145.35601">
    <ele>442.1700000000001</ele>
   </trkpt>
   <trkpt lat="-37.84859" lon="145.35638">
    <ele>439.59000000000003</ele>
   </trkpt>
   <trkpt lat="-37.84866" lon="145.35649">
    <ele>438.76000000000005</ele>
   </trkpt>
   <trkpt lat="-37.8487" lon="145.35663000000002">
    <ele>437.81</ele>
   </trkpt>
   <trkpt lat="-37.84872" lon="145.35680000000002">
    <ele>436.99</ele>
   </trkpt>
   <trkpt lat="-37.84877" lon="145.35692">
    <ele>436.03000000000003</ele>
   </trkpt>
   <trkpt lat="-37.84886" lon="145.35699000000002">
    <ele>433.6700000000001</ele>
   </trkpt>
   <trkpt lat="-37.84895" lon="145.35702">
    <ele>430.83000000000004</ele>
   </trkpt>
   <trkpt lat="-37.84951" lon="145.35711">
    <ele>421.37</ele>
   </trkpt>
   <trkpt lat="-37.849700000000006" lon="145.35709">
    <ele>418.05</ele>
   </trkpt>
   <trkpt lat="-37.84998" lon="145.35682">
    <ele>411.2</ele>
   </trkpt>
   <trkpt lat="-37.85009" lon="145.35676">
    <ele>410.91</ele>
   </trkpt>
   <trkpt lat="-37.85025" lon="145.35662000000002">
    <ele>411.92</ele>
   </trkpt>
   <trkpt lat="-37.85054" lon="145.35639">
    <ele>414.76</ele>
   </trkpt>
   <trkpt lat="-37.85083" lon="145.35617000000002">
    <ele>414.84000000000003</ele>
   </trkpt>
   <trkpt lat="-37.85101" lon="145.35612">
    <ele>414.11</ele>
   </trkpt>
   <trkpt lat="-37.851480000049214" lon="145.35608500021982">
    <ele>413.79</ele>
   </trkpt>
   <trkpt lat="-37.85195" lon="145.35605">
    <ele>419.75</ele>
   </trkpt>
   <trkpt lat="-37.8526" lon="145.35617000000002">
    <ele>435.34000000000003</ele>
   </trkpt>
   <trkpt lat="-37.85284" lon="145.3561">
    <ele>441.35</ele>
   </trkpt>
   <trkpt lat="-37.85289" lon="145.35602">
    <ele>441.56000000000006</ele>
   </trkpt>
   <trkpt lat="-37.85298" lon="145.3556">
    <ele>440.93</ele>
   </trkpt>
   <trkpt lat="-37.853" lon="145.35531">
    <ele>439.29</ele>
   </trkpt>
   <trkpt lat="-37.853" lon="145.3553">
    <ele>439.27000000000004</ele>
   </trkpt>
   <trkpt lat="-37.853" lon="145.35505">
    <ele>438.07</ele>
   </trkpt>
   <trkpt lat="-37.85331" lon="145.35443">
    <ele>438.54</ele>
   </trkpt>
   <trkpt lat="-37.85342" lon="145.35415">
    <ele>442.08000000000004</ele>
   </trkpt>
   <trkpt lat="-37.85394" lon="145.35341000000003">
    <ele>448.14000000000004</ele>
   </trkpt>
   <trkpt lat="-37.853950000000005" lon="145.35341000000003">
    <ele>448.17</ele>
   </trkpt>
   <trkpt lat="-37.854110000000006" lon="145.35328">
    <ele>451.96000000000004</ele>
   </trkpt>
   <trkpt lat="-37.854350000000004" lon="145.35299">
    <ele>454.62</ele>
   </trkpt>
   <trkpt lat="-37.85439" lon="145.35299">
    <ele>454.62</ele>
   </trkpt>
   <trkpt lat="-37.85452" lon="145.35320000000002">
    <ele>458.94</ele>
   </trkpt>
   <trkpt lat="-37.854580000000006" lon="145.35319">
    <ele>458.94</ele>
   </trkpt>
   <trkpt lat="-37.85461" lon="145.35309">
    <ele>460.96000000000004</ele>
   </trkpt>
   <trkpt lat="-37.85461" lon="145.35294000000002">
    <ele>462.37000000000006</ele>
   </trkpt>
   <trkpt lat="-37.85466" lon="145.35276000000002">
    <ele>463.93000000000006</ele>
   </trkpt>
   <trkpt lat="-37.85472" lon="145.3527">
    <ele>467.19000000000005</ele>
   </trkpt>
   <trkpt lat="-37.85486" lon="145.3523">
    <ele>473.44</ele>
   </trkpt>
   <trkpt lat="-37.855140000000006" lon="145.35198000000003">
    <ele>481.45000000000005</ele>
   </trkpt>
   <trkpt lat="-37.85521" lon="145.35193">
    <ele>483.05</ele>
   </trkpt>
   <trkpt lat="-37.85526" lon="145.35179000000002">
    <ele>484.21000000000004</ele>
   </trkpt>
   <trkpt lat="-37.85528" lon="145.35168000000002">
    <ele>485.48</ele>
   </trkpt>
   <trkpt lat="-37.855470000000004" lon="145.35148">
    <ele>488.12000000000006</ele>
   </trkpt>
   <trkpt lat="-37.85507500121872" lon="145.3509249969086">
    <ele>479.81</ele>
   </trkpt>
   <trkpt lat="-37.85468" lon="145.35037">
    <ele>470.16</ele>
   </trkpt>
   <trkpt lat="-37.85419" lon="145.34983000000003">
    <ele>455.46000000000004</ele>
   </trkpt>
   <trkpt lat="-37.85401" lon="145.3496">
    <ele>452.22</ele>
   </trkpt>
   <trkpt lat="-37.853860000000005" lon="145.34941">
    <ele>449.5</ele>
   </trkpt>
   <trkpt lat="-37.85416" lon="145.34943">
    <ele>450.25000000000006</ele>
   </trkpt>
   <trkpt lat="-37.85474500023648" lon="145.3495549990445">
    <ele>452.22</ele>
   </trkpt>
   <trkpt lat="-37.85533" lon="145.34968">
    <ele>452.97</ele>
   </trkpt>
   <trkpt lat="-37.85577" lon="145.34973000000002">
    <ele>449.11</ele>
   </trkpt>
   <trkpt lat="-37.85632999992552" lon="145.34984499909962">
    <ele>436.14000000000004</ele>
   </trkpt>
   <trkpt lat="-37.85689" lon="145.34996">
    <ele>419.54</ele>
   </trkpt>
   <trkpt lat="-37.85716" lon="145.34998000000002">
    <ele>414.66</ele>
   </trkpt>
   <trkpt lat="-37.85743" lon="145.34995">
    <ele>409.5</ele>
   </trkpt>
   <trkpt lat="-37.85757" lon="145.34989000000002">
    <ele>404.62</ele>
   </trkpt>
   <trkpt lat="-37.85781" lon="145.34966">
    <ele>398.74</ele>
   </trkpt>
   <trkpt lat="-37.85801" lon="145.34944000000002">
    <ele>395.11</ele>
   </trkpt>
   <trkpt lat="-37.8581" lon="145.34938000000002">
    <ele>392.51</ele>
   </trkpt>
   <trkpt lat="-37.858610000000006" lon="145.34927000000002">
    <ele>385.68</ele>
   </trkpt>
   <trkpt lat="-37.85862" lon="145.34927000000002">
    <ele>385.65000000000003</ele>
   </trkpt>
   <trkpt lat="-37.85875" lon="145.34924">
    <ele>384.45</ele>
   </trkpt>
   <trkpt lat="-37.8588" lon="145.34917000000002">
    <ele>383.25</ele>
   </trkpt>
   <trkpt lat="-37.85877" lon="145.34889">
    <ele>379.59000000000003</ele>
   </trkpt>
   <trkpt lat="-37.85893" lon="145.34861">
    <ele>376.82000000000005</ele>
   </trkpt>
   <trkpt lat="-37.859" lon="145.34836">
    <ele>368.81</ele>
   </trkpt>
   <trkpt lat="-37.85902" lon="145.34832">
    <ele>367.96</ele>
   </trkpt>
   <trkpt lat="-37.859080000000006" lon="145.34832">
    <ele>367.27000000000004</ele>
   </trkpt>
   <trkpt lat="-37.8592" lon="145.34841">
    <ele>365.7300000000001</ele>
   </trkpt>
   <trkpt lat="-37.85927" lon="145.34839000000002">
    <ele>365.17</ele>
   </trkpt>
   <trkpt lat="-37.8594" lon="145.34808">
    <ele>360.33000000000004</ele>
   </trkpt>
   <trkpt lat="-37.859500000000004" lon="145.34782">
    <ele>358.45000000000005</ele>
   </trkpt>
   <trkpt lat="-37.85942" lon="145.34772">
    <ele>351.98</ele>
   </trkpt>
   <trkpt lat="-37.859410000000004" lon="145.34766000000002">
    <ele>350.49</ele>
   </trkpt>
   <trkpt lat="-37.859370000000006" lon="145.34754">
    <ele>346.03</ele>
   </trkpt>
   <trkpt lat="-37.85931" lon="145.34758000000002">
    <ele>346.03</ele>
   </trkpt>
   <trkpt lat="-37.85918" lon="145.3476">
    <ele>348.48</ele>
   </trkpt>
   <trkpt lat="-37.8586" lon="145.34761">
    <ele>351.92</ele>
   </trkpt>
   <trkpt lat="-37.85853" lon="145.34743">
    <ele>350.23</ele>
   </trkpt>
   <trkpt lat="-37.85833" lon="145.34718">
    <ele>346.15000000000003</ele>
   </trkpt>
   <trkpt lat="-37.85806" lon="145.34698">
    <ele>342.11</ele>
   </trkpt>
   <trkpt lat="-37.85797" lon="145.34686000000002">
    <ele>340.93</ele>
   </trkpt>
   <trkpt lat="-37.85783" lon="145.34678000000002">
    <ele>339.99</ele>
   </trkpt>
   <trkpt lat="-37.8575" lon="145.34649000000002">
    <ele>333.6</ele>
   </trkpt>
   <trkpt lat="-37.8573" lon="145.34642000000002">
    <ele>332.27</ele>
   </trkpt>
   <trkpt lat="-37.85703" lon="145.34640000000002">
    <ele>330.21</ele>
   </trkpt>
   <trkpt lat="-37.85663" lon="145.34618">
    <ele>335.40000000000003</ele>
   </trkpt>
   <trkpt lat="-37.85622" lon="145.34578000000002">
    <ele>342.88</ele>
   </trkpt>
   <trkpt lat="-37.85609" lon="145.34559000000002">
    <ele>345.17</ele>
   </trkpt>
   <trkpt lat="-37.856010000000005" lon="145.34551000000002">
    <ele>347.78000000000003</ele>
   </trkpt>
   <trkpt lat="-37.85593" lon="145.34545">
    <ele>349.44</ele>
   </trkpt>
   <trkpt lat="-37.85553" lon="145.34492">
    <ele>353.02000000000004</ele>
   </trkpt>
   <trkpt lat="-37.85544" lon="145.34475">
    <ele>353.35</ele>
   </trkpt>
   <trkpt lat="-37.85528" lon="145.34457">
    <ele>354.77000000000004</ele>
   </trkpt>
   <trkpt lat="-37.85515" lon="145.34415">
    <ele>354.81</ele>
   </trkpt>
   <trkpt lat="-37.8551" lon="145.34404">
    <ele>353.6</ele>
   </trkpt>
   <trkpt lat="-37.855050000000006" lon="145.34368">
    <ele>350.62000000000006</ele>
   </trkpt>
   <trkpt lat="-37.85492" lon="145.34354000000002">
    <ele>347.04</ele>
   </trkpt>
   <trkpt lat="-37.8549" lon="145.34348">
    <ele>347.04</ele>
   </trkpt>
   <trkpt lat="-37.85488" lon="145.34337000000002">
    <ele>345.02000000000004</ele>
   </trkpt>
   <trkpt lat="-37.85492" lon="145.34293000000002">
    <ele>339.01000000000005</ele>
   </trkpt>
   <trkpt lat="-37.85474" lon="145.3426">
    <ele>333.66</ele>
   </trkpt>
   <trkpt lat="-37.85472" lon="145.34233">
    <ele>330.02000000000004</ele>
   </trkpt>
   <trkpt lat="-37.85468" lon="145.34225">
    <ele>327.40000000000003</ele>
   </trkpt>
   <trkpt lat="-37.85448" lon="145.34206">
    <ele>318.36</ele>
   </trkpt>
   <trkpt lat="-37.85419" lon="145.34158000000002">
    <ele>307.96</ele>
   </trkpt>
   <trkpt lat="-37.8541" lon="145.34148000000002">
    <ele>307.37</ele>
   </trkpt>
   <trkpt lat="-37.85387" lon="145.34123000000002">
    <ele>310.22</ele>
   </trkpt>
   <trkpt lat="-37.85374" lon="145.34099">
    <ele>311.3</ele>
   </trkpt>
   <trkpt lat="-37.85365" lon="145.34067000000002">
    <ele>308.19</ele>
   </trkpt>
   <trkpt lat="-37.85358" lon="145.33991">
    <ele>298.48</ele>
   </trkpt>
   <trkpt lat="-37.853460000000005" lon="145.33943000000002">
    <ele>297.35</ele>
   </trkpt>
   <trkpt lat="-37.8534" lon="145.33894">
    <ele>294.32</ele>
   </trkpt>
   <trkpt lat="-37.85333" lon="145.33871000000002">
    <ele>292.59000000000003</ele>
   </trkpt>
   <trkpt lat="-37.85333" lon="145.33833">
    <ele>288.26</ele>
   </trkpt>
   <trkpt lat="-37.85327" lon="145.33823">
    <ele>287.74000000000007</ele>
   </trkpt>
   <trkpt lat="-37.85313" lon="145.33813">
    <ele>289.53000000000003</ele>
   </trkpt>
   <trkpt lat="-37.85304" lon="145.33812">
    <ele>291.79</ele>
   </trkpt>
   <trkpt lat="-37.85293" lon="145.33818000000002">
    <ele>294.56000000000006</ele>
   </trkpt>
   <trkpt lat="-37.85269" lon="145.33836000000002">
    <ele>303.96</ele>
   </trkpt>
   <trkpt lat="-37.85269" lon="145.33835000000002">
    <ele>304.35</ele>
   </trkpt>
   <trkpt lat="-37.85242" lon="145.33856">
    <ele>314.09000000000003</ele>
   </trkpt>
   <trkpt lat="-37.85233" lon="145.33851">
    <ele>315.78</ele>
   </trkpt>
   <trkpt lat="-37.85215" lon="145.33823">
    <ele>317.51</ele>
   </trkpt>
   <trkpt lat="-37.85206" lon="145.33798000000002">
    <ele>317.42</ele>
   </trkpt>
   <trkpt lat="-37.8519" lon="145.33773000000002">
    <ele>317.8</ele>
   </trkpt>
   <trkpt lat="-37.85177" lon="145.33761">
    <ele>317.83</ele>
   </trkpt>
   <trkpt lat="-37.85172" lon="145.33751">
    <ele>317.32000000000005</ele>
   </trkpt>
   <trkpt lat="-37.85168" lon="145.33735000000001">
    <ele>316.6</ele>
   </trkpt>
   <trkpt lat="-37.85139" lon="145.33696">
    <ele>315.12</ele>
   </trkpt>
   <trkpt lat="-37.85116" lon="145.33651">
    <ele>311.23</ele>
   </trkpt>
   <trkpt lat="-37.851060000000004" lon="145.33639000000002">
    <ele>310.65000000000003</ele>
   </trkpt>
   <trkpt lat="-37.85096" lon="145.33634">
    <ele>310.69</ele>
   </trkpt>
   <trkpt lat="-37.850910000000006" lon="145.33635">
    <ele>310.69</ele>
   </trkpt>
   <trkpt lat="-37.85092" lon="145.33635">
    <ele>310.69</ele>
   </trkpt>
   <trkpt lat="-37.85085" lon="145.33637000000002">
    <ele>310.65000000000003</ele>
   </trkpt>
   <trkpt lat="-37.85074" lon="145.33634">
    <ele>310.42</ele>
   </trkpt>
   <trkpt lat="-37.85067" lon="145.33617">
    <ele>308.51</ele>
   </trkpt>
   <trkpt lat="-37.85063" lon="145.33599">
    <ele>306.27000000000004</ele>
   </trkpt>
   <trkpt lat="-37.85051" lon="145.33530000000002">
    <ele>294.26</ele>
   </trkpt>
   <trkpt lat="-37.85051" lon="145.33468000000002">
    <ele>280.65</ele>
   </trkpt>
   <trkpt lat="-37.850645001564736" lon="145.33407000115557">
    <ele>265.21</ele>
   </trkpt>
   <trkpt lat="-37.85078" lon="145.33346">
    <ele>254.45000000000002</ele>
   </trkpt>
   <trkpt lat="-37.8508" lon="145.33325000000002">
    <ele>251.17</ele>
   </trkpt>
   <trkpt lat="-37.85078" lon="145.33308000000002">
    <ele>247.58</ele>
   </trkpt>
   <trkpt lat="-37.85076" lon="145.33294">
    <ele>244.96</ele>
   </trkpt>
   <trkpt lat="-37.85085" lon="145.33266">
    <ele>239.23000000000002</ele>
   </trkpt>
   <trkpt lat="-37.850860000000004" lon="145.33241">
    <ele>231.24000000000004</ele>
   </trkpt>
   <trkpt lat="-37.85036" lon="145.33271000000002">
    <ele>233.84</ele>
   </trkpt>
   <trkpt lat="-37.8502" lon="145.33283">
    <ele>234.87</ele>
   </trkpt>
   <trkpt lat="-37.85004" lon="145.333">
    <ele>236.47</ele>
   </trkpt>
   <trkpt lat="-37.84989" lon="145.33313">
    <ele>237.38</ele>
   </trkpt>
   <trkpt lat="-37.84975" lon="145.33316000000002">
    <ele>238.57000000000002</ele>
   </trkpt>
   <trkpt lat="-37.84926" lon="145.33305000000001">
    <ele>240.34000000000003</ele>
   </trkpt>
   <trkpt lat="-37.849140000000006" lon="145.33307000000002">
    <ele>241.49</ele>
   </trkpt>
   <trkpt lat="-37.848980000000005" lon="145.33313">
    <ele>242.06000000000003</ele>
   </trkpt>
   <trkpt lat="-37.84899" lon="145.33313">
    <ele>242.05</ele>
   </trkpt>
   <trkpt lat="-37.848800000000004" lon="145.33329">
    <ele>243.04</ele>
   </trkpt>
   <trkpt lat="-37.84857" lon="145.33327">
    <ele>240.55</ele>
   </trkpt>
   <trkpt lat="-37.84848" lon="145.3333">
    <ele>240.24</ele>
   </trkpt>
   <trkpt lat="-37.84839" lon="145.33338">
    <ele>239.70000000000002</ele>
   </trkpt>
   <trkpt lat="-37.84792" lon="145.33391">
    <ele>235.57000000000002</ele>
   </trkpt>
   <trkpt lat="-37.847820000000006" lon="145.33396000000002">
    <ele>234.89000000000001</ele>
   </trkpt>
   <trkpt lat="-37.84769" lon="145.33421">
    <ele>234.41</ele>
   </trkpt>
   <trkpt lat="-37.84725" lon="145.33479">
    <ele>230.06</ele>
   </trkpt>
   <trkpt lat="-37.847170000000006" lon="145.33486000000002">
    <ele>229.62</ele>
   </trkpt>
   <trkpt lat="-37.847170000000006" lon="145.33485000000002">
    <ele>229.66000000000003</ele>
   </trkpt>
   <trkpt lat="-37.84709" lon="145.33493">
    <ele>229.66000000000003</ele>
   </trkpt>
   <trkpt lat="-37.84675" lon="145.33514000000002">
    <ele>226.82000000000002</ele>
   </trkpt>
   <trkpt lat="-37.8466" lon="145.33527">
    <ele>225.62</ele>
   </trkpt>
   <trkpt lat="-37.84642" lon="145.33547000000002">
    <ele>224.5</ele>
   </trkpt>
   <trkpt lat="-37.84624" lon="145.33588">
    <ele>222.74</ele>
   </trkpt>
   <trkpt lat="-37.84631" lon="145.33607">
    <ele>222.63000000000002</ele>
   </trkpt>
   <trkpt lat="-37.84626" lon="145.33624">
    <ele>222.51000000000002</ele>
   </trkpt>
   <trkpt lat="-37.8466" lon="145.33685">
    <ele>226.12</ele>
   </trkpt>
   <trkpt lat="-37.84667" lon="145.33708000000001">
    <ele>226.51000000000002</ele>
   </trkpt>
   <trkpt lat="-37.84684" lon="145.33762000000002">
    <ele>228.80000000000004</ele>
   </trkpt>
   <trkpt lat="-37.84698" lon="145.33795">
    <ele>231.14000000000001</ele>
   </trkpt>
   <trkpt lat="-37.84729" lon="145.33877">
    <ele>236.78</ele>
   </trkpt>
   <trkpt lat="-37.84756" lon="145.33926000000002">
    <ele>241.40000000000003</ele>
   </trkpt>
   <trkpt lat="-37.84765" lon="145.33934000000002">
    <ele>243.62000000000003</ele>
   </trkpt>
   <trkpt lat="-37.84776" lon="145.33938">
    <ele>244.44000000000003</ele>
   </trkpt>
   <trkpt lat="-37.84807" lon="145.33973">
    <ele>246.97000000000003</ele>
   </trkpt>
   <trkpt lat="-37.84816" lon="145.33994">
    <ele>248.92000000000002</ele>
   </trkpt>
   <trkpt lat="-37.84845" lon="145.34047">
    <ele>253.65000000000003</ele>
   </trkpt>
   <trkpt lat="-37.84852" lon="145.34067000000002">
    <ele>255.6</ele>
   </trkpt>
   <trkpt lat="-37.848650000000006" lon="145.34116">
    <ele>259.05</ele>
   </trkpt>
   <trkpt lat="-37.84886" lon="145.34191">
    <ele>262.40000000000003</ele>
   </trkpt>
   <trkpt lat="-37.84888" lon="145.34232">
    <ele>264.29</ele>
   </trkpt>
   <trkpt lat="-37.84886" lon="145.34281000000001">
    <ele>266.36</ele>
   </trkpt>
   <trkpt lat="-37.848800000000004" lon="145.34327000000002">
    <ele>267.35</ele>
   </trkpt>
   <trkpt lat="-37.848800000000004" lon="145.34326000000001">
    <ele>267.33</ele>
   </trkpt>
   <trkpt lat="-37.84875" lon="145.34361">
    <ele>267.88</ele>
   </trkpt>
   <trkpt lat="-37.84886" lon="145.34412">
    <ele>272.95000000000005</ele>
   </trkpt>
   <trkpt lat="-37.849030000000006" lon="145.34474">
    <ele>283.93</ele>
   </trkpt>
   <trkpt lat="-37.84886" lon="145.34412">
    <ele>272.95000000000005</ele>
   </trkpt>
   <trkpt lat="-37.84875" lon="145.34361">
    <ele>268.0</ele>
   </trkpt>
   <trkpt lat="-37.84868" lon="145.34415">
    <ele>268.33</ele>
   </trkpt>
   <trkpt lat="-37.84861" lon="145.34492">
    <ele>269.36</ele>
   </trkpt>
   <trkpt lat="-37.848600001896216" lon="145.34559000020948">
    <ele>272.29</ele>
   </trkpt>
   <trkpt lat="-37.84859" lon="145.34626">
    <ele>276.26</ele>
   </trkpt>
   <trkpt lat="-37.84857" lon="145.34639">
    <ele>277.24</ele>
   </trkpt>
   <trkpt lat="-37.84854" lon="145.34643">
    <ele>277.24</ele>
   </trkpt>
   <trkpt lat="-37.84848" lon="145.34639">
    <ele>278.90000000000003</ele>
   </trkpt>
   <trkpt lat="-37.848200000000006" lon="145.3459">
    <ele>282.2</ele>
   </trkpt>
   <trkpt lat="-37.84798" lon="145.34563">
    <ele>285.27000000000004</ele>
   </trkpt>
   <trkpt lat="-37.84789" lon="145.34557">
    <ele>285.27000000000004</ele>
   </trkpt>
   <trkpt lat="-37.84781" lon="145.34555">
    <ele>286.86</ele>
   </trkpt>
   <trkpt lat="-37.84756" lon="145.34555">
    <ele>288.16</ele>
   </trkpt>
   <trkpt lat="-37.84745" lon="145.34555">
    <ele>288.49</ele>
   </trkpt>
   <trkpt lat="-37.84731" lon="145.34550000000002">
    <ele>288.68000000000006</ele>
   </trkpt>
   <trkpt lat="-37.84722" lon="145.34541000000002">
    <ele>288.68000000000006</ele>
   </trkpt>
   <trkpt lat="-37.847170000000006" lon="145.34528">
    <ele>288.62000000000006</ele>
   </trkpt>
   <trkpt lat="-37.84707" lon="145.34496000000001">
    <ele>287.86</ele>
   </trkpt>
   <trkpt lat="-37.84707" lon="145.34472000000002">
    <ele>287.8</ele>
   </trkpt>
   <trkpt lat="-37.84716" lon="145.34429">
    <ele>289.84999999999997</ele>
   </trkpt>
  </trkseg>
 </trk>
</gpx>
