<?xml version="1.0" encoding="UTF-8"?>
<gpx creator="StravaGPX" version="1.1" xmlns="http://www.topografix.com/GPX/1/1" xmlns:xsi="http://www.w3.org/2001/XMLSchema-instance" xsi:schemaLocation="http://www.topografix.com/GPX/1/1 http://www.topografix.com/GPX/1/1/gpx.xsd">
 <metadata>
  <name>DTR 29 May 2022</name>
  <author>
   <name>john csorgo</name>
  </author>
  <copyright author="OpenStreetMap contributors">
   <year>2020</year>
   <license>https://www.openstreetmap.org/copyright</license>
  </copyright>
 </metadata>
 <trk>
  <name>DTR 29 May 2022</name>
  <link href=""/>
  <type>running</type>
  <trkseg>
   <trkpt lat="-37.862790000000004" lon="145.35355">
    <ele>477.98</ele>
   </trkpt>
   <trkpt lat="-37.862860000000005" lon="145.35369">
    <ele>478.45000000000005</ele>
   </trkpt>
   <trkpt lat="-37.863350000000004" lon="145.35333">
    <ele>476.99</ele>
   </trkpt>
   <trkpt lat="-37.86412" lon="145.35284000000001">
    <ele>477.73</ele>
   </trkpt>
   <trkpt lat="-37.86437" lon="145.35273">
    <ele>478.76</ele>
   </trkpt>
   <trkpt lat="-37.86455" lon="145.35267000000002">
    <ele>479.56000000000006</ele>
   </trkpt>
   <trkpt lat="-37.864900000000006" lon="145.35260000000002">
    <ele>481.32</ele>
   </trkpt>
   <trkpt lat="-37.86544000000001" lon="145.35253">
    <ele>483.14</ele>
   </trkpt>
   <trkpt lat="-37.86569" lon="145.35253">
    <ele>484.92</ele>
   </trkpt>
   <trkpt lat="-37.86594" lon="145.35258000000002">
    <ele>485.27000000000004</ele>
   </trkpt>
   <trkpt lat="-37.86636" lon="145.35285000000002">
    <ele>486.42</ele>
   </trkpt>
   <trkpt lat="-37.86659" lon="145.35295000000002">
    <ele>488.40000000000003</ele>
   </trkpt>
   <trkpt lat="-37.86679" lon="145.35301">
    <ele>489.33000000000004</ele>
   </trkpt>
   <trkpt lat="-37.86706" lon="145.35304000000002">
    <ele>490.63000000000005</ele>
   </trkpt>
   <trkpt lat="-37.86782" lon="145.35301">
    <ele>495.63</ele>
   </trkpt>
   <trkpt lat="-37.86807" lon="145.35296000000002">
    <ele>497.19</ele>
   </trkpt>
   <trkpt lat="-37.868370000000006" lon="145.35287000000002">
    <ele>498.72</ele>
   </trkpt>
   <trkpt lat="-37.86853" lon="145.35273">
    <ele>501.33000000000004</ele>
   </trkpt>
   <trkpt lat="-37.86863" lon="145.35256">
    <ele>502.7900000000001</ele>
   </trkpt>
   <trkpt lat="-37.86871" lon="145.35229">
    <ele>504.36</ele>
   </trkpt>
   <trkpt lat="-37.86869" lon="145.35206000000002">
    <ele>505.27</ele>
   </trkpt>
   <trkpt lat="-37.86865" lon="145.35182">
    <ele>505.8</ele>
   </trkpt>
   <trkpt lat="-37.86838" lon="145.35117000000002">
    <ele>508.95</ele>
   </trkpt>
   <trkpt lat="-37.86833" lon="145.35094">
    <ele>510.38000000000005</ele>
   </trkpt>
   <trkpt lat="-37.86831" lon="145.35071000000002">
    <ele>512.1999999999999</ele>
   </trkpt>
   <trkpt lat="-37.868370000000006" lon="145.3505">
    <ele>512.1999999999999</ele>
   </trkpt>
   <trkpt lat="-37.86867" lon="145.34974000000003">
    <ele>517.0400000000001</ele>
   </trkpt>
   <trkpt lat="-37.86874" lon="145.34961">
    <ele>517.78</ele>
   </trkpt>
   <trkpt lat="-37.86916" lon="145.34902000000002">
    <ele>520.6800000000001</ele>
   </trkpt>
   <trkpt lat="-37.86954" lon="145.34859">
    <ele>523.17</ele>
   </trkpt>
   <trkpt lat="-37.86986000080314" lon="145.348160001839">
    <ele>524.12</ele>
   </trkpt>
   <trkpt lat="-37.870180000000005" lon="145.34773">
    <ele>524.64</ele>
   </trkpt>
   <trkpt lat="-37.870760000000004" lon="145.34751">
    <ele>524.58</ele>
   </trkpt>
   <trkpt lat="-37.87093" lon="145.34747000000002">
    <ele>524.72</ele>
   </trkpt>
   <trkpt lat="-37.87158" lon="145.34716">
    <ele>529.13</ele>
   </trkpt>
   <trkpt lat="-37.87234" lon="145.34686000000002">
    <ele>535.07</ele>
   </trkpt>
   <trkpt lat="-37.87281000036798" lon="145.34661500150355">
    <ele>535.33</ele>
   </trkpt>
   <trkpt lat="-37.87328" lon="145.34637">
    <ele>532.8000000000001</ele>
   </trkpt>
   <trkpt lat="-37.873705000291245" lon="145.34606500183287">
    <ele>528.9</ele>
   </trkpt>
   <trkpt lat="-37.87413" lon="145.34576">
    <ele>524.45</ele>
   </trkpt>
   <trkpt lat="-37.87415" lon="145.34579000000002">
    <ele>528.63</ele>
   </trkpt>
   <trkpt lat="-37.87438500153112" lon="145.3463699984175">
    <ele>527.5300000000001</ele>
   </trkpt>
   <trkpt lat="-37.87462" lon="145.34695000000002">
    <ele>525.27</ele>
   </trkpt>
   <trkpt lat="-37.87462" lon="145.34694000000002">
    <ele>525.27</ele>
   </trkpt>
   <trkpt lat="-37.87462" lon="145.34726">
    <ele>525.1800000000001</ele>
   </trkpt>
   <trkpt lat="-37.87432000192652" lon="145.34794500292165">
    <ele>526.2600000000001</ele>
   </trkpt>
   <trkpt lat="-37.87402" lon="145.34863">
    <ele>525.09</ele>
   </trkpt>
   <trkpt lat="-37.87397" lon="145.34874000000002">
    <ele>524.37</ele>
   </trkpt>
   <trkpt lat="-37.87397" lon="145.34883000000002">
    <ele>524.37</ele>
   </trkpt>
   <trkpt lat="-37.87413" lon="145.34910000000002">
    <ele>523.25</ele>
   </trkpt>
   <trkpt lat="-37.87438" lon="145.34938000000002">
    <ele>522.9100000000001</ele>
   </trkpt>
   <trkpt lat="-37.8748" lon="145.34975">
    <ele>523.1600000000001</ele>
   </trkpt>
   <trkpt lat="-37.87518" lon="145.35024">
    <ele>521.03</ele>
   </trkpt>
   <trkpt lat="-37.8755" lon="145.3505">
    <ele>517.76</ele>
   </trkpt>
   <trkpt lat="-37.87576" lon="145.35083">
    <ele>512.66</ele>
   </trkpt>
   <trkpt lat="-37.87592" lon="145.35115000000002">
    <ele>508.21000000000004</ele>
   </trkpt>
   <trkpt lat="-37.87601" lon="145.35145">
    <ele>504.2000000000001</ele>
   </trkpt>
   <trkpt lat="-37.87617" lon="145.35166">
    <ele>499.2900000000001</ele>
   </trkpt>
   <trkpt lat="-37.87621" lon="145.35187000000002">
    <ele>498.59000000000003</ele>
   </trkpt>
   <trkpt lat="-37.87621" lon="145.35214000000002">
    <ele>494.07000000000005</ele>
   </trkpt>
   <trkpt lat="-37.87637" lon="145.35271">
    <ele>485.88000000000005</ele>
   </trkpt>
   <trkpt lat="-37.87635" lon="145.35295000000002">
    <ele>484.14</ele>
   </trkpt>
   <trkpt lat="-37.87621" lon="145.35324">
    <ele>482.15000000000003</ele>
   </trkpt>
   <trkpt lat="-37.87601" lon="145.35412000000002">
    <ele>471.97</ele>
   </trkpt>
   <trkpt lat="-37.87608" lon="145.35447000000002">
    <ele>469.40000000000003</ele>
   </trkpt>
   <trkpt lat="-37.876180000000005" lon="145.35491000000002">
    <ele>465.90000000000003</ele>
   </trkpt>
   <trkpt lat="-37.87608" lon="145.35506">
    <ele>465.70000000000005</ele>
   </trkpt>
   <trkpt lat="-37.87608" lon="145.35524">
    <ele>465.33</ele>
   </trkpt>
   <trkpt lat="-37.87617" lon="145.35548">
    <ele>464.81000000000006</ele>
   </trkpt>
   <trkpt lat="-37.87639" lon="145.35572000000002">
    <ele>463.23</ele>
   </trkpt>
   <trkpt lat="-37.87664" lon="145.35614">
    <ele>463.16</ele>
   </trkpt>
   <trkpt lat="-37.87688" lon="145.35663000000002">
    <ele>465.25000000000006</ele>
   </trkpt>
   <trkpt lat="-37.87688" lon="145.35664">
    <ele>465.25000000000006</ele>
   </trkpt>
   <trkpt lat="-37.87684" lon="145.35664">
    <ele>470.83000000000004</ele>
   </trkpt>
   <trkpt lat="-37.87675" lon="145.35661000000002">
    <ele>471.27000000000004</ele>
   </trkpt>
   <trkpt lat="-37.87664" lon="145.35663000000002">
    <ele>471.68</ele>
   </trkpt>
   <trkpt lat="-37.8763" lon="145.35678000000001">
    <ele>472.9200000000001</ele>
   </trkpt>
   <trkpt lat="-37.87617" lon="145.35688000000002">
    <ele>473.49</ele>
   </trkpt>
   <trkpt lat="-37.87597" lon="145.35711">
    <ele>473.08000000000004</ele>
   </trkpt>
   <trkpt lat="-37.87585" lon="145.35729">
    <ele>471.63000000000005</ele>
   </trkpt>
   <trkpt lat="-37.87576" lon="145.35749">
    <ele>470.55</ele>
   </trkpt>
   <trkpt lat="-37.87556" lon="145.35770000000002">
    <ele>465.88</ele>
   </trkpt>
   <trkpt lat="-37.87545" lon="145.35776">
    <ele>464.87000000000006</ele>
   </trkpt>
   <trkpt lat="-37.87489" lon="145.35784">
    <ele>460.36</ele>
   </trkpt>
   <trkpt lat="-37.8746" lon="145.35783">
    <ele>460.36</ele>
   </trkpt>
   <trkpt lat="-37.87433" lon="145.35779000000002">
    <ele>456.04</ele>
   </trkpt>
   <trkpt lat="-37.874" lon="145.35763">
    <ele>453.85</ele>
   </trkpt>
   <trkpt lat="-37.87375" lon="145.35745">
    <ele>451.18</ele>
   </trkpt>
   <trkpt lat="-37.87368" lon="145.35735000000003">
    <ele>451.18</ele>
   </trkpt>
   <trkpt lat="-37.87339" lon="145.35662000000002">
    <ele>447.35</ele>
   </trkpt>
   <trkpt lat="-37.8733" lon="145.35656">
    <ele>446.96000000000004</ele>
   </trkpt>
   <trkpt lat="-37.873270000000005" lon="145.35668">
    <ele>446.35</ele>
   </trkpt>
   <trkpt lat="-37.87326" lon="145.35669000000001">
    <ele>446.35</ele>
   </trkpt>
   <trkpt lat="-37.87335" lon="145.35702">
    <ele>444.6</ele>
   </trkpt>
   <trkpt lat="-37.87346" lon="145.35765">
    <ele>441.47</ele>
   </trkpt>
   <trkpt lat="-37.87357" lon="145.35787000000002">
    <ele>439.39000000000004</ele>
   </trkpt>
   <trkpt lat="-37.873630000000006" lon="145.35801">
    <ele>437.66</ele>
   </trkpt>
   <trkpt lat="-37.87373" lon="145.3582">
    <ele>436.01</ele>
   </trkpt>
   <trkpt lat="-37.87402" lon="145.35851000000002">
    <ele>432.47</ele>
   </trkpt>
   <trkpt lat="-37.87435" lon="145.35875000000001">
    <ele>429.21000000000004</ele>
   </trkpt>
   <trkpt lat="-37.87471" lon="145.35918">
    <ele>423.61</ele>
   </trkpt>
   <trkpt lat="-37.874810000000004" lon="145.35939000000002">
    <ele>421.50000000000006</ele>
   </trkpt>
   <trkpt lat="-37.875" lon="145.35952">
    <ele>417.48</ele>
   </trkpt>
   <trkpt lat="-37.87509" lon="145.35962">
    <ele>416.59000000000003</ele>
   </trkpt>
   <trkpt lat="-37.87512" lon="145.35974000000002">
    <ele>415.63000000000005</ele>
   </trkpt>
   <trkpt lat="-37.87509" lon="145.35984000000002">
    <ele>414.52000000000004</ele>
   </trkpt>
   <trkpt lat="-37.87505" lon="145.35992000000002">
    <ele>413.93</ele>
   </trkpt>
   <trkpt lat="-37.87469" lon="145.36031">
    <ele>406.91</ele>
   </trkpt>
   <trkpt lat="-37.87406" lon="145.36083000000002">
    <ele>396.95</ele>
   </trkpt>
   <trkpt lat="-37.87391" lon="145.36107">
    <ele>397.66</ele>
   </trkpt>
   <trkpt lat="-37.873720000000006" lon="145.36151">
    <ele>399.32</ele>
   </trkpt>
   <trkpt lat="-37.87377" lon="145.36206">
    <ele>373.35</ele>
   </trkpt>
   <trkpt lat="-37.873740000000005" lon="145.36213">
    <ele>373.35</ele>
   </trkpt>
   <trkpt lat="-37.87377" lon="145.36227000000002">
    <ele>374.39000000000004</ele>
   </trkpt>
   <trkpt lat="-37.874010000000006" lon="145.36278000000001">
    <ele>377.3</ele>
   </trkpt>
   <trkpt lat="-37.87409" lon="145.36301">
    <ele>379.33000000000004</ele>
   </trkpt>
   <trkpt lat="-37.87404" lon="145.36333000000002">
    <ele>381.85</ele>
   </trkpt>
   <trkpt lat="-37.874100000000006" lon="145.36338">
    <ele>382.35</ele>
   </trkpt>
   <trkpt lat="-37.87438" lon="145.36402">
    <ele>382.8</ele>
   </trkpt>
   <trkpt lat="-37.87438" lon="145.3642">
    <ele>383.81000000000006</ele>
   </trkpt>
   <trkpt lat="-37.87444" lon="145.36441000000002">
    <ele>384.76000000000005</ele>
   </trkpt>
   <trkpt lat="-37.87444" lon="145.36466000000001">
    <ele>385.94</ele>
   </trkpt>
   <trkpt lat="-37.87456" lon="145.36519">
    <ele>387.26000000000005</ele>
   </trkpt>
   <trkpt lat="-37.87467" lon="145.36552">
    <ele>386.3</ele>
   </trkpt>
   <trkpt lat="-37.87485" lon="145.36586">
    <ele>384.13</ele>
   </trkpt>
   <trkpt lat="-37.87485" lon="145.36601000000002">
    <ele>384.53000000000003</ele>
   </trkpt>
   <trkpt lat="-37.8748" lon="145.36626">
    <ele>386.43000000000006</ele>
   </trkpt>
   <trkpt lat="-37.87482" lon="145.36636000000001">
    <ele>386.6</ele>
   </trkpt>
   <trkpt lat="-37.87509" lon="145.36668">
    <ele>383.96000000000004</ele>
   </trkpt>
   <trkpt lat="-37.87523" lon="145.36692000000002">
    <ele>383.32000000000005</ele>
   </trkpt>
   <trkpt lat="-37.87559" lon="145.36734">
    <ele>381.46000000000004</ele>
   </trkpt>
   <trkpt lat="-37.8757" lon="145.3675">
    <ele>379.74</ele>
   </trkpt>
   <trkpt lat="-37.875690000000006" lon="145.36763000000002">
    <ele>378.98</ele>
   </trkpt>
   <trkpt lat="-37.87561" lon="145.36792">
    <ele>377.94000000000005</ele>
   </trkpt>
   <trkpt lat="-37.875510000000006" lon="145.36811">
    <ele>378.81</ele>
   </trkpt>
   <trkpt lat="-37.87545" lon="145.3683">
    <ele>379.07</ele>
   </trkpt>
   <trkpt lat="-37.87556" lon="145.36883">
    <ele>377.24</ele>
   </trkpt>
   <trkpt lat="-37.87554" lon="145.36915000000002">
    <ele>379.59000000000003</ele>
   </trkpt>
   <trkpt lat="-37.87538" lon="145.36979000000002">
    <ele>384.21000000000004</ele>
   </trkpt>
   <trkpt lat="-37.87545" lon="145.37030000000001">
    <ele>380.09000000000003</ele>
   </trkpt>
   <trkpt lat="-37.87552" lon="145.37054">
    <ele>377.95</ele>
   </trkpt>
   <trkpt lat="-37.87559" lon="145.37066000000002">
    <ele>377.00000000000006</ele>
   </trkpt>
   <trkpt lat="-37.87608" lon="145.37106">
    <ele>356.85</ele>
   </trkpt>
   <trkpt lat="-37.8763" lon="145.37121000000002">
    <ele>343.42</ele>
   </trkpt>
   <trkpt lat="-37.876450000000006" lon="145.37138000000002">
    <ele>332.5</ele>
   </trkpt>
   <trkpt lat="-37.87632" lon="145.37135">
    <ele>332.70000000000005</ele>
   </trkpt>
   <trkpt lat="-37.87628" lon="145.37136">
    <ele>332.70000000000005</ele>
   </trkpt>
   <trkpt lat="-37.87579" lon="145.37137">
    <ele>336.11</ele>
   </trkpt>
   <trkpt lat="-37.875220000000006" lon="145.37127">
    <ele>340.99</ele>
   </trkpt>
   <trkpt lat="-37.874700000000004" lon="145.37130000000002">
    <ele>344.37</ele>
   </trkpt>
   <trkpt lat="-37.874660000000006" lon="145.3718">
    <ele>353.2</ele>
   </trkpt>
   <trkpt lat="-37.874495001515065" lon="145.37240000137075">
    <ele>384.47</ele>
   </trkpt>
   <trkpt lat="-37.87433" lon="145.37300000000002">
    <ele>406.0</ele>
   </trkpt>
   <trkpt lat="-37.87424" lon="145.37365">
    <ele>415.38</ele>
   </trkpt>
   <trkpt lat="-37.87405000200656" lon="145.37434000180457">
    <ele>424.83000000000004</ele>
   </trkpt>
   <trkpt lat="-37.87386" lon="145.37503">
    <ele>433.71000000000004</ele>
   </trkpt>
   <trkpt lat="-37.87373" lon="145.37591">
    <ele>445.51</ele>
   </trkpt>
   <trkpt lat="-37.87361000163676" lon="145.37653000095239">
    <ele>455.37000000000006</ele>
   </trkpt>
   <trkpt lat="-37.873490000000004" lon="145.37715">
    <ele>462.14000000000004</ele>
   </trkpt>
   <trkpt lat="-37.87328" lon="145.37811000000002">
    <ele>474.9200000000001</ele>
   </trkpt>
   <trkpt lat="-37.873270000000005" lon="145.37825">
    <ele>475.04</ele>
   </trkpt>
   <trkpt lat="-37.8731650015175" lon="145.37884500073287">
    <ele>484.22</ele>
   </trkpt>
   <trkpt lat="-37.87306" lon="145.37944000000002">
    <ele>488.79</ele>
   </trkpt>
   <trkpt lat="-37.87288" lon="145.37997000000001">
    <ele>492.6</ele>
   </trkpt>
   <trkpt lat="-37.87279" lon="145.38043000000002">
    <ele>490.82000000000005</ele>
   </trkpt>
   <trkpt lat="-37.87265" lon="145.38072000000003">
    <ele>489.09000000000003</ele>
   </trkpt>
   <trkpt lat="-37.87261" lon="145.38073">
    <ele>489.09000000000003</ele>
   </trkpt>
   <trkpt lat="-37.87221" lon="145.38052000000002">
    <ele>491.17</ele>
   </trkpt>
   <trkpt lat="-37.87172500002051" lon="145.38032499865992">
    <ele>492.40000000000003</ele>
   </trkpt>
   <trkpt lat="-37.87124" lon="145.38013">
    <ele>494.54</ele>
   </trkpt>
   <trkpt lat="-37.871" lon="145.37999000000002">
    <ele>496.78000000000003</ele>
   </trkpt>
   <trkpt lat="-37.87073" lon="145.37988">
    <ele>501.50000000000006</ele>
   </trkpt>
   <trkpt lat="-37.87035" lon="145.37976">
    <ele>507.0300000000001</ele>
   </trkpt>
   <trkpt lat="-37.870160000000006" lon="145.37966">
    <ele>508.59</ele>
   </trkpt>
   <trkpt lat="-37.86992" lon="145.37959">
    <ele>513.8000000000001</ele>
   </trkpt>
   <trkpt lat="-37.86984" lon="145.37953000000002">
    <ele>516.66</ele>
   </trkpt>
   <trkpt lat="-37.86963" lon="145.37935000000002">
    <ele>520.94</ele>
   </trkpt>
   <trkpt lat="-37.86896666828536" lon="145.3789066586552">
    <ele>527.4300000000001</ele>
   </trkpt>
   <trkpt lat="-37.86830333490838" lon="145.3784633252928">
    <ele>532.5000000000001</ele>
   </trkpt>
   <trkpt lat="-37.86764" lon="145.37802000000002">
    <ele>535.2800000000001</ele>
   </trkpt>
   <trkpt lat="-37.867360000000005" lon="145.3778">
    <ele>536.52</ele>
   </trkpt>
   <trkpt lat="-37.86731" lon="145.37782">
    <ele>535.8900000000001</ele>
   </trkpt>
   <trkpt lat="-37.86694" lon="145.37746">
    <ele>541.35</ele>
   </trkpt>
   <trkpt lat="-37.86663" lon="145.37732000000003">
    <ele>546.1400000000001</ele>
   </trkpt>
   <trkpt lat="-37.86639" lon="145.37730000000002">
    <ele>548.18</ele>
   </trkpt>
   <trkpt lat="-37.86558" lon="145.3771">
    <ele>561.9399999999999</ele>
   </trkpt>
   <trkpt lat="-37.86524" lon="145.37712000000002">
    <ele>566.6800000000001</ele>
   </trkpt>
   <trkpt lat="-37.864479999887386" lon="145.37696999841205">
    <ele>571.61</ele>
   </trkpt>
   <trkpt lat="-37.86372" lon="145.37682">
    <ele>569.07</ele>
   </trkpt>
   <trkpt lat="-37.86325" lon="145.3768">
    <ele>564.28</ele>
   </trkpt>
   <trkpt lat="-37.86312" lon="145.37676000000002">
    <ele>564.35</ele>
   </trkpt>
   <trkpt lat="-37.8626050003136" lon="145.37667499945277">
    <ele>563.88</ele>
   </trkpt>
   <trkpt lat="-37.86209" lon="145.37659000000002">
    <ele>561.44</ele>
   </trkpt>
   <trkpt lat="-37.86168" lon="145.37656">
    <ele>558.7800000000001</ele>
   </trkpt>
   <trkpt lat="-37.861085000092245" lon="145.37643499899642">
    <ele>556.44</ele>
   </trkpt>
   <trkpt lat="-37.860490000000006" lon="145.37631000000002">
    <ele>556.5</ele>
   </trkpt>
   <trkpt lat="-37.86046000312499" lon="145.37717000041977">
    <ele>557.8100000000001</ele>
   </trkpt>
   <trkpt lat="-37.86043" lon="145.37803000000002">
    <ele>552.98</ele>
   </trkpt>
   <trkpt lat="-37.86032" lon="145.37913">
    <ele>537.1600000000001</ele>
   </trkpt>
   <trkpt lat="-37.860315002223125" lon="145.37985499997595">
    <ele>527.4000000000001</ele>
   </trkpt>
   <trkpt lat="-37.860310000000005" lon="145.38058">
    <ele>518.57</ele>
   </trkpt>
   <trkpt lat="-37.86032" lon="145.38086">
    <ele>517.45</ele>
   </trkpt>
   <trkpt lat="-37.86028" lon="145.38117000000003">
    <ele>517.05</ele>
   </trkpt>
   <trkpt lat="-37.86021" lon="145.38127">
    <ele>517.17</ele>
   </trkpt>
   <trkpt lat="-37.86007" lon="145.38119">
    <ele>519.21</ele>
   </trkpt>
   <trkpt lat="-37.86003" lon="145.38133000000002">
    <ele>518.97</ele>
   </trkpt>
   <trkpt lat="-37.85998" lon="145.38154">
    <ele>518.45</ele>
   </trkpt>
   <trkpt lat="-37.85989" lon="145.38267000000002">
    <ele>516.83</ele>
   </trkpt>
   <trkpt lat="-37.85981" lon="145.38287000000003">
    <ele>505.0</ele>
   </trkpt>
   <trkpt lat="-37.85985" lon="145.38334">
    <ele>502.05</ele>
   </trkpt>
   <trkpt lat="-37.85985" lon="145.38353">
    <ele>501.21999999999997</ele>
   </trkpt>
   <trkpt lat="-37.85976" lon="145.38416">
    <ele>498.21000000000004</ele>
   </trkpt>
   <trkpt lat="-37.85965" lon="145.38444">
    <ele>494.96000000000004</ele>
   </trkpt>
   <trkpt lat="-37.85927" lon="145.38468">
    <ele>488.26</ele>
   </trkpt>
   <trkpt lat="-37.85924" lon="145.38477">
    <ele>486.57000000000005</ele>
   </trkpt>
   <trkpt lat="-37.85922" lon="145.38515">
    <ele>482.69000000000005</ele>
   </trkpt>
   <trkpt lat="-37.85918" lon="145.3854">
    <ele>478.51000000000005</ele>
   </trkpt>
   <trkpt lat="-37.85891" lon="145.38586">
    <ele>472.47</ele>
   </trkpt>
   <trkpt lat="-37.85875" lon="145.38602">
    <ele>469.99</ele>
   </trkpt>
   <trkpt lat="-37.85859000000001" lon="145.38616000000002">
    <ele>468.66</ele>
   </trkpt>
   <trkpt lat="-37.8586" lon="145.38616000000002">
    <ele>468.66</ele>
   </trkpt>
   <trkpt lat="-37.85839" lon="145.38625000000002">
    <ele>464.70000000000005</ele>
   </trkpt>
   <trkpt lat="-37.85826" lon="145.38624000000002">
    <ele>460.34000000000003</ele>
   </trkpt>
   <trkpt lat="-37.85824" lon="145.38621">
    <ele>460.34000000000003</ele>
   </trkpt>
   <trkpt lat="-37.85824" lon="145.38594">
    <ele>455.57</ele>
   </trkpt>
   <trkpt lat="-37.85804" lon="145.38562000000002">
    <ele>450.48</ele>
   </trkpt>
   <trkpt lat="-37.858050000000006" lon="145.38549">
    <ele>450.0</ele>
   </trkpt>
   <trkpt lat="-37.85792" lon="145.38525">
    <ele>448.65000000000003</ele>
   </trkpt>
   <trkpt lat="-37.8575" lon="145.38472000000002">
    <ele>445.38000000000005</ele>
   </trkpt>
   <trkpt lat="-37.85741" lon="145.38446000000002">
    <ele>444.77000000000004</ele>
   </trkpt>
   <trkpt lat="-37.85739" lon="145.38424">
    <ele>444.23</ele>
   </trkpt>
   <trkpt lat="-37.85739" lon="145.38403000000002">
    <ele>443.13</ele>
   </trkpt>
   <trkpt lat="-37.85752" lon="145.38307">
    <ele>440.74</ele>
   </trkpt>
   <trkpt lat="-37.8575" lon="145.38250000000002">
    <ele>439.64000000000004</ele>
   </trkpt>
   <trkpt lat="-37.857440000000004" lon="145.38230000000001">
    <ele>438.42</ele>
   </trkpt>
   <trkpt lat="-37.85707" lon="145.38234">
    <ele>430.19</ele>
   </trkpt>
   <trkpt lat="-37.856730000000006" lon="145.38225">
    <ele>424.47</ele>
   </trkpt>
   <trkpt lat="-37.85674" lon="145.38225">
    <ele>424.47</ele>
   </trkpt>
   <trkpt lat="-37.85665" lon="145.38232000000002">
    <ele>421.37</ele>
   </trkpt>
   <trkpt lat="-37.8566" lon="145.38243">
    <ele>420.36</ele>
   </trkpt>
   <trkpt lat="-37.85667" lon="145.38279">
    <ele>415.58000000000004</ele>
   </trkpt>
   <trkpt lat="-37.85663" lon="145.38306">
    <ele>412.02000000000004</ele>
   </trkpt>
   <trkpt lat="-37.85654" lon="145.38322000000002">
    <ele>410.74000000000007</ele>
   </trkpt>
   <trkpt lat="-37.85638" lon="145.38374000000002">
    <ele>413.25</ele>
   </trkpt>
   <trkpt lat="-37.85636" lon="145.38406">
    <ele>416.48</ele>
   </trkpt>
   <trkpt lat="-37.85636" lon="145.38443">
    <ele>419.36</ele>
   </trkpt>
   <trkpt lat="-37.85642" lon="145.38465000000002">
    <ele>422.02000000000004</ele>
   </trkpt>
   <trkpt lat="-37.85651" lon="145.38478">
    <ele>423.82</ele>
   </trkpt>
   <trkpt lat="-37.85705" lon="145.38525">
    <ele>428.59000000000003</ele>
   </trkpt>
   <trkpt lat="-37.85712" lon="145.38534">
    <ele>428.59000000000003</ele>
   </trkpt>
   <trkpt lat="-37.85712" lon="145.38546000000002">
    <ele>429.18000000000006</ele>
   </trkpt>
   <trkpt lat="-37.85694" lon="145.38588000000001">
    <ele>433.32000000000005</ele>
   </trkpt>
   <trkpt lat="-37.856660000000005" lon="145.38629">
    <ele>435.21000000000004</ele>
   </trkpt>
   <trkpt lat="-37.85667" lon="145.38628">
    <ele>435.21000000000004</ele>
   </trkpt>
   <trkpt lat="-37.85656" lon="145.38636000000002">
    <ele>434.51000000000005</ele>
   </trkpt>
   <trkpt lat="-37.85645" lon="145.38638">
    <ele>433.8</ele>
   </trkpt>
   <trkpt lat="-37.85618" lon="145.38636000000002">
    <ele>431.04</ele>
   </trkpt>
   <trkpt lat="-37.85604" lon="145.38625000000002">
    <ele>427.64</ele>
   </trkpt>
   <trkpt lat="-37.856" lon="145.38617000000002">
    <ele>426.98</ele>
   </trkpt>
   <trkpt lat="-37.85586" lon="145.38612">
    <ele>425.39000000000004</ele>
   </trkpt>
   <trkpt lat="-37.85575" lon="145.38613">
    <ele>424.75</ele>
   </trkpt>
   <trkpt lat="-37.855610000000006" lon="145.3861">
    <ele>424.31</ele>
   </trkpt>
   <trkpt lat="-37.85501" lon="145.38577">
    <ele>417.22</ele>
   </trkpt>
   <trkpt lat="-37.854490000000006" lon="145.38562000000002">
    <ele>407.23</ele>
   </trkpt>
   <trkpt lat="-37.85396" lon="145.38551">
    <ele>392.49</ele>
   </trkpt>
   <trkpt lat="-37.85309" lon="145.38565">
    <ele>378.93000000000006</ele>
   </trkpt>
   <trkpt lat="-37.85275" lon="145.38578">
    <ele>372.46</ele>
   </trkpt>
   <trkpt lat="-37.85233" lon="145.38585">
    <ele>365.36</ele>
   </trkpt>
   <trkpt lat="-37.8519" lon="145.38586">
    <ele>357.55</ele>
   </trkpt>
   <trkpt lat="-37.85116" lon="145.38566">
    <ele>348.42</ele>
   </trkpt>
   <trkpt lat="-37.850460000000005" lon="145.38531">
    <ele>337.0</ele>
   </trkpt>
   <trkpt lat="-37.84995" lon="145.38541">
    <ele>327.04</ele>
   </trkpt>
   <trkpt lat="-37.849500000000006" lon="145.38575">
    <ele>320.35</ele>
   </trkpt>
   <trkpt lat="-37.84904" lon="145.38596">
    <ele>313.31</ele>
   </trkpt>
   <trkpt lat="-37.848560000000006" lon="145.38607000000002">
    <ele>307.39000000000004</ele>
   </trkpt>
   <trkpt lat="-37.84854" lon="145.38608000000002">
    <ele>307.39000000000004</ele>
   </trkpt>
   <trkpt lat="-37.84834" lon="145.38619">
    <ele>305.45</ele>
   </trkpt>
   <trkpt lat="-37.84812" lon="145.38636000000002">
    <ele>301.86</ele>
   </trkpt>
   <trkpt lat="-37.84751" lon="145.38669000000002">
    <ele>296.34000000000003</ele>
   </trkpt>
   <trkpt lat="-37.84736" lon="145.38680000000002">
    <ele>295.18</ele>
   </trkpt>
   <trkpt lat="-37.8472" lon="145.38689000000002">
    <ele>293.6</ele>
   </trkpt>
   <trkpt lat="-37.84691" lon="145.38723000000002">
    <ele>290.32</ele>
   </trkpt>
   <trkpt lat="-37.84671" lon="145.38737">
    <ele>288.81</ele>
   </trkpt>
   <trkpt lat="-37.84651" lon="145.38742000000002">
    <ele>288.46000000000004</ele>
   </trkpt>
   <trkpt lat="-37.84628" lon="145.38743000000002">
    <ele>287.95000000000005</ele>
   </trkpt>
   <trkpt lat="-37.84613" lon="145.38748">
    <ele>287.49</ele>
   </trkpt>
   <trkpt lat="-37.84577" lon="145.38776000000001">
    <ele>285.21000000000004</ele>
   </trkpt>
   <trkpt lat="-37.84557" lon="145.388">
    <ele>284.01000000000005</ele>
   </trkpt>
   <trkpt lat="-37.84539" lon="145.38825">
    <ele>283.77000000000004</ele>
   </trkpt>
   <trkpt lat="-37.84523" lon="145.38868000000002">
    <ele>283.95000000000005</ele>
   </trkpt>
   <trkpt lat="-37.84487" lon="145.38931000000002">
    <ele>284.90999999999997</ele>
   </trkpt>
   <trkpt lat="-37.84478" lon="145.38966000000002">
    <ele>285.61</ele>
   </trkpt>
   <trkpt lat="-37.84474" lon="145.39010000000002">
    <ele>289.12000000000006</ele>
   </trkpt>
   <trkpt lat="-37.84463000167539" lon="145.39072500079666">
    <ele>290.82</ele>
   </trkpt>
   <trkpt lat="-37.84452" lon="145.39135000000002">
    <ele>293.03000000000003</ele>
   </trkpt>
   <trkpt lat="-37.84454" lon="145.39234000000002">
    <ele>297.24</ele>
   </trkpt>
   <trkpt lat="-37.844440000000006" lon="145.39273">
    <ele>298.65000000000003</ele>
   </trkpt>
   <trkpt lat="-37.84436" lon="145.39276">
    <ele>298.85</ele>
   </trkpt>
   <trkpt lat="-37.84355" lon="145.39252000000002">
    <ele>298.84000000000003</ele>
   </trkpt>
   <trkpt lat="-37.84326" lon="145.39248">
    <ele>298.85</ele>
   </trkpt>
   <trkpt lat="-37.8429" lon="145.39254000000003">
    <ele>299.38000000000005</ele>
   </trkpt>
   <trkpt lat="-37.8421" lon="145.39290000000003">
    <ele>300.22</ele>
   </trkpt>
   <trkpt lat="-37.84192" lon="145.39305000000002">
    <ele>300.18</ele>
   </trkpt>
   <trkpt lat="-37.84183" lon="145.3933">
    <ele>300.19</ele>
   </trkpt>
   <trkpt lat="-37.841820000000006" lon="145.39352000000002">
    <ele>299.95000000000005</ele>
   </trkpt>
   <trkpt lat="-37.84176" lon="145.39351000000002">
    <ele>298.9</ele>
   </trkpt>
   <trkpt lat="-37.84167" lon="145.39354">
    <ele>298.31</ele>
   </trkpt>
   <trkpt lat="-37.841530000000006" lon="145.39354">
    <ele>298.31</ele>
   </trkpt>
   <trkpt lat="-37.8414" lon="145.39349">
    <ele>293.79</ele>
   </trkpt>
   <trkpt lat="-37.84093" lon="145.39345">
    <ele>287.40000000000003</ele>
   </trkpt>
   <trkpt lat="-37.84064" lon="145.39347">
    <ele>282.57000000000005</ele>
   </trkpt>
   <trkpt lat="-37.84024" lon="145.39342000000002">
    <ele>277.94</ele>
   </trkpt>
   <trkpt lat="-37.83995" lon="145.39344">
    <ele>272.07000000000005</ele>
   </trkpt>
   <trkpt lat="-37.83981" lon="145.39339">
    <ele>270.81</ele>
   </trkpt>
   <trkpt lat="-37.8397" lon="145.39325000000002">
    <ele>269.29</ele>
   </trkpt>
   <trkpt lat="-37.83966" lon="145.39313">
    <ele>268.04</ele>
   </trkpt>
   <trkpt lat="-37.83937" lon="145.39282">
    <ele>263.64000000000004</ele>
   </trkpt>
   <trkpt lat="-37.83894" lon="145.39235000000002">
    <ele>257.55</ele>
   </trkpt>
   <trkpt lat="-37.83872" lon="145.39218000000002">
    <ele>256.08000000000004</ele>
   </trkpt>
   <trkpt lat="-37.83858" lon="145.39221">
    <ele>255.51000000000002</ele>
   </trkpt>
   <trkpt lat="-37.83784" lon="145.3922">
    <ele>255.26999999999998</ele>
   </trkpt>
   <trkpt lat="-37.83766" lon="145.39217000000002">
    <ele>254.95000000000002</ele>
   </trkpt>
   <trkpt lat="-37.83753" lon="145.39213">
    <ele>254.75000000000003</ele>
   </trkpt>
   <trkpt lat="-37.837430000000005" lon="145.39212">
    <ele>254.4</ele>
   </trkpt>
   <trkpt lat="-37.837410000000006" lon="145.39212">
    <ele>254.4</ele>
   </trkpt>
   <trkpt lat="-37.83731" lon="145.39181000000002">
    <ele>254.03000000000003</ele>
   </trkpt>
   <trkpt lat="-37.83726" lon="145.39154000000002">
    <ele>253.73000000000002</ele>
   </trkpt>
   <trkpt lat="-37.837270000000004" lon="145.39126000000002">
    <ele>252.47000000000003</ele>
   </trkpt>
   <trkpt lat="-37.83733500136969" lon="145.39069500032298">
    <ele>255.9</ele>
   </trkpt>
   <trkpt lat="-37.8374" lon="145.39013">
    <ele>258.33</ele>
   </trkpt>
   <trkpt lat="-37.837410000000006" lon="145.38957000000002">
    <ele>258.45</ele>
   </trkpt>
   <trkpt lat="-37.83751" lon="145.38939000000002">
    <ele>258.5</ele>
   </trkpt>
   <trkpt lat="-37.83769" lon="145.38928">
    <ele>258.68</ele>
   </trkpt>
   <trkpt lat="-37.83791" lon="145.38927">
    <ele>259.04</ele>
   </trkpt>
   <trkpt lat="-37.83816" lon="145.38933">
    <ele>259.64000000000004</ele>
   </trkpt>
   <trkpt lat="-37.83836" lon="145.38944">
    <ele>260.34000000000003</ele>
   </trkpt>
   <trkpt lat="-37.83849" lon="145.38949000000002">
    <ele>260.88</ele>
   </trkpt>
   <trkpt lat="-37.83865" lon="145.38945">
    <ele>260.88</ele>
   </trkpt>
   <trkpt lat="-37.83885" lon="145.38936">
    <ele>261.75000000000006</ele>
   </trkpt>
   <trkpt lat="-37.83908" lon="145.38930000000002">
    <ele>262.20000000000005</ele>
   </trkpt>
   <trkpt lat="-37.83932" lon="145.38919">
    <ele>262.38</ele>
   </trkpt>
   <trkpt lat="-37.83959" lon="145.38912000000002">
    <ele>263.07</ele>
   </trkpt>
   <trkpt lat="-37.83981" lon="145.38901">
    <ele>262.72</ele>
   </trkpt>
   <trkpt lat="-37.840030000000006" lon="145.38874">
    <ele>260.12</ele>
   </trkpt>
   <trkpt lat="-37.84024" lon="145.38854">
    <ele>259.25000000000006</ele>
   </trkpt>
   <trkpt lat="-37.84055" lon="145.38814000000002">
    <ele>262.33</ele>
   </trkpt>
   <trkpt lat="-37.840880000000006" lon="145.38792">
    <ele>264.67</ele>
   </trkpt>
   <trkpt lat="-37.84098" lon="145.3878">
    <ele>266.37</ele>
   </trkpt>
   <trkpt lat="-37.84118" lon="145.38735">
    <ele>268.68</ele>
   </trkpt>
   <trkpt lat="-37.84149" lon="145.387">
    <ele>270.8</ele>
   </trkpt>
   <trkpt lat="-37.84203" lon="145.38627000000002">
    <ele>274.95000000000005</ele>
   </trkpt>
   <trkpt lat="-37.84221" lon="145.38598000000002">
    <ele>275.72</ele>
   </trkpt>
   <trkpt lat="-37.84237" lon="145.38589000000002">
    <ele>275.72</ele>
   </trkpt>
   <trkpt lat="-37.842470000000006" lon="145.38578">
    <ele>276.95000000000005</ele>
   </trkpt>
   <trkpt lat="-37.84254" lon="145.38564000000002">
    <ele>277.35</ele>
   </trkpt>
   <trkpt lat="-37.84266" lon="145.38509000000002">
    <ele>281.14</ele>
   </trkpt>
   <trkpt lat="-37.84272" lon="145.38490000000002">
    <ele>282.22</ele>
   </trkpt>
   <trkpt lat="-37.84281" lon="145.38477">
    <ele>282.84000000000003</ele>
   </trkpt>
   <trkpt lat="-37.84288" lon="145.38473000000002">
    <ele>283.36</ele>
   </trkpt>
   <trkpt lat="-37.84292000000001" lon="145.38473000000002">
    <ele>283.84000000000003</ele>
   </trkpt>
   <trkpt lat="-37.84297" lon="145.38451">
    <ele>285.82</ele>
   </trkpt>
   <trkpt lat="-37.84295" lon="145.38430000000002">
    <ele>289.03000000000003</ele>
   </trkpt>
   <trkpt lat="-37.84286" lon="145.38411000000002">
    <ele>290.59000000000003</ele>
   </trkpt>
   <trkpt lat="-37.84281" lon="145.38376000000002">
    <ele>292.06000000000006</ele>
   </trkpt>
   <trkpt lat="-37.84281" lon="145.38304000000002">
    <ele>297.85</ele>
   </trkpt>
   <trkpt lat="-37.84279" lon="145.38266000000002">
    <ele>302.16</ele>
   </trkpt>
   <trkpt lat="-37.84272" lon="145.38237">
    <ele>304.53000000000003</ele>
   </trkpt>
   <trkpt lat="-37.84263" lon="145.38217">
    <ele>307.6</ele>
   </trkpt>
   <trkpt lat="-37.84248" lon="145.38167">
    <ele>312.5</ele>
   </trkpt>
   <trkpt lat="-37.84248" lon="145.38133000000002">
    <ele>314.41</ele>
   </trkpt>
   <trkpt lat="-37.84243" lon="145.38109">
    <ele>316.41</ele>
   </trkpt>
   <trkpt lat="-37.8423" lon="145.38066">
    <ele>322.07</ele>
   </trkpt>
   <trkpt lat="-37.84205" lon="145.38012">
    <ele>325.55</ele>
   </trkpt>
   <trkpt lat="-37.84201" lon="145.38002">
    <ele>325.8</ele>
   </trkpt>
   <trkpt lat="-37.84185" lon="145.37971000000002">
    <ele>327.38</ele>
   </trkpt>
   <trkpt lat="-37.84154" lon="145.37922">
    <ele>329.65000000000003</ele>
   </trkpt>
   <trkpt lat="-37.84122" lon="145.37847000000002">
    <ele>331.70000000000005</ele>
   </trkpt>
   <trkpt lat="-37.84103" lon="145.37786">
    <ele>334.64000000000004</ele>
   </trkpt>
   <trkpt lat="-37.840990000000005" lon="145.37779">
    <ele>334.66</ele>
   </trkpt>
   <trkpt lat="-37.840970000000006" lon="145.37764">
    <ele>335.14000000000004</ele>
   </trkpt>
   <trkpt lat="-37.84089" lon="145.37754">
    <ele>336.08000000000004</ele>
   </trkpt>
   <trkpt lat="-37.84046" lon="145.37711000000002">
    <ele>344.44</ele>
   </trkpt>
   <trkpt lat="-37.84024" lon="145.37681">
    <ele>348.63000000000005</ele>
   </trkpt>
   <trkpt lat="-37.83999500117897" lon="145.37628499828548">
    <ele>354.26</ele>
   </trkpt>
   <trkpt lat="-37.83975" lon="145.37576">
    <ele>361.17</ele>
   </trkpt>
   <trkpt lat="-37.83948000276182" lon="145.37494999699896">
    <ele>369.41</ele>
   </trkpt>
   <trkpt lat="-37.83921" lon="145.37414">
    <ele>377.58000000000004</ele>
   </trkpt>
   <trkpt lat="-37.8391" lon="145.37399000000002">
    <ele>378.23</ele>
   </trkpt>
   <trkpt lat="-37.83883" lon="145.37376">
    <ele>378.48</ele>
   </trkpt>
   <trkpt lat="-37.83858" lon="145.37359">
    <ele>378.84</ele>
   </trkpt>
   <trkpt lat="-37.83847" lon="145.37354000000002">
    <ele>379.68</ele>
   </trkpt>
   <trkpt lat="-37.83822" lon="145.37348">
    <ele>384.52000000000004</ele>
   </trkpt>
   <trkpt lat="-37.83805" lon="145.37351">
    <ele>388.36</ele>
   </trkpt>
   <trkpt lat="-37.83793" lon="145.37357">
    <ele>392.67</ele>
   </trkpt>
   <trkpt lat="-37.83784" lon="145.37368">
    <ele>394.72</ele>
   </trkpt>
   <trkpt lat="-37.83764" lon="145.37427000000002">
    <ele>401.87000000000006</ele>
   </trkpt>
   <trkpt lat="-37.83746" lon="145.37449">
    <ele>407.27000000000004</ele>
   </trkpt>
   <trkpt lat="-37.83735" lon="145.37466">
    <ele>407.9200000000001</ele>
   </trkpt>
   <trkpt lat="-37.83719" lon="145.37407000000002">
    <ele>409.59</ele>
   </trkpt>
   <trkpt lat="-37.83719" lon="145.37388">
    <ele>410.29</ele>
   </trkpt>
   <trkpt lat="-37.83708" lon="145.37331">
    <ele>413.97</ele>
   </trkpt>
   <trkpt lat="-37.83699" lon="145.37235">
    <ele>423.94000000000005</ele>
   </trkpt>
   <trkpt lat="-37.837030000000006" lon="145.3719">
    <ele>426.78000000000003</ele>
   </trkpt>
   <trkpt lat="-37.83699" lon="145.37133">
    <ele>429.92</ele>
   </trkpt>
   <trkpt lat="-37.837030000000006" lon="145.37094000000002">
    <ele>431.19</ele>
   </trkpt>
   <trkpt lat="-37.83701000000001" lon="145.37064">
    <ele>433.98</ele>
   </trkpt>
   <trkpt lat="-37.83701000000001" lon="145.37063">
    <ele>434.05</ele>
   </trkpt>
   <trkpt lat="-37.83737" lon="145.37053">
    <ele>432.55</ele>
   </trkpt>
   <trkpt lat="-37.83769" lon="145.37040000000002">
    <ele>428.90000000000003</ele>
   </trkpt>
   <trkpt lat="-37.83798" lon="145.37023000000002">
    <ele>429.64</ele>
   </trkpt>
   <trkpt lat="-37.83849" lon="145.36997000000002">
    <ele>435.96</ele>
   </trkpt>
   <trkpt lat="-37.83869" lon="145.36991">
    <ele>439.71000000000004</ele>
   </trkpt>
   <trkpt lat="-37.83885" lon="145.3698">
    <ele>441.57</ele>
   </trkpt>
   <trkpt lat="-37.8391" lon="145.36968000000002">
    <ele>443.66</ele>
   </trkpt>
   <trkpt lat="-37.839560000000006" lon="145.36941000000002">
    <ele>452.0</ele>
   </trkpt>
   <trkpt lat="-37.83975" lon="145.36926000000003">
    <ele>455.05</ele>
   </trkpt>
   <trkpt lat="-37.839940000000006" lon="145.36906000000002">
    <ele>460.46000000000004</ele>
   </trkpt>
   <trkpt lat="-37.83999" lon="145.36903">
    <ele>460.90000000000003</ele>
   </trkpt>
   <trkpt lat="-37.84022" lon="145.36902">
    <ele>463.14000000000004</ele>
   </trkpt>
   <trkpt lat="-37.84057" lon="145.36894">
    <ele>468.02000000000004</ele>
   </trkpt>
   <trkpt lat="-37.84087" lon="145.36892">
    <ele>471.57000000000005</ele>
   </trkpt>
   <trkpt lat="-37.84093" lon="145.36841">
    <ele>472.55</ele>
   </trkpt>
   <trkpt lat="-37.84091" lon="145.36816000000002">
    <ele>472.79</ele>
   </trkpt>
   <trkpt lat="-37.84172" lon="145.36824000000001">
    <ele>481.80000000000007</ele>
   </trkpt>
   <trkpt lat="-37.84221" lon="145.3674">
    <ele>478.09000000000003</ele>
   </trkpt>
   <trkpt lat="-37.84246" lon="145.36715">
    <ele>472.33000000000004</ele>
   </trkpt>
   <trkpt lat="-37.842470000000006" lon="145.36716">
    <ele>472.33000000000004</ele>
   </trkpt>
   <trkpt lat="-37.84239" lon="145.36635">
    <ele>474.99</ele>
   </trkpt>
   <trkpt lat="-37.84201" lon="145.36534">
    <ele>472.62</ele>
   </trkpt>
   <trkpt lat="-37.84219" lon="145.36474">
    <ele>469.35</ele>
   </trkpt>
   <trkpt lat="-37.84251500069251" lon="145.3643450017007">
    <ele>463.6</ele>
   </trkpt>
   <trkpt lat="-37.84284" lon="145.36395000000002">
    <ele>456.86</ele>
   </trkpt>
   <trkpt lat="-37.842850000000006" lon="145.36348">
    <ele>455.01</ele>
   </trkpt>
   <trkpt lat="-37.84247500109887" lon="145.36296499735062">
    <ele>459.44</ele>
   </trkpt>
   <trkpt lat="-37.8421" lon="145.36245000000002">
    <ele>468.54</ele>
   </trkpt>
   <trkpt lat="-37.842130000000004" lon="145.36174000000003">
    <ele>474.77000000000004</ele>
   </trkpt>
   <trkpt lat="-37.842800000000004" lon="145.36169">
    <ele>480.16</ele>
   </trkpt>
   <trkpt lat="-37.843606667385174" lon="145.36140000634143">
    <ele>493.76000000000005</ele>
   </trkpt>
   <trkpt lat="-37.84441333405923" lon="145.3611100063389">
    <ele>504.48</ele>
   </trkpt>
   <trkpt lat="-37.845220000000005" lon="145.36082000000002">
    <ele>509.13000000000005</ele>
   </trkpt>
   <trkpt lat="-37.84557" lon="145.36082000000002">
    <ele>509.59</ele>
   </trkpt>
   <trkpt lat="-37.84606000014232" lon="145.36069500081115">
    <ele>509.21999999999997</ele>
   </trkpt>
   <trkpt lat="-37.84655" lon="145.36057000000002">
    <ele>508.86000000000007</ele>
   </trkpt>
   <trkpt lat="-37.84682" lon="145.36054000000001">
    <ele>508.63</ele>
   </trkpt>
   <trkpt lat="-37.84705" lon="145.36058">
    <ele>508.27</ele>
   </trkpt>
   <trkpt lat="-37.84707" lon="145.36051">
    <ele>508.27</ele>
   </trkpt>
   <trkpt lat="-37.84718" lon="145.3604">
    <ele>508.57000000000005</ele>
   </trkpt>
   <trkpt lat="-37.847350000000006" lon="145.36039000000002">
    <ele>508.76</ele>
   </trkpt>
   <trkpt lat="-37.84742" lon="145.36041">
    <ele>508.97</ele>
   </trkpt>
   <trkpt lat="-37.84730000124737" lon="145.35985999896005">
    <ele>512.17</ele>
   </trkpt>
   <trkpt lat="-37.84718" lon="145.35931000000002">
    <ele>514.14</ele>
   </trkpt>
   <trkpt lat="-37.847060000000006" lon="145.35884000000001">
    <ele>515.3000000000001</ele>
   </trkpt>
   <trkpt lat="-37.84693" lon="145.35843">
    <ele>514.81</ele>
   </trkpt>
   <trkpt lat="-37.84678" lon="145.35819">
    <ele>513.8600000000001</ele>
   </trkpt>
   <trkpt lat="-37.84664" lon="145.35795000000002">
    <ele>511.5200000000001</ele>
   </trkpt>
   <trkpt lat="-37.846540000000005" lon="145.35771000000003">
    <ele>510.19</ele>
   </trkpt>
   <trkpt lat="-37.84644" lon="145.35760000000002">
    <ele>509.71</ele>
   </trkpt>
   <trkpt lat="-37.846360000000004" lon="145.35734000000002">
    <ele>509.14000000000004</ele>
   </trkpt>
   <trkpt lat="-37.846006670389734" lon="145.35667666031446">
    <ele>508.81000000000006</ele>
   </trkpt>
   <trkpt lat="-37.84565333705871" lon="145.35601332698553">
    <ele>510.21000000000004</ele>
   </trkpt>
   <trkpt lat="-37.8453" lon="145.35535000000002">
    <ele>510.72</ele>
   </trkpt>
   <trkpt lat="-37.84517" lon="145.35528000000002">
    <ele>511.4000000000001</ele>
   </trkpt>
   <trkpt lat="-37.8457133347619" lon="145.3548666727697">
    <ele>509.57000000000005</ele>
   </trkpt>
   <trkpt lat="-37.846256668079185" lon="145.35445333944867">
    <ele>506.97</ele>
   </trkpt>
   <trkpt lat="-37.8468" lon="145.35404">
    <ele>504.04</ele>
   </trkpt>
   <trkpt lat="-37.84685" lon="145.35385000000002">
    <ele>508.04</ele>
   </trkpt>
   <trkpt lat="-37.84691" lon="145.35384000000002">
    <ele>508.04</ele>
   </trkpt>
   <trkpt lat="-37.84698" lon="145.35392000000002">
    <ele>506.9600000000001</ele>
   </trkpt>
   <trkpt lat="-37.84734" lon="145.35397">
    <ele>496.82000000000005</ele>
   </trkpt>
   <trkpt lat="-37.84781" lon="145.35397">
    <ele>477.34000000000003</ele>
   </trkpt>
   <trkpt lat="-37.84798" lon="145.35389">
    <ele>477.34000000000003</ele>
   </trkpt>
   <trkpt lat="-37.84828" lon="145.35382">
    <ele>461.0</ele>
   </trkpt>
   <trkpt lat="-37.84857" lon="145.35368000000003">
    <ele>450.63</ele>
   </trkpt>
   <trkpt lat="-37.84868" lon="145.35357000000002">
    <ele>446.99000000000007</ele>
   </trkpt>
   <trkpt lat="-37.84881" lon="145.35356000000002">
    <ele>440.99000000000007</ele>
   </trkpt>
   <trkpt lat="-37.84884" lon="145.35374000000002">
    <ele>442.65000000000003</ele>
   </trkpt>
   <trkpt lat="-37.84881" lon="145.35385000000002">
    <ele>442.65000000000003</ele>
   </trkpt>
   <trkpt lat="-37.84863" lon="145.35433">
    <ele>447.45</ele>
   </trkpt>
   <trkpt lat="-37.84852" lon="145.35456000000002">
    <ele>447.67</ele>
   </trkpt>
   <trkpt lat="-37.84839" lon="145.35525">
    <ele>441.69</ele>
   </trkpt>
   <trkpt lat="-37.84814" lon="145.3557">
    <ele>440.29</ele>
   </trkpt>
   <trkpt lat="-37.84812" lon="145.35582000000002">
    <ele>440.78000000000003</ele>
   </trkpt>
   <trkpt lat="-37.84814" lon="145.35590000000002">
    <ele>441.55000000000007</ele>
   </trkpt>
   <trkpt lat="-37.84821" lon="145.35601">
    <ele>442.1700000000001</ele>
   </trkpt>
   <trkpt lat="-37.84859" lon="145.35638">
    <ele>439.59000000000003</ele>
   </trkpt>
   <trkpt lat="-37.84866" lon="145.35649">
    <ele>438.76000000000005</ele>
   </trkpt>
   <trkpt lat="-37.8487" lon="145.35663000000002">
    <ele>437.81</ele>
   </trkpt>
   <trkpt lat="-37.84872" lon="145.35680000000002">
    <ele>436.99</ele>
   </trkpt>
   <trkpt lat="-37.84877" lon="145.35692">
    <ele>436.03000000000003</ele>
   </trkpt>
   <trkpt lat="-37.84886" lon="145.35699000000002">
    <ele>433.6700000000001</ele>
   </trkpt>
   <trkpt lat="-37.84895" lon="145.35702">
    <ele>430.83000000000004</ele>
   </trkpt>
   <trkpt lat="-37.84951" lon="145.35711">
    <ele>421.37</ele>
   </trkpt>
   <trkpt lat="-37.849700000000006" lon="145.35709">
    <ele>418.05</ele>
   </trkpt>
   <trkpt lat="-37.84998" lon="145.35682">
    <ele>411.2</ele>
   </trkpt>
   <trkpt lat="-37.85009" lon="145.35676">
    <ele>410.91</ele>
   </trkpt>
   <trkpt lat="-37.85054" lon="145.35639">
    <ele>414.76</ele>
   </trkpt>
   <trkpt lat="-37.85083" lon="145.35617000000002">
    <ele>414.84000000000003</ele>
   </trkpt>
   <trkpt lat="-37.85101" lon="145.35612">
    <ele>414.11</ele>
   </trkpt>
   <trkpt lat="-37.851480000049214" lon="145.35608500021982">
    <ele>413.94</ele>
   </trkpt>
   <trkpt lat="-37.85195" lon="145.35605">
    <ele>419.75</ele>
   </trkpt>
   <trkpt lat="-37.8526" lon="145.35617000000002">
    <ele>437.65000000000003</ele>
   </trkpt>
   <trkpt lat="-37.85284" lon="145.35611">
    <ele>441.31</ele>
   </trkpt>
   <trkpt lat="-37.85284" lon="145.3561">
    <ele>441.35</ele>
   </trkpt>
   <trkpt lat="-37.85289" lon="145.35602">
    <ele>441.56000000000006</ele>
   </trkpt>
   <trkpt lat="-37.85298" lon="145.3556">
    <ele>440.71000000000004</ele>
   </trkpt>
   <trkpt lat="-37.853" lon="145.35505">
    <ele>438.07</ele>
   </trkpt>
   <trkpt lat="-37.85331" lon="145.35443">
    <ele>438.54</ele>
   </trkpt>
   <trkpt lat="-37.85342" lon="145.35415">
    <ele>442.08000000000004</ele>
   </trkpt>
   <trkpt lat="-37.85396" lon="145.35339000000002">
    <ele>448.58000000000004</ele>
   </trkpt>
   <trkpt lat="-37.854110000000006" lon="145.35328">
    <ele>451.96000000000004</ele>
   </trkpt>
   <trkpt lat="-37.854350000000004" lon="145.35299">
    <ele>454.62</ele>
   </trkpt>
   <trkpt lat="-37.85439" lon="145.35299">
    <ele>454.62</ele>
   </trkpt>
   <trkpt lat="-37.85452" lon="145.35320000000002">
    <ele>458.94</ele>
   </trkpt>
   <trkpt lat="-37.854580000000006" lon="145.35319">
    <ele>458.94</ele>
   </trkpt>
   <trkpt lat="-37.85461" lon="145.35309">
    <ele>460.96000000000004</ele>
   </trkpt>
   <trkpt lat="-37.85461" lon="145.35294000000002">
    <ele>462.37000000000006</ele>
   </trkpt>
   <trkpt lat="-37.85466" lon="145.35276000000002">
    <ele>463.93000000000006</ele>
   </trkpt>
   <trkpt lat="-37.85472" lon="145.3527">
    <ele>467.19000000000005</ele>
   </trkpt>
   <trkpt lat="-37.85486" lon="145.3523">
    <ele>473.44</ele>
   </trkpt>
   <trkpt lat="-37.855140000000006" lon="145.35198000000003">
    <ele>481.45000000000005</ele>
   </trkpt>
   <trkpt lat="-37.85521" lon="145.35193">
    <ele>483.05</ele>
   </trkpt>
   <trkpt lat="-37.85526" lon="145.35179000000002">
    <ele>484.21000000000004</ele>
   </trkpt>
   <trkpt lat="-37.85528" lon="145.35168000000002">
    <ele>485.48</ele>
   </trkpt>
   <trkpt lat="-37.85546" lon="145.35149">
    <ele>488.00000000000006</ele>
   </trkpt>
   <trkpt lat="-37.855470000000004" lon="145.35148">
    <ele>488.00000000000006</ele>
   </trkpt>
   <trkpt lat="-37.85580500087528" lon="145.35193999788288">
    <ele>495.49</ele>
   </trkpt>
   <trkpt lat="-37.85614" lon="145.35240000000002">
    <ele>505.18000000000006</ele>
   </trkpt>
   <trkpt lat="-37.85622" lon="145.35247">
    <ele>506.17</ele>
   </trkpt>
   <trkpt lat="-37.85636" lon="145.35252">
    <ele>507.05</ele>
   </trkpt>
   <trkpt lat="-37.85683" lon="145.35260000000002">
    <ele>505.55000000000007</ele>
   </trkpt>
   <trkpt lat="-37.85701" lon="145.35266000000001">
    <ele>503.8</ele>
   </trkpt>
   <trkpt lat="-37.85712" lon="145.35268000000002">
    <ele>501.24</ele>
   </trkpt>
   <trkpt lat="-37.85763499999471" lon="145.35270499982497">
    <ele>496.91</ele>
   </trkpt>
   <trkpt lat="-37.85815" lon="145.35273">
    <ele>488.77000000000004</ele>
   </trkpt>
   <trkpt lat="-37.85851" lon="145.35268000000002">
    <ele>486.00000000000006</ele>
   </trkpt>
   <trkpt lat="-37.8592" lon="145.35248">
    <ele>473.28000000000003</ele>
   </trkpt>
   <trkpt lat="-37.85945" lon="145.35244">
    <ele>470.99</ele>
   </trkpt>
   <trkpt lat="-37.85938" lon="145.35266000000001">
    <ele>475.57000000000005</ele>
   </trkpt>
   <trkpt lat="-37.85929" lon="145.35279">
    <ele>485.25</ele>
   </trkpt>
   <trkpt lat="-37.85927" lon="145.35287000000002">
    <ele>485.25</ele>
   </trkpt>
   <trkpt lat="-37.85931" lon="145.35311000000002">
    <ele>491.06000000000006</ele>
   </trkpt>
   <trkpt lat="-37.85938" lon="145.35323000000002">
    <ele>494.33000000000004</ele>
   </trkpt>
   <trkpt lat="-37.85956" lon="145.35346">
    <ele>497.45000000000005</ele>
   </trkpt>
   <trkpt lat="-37.85983" lon="145.35401000000002">
    <ele>505.19</ele>
   </trkpt>
   <trkpt lat="-37.860130000000005" lon="145.35449">
    <ele>513.0600000000001</ele>
   </trkpt>
   <trkpt lat="-37.86059" lon="145.35531">
    <ele>511.46000000000004</ele>
   </trkpt>
   <trkpt lat="-37.86061" lon="145.35545000000002">
    <ele>510.33000000000004</ele>
   </trkpt>
   <trkpt lat="-37.86063" lon="145.35594">
    <ele>498.27000000000004</ele>
   </trkpt>
   <trkpt lat="-37.86074" lon="145.3561">
    <ele>494.18000000000006</ele>
   </trkpt>
   <trkpt lat="-37.86083" lon="145.35618000000002">
    <ele>491.94000000000005</ele>
   </trkpt>
   <trkpt lat="-37.86084" lon="145.3562">
    <ele>491.94000000000005</ele>
   </trkpt>
   <trkpt lat="-37.86079" lon="145.35600000000002">
    <ele>491.27000000000004</ele>
   </trkpt>
   <trkpt lat="-37.86079" lon="145.35580000000002">
    <ele>491.06000000000006</ele>
   </trkpt>
   <trkpt lat="-37.86086" lon="145.35562000000002">
    <ele>490.63000000000005</ele>
   </trkpt>
   <trkpt lat="-37.86108" lon="145.35531">
    <ele>489.25</ele>
   </trkpt>
   <trkpt lat="-37.86153" lon="145.35481000000001">
    <ele>486.16</ele>
   </trkpt>
   <trkpt lat="-37.86198" lon="145.35437000000002">
    <ele>483.84000000000003</ele>
   </trkpt>
   <trkpt lat="-37.86229" lon="145.35409">
    <ele>480.28000000000003</ele>
   </trkpt>
   <trkpt lat="-37.862700000000004" lon="145.35381">
    <ele>478.85</ele>
   </trkpt>
  </trkseg>
 </trk>
</gpx>
