<?xml version="1.0" encoding="UTF-8"?>
<gpx creator="StravaGPX" version="1.1" xmlns="http://www.topografix.com/GPX/1/1" xmlns:xsi="http://www.w3.org/2001/XMLSchema-instance" xsi:schemaLocation="http://www.topografix.com/GPX/1/1 http://www.topografix.com/GPX/1/1/gpx.xsd">
 <metadata>
  <name>DTR 6 March</name>
  <author>
   <name>john csorgo</name>
  </author>
  <copyright author="OpenStreetMap contributors">
   <year>2020</year>
   <license>https://www.openstreetmap.org/copyright</license>
  </copyright>
 </metadata>
 <trk>
  <name>DTR 6 March</name>
  <link href=""/>
  <type>running</type>
  <trkseg>
   <trkpt lat="-37.88749" lon="145.36999">
    <ele>350.54</ele>
   </trkpt>
   <trkpt lat="-37.88743" lon="145.36973">
    <ele>348.81</ele>
   </trkpt>
   <trkpt lat="-37.88736" lon="145.36978000000002">
    <ele>348.90000000000003</ele>
   </trkpt>
   <trkpt lat="-37.88667" lon="145.36906000000002">
    <ele>352.31</ele>
   </trkpt>
   <trkpt lat="-37.88642" lon="145.36872000000002">
    <ele>348.31</ele>
   </trkpt>
   <trkpt lat="-37.88617" lon="145.3685">
    <ele>345.23</ele>
   </trkpt>
   <trkpt lat="-37.886100000000006" lon="145.36837">
    <ele>345.03</ele>
   </trkpt>
   <trkpt lat="-37.88602" lon="145.36834000000002">
    <ele>346.98</ele>
   </trkpt>
   <trkpt lat="-37.88564" lon="145.36801">
    <ele>355.93</ele>
   </trkpt>
   <trkpt lat="-37.8855" lon="145.36785">
    <ele>364.34000000000003</ele>
   </trkpt>
   <trkpt lat="-37.88517" lon="145.36757">
    <ele>371.06000000000006</ele>
   </trkpt>
   <trkpt lat="-37.88499" lon="145.36737000000002">
    <ele>375.59000000000003</ele>
   </trkpt>
   <trkpt lat="-37.884820000000005" lon="145.36711000000003">
    <ele>382.81000000000006</ele>
   </trkpt>
   <trkpt lat="-37.88481" lon="145.36710000000002">
    <ele>382.99000000000007</ele>
   </trkpt>
   <trkpt lat="-37.8847" lon="145.36672000000002">
    <ele>392.57000000000005</ele>
   </trkpt>
   <trkpt lat="-37.8847" lon="145.36657000000002">
    <ele>393.79</ele>
   </trkpt>
   <trkpt lat="-37.88465" lon="145.36651">
    <ele>398.47</ele>
   </trkpt>
   <trkpt lat="-37.88465" lon="145.36642">
    <ele>398.47</ele>
   </trkpt>
   <trkpt lat="-37.88461" lon="145.36635">
    <ele>399.68</ele>
   </trkpt>
   <trkpt lat="-37.88458" lon="145.36623">
    <ele>404.79</ele>
   </trkpt>
   <trkpt lat="-37.88463" lon="145.36617">
    <ele>404.79</ele>
   </trkpt>
   <trkpt lat="-37.88474" lon="145.36611000000002">
    <ele>408.12</ele>
   </trkpt>
   <trkpt lat="-37.884980000000006" lon="145.36612000000002">
    <ele>412.67</ele>
   </trkpt>
   <trkpt lat="-37.885270000000006" lon="145.36607">
    <ele>417.58</ele>
   </trkpt>
   <trkpt lat="-37.88546" lon="145.36592000000002">
    <ele>422.21000000000004</ele>
   </trkpt>
   <trkpt lat="-37.88548" lon="145.36577">
    <ele>425.36</ele>
   </trkpt>
   <trkpt lat="-37.88546" lon="145.36561">
    <ele>428.12000000000006</ele>
   </trkpt>
   <trkpt lat="-37.88539" lon="145.36557000000002">
    <ele>429.06000000000006</ele>
   </trkpt>
   <trkpt lat="-37.885360000000006" lon="145.36547000000002">
    <ele>430.05</ele>
   </trkpt>
   <trkpt lat="-37.88519" lon="145.36531000000002">
    <ele>435.78000000000003</ele>
   </trkpt>
   <trkpt lat="-37.88517" lon="145.36524">
    <ele>436.51</ele>
   </trkpt>
   <trkpt lat="-37.88499" lon="145.36505000000002">
    <ele>439.1700000000001</ele>
   </trkpt>
   <trkpt lat="-37.88494" lon="145.36503000000002">
    <ele>439.52000000000004</ele>
   </trkpt>
   <trkpt lat="-37.88483" lon="145.36484000000002">
    <ele>442.29</ele>
   </trkpt>
   <trkpt lat="-37.88476" lon="145.36459000000002">
    <ele>446.62</ele>
   </trkpt>
   <trkpt lat="-37.88479" lon="145.36451000000002">
    <ele>448.64000000000004</ele>
   </trkpt>
   <trkpt lat="-37.88476" lon="145.36443">
    <ele>450.39</ele>
   </trkpt>
   <trkpt lat="-37.88463" lon="145.36419">
    <ele>454.28000000000003</ele>
   </trkpt>
   <trkpt lat="-37.88445" lon="145.36369000000002">
    <ele>463.57000000000005</ele>
   </trkpt>
   <trkpt lat="-37.884420000000006" lon="145.36347">
    <ele>468.09000000000003</ele>
   </trkpt>
   <trkpt lat="-37.88443" lon="145.36341000000002">
    <ele>469.02000000000004</ele>
   </trkpt>
   <trkpt lat="-37.88449" lon="145.36339">
    <ele>470.58000000000004</ele>
   </trkpt>
   <trkpt lat="-37.88456" lon="145.3634">
    <ele>471.97</ele>
   </trkpt>
   <trkpt lat="-37.8847" lon="145.36339">
    <ele>473.48</ele>
   </trkpt>
   <trkpt lat="-37.88472" lon="145.36334000000002">
    <ele>474.31000000000006</ele>
   </trkpt>
   <trkpt lat="-37.88474" lon="145.36315000000002">
    <ele>476.11</ele>
   </trkpt>
   <trkpt lat="-37.88483" lon="145.36289000000002">
    <ele>482.57000000000005</ele>
   </trkpt>
   <trkpt lat="-37.88517" lon="145.36249">
    <ele>488.4100000000001</ele>
   </trkpt>
   <trkpt lat="-37.88526" lon="145.36229">
    <ele>488.4100000000001</ele>
   </trkpt>
   <trkpt lat="-37.8853" lon="145.36199000000002">
    <ele>492.67</ele>
   </trkpt>
   <trkpt lat="-37.885270000000006" lon="145.36174000000003">
    <ele>492.95000000000005</ele>
   </trkpt>
   <trkpt lat="-37.88555" lon="145.36100000000002">
    <ele>498.78000000000003</ele>
   </trkpt>
   <trkpt lat="-37.88576500211019" lon="145.3602850022606">
    <ele>503.07</ele>
   </trkpt>
   <trkpt lat="-37.88598" lon="145.35957000000002">
    <ele>504.2300000000001</ele>
   </trkpt>
   <trkpt lat="-37.88595" lon="145.35933">
    <ele>503.75</ele>
   </trkpt>
   <trkpt lat="-37.885940000000005" lon="145.35928">
    <ele>503.75</ele>
   </trkpt>
   <trkpt lat="-37.885960000000004" lon="145.35933">
    <ele>503.81000000000006</ele>
   </trkpt>
   <trkpt lat="-37.88591" lon="145.35922000000002">
    <ele>503.39</ele>
   </trkpt>
   <trkpt lat="-37.88564" lon="145.35886000000002">
    <ele>501.12</ele>
   </trkpt>
   <trkpt lat="-37.88539" lon="145.35863">
    <ele>499.21000000000004</ele>
   </trkpt>
   <trkpt lat="-37.88521" lon="145.35854">
    <ele>497.99</ele>
   </trkpt>
   <trkpt lat="-37.88479" lon="145.35839">
    <ele>496.82000000000005</ele>
   </trkpt>
   <trkpt lat="-37.88438" lon="145.35836">
    <ele>495.31</ele>
   </trkpt>
   <trkpt lat="-37.884060000000005" lon="145.35844">
    <ele>494.38000000000005</ele>
   </trkpt>
   <trkpt lat="-37.88402" lon="145.35827">
    <ele>494.43</ele>
   </trkpt>
   <trkpt lat="-37.884" lon="145.35808">
    <ele>493.04</ele>
   </trkpt>
   <trkpt lat="-37.88382" lon="145.35777000000002">
    <ele>491.58</ele>
   </trkpt>
   <trkpt lat="-37.8838" lon="145.35755">
    <ele>490.28000000000003</ele>
   </trkpt>
   <trkpt lat="-37.883790000000005" lon="145.35717000000002">
    <ele>492.74000000000007</ele>
   </trkpt>
   <trkpt lat="-37.88389" lon="145.35675">
    <ele>493.04</ele>
   </trkpt>
   <trkpt lat="-37.88391" lon="145.35645000000002">
    <ele>492.47</ele>
   </trkpt>
   <trkpt lat="-37.88391" lon="145.35613">
    <ele>491.31</ele>
   </trkpt>
   <trkpt lat="-37.88387" lon="145.35593">
    <ele>490.92</ele>
   </trkpt>
   <trkpt lat="-37.8838" lon="145.35575">
    <ele>490.88000000000005</ele>
   </trkpt>
   <trkpt lat="-37.88351" lon="145.3553">
    <ele>491.73</ele>
   </trkpt>
   <trkpt lat="-37.88318" lon="145.3554">
    <ele>490.82000000000005</ele>
   </trkpt>
   <trkpt lat="-37.88315" lon="145.35522">
    <ele>489.08</ele>
   </trkpt>
   <trkpt lat="-37.88293" lon="145.35439000000002">
    <ele>485.11</ele>
   </trkpt>
   <trkpt lat="-37.88291" lon="145.35394000000002">
    <ele>482.41</ele>
   </trkpt>
   <trkpt lat="-37.88282" lon="145.35356000000002">
    <ele>480.46000000000004</ele>
   </trkpt>
   <trkpt lat="-37.88268" lon="145.35323000000002">
    <ele>477.92</ele>
   </trkpt>
   <trkpt lat="-37.88266" lon="145.35317">
    <ele>477.68000000000006</ele>
   </trkpt>
   <trkpt lat="-37.88266" lon="145.3531">
    <ele>477.08000000000004</ele>
   </trkpt>
   <trkpt lat="-37.883" lon="145.35234">
    <ele>472.88</ele>
   </trkpt>
   <trkpt lat="-37.88311" lon="145.35219">
    <ele>472.35</ele>
   </trkpt>
   <trkpt lat="-37.88342" lon="145.35195000000002">
    <ele>471.43</ele>
   </trkpt>
   <trkpt lat="-37.88353" lon="145.35180000000003">
    <ele>471.13000000000005</ele>
   </trkpt>
   <trkpt lat="-37.88369" lon="145.35151000000002">
    <ele>469.62</ele>
   </trkpt>
   <trkpt lat="-37.88385" lon="145.3513">
    <ele>467.29</ele>
   </trkpt>
   <trkpt lat="-37.88418" lon="145.35115000000002">
    <ele>474.77000000000004</ele>
   </trkpt>
   <trkpt lat="-37.88443" lon="145.35108000000002">
    <ele>476.75000000000006</ele>
   </trkpt>
   <trkpt lat="-37.88456" lon="145.35107000000002">
    <ele>487.82</ele>
   </trkpt>
   <trkpt lat="-37.884730000000005" lon="145.35098000000002">
    <ele>487.82</ele>
   </trkpt>
   <trkpt lat="-37.88461" lon="145.35066">
    <ele>494.05</ele>
   </trkpt>
   <trkpt lat="-37.88461" lon="145.35046">
    <ele>491.68000000000006</ele>
   </trkpt>
   <trkpt lat="-37.884640000000005" lon="145.35035000000002">
    <ele>489.73</ele>
   </trkpt>
   <trkpt lat="-37.884600000000006" lon="145.35014">
    <ele>491.19</ele>
   </trkpt>
   <trkpt lat="-37.884620000000005" lon="145.35017000000002">
    <ele>491.06000000000006</ele>
   </trkpt>
   <trkpt lat="-37.88456" lon="145.35004">
    <ele>491.96000000000004</ele>
   </trkpt>
   <trkpt lat="-37.88436" lon="145.34969">
    <ele>493.47</ele>
   </trkpt>
   <trkpt lat="-37.88405" lon="145.34945000000002">
    <ele>493.7900000000001</ele>
   </trkpt>
   <trkpt lat="-37.8836" lon="145.34926000000002">
    <ele>494.18000000000006</ele>
   </trkpt>
   <trkpt lat="-37.88311" lon="145.34876">
    <ele>494.42</ele>
   </trkpt>
   <trkpt lat="-37.88302" lon="145.3487">
    <ele>494.39000000000004</ele>
   </trkpt>
   <trkpt lat="-37.88255" lon="145.34856000000002">
    <ele>494.20000000000005</ele>
   </trkpt>
   <trkpt lat="-37.88226" lon="145.34839000000002">
    <ele>494.50000000000006</ele>
   </trkpt>
   <trkpt lat="-37.88201" lon="145.34819000000002">
    <ele>495.64</ele>
   </trkpt>
   <trkpt lat="-37.88167" lon="145.34744">
    <ele>500.77000000000004</ele>
   </trkpt>
   <trkpt lat="-37.88154" lon="145.34723000000002">
    <ele>501.86000000000007</ele>
   </trkpt>
   <trkpt lat="-37.88105" lon="145.34695000000002">
    <ele>503.62000000000006</ele>
   </trkpt>
   <trkpt lat="-37.880860000000006" lon="145.34682">
    <ele>503.93</ele>
   </trkpt>
   <trkpt lat="-37.88067" lon="145.34663">
    <ele>504.3500000000001</ele>
   </trkpt>
   <trkpt lat="-37.88042" lon="145.34634">
    <ele>505.6</ele>
   </trkpt>
   <trkpt lat="-37.880075000951116" lon="145.34583999750402">
    <ele>508.0</ele>
   </trkpt>
   <trkpt lat="-37.87973" lon="145.34534000000002">
    <ele>510.0300000000001</ele>
   </trkpt>
   <trkpt lat="-37.87944" lon="145.34486">
    <ele>511.21000000000004</ele>
   </trkpt>
   <trkpt lat="-37.87919" lon="145.34452000000002">
    <ele>508.11000000000007</ele>
   </trkpt>
   <trkpt lat="-37.879070000000006" lon="145.34405">
    <ele>506.27</ele>
   </trkpt>
   <trkpt lat="-37.87892" lon="145.34343">
    <ele>501.7900000000001</ele>
   </trkpt>
   <trkpt lat="-37.87877" lon="145.34292000000002">
    <ele>496.19</ele>
   </trkpt>
   <trkpt lat="-37.87865" lon="145.34273000000002">
    <ele>499.89000000000004</ele>
   </trkpt>
   <trkpt lat="-37.87865" lon="145.34264000000002">
    <ele>499.89000000000004</ele>
   </trkpt>
   <trkpt lat="-37.878690000000006" lon="145.34248000000002">
    <ele>505.17</ele>
   </trkpt>
   <trkpt lat="-37.87874" lon="145.34236">
    <ele>509.74000000000007</ele>
   </trkpt>
   <trkpt lat="-37.8787" lon="145.34225">
    <ele>509.74000000000007</ele>
   </trkpt>
   <trkpt lat="-37.87866" lon="145.34221000000002">
    <ele>509.74000000000007</ele>
   </trkpt>
   <trkpt lat="-37.8787" lon="145.34225">
    <ele>509.29</ele>
   </trkpt>
   <trkpt lat="-37.87856" lon="145.34212000000002">
    <ele>513.0100000000001</ele>
   </trkpt>
   <trkpt lat="-37.87847" lon="145.34209">
    <ele>514.3199999999999</ele>
   </trkpt>
   <trkpt lat="-37.87841" lon="145.34212000000002">
    <ele>514.8000000000001</ele>
   </trkpt>
   <trkpt lat="-37.87832" lon="145.34217">
    <ele>515.37</ele>
   </trkpt>
   <trkpt lat="-37.87807" lon="145.34255000000002">
    <ele>512.99</ele>
   </trkpt>
   <trkpt lat="-37.87791" lon="145.34269">
    <ele>512.1600000000001</ele>
   </trkpt>
   <trkpt lat="-37.87778" lon="145.34271">
    <ele>512.34</ele>
   </trkpt>
   <trkpt lat="-37.87722" lon="145.34272">
    <ele>512.51</ele>
   </trkpt>
   <trkpt lat="-37.87688" lon="145.3428">
    <ele>511.04</ele>
   </trkpt>
   <trkpt lat="-37.8763" lon="145.34273000000002">
    <ele>512.0300000000001</ele>
   </trkpt>
   <trkpt lat="-37.87599" lon="145.34278">
    <ele>512.15</ele>
   </trkpt>
   <trkpt lat="-37.87585" lon="145.34284000000002">
    <ele>512.1999999999999</ele>
   </trkpt>
   <trkpt lat="-37.87574" lon="145.34297">
    <ele>512.5500000000001</ele>
   </trkpt>
   <trkpt lat="-37.875510000000006" lon="145.34301000000002">
    <ele>503.27</ele>
   </trkpt>
   <trkpt lat="-37.87541" lon="145.34295">
    <ele>502.17</ele>
   </trkpt>
   <trkpt lat="-37.87523" lon="145.34291000000002">
    <ele>500.6400000000001</ele>
   </trkpt>
   <trkpt lat="-37.87512" lon="145.34297">
    <ele>500.51</ele>
   </trkpt>
   <trkpt lat="-37.87511000000001" lon="145.34298">
    <ele>500.48999999999995</ele>
   </trkpt>
   <trkpt lat="-37.87498" lon="145.3428">
    <ele>499.68000000000006</ele>
   </trkpt>
   <trkpt lat="-37.8744" lon="145.34218">
    <ele>495.08</ele>
   </trkpt>
   <trkpt lat="-37.87406" lon="145.34185000000002">
    <ele>494.07000000000005</ele>
   </trkpt>
   <trkpt lat="-37.87375" lon="145.34154">
    <ele>491.00000000000006</ele>
   </trkpt>
   <trkpt lat="-37.87315" lon="145.34105000000002">
    <ele>485.16</ele>
   </trkpt>
   <trkpt lat="-37.87288" lon="145.3409">
    <ele>483.63000000000005</ele>
   </trkpt>
   <trkpt lat="-37.87272" lon="145.34083">
    <ele>481.96000000000004</ele>
   </trkpt>
   <trkpt lat="-37.87263" lon="145.34076000000002">
    <ele>481.96000000000004</ele>
   </trkpt>
   <trkpt lat="-37.87214" lon="145.34024000000002">
    <ele>476.58000000000004</ele>
   </trkpt>
   <trkpt lat="-37.87185" lon="145.33998000000003">
    <ele>473.13000000000005</ele>
   </trkpt>
   <trkpt lat="-37.871320000000004" lon="145.33969000000002">
    <ele>469.36000000000007</ele>
   </trkpt>
   <trkpt lat="-37.8712" lon="145.33964">
    <ele>468.43</ele>
   </trkpt>
   <trkpt lat="-37.87106" lon="145.33963">
    <ele>466.77</ele>
   </trkpt>
   <trkpt lat="-37.87082" lon="145.33948">
    <ele>463.81000000000006</ele>
   </trkpt>
   <trkpt lat="-37.87059" lon="145.33917000000002">
    <ele>462.61</ele>
   </trkpt>
   <trkpt lat="-37.87037" lon="145.33894">
    <ele>461.27</ele>
   </trkpt>
   <trkpt lat="-37.87026" lon="145.33888000000002">
    <ele>459.78000000000003</ele>
   </trkpt>
   <trkpt lat="-37.87035" lon="145.33879000000002">
    <ele>456.46000000000004</ele>
   </trkpt>
   <trkpt lat="-37.87046" lon="145.33875">
    <ele>454.88000000000005</ele>
   </trkpt>
   <trkpt lat="-37.87059" lon="145.33873">
    <ele>453.37000000000006</ele>
   </trkpt>
   <trkpt lat="-37.87075" lon="145.33874">
    <ele>449.85</ele>
   </trkpt>
   <trkpt lat="-37.87091" lon="145.33863000000002">
    <ele>446.67</ele>
   </trkpt>
   <trkpt lat="-37.871" lon="145.33853000000002">
    <ele>444.35</ele>
   </trkpt>
   <trkpt lat="-37.87113" lon="145.33831">
    <ele>439.58000000000004</ele>
   </trkpt>
   <trkpt lat="-37.87118" lon="145.33812">
    <ele>432.59000000000003</ele>
   </trkpt>
   <trkpt lat="-37.87115" lon="145.33794">
    <ele>427.31</ele>
   </trkpt>
   <trkpt lat="-37.871100000000006" lon="145.33779">
    <ele>426.03000000000003</ele>
   </trkpt>
   <trkpt lat="-37.87091" lon="145.33758">
    <ele>421.22</ele>
   </trkpt>
   <trkpt lat="-37.87077" lon="145.33726000000001">
    <ele>415.31</ele>
   </trkpt>
   <trkpt lat="-37.87048" lon="145.33697">
    <ele>407.45000000000005</ele>
   </trkpt>
   <trkpt lat="-37.87024" lon="145.33688">
    <ele>404.81000000000006</ele>
   </trkpt>
   <trkpt lat="-37.87019" lon="145.3368">
    <ele>402.52000000000004</ele>
   </trkpt>
   <trkpt lat="-37.87019" lon="145.33630000000002">
    <ele>380.84000000000003</ele>
   </trkpt>
   <trkpt lat="-37.8701" lon="145.33595000000003">
    <ele>380.84000000000003</ele>
   </trkpt>
   <trkpt lat="-37.87001" lon="145.33628000000002">
    <ele>386.33</ele>
   </trkpt>
   <trkpt lat="-37.86983" lon="145.33668">
    <ele>393.19000000000005</ele>
   </trkpt>
   <trkpt lat="-37.86968" lon="145.33686">
    <ele>393.63000000000005</ele>
   </trkpt>
   <trkpt lat="-37.86927" lon="145.33711000000002">
    <ele>394.0</ele>
   </trkpt>
   <trkpt lat="-37.86914" lon="145.33722">
    <ele>395.53000000000003</ele>
   </trkpt>
   <trkpt lat="-37.86905" lon="145.33726000000001">
    <ele>396.58000000000004</ele>
   </trkpt>
   <trkpt lat="-37.86891" lon="145.33724">
    <ele>395.91</ele>
   </trkpt>
   <trkpt lat="-37.8686" lon="145.33698">
    <ele>393.03000000000003</ele>
   </trkpt>
   <trkpt lat="-37.86831" lon="145.3368">
    <ele>393.95</ele>
   </trkpt>
   <trkpt lat="-37.86807" lon="145.33656000000002">
    <ele>394.72</ele>
   </trkpt>
   <trkpt lat="-37.867900000000006" lon="145.33622000000003">
    <ele>395.93000000000006</ele>
   </trkpt>
   <trkpt lat="-37.86762" lon="145.33587">
    <ele>397.1</ele>
   </trkpt>
   <trkpt lat="-37.86748" lon="145.33566000000002">
    <ele>398.06</ele>
   </trkpt>
   <trkpt lat="-37.86741" lon="145.33546">
    <ele>398.95000000000005</ele>
   </trkpt>
   <trkpt lat="-37.86735" lon="145.33513000000002">
    <ele>401.15</ele>
   </trkpt>
   <trkpt lat="-37.86735" lon="145.33496000000002">
    <ele>402.66</ele>
   </trkpt>
   <trkpt lat="-37.86744" lon="145.33422000000002">
    <ele>405.9200000000001</ele>
   </trkpt>
   <trkpt lat="-37.86741" lon="145.33403">
    <ele>407.14000000000004</ele>
   </trkpt>
   <trkpt lat="-37.86737" lon="145.33386000000002">
    <ele>407.14000000000004</ele>
   </trkpt>
   <trkpt lat="-37.8673" lon="145.33371000000002">
    <ele>409.99</ele>
   </trkpt>
   <trkpt lat="-37.867200000000004" lon="145.33355">
    <ele>409.99</ele>
   </trkpt>
   <trkpt lat="-37.86697" lon="145.33334000000002">
    <ele>408.21000000000004</ele>
   </trkpt>
   <trkpt lat="-37.866980000000005" lon="145.33335000000002">
    <ele>408.22</ele>
   </trkpt>
   <trkpt lat="-37.86634" lon="145.33317000000002">
    <ele>403.44</ele>
   </trkpt>
   <trkpt lat="-37.86568000015063" lon="145.33300499853112">
    <ele>397.74</ele>
   </trkpt>
   <trkpt lat="-37.86502" lon="145.33284">
    <ele>394.38</ele>
   </trkpt>
   <trkpt lat="-37.86482" lon="145.33287">
    <ele>391.37000000000006</ele>
   </trkpt>
   <trkpt lat="-37.86473" lon="145.33291">
    <ele>391.37000000000006</ele>
   </trkpt>
   <trkpt lat="-37.86464" lon="145.333">
    <ele>389.73</ele>
   </trkpt>
   <trkpt lat="-37.86451" lon="145.33319">
    <ele>388.84000000000003</ele>
   </trkpt>
   <trkpt lat="-37.86451" lon="145.3332">
    <ele>388.84000000000003</ele>
   </trkpt>
   <trkpt lat="-37.86475" lon="145.33338">
    <ele>397.67</ele>
   </trkpt>
   <trkpt lat="-37.86493" lon="145.33347">
    <ele>404.6</ele>
   </trkpt>
   <trkpt lat="-37.86529" lon="145.33396000000002">
    <ele>417.50000000000006</ele>
   </trkpt>
   <trkpt lat="-37.8656" lon="145.33411">
    <ele>423.23</ele>
   </trkpt>
   <trkpt lat="-37.86576" lon="145.33428">
    <ele>426.1</ele>
   </trkpt>
   <trkpt lat="-37.86581500171866" lon="145.3349149996823">
    <ele>424.18000000000006</ele>
   </trkpt>
   <trkpt lat="-37.86587" lon="145.33555">
    <ele>420.75</ele>
   </trkpt>
   <trkpt lat="-37.86583" lon="145.33618">
    <ele>417.33000000000004</ele>
   </trkpt>
   <trkpt lat="-37.86562" lon="145.33726000000001">
    <ele>416.36</ele>
   </trkpt>
   <trkpt lat="-37.865465001196924" lon="145.3377950011717">
    <ele>415.81</ele>
   </trkpt>
   <trkpt lat="-37.86531" lon="145.33833">
    <ele>416.43</ele>
   </trkpt>
   <trkpt lat="-37.86506" lon="145.33889000000002">
    <ele>419.93</ele>
   </trkpt>
   <trkpt lat="-37.86495" lon="145.33935000000002">
    <ele>421.03000000000003</ele>
   </trkpt>
   <trkpt lat="-37.86486" lon="145.33964">
    <ele>421.45000000000005</ele>
   </trkpt>
   <trkpt lat="-37.86475" lon="145.33980000000003">
    <ele>423.03000000000003</ele>
   </trkpt>
   <trkpt lat="-37.86464" lon="145.33988000000002">
    <ele>425.89000000000004</ele>
   </trkpt>
   <trkpt lat="-37.8645" lon="145.33989000000003">
    <ele>427.12000000000006</ele>
   </trkpt>
   <trkpt lat="-37.8641" lon="145.33975">
    <ele>430.27000000000004</ele>
   </trkpt>
   <trkpt lat="-37.863780000000006" lon="145.33974">
    <ele>432.47</ele>
   </trkpt>
   <trkpt lat="-37.86354" lon="145.33979000000002">
    <ele>434.71000000000004</ele>
   </trkpt>
   <trkpt lat="-37.86318" lon="145.33996000000002">
    <ele>438.11000000000007</ele>
   </trkpt>
   <trkpt lat="-37.86287" lon="145.34025000000003">
    <ele>439.16</ele>
   </trkpt>
   <trkpt lat="-37.862860000000005" lon="145.34025000000003">
    <ele>439.18</ele>
   </trkpt>
   <trkpt lat="-37.8622" lon="145.33963">
    <ele>419.53000000000003</ele>
   </trkpt>
   <trkpt lat="-37.86168" lon="145.33925000000002">
    <ele>408.62</ele>
   </trkpt>
   <trkpt lat="-37.86095" lon="145.33902">
    <ele>391.55</ele>
   </trkpt>
   <trkpt lat="-37.86074" lon="145.33889000000002">
    <ele>387.96000000000004</ele>
   </trkpt>
   <trkpt lat="-37.86075" lon="145.33882">
    <ele>388.11</ele>
   </trkpt>
   <trkpt lat="-37.85989" lon="145.33858">
    <ele>380.51</ele>
   </trkpt>
   <trkpt lat="-37.8598" lon="145.33852000000002">
    <ele>378.12</ele>
   </trkpt>
   <trkpt lat="-37.8596" lon="145.3383">
    <ele>369.32000000000005</ele>
   </trkpt>
   <trkpt lat="-37.859370000000006" lon="145.33810000000003">
    <ele>360.1</ele>
   </trkpt>
   <trkpt lat="-37.85929" lon="145.33801000000003">
    <ele>360.1</ele>
   </trkpt>
   <trkpt lat="-37.85922" lon="145.33785">
    <ele>354.35</ele>
   </trkpt>
   <trkpt lat="-37.85915" lon="145.33746000000002">
    <ele>336.74</ele>
   </trkpt>
   <trkpt lat="-37.85909" lon="145.33724">
    <ele>336.74</ele>
   </trkpt>
   <trkpt lat="-37.85889" lon="145.33676">
    <ele>323.22</ele>
   </trkpt>
   <trkpt lat="-37.85866" lon="145.33603000000002">
    <ele>302.15000000000003</ele>
   </trkpt>
   <trkpt lat="-37.85862" lon="145.33563">
    <ele>302.15000000000003</ele>
   </trkpt>
   <trkpt lat="-37.85848" lon="145.33535">
    <ele>292.42</ele>
   </trkpt>
   <trkpt lat="-37.85828" lon="145.33501">
    <ele>283.18000000000006</ele>
   </trkpt>
   <trkpt lat="-37.85826" lon="145.3349">
    <ele>281.18</ele>
   </trkpt>
   <trkpt lat="-37.85826" lon="145.33476000000002">
    <ele>279.32</ele>
   </trkpt>
   <trkpt lat="-37.85824" lon="145.33467000000002">
    <ele>277.57000000000005</ele>
   </trkpt>
   <trkpt lat="-37.8581" lon="145.33454">
    <ele>274.22</ele>
   </trkpt>
   <trkpt lat="-37.85797" lon="145.33415000000002">
    <ele>269.31000000000006</ele>
   </trkpt>
   <trkpt lat="-37.85821" lon="145.33414000000002">
    <ele>271.41</ele>
   </trkpt>
   <trkpt lat="-37.85833" lon="145.33419">
    <ele>272.15</ele>
   </trkpt>
   <trkpt lat="-37.85844" lon="145.33431000000002">
    <ele>273.57000000000005</ele>
   </trkpt>
   <trkpt lat="-37.85887500137247" lon="145.3348699967549">
    <ele>277.97</ele>
   </trkpt>
   <trkpt lat="-37.85931" lon="145.33543">
    <ele>283.13000000000005</ele>
   </trkpt>
   <trkpt lat="-37.85965" lon="145.33569">
    <ele>287.69</ele>
   </trkpt>
   <trkpt lat="-37.85996" lon="145.33583000000002">
    <ele>290.34999999999997</ele>
   </trkpt>
   <trkpt lat="-37.86065" lon="145.33601000000002">
    <ele>298.51</ele>
   </trkpt>
   <trkpt lat="-37.8609" lon="145.33604000000003">
    <ele>298.97</ele>
   </trkpt>
   <trkpt lat="-37.86164" lon="145.33602000000002">
    <ele>298.17</ele>
   </trkpt>
   <trkpt lat="-37.86204" lon="145.33606">
    <ele>300.94000000000005</ele>
   </trkpt>
   <trkpt lat="-37.86231" lon="145.33606">
    <ele>302.25</ele>
   </trkpt>
   <trkpt lat="-37.86292" lon="145.33596">
    <ele>304.06000000000006</ele>
   </trkpt>
   <trkpt lat="-37.86303" lon="145.33592000000002">
    <ele>303.82000000000005</ele>
   </trkpt>
   <trkpt lat="-37.8631" lon="145.33585000000002">
    <ele>303.39000000000004</ele>
   </trkpt>
   <trkpt lat="-37.86309" lon="145.33587">
    <ele>303.44000000000005</ele>
   </trkpt>
   <trkpt lat="-37.86314" lon="145.3357">
    <ele>302.89000000000004</ele>
   </trkpt>
   <trkpt lat="-37.86309" lon="145.33556000000002">
    <ele>302.65000000000003</ele>
   </trkpt>
   <trkpt lat="-37.8628" lon="145.33489">
    <ele>302.27000000000004</ele>
   </trkpt>
   <trkpt lat="-37.86242" lon="145.33416000000003">
    <ele>301.66</ele>
   </trkpt>
   <trkpt lat="-37.86227" lon="145.33360000000002">
    <ele>301.28000000000003</ele>
   </trkpt>
   <trkpt lat="-37.86224" lon="145.33325000000002">
    <ele>300.87</ele>
   </trkpt>
   <trkpt lat="-37.86224" lon="145.33262000000002">
    <ele>301.03000000000003</ele>
   </trkpt>
   <trkpt lat="-37.86227" lon="145.33246000000003">
    <ele>301.32000000000005</ele>
   </trkpt>
   <trkpt lat="-37.86236" lon="145.33227000000002">
    <ele>301.50000000000006</ele>
   </trkpt>
   <trkpt lat="-37.862480000000005" lon="145.33209000000002">
    <ele>301.53000000000003</ele>
   </trkpt>
   <trkpt lat="-37.86247" lon="145.33194">
    <ele>299.45000000000005</ele>
   </trkpt>
   <trkpt lat="-37.86249" lon="145.33165000000002">
    <ele>292.92</ele>
   </trkpt>
   <trkpt lat="-37.86247" lon="145.33136000000002">
    <ele>288.11</ele>
   </trkpt>
   <trkpt lat="-37.86251" lon="145.33124">
    <ele>286.77000000000004</ele>
   </trkpt>
   <trkpt lat="-37.86249" lon="145.33115">
    <ele>286.19</ele>
   </trkpt>
   <trkpt lat="-37.86229" lon="145.33091000000002">
    <ele>279.12</ele>
   </trkpt>
   <trkpt lat="-37.86222" lon="145.33086">
    <ele>278.12</ele>
   </trkpt>
   <trkpt lat="-37.86215" lon="145.33071">
    <ele>275.44</ele>
   </trkpt>
   <trkpt lat="-37.86209" lon="145.33053">
    <ele>272.99</ele>
   </trkpt>
   <trkpt lat="-37.86193" lon="145.33024">
    <ele>268.21</ele>
   </trkpt>
   <trkpt lat="-37.86186" lon="145.33018">
    <ele>266.27</ele>
   </trkpt>
   <trkpt lat="-37.86168" lon="145.32967000000002">
    <ele>260.99</ele>
   </trkpt>
   <trkpt lat="-37.86159" lon="145.32950000000002">
    <ele>256.31000000000006</ele>
   </trkpt>
   <trkpt lat="-37.86146" lon="145.32933">
    <ele>252.99000000000004</ele>
   </trkpt>
   <trkpt lat="-37.86155" lon="145.32858000000002">
    <ele>248.64000000000001</ele>
   </trkpt>
   <trkpt lat="-37.861560000000004" lon="145.32857">
    <ele>248.64000000000001</ele>
   </trkpt>
   <trkpt lat="-37.86164" lon="145.32839">
    <ele>247.66000000000003</ele>
   </trkpt>
   <trkpt lat="-37.86202" lon="145.32789000000002">
    <ele>244.82</ele>
   </trkpt>
   <trkpt lat="-37.86222" lon="145.32782">
    <ele>248.23000000000002</ele>
   </trkpt>
   <trkpt lat="-37.86267" lon="145.32777000000002">
    <ele>254.14000000000001</ele>
   </trkpt>
   <trkpt lat="-37.86321" lon="145.32762000000002">
    <ele>256.19</ele>
   </trkpt>
   <trkpt lat="-37.86401" lon="145.32756">
    <ele>260.59999999999997</ele>
   </trkpt>
   <trkpt lat="-37.86419" lon="145.32758">
    <ele>262.70000000000005</ele>
   </trkpt>
   <trkpt lat="-37.8643" lon="145.32765">
    <ele>262.70000000000005</ele>
   </trkpt>
   <trkpt lat="-37.86446" lon="145.32787000000002">
    <ele>265.29</ele>
   </trkpt>
   <trkpt lat="-37.86453" lon="145.3279">
    <ele>263.95</ele>
   </trkpt>
   <trkpt lat="-37.86462" lon="145.3279">
    <ele>262.05</ele>
   </trkpt>
   <trkpt lat="-37.86471" lon="145.32788000000002">
    <ele>261.0</ele>
   </trkpt>
   <trkpt lat="-37.86484" lon="145.32752000000002">
    <ele>246.84000000000003</ele>
   </trkpt>
   <trkpt lat="-37.86491" lon="145.32743000000002">
    <ele>251.76000000000005</ele>
   </trkpt>
   <trkpt lat="-37.865" lon="145.32741000000001">
    <ele>253.4</ele>
   </trkpt>
   <trkpt lat="-37.865610000000004" lon="145.3274">
    <ele>270.21</ele>
   </trkpt>
   <trkpt lat="-37.86589" lon="145.3273">
    <ele>276.11</ele>
   </trkpt>
   <trkpt lat="-37.86596" lon="145.3273">
    <ele>280.31</ele>
   </trkpt>
   <trkpt lat="-37.86616" lon="145.32719">
    <ele>283.35</ele>
   </trkpt>
   <trkpt lat="-37.86623" lon="145.32717000000002">
    <ele>285.44</ele>
   </trkpt>
   <trkpt lat="-37.8663" lon="145.32718">
    <ele>287.45000000000005</ele>
   </trkpt>
   <trkpt lat="-37.86634" lon="145.32726000000002">
    <ele>287.45000000000005</ele>
   </trkpt>
   <trkpt lat="-37.86641" lon="145.32750000000001">
    <ele>293.52</ele>
   </trkpt>
   <trkpt lat="-37.866510000000005" lon="145.32752000000002">
    <ele>295.22</ele>
   </trkpt>
   <trkpt lat="-37.866510000000005" lon="145.32751000000002">
    <ele>295.17</ele>
   </trkpt>
   <trkpt lat="-37.86652" lon="145.32690000000002">
    <ele>292.59000000000003</ele>
   </trkpt>
   <trkpt lat="-37.866580000000006" lon="145.32649">
    <ele>290.3</ele>
   </trkpt>
   <trkpt lat="-37.86692000197666" lon="145.32582500285992">
    <ele>298.67</ele>
   </trkpt>
   <trkpt lat="-37.86726" lon="145.32516">
    <ele>303.51</ele>
   </trkpt>
   <trkpt lat="-37.86772500154648" lon="145.32454000401802">
    <ele>308.1</ele>
   </trkpt>
   <trkpt lat="-37.868190000000006" lon="145.32392000000002">
    <ele>311.88000000000005</ele>
   </trkpt>
   <trkpt lat="-37.86827" lon="145.32377000000002">
    <ele>312.29</ele>
   </trkpt>
   <trkpt lat="-37.868280000000006" lon="145.32366000000002">
    <ele>313.04</ele>
   </trkpt>
   <trkpt lat="-37.8682" lon="145.32351">
    <ele>313.66</ele>
   </trkpt>
   <trkpt lat="-37.86780500155862" lon="145.3229099968387">
    <ele>315.17</ele>
   </trkpt>
   <trkpt lat="-37.86741" lon="145.32231000000002">
    <ele>317.70000000000005</ele>
   </trkpt>
   <trkpt lat="-37.86715" lon="145.32185">
    <ele>322.0</ele>
   </trkpt>
   <trkpt lat="-37.86706" lon="145.32158">
    <ele>322.65999999999997</ele>
   </trkpt>
   <trkpt lat="-37.86712" lon="145.32127">
    <ele>325.14000000000004</ele>
   </trkpt>
   <trkpt lat="-37.86737" lon="145.32079000000002">
    <ele>326.25000000000006</ele>
   </trkpt>
   <trkpt lat="-37.867720000000006" lon="145.32028000000003">
    <ele>325.39</ele>
   </trkpt>
   <trkpt lat="-37.86786" lon="145.31999000000002">
    <ele>325.29</ele>
   </trkpt>
   <trkpt lat="-37.86786" lon="145.31989000000002">
    <ele>325.41</ele>
   </trkpt>
   <trkpt lat="-37.86782" lon="145.31976">
    <ele>325.66</ele>
   </trkpt>
   <trkpt lat="-37.86762" lon="145.31942">
    <ele>327.94</ele>
   </trkpt>
   <trkpt lat="-37.86744" lon="145.31893000000002">
    <ele>331.34000000000003</ele>
   </trkpt>
   <trkpt lat="-37.86741" lon="145.31875000000002">
    <ele>332.46000000000004</ele>
   </trkpt>
   <trkpt lat="-37.86759" lon="145.31787">
    <ele>336.59</ele>
   </trkpt>
   <trkpt lat="-37.86785000216837" lon="145.31716000240527">
    <ele>338.46000000000004</ele>
   </trkpt>
   <trkpt lat="-37.86811" lon="145.31645">
    <ele>343.23</ele>
   </trkpt>
   <trkpt lat="-37.86842" lon="145.31596000000002">
    <ele>344.95000000000005</ele>
   </trkpt>
   <trkpt lat="-37.86871" lon="145.31564">
    <ele>346.25</ele>
   </trkpt>
   <trkpt lat="-37.86889" lon="145.31538">
    <ele>347.37</ele>
   </trkpt>
   <trkpt lat="-37.86896" lon="145.31523">
    <ele>348.40000000000003</ele>
   </trkpt>
   <trkpt lat="-37.869" lon="145.31505">
    <ele>350.19</ele>
   </trkpt>
   <trkpt lat="-37.86898" lon="145.31477">
    <ele>352.93</ele>
   </trkpt>
   <trkpt lat="-37.869020000000006" lon="145.31414">
    <ele>359.13</ele>
   </trkpt>
   <trkpt lat="-37.869020000000006" lon="145.31415">
    <ele>359.2</ele>
   </trkpt>
   <trkpt lat="-37.86972" lon="145.31458">
    <ele>373.09000000000003</ele>
   </trkpt>
   <trkpt lat="-37.86988" lon="145.31455000000003">
    <ele>373.09000000000003</ele>
   </trkpt>
   <trkpt lat="-37.86997" lon="145.31447">
    <ele>377.39</ele>
   </trkpt>
   <trkpt lat="-37.87017" lon="145.31414">
    <ele>381.96000000000004</ele>
   </trkpt>
   <trkpt lat="-37.87026" lon="145.31409000000002">
    <ele>382.69</ele>
   </trkpt>
   <trkpt lat="-37.870340000000006" lon="145.31408000000002">
    <ele>384.04</ele>
   </trkpt>
   <trkpt lat="-37.87041" lon="145.31411">
    <ele>384.64000000000004</ele>
   </trkpt>
   <trkpt lat="-37.87064" lon="145.31427000000002">
    <ele>387.82000000000005</ele>
   </trkpt>
   <trkpt lat="-37.871" lon="145.31480000000002">
    <ele>393.70000000000005</ele>
   </trkpt>
   <trkpt lat="-37.871190000000006" lon="145.31547">
    <ele>402.41</ele>
   </trkpt>
   <trkpt lat="-37.87124" lon="145.31546">
    <ele>402.44</ele>
   </trkpt>
   <trkpt lat="-37.87209" lon="145.31541">
    <ele>412.06</ele>
   </trkpt>
   <trkpt lat="-37.87292" lon="145.31548">
    <ele>417.86</ele>
   </trkpt>
   <trkpt lat="-37.873540000000006" lon="145.31558">
    <ele>425.14</ele>
   </trkpt>
   <trkpt lat="-37.87391" lon="145.31571000000002">
    <ele>427.61</ele>
   </trkpt>
   <trkpt lat="-37.87435" lon="145.31603">
    <ele>432.00000000000006</ele>
   </trkpt>
   <trkpt lat="-37.87465" lon="145.31616000000002">
    <ele>435.7300000000001</ele>
   </trkpt>
   <trkpt lat="-37.87478" lon="145.3162">
    <ele>437.6700000000001</ele>
   </trkpt>
   <trkpt lat="-37.87503" lon="145.31621">
    <ele>440.85</ele>
   </trkpt>
   <trkpt lat="-37.87559" lon="145.31611">
    <ele>445.34000000000003</ele>
   </trkpt>
   <trkpt lat="-37.87583" lon="145.31617">
    <ele>448.53000000000003</ele>
   </trkpt>
   <trkpt lat="-37.87635" lon="145.31637">
    <ele>452.8</ele>
   </trkpt>
   <trkpt lat="-37.8765" lon="145.31646">
    <ele>455.61</ele>
   </trkpt>
   <trkpt lat="-37.8767" lon="145.31663">
    <ele>457.22</ele>
   </trkpt>
   <trkpt lat="-37.87682" lon="145.31683">
    <ele>458.40000000000003</ele>
   </trkpt>
   <trkpt lat="-37.87682" lon="145.31682">
    <ele>458.40000000000003</ele>
   </trkpt>
   <trkpt lat="-37.87661500227706" lon="145.31754500182626">
    <ele>467.49</ele>
   </trkpt>
   <trkpt lat="-37.87641" lon="145.31827">
    <ele>475.31000000000006</ele>
   </trkpt>
   <trkpt lat="-37.87608" lon="145.31889">
    <ele>481.33000000000004</ele>
   </trkpt>
   <trkpt lat="-37.87583" lon="145.31924">
    <ele>484.23</ele>
   </trkpt>
   <trkpt lat="-37.87547" lon="145.31965000000002">
    <ele>488.29</ele>
   </trkpt>
   <trkpt lat="-37.87536" lon="145.31973000000002">
    <ele>488.97</ele>
   </trkpt>
   <trkpt lat="-37.87507" lon="145.32012">
    <ele>491.81</ele>
   </trkpt>
   <trkpt lat="-37.87498" lon="145.32019000000003">
    <ele>492.47</ele>
   </trkpt>
   <trkpt lat="-37.87491" lon="145.3202">
    <ele>492.74000000000007</ele>
   </trkpt>
   <trkpt lat="-37.874980003845074" lon="145.32115499892961">
    <ele>488.86</ele>
   </trkpt>
   <trkpt lat="-37.87505" lon="145.32211">
    <ele>493.08</ele>
   </trkpt>
   <trkpt lat="-37.87518" lon="145.32226">
    <ele>494.03000000000003</ele>
   </trkpt>
   <trkpt lat="-37.87541" lon="145.32262">
    <ele>495.82000000000005</ele>
   </trkpt>
   <trkpt lat="-37.875600000000006" lon="145.32288">
    <ele>499.81</ele>
   </trkpt>
   <trkpt lat="-37.875690000000006" lon="145.32297">
    <ele>499.81</ele>
   </trkpt>
   <trkpt lat="-37.87579" lon="145.32305000000002">
    <ele>500.73</ele>
   </trkpt>
   <trkpt lat="-37.87619" lon="145.32321000000002">
    <ele>504.14000000000004</ele>
   </trkpt>
   <trkpt lat="-37.8763" lon="145.32328">
    <ele>504.89000000000004</ele>
   </trkpt>
   <trkpt lat="-37.87659" lon="145.32359000000002">
    <ele>508.3500000000001</ele>
   </trkpt>
   <trkpt lat="-37.87677" lon="145.32385000000002">
    <ele>509.28000000000003</ele>
   </trkpt>
   <trkpt lat="-37.87693" lon="145.32420000000002">
    <ele>511.9100000000001</ele>
   </trkpt>
   <trkpt lat="-37.8772550113247" lon="145.32514498747545">
    <ele>519.6500000000001</ele>
   </trkpt>
   <trkpt lat="-37.877580015096065" lon="145.32608998329002">
    <ele>530.25</ele>
   </trkpt>
   <trkpt lat="-37.87790501131393" lon="145.32703498744368">
    <ele>534.64</ele>
   </trkpt>
   <trkpt lat="-37.87823" lon="145.32798000000003">
    <ele>536.22</ele>
   </trkpt>
   <trkpt lat="-37.87858000000001" lon="145.32849000000002">
    <ele>535.1</ele>
   </trkpt>
   <trkpt lat="-37.87908" lon="145.32908">
    <ele>534.6700000000001</ele>
   </trkpt>
   <trkpt lat="-37.87935" lon="145.32948000000002">
    <ele>535.1400000000001</ele>
   </trkpt>
   <trkpt lat="-37.879380000000005" lon="145.32962">
    <ele>535.1400000000001</ele>
   </trkpt>
   <trkpt lat="-37.879450000000006" lon="145.32978">
    <ele>535.95</ele>
   </trkpt>
   <trkpt lat="-37.87961" lon="145.33077">
    <ele>540.12</ele>
   </trkpt>
   <trkpt lat="-37.87971" lon="145.33158">
    <ele>543.5000000000001</ele>
   </trkpt>
   <trkpt lat="-37.87988000501977" lon="145.33266999745214">
    <ele>547.69</ele>
   </trkpt>
   <trkpt lat="-37.880050000000004" lon="145.33376">
    <ele>551.3</ele>
   </trkpt>
   <trkpt lat="-37.88004" lon="145.33375">
    <ele>551.3</ele>
   </trkpt>
   <trkpt lat="-37.88015" lon="145.33479">
    <ele>549.85</ele>
   </trkpt>
   <trkpt lat="-37.880120003317" lon="145.33567500022653">
    <ele>548.25</ele>
   </trkpt>
   <trkpt lat="-37.88009" lon="145.33656000000002">
    <ele>546.97</ele>
   </trkpt>
   <trkpt lat="-37.88002" lon="145.33702000000002">
    <ele>545.6</ele>
   </trkpt>
   <trkpt lat="-37.87997" lon="145.33716">
    <ele>544.5600000000001</ele>
   </trkpt>
   <trkpt lat="-37.87984" lon="145.33738000000002">
    <ele>543.75</ele>
   </trkpt>
   <trkpt lat="-37.87917" lon="145.33810000000003">
    <ele>534.95</ele>
   </trkpt>
   <trkpt lat="-37.87883" lon="145.33852000000002">
    <ele>529.5300000000001</ele>
   </trkpt>
   <trkpt lat="-37.87836" lon="145.33925000000002">
    <ele>522.75</ele>
   </trkpt>
   <trkpt lat="-37.87806000125196" lon="145.3398000022903">
    <ele>517.5200000000001</ele>
   </trkpt>
   <trkpt lat="-37.87776" lon="145.34035">
    <ele>514.2800000000001</ele>
   </trkpt>
   <trkpt lat="-37.87743500096775" lon="145.34086000245776">
    <ele>511.05</ele>
   </trkpt>
   <trkpt lat="-37.87711" lon="145.34137">
    <ele>508.25000000000006</ele>
   </trkpt>
   <trkpt lat="-37.877010000000006" lon="145.34152">
    <ele>506.39</ele>
   </trkpt>
   <trkpt lat="-37.87653500057538" lon="145.34188500234447">
    <ele>502.83</ele>
   </trkpt>
   <trkpt lat="-37.87606" lon="145.34225">
    <ele>500.97</ele>
   </trkpt>
   <trkpt lat="-37.87594" lon="145.34238000000002">
    <ele>500.21000000000004</ele>
   </trkpt>
   <trkpt lat="-37.87592" lon="145.34251">
    <ele>499.72</ele>
   </trkpt>
   <trkpt lat="-37.87576" lon="145.34255000000002">
    <ele>499.56000000000006</ele>
   </trkpt>
   <trkpt lat="-37.87523" lon="145.34290000000001">
    <ele>500.62000000000006</ele>
   </trkpt>
   <trkpt lat="-37.875240000000005" lon="145.34291000000002">
    <ele>500.6700000000001</ele>
   </trkpt>
   <trkpt lat="-37.87532" lon="145.34302000000002">
    <ele>500.6400000000001</ele>
   </trkpt>
   <trkpt lat="-37.87534" lon="145.34311000000002">
    <ele>500.70000000000005</ele>
   </trkpt>
   <trkpt lat="-37.875330000000005" lon="145.34327000000002">
    <ele>501.05</ele>
   </trkpt>
   <trkpt lat="-37.87534" lon="145.34356000000002">
    <ele>502.77000000000004</ele>
   </trkpt>
   <trkpt lat="-37.875400000000006" lon="145.34393">
    <ele>504.85</ele>
   </trkpt>
   <trkpt lat="-37.87523" lon="145.34396">
    <ele>507.85</ele>
   </trkpt>
   <trkpt lat="-37.87503" lon="145.34495">
    <ele>514.5300000000001</ele>
   </trkpt>
   <trkpt lat="-37.87509" lon="145.34502">
    <ele>514.5300000000001</ele>
   </trkpt>
   <trkpt lat="-37.875130000000006" lon="145.34515000000002">
    <ele>517.0100000000001</ele>
   </trkpt>
   <trkpt lat="-37.87505" lon="145.34546">
    <ele>519.5600000000001</ele>
   </trkpt>
   <trkpt lat="-37.875130000000006" lon="145.34614000000002">
    <ele>523.11</ele>
   </trkpt>
   <trkpt lat="-37.875220000000006" lon="145.34619">
    <ele>521.6200000000001</ele>
   </trkpt>
   <trkpt lat="-37.87545" lon="145.34653">
    <ele>518.7900000000001</ele>
   </trkpt>
   <trkpt lat="-37.8757" lon="145.34677000000002">
    <ele>514.6200000000001</ele>
   </trkpt>
   <trkpt lat="-37.87585" lon="145.34685000000002">
    <ele>511.51</ele>
   </trkpt>
   <trkpt lat="-37.875930000000004" lon="145.34674">
    <ele>511.51</ele>
   </trkpt>
   <trkpt lat="-37.87594" lon="145.3469">
    <ele>511.51</ele>
   </trkpt>
   <trkpt lat="-37.87601" lon="145.34713000000002">
    <ele>510.94000000000005</ele>
   </trkpt>
   <trkpt lat="-37.87612" lon="145.34731000000002">
    <ele>510.97999999999996</ele>
   </trkpt>
   <trkpt lat="-37.87632" lon="145.34753">
    <ele>511.21999999999997</ele>
   </trkpt>
   <trkpt lat="-37.87695" lon="145.34759000000003">
    <ele>508.63</ele>
   </trkpt>
   <trkpt lat="-37.87729" lon="145.34767000000002">
    <ele>507.41</ele>
   </trkpt>
   <trkpt lat="-37.87749" lon="145.34775000000002">
    <ele>506.21000000000004</ele>
   </trkpt>
   <trkpt lat="-37.87767" lon="145.34789">
    <ele>505.0800000000001</ele>
   </trkpt>
   <trkpt lat="-37.87789" lon="145.34835">
    <ele>502.70000000000005</ele>
   </trkpt>
   <trkpt lat="-37.878105001379936" lon="145.3489099985052">
    <ele>500.01000000000005</ele>
   </trkpt>
   <trkpt lat="-37.87832" lon="145.34947000000003">
    <ele>496.68000000000006</ele>
   </trkpt>
   <trkpt lat="-37.87841" lon="145.34982000000002">
    <ele>495.52</ele>
   </trkpt>
   <trkpt lat="-37.87843" lon="145.35018000000002">
    <ele>492.51000000000005</ele>
   </trkpt>
   <trkpt lat="-37.878420000000006" lon="145.35056">
    <ele>492.51000000000005</ele>
   </trkpt>
   <trkpt lat="-37.87834" lon="145.35091">
    <ele>489.63000000000005</ele>
   </trkpt>
   <trkpt lat="-37.87805" lon="145.35196000000002">
    <ele>483.42</ele>
   </trkpt>
   <trkpt lat="-37.87782" lon="145.35246">
    <ele>481.41</ele>
   </trkpt>
   <trkpt lat="-37.877485001215554" lon="145.35299000236677">
    <ele>477.32</ele>
   </trkpt>
   <trkpt lat="-37.87715" lon="145.35352">
    <ele>474.16</ele>
   </trkpt>
   <trkpt lat="-37.876615002548135" lon="145.3542900055339">
    <ele>469.6</ele>
   </trkpt>
   <trkpt lat="-37.87608" lon="145.35506">
    <ele>465.70000000000005</ele>
   </trkpt>
   <trkpt lat="-37.87608" lon="145.35524">
    <ele>465.33</ele>
   </trkpt>
   <trkpt lat="-37.87617" lon="145.35548">
    <ele>464.81000000000006</ele>
   </trkpt>
   <trkpt lat="-37.87639" lon="145.35572000000002">
    <ele>463.23</ele>
   </trkpt>
   <trkpt lat="-37.87664" lon="145.35614">
    <ele>463.16</ele>
   </trkpt>
   <trkpt lat="-37.87688" lon="145.35663000000002">
    <ele>465.25000000000006</ele>
   </trkpt>
   <trkpt lat="-37.87689" lon="145.35664">
    <ele>464.8</ele>
   </trkpt>
   <trkpt lat="-37.87684" lon="145.35664">
    <ele>470.83000000000004</ele>
   </trkpt>
   <trkpt lat="-37.87675" lon="145.35661000000002">
    <ele>471.27000000000004</ele>
   </trkpt>
   <trkpt lat="-37.87664" lon="145.35663000000002">
    <ele>471.68</ele>
   </trkpt>
   <trkpt lat="-37.8763" lon="145.35678000000001">
    <ele>473.33000000000004</ele>
   </trkpt>
   <trkpt lat="-37.87617" lon="145.35688000000002">
    <ele>473.49</ele>
   </trkpt>
   <trkpt lat="-37.87597" lon="145.35711">
    <ele>473.08000000000004</ele>
   </trkpt>
   <trkpt lat="-37.87585" lon="145.35729">
    <ele>471.63000000000005</ele>
   </trkpt>
   <trkpt lat="-37.87576" lon="145.35749">
    <ele>470.55</ele>
   </trkpt>
   <trkpt lat="-37.87556" lon="145.35770000000002">
    <ele>465.88</ele>
   </trkpt>
   <trkpt lat="-37.87545" lon="145.35776">
    <ele>464.41</ele>
   </trkpt>
   <trkpt lat="-37.87489" lon="145.35784">
    <ele>460.36</ele>
   </trkpt>
   <trkpt lat="-37.8746" lon="145.35783">
    <ele>456.04</ele>
   </trkpt>
   <trkpt lat="-37.87433" lon="145.35779000000002">
    <ele>456.04</ele>
   </trkpt>
   <trkpt lat="-37.874" lon="145.35763">
    <ele>453.85</ele>
   </trkpt>
   <trkpt lat="-37.87375" lon="145.35745">
    <ele>451.18</ele>
   </trkpt>
   <trkpt lat="-37.87368" lon="145.35735000000003">
    <ele>451.18</ele>
   </trkpt>
   <trkpt lat="-37.87339" lon="145.35662000000002">
    <ele>447.35</ele>
   </trkpt>
   <trkpt lat="-37.8733" lon="145.35656">
    <ele>446.96000000000004</ele>
   </trkpt>
   <trkpt lat="-37.873270000000005" lon="145.35667">
    <ele>446.40000000000003</ele>
   </trkpt>
   <trkpt lat="-37.873270000000005" lon="145.35669000000001">
    <ele>446.33000000000004</ele>
   </trkpt>
   <trkpt lat="-37.87335" lon="145.35702">
    <ele>444.6</ele>
   </trkpt>
   <trkpt lat="-37.87346" lon="145.35765">
    <ele>441.47</ele>
   </trkpt>
   <trkpt lat="-37.87357" lon="145.35787000000002">
    <ele>439.39000000000004</ele>
   </trkpt>
   <trkpt lat="-37.873630000000006" lon="145.35801">
    <ele>437.66</ele>
   </trkpt>
   <trkpt lat="-37.87373" lon="145.3582">
    <ele>436.01</ele>
   </trkpt>
   <trkpt lat="-37.87402" lon="145.35851000000002">
    <ele>432.47</ele>
   </trkpt>
   <trkpt lat="-37.87435" lon="145.35875000000001">
    <ele>429.21000000000004</ele>
   </trkpt>
   <trkpt lat="-37.87471" lon="145.35918">
    <ele>423.61</ele>
   </trkpt>
   <trkpt lat="-37.874810000000004" lon="145.35939000000002">
    <ele>421.50000000000006</ele>
   </trkpt>
   <trkpt lat="-37.875" lon="145.35952">
    <ele>417.48</ele>
   </trkpt>
   <trkpt lat="-37.87509" lon="145.35962">
    <ele>416.59000000000003</ele>
   </trkpt>
   <trkpt lat="-37.87512" lon="145.35974000000002">
    <ele>415.63000000000005</ele>
   </trkpt>
   <trkpt lat="-37.87509" lon="145.35984000000002">
    <ele>413.93</ele>
   </trkpt>
   <trkpt lat="-37.87505" lon="145.35992000000002">
    <ele>413.93</ele>
   </trkpt>
   <trkpt lat="-37.87469" lon="145.36031">
    <ele>406.91</ele>
   </trkpt>
   <trkpt lat="-37.87406" lon="145.36083000000002">
    <ele>396.95</ele>
   </trkpt>
   <trkpt lat="-37.87391" lon="145.36107">
    <ele>397.66</ele>
   </trkpt>
   <trkpt lat="-37.873720000000006" lon="145.36151">
    <ele>399.32</ele>
   </trkpt>
   <trkpt lat="-37.87377" lon="145.36206">
    <ele>373.35</ele>
   </trkpt>
   <trkpt lat="-37.873740000000005" lon="145.36213">
    <ele>373.35</ele>
   </trkpt>
   <trkpt lat="-37.87377" lon="145.36227000000002">
    <ele>374.39000000000004</ele>
   </trkpt>
   <trkpt lat="-37.874010000000006" lon="145.36278000000001">
    <ele>377.3</ele>
   </trkpt>
   <trkpt lat="-37.87409" lon="145.36301">
    <ele>379.33000000000004</ele>
   </trkpt>
   <trkpt lat="-37.87404" lon="145.36333000000002">
    <ele>381.85</ele>
   </trkpt>
   <trkpt lat="-37.874100000000006" lon="145.36338">
    <ele>382.35</ele>
   </trkpt>
   <trkpt lat="-37.87438" lon="145.36402">
    <ele>382.8</ele>
   </trkpt>
   <trkpt lat="-37.87438" lon="145.3642">
    <ele>383.81000000000006</ele>
   </trkpt>
   <trkpt lat="-37.87444" lon="145.36441000000002">
    <ele>384.76000000000005</ele>
   </trkpt>
   <trkpt lat="-37.87444" lon="145.36466000000001">
    <ele>385.94</ele>
   </trkpt>
   <trkpt lat="-37.87456" lon="145.36519">
    <ele>387.26000000000005</ele>
   </trkpt>
   <trkpt lat="-37.87467" lon="145.36552">
    <ele>386.3</ele>
   </trkpt>
   <trkpt lat="-37.87485" lon="145.36586">
    <ele>384.13</ele>
   </trkpt>
   <trkpt lat="-37.87485" lon="145.36601000000002">
    <ele>384.53000000000003</ele>
   </trkpt>
   <trkpt lat="-37.8748" lon="145.36626">
    <ele>386.43000000000006</ele>
   </trkpt>
   <trkpt lat="-37.87482" lon="145.36636000000001">
    <ele>386.6</ele>
   </trkpt>
   <trkpt lat="-37.87509" lon="145.36668">
    <ele>383.96000000000004</ele>
   </trkpt>
   <trkpt lat="-37.87523" lon="145.36692000000002">
    <ele>383.32000000000005</ele>
   </trkpt>
   <trkpt lat="-37.87559" lon="145.36734">
    <ele>381.46000000000004</ele>
   </trkpt>
   <trkpt lat="-37.8757" lon="145.3675">
    <ele>379.74</ele>
   </trkpt>
   <trkpt lat="-37.875690000000006" lon="145.36763000000002">
    <ele>378.98</ele>
   </trkpt>
   <trkpt lat="-37.87561" lon="145.36792">
    <ele>377.94000000000005</ele>
   </trkpt>
   <trkpt lat="-37.875510000000006" lon="145.36811">
    <ele>378.81</ele>
   </trkpt>
   <trkpt lat="-37.87545" lon="145.3683">
    <ele>379.07</ele>
   </trkpt>
   <trkpt lat="-37.87556" lon="145.36883">
    <ele>377.24</ele>
   </trkpt>
   <trkpt lat="-37.87554" lon="145.36915000000002">
    <ele>379.59000000000003</ele>
   </trkpt>
   <trkpt lat="-37.87538" lon="145.36979000000002">
    <ele>384.21000000000004</ele>
   </trkpt>
   <trkpt lat="-37.87545" lon="145.37030000000001">
    <ele>380.09000000000003</ele>
   </trkpt>
   <trkpt lat="-37.87552" lon="145.37051000000002">
    <ele>378.53000000000003</ele>
   </trkpt>
   <trkpt lat="-37.875530000000005" lon="145.37055">
    <ele>378.35</ele>
   </trkpt>
   <trkpt lat="-37.87559" lon="145.37066000000002">
    <ele>377.00000000000006</ele>
   </trkpt>
   <trkpt lat="-37.87608" lon="145.37106">
    <ele>356.93</ele>
   </trkpt>
   <trkpt lat="-37.8763" lon="145.37121000000002">
    <ele>343.42</ele>
   </trkpt>
   <trkpt lat="-37.876450000000006" lon="145.37138000000002">
    <ele>332.5</ele>
   </trkpt>
   <trkpt lat="-37.87659" lon="145.37146">
    <ele>331.97</ele>
   </trkpt>
   <trkpt lat="-37.87677" lon="145.37162">
    <ele>331.49</ele>
   </trkpt>
   <trkpt lat="-37.876780000000004" lon="145.37150000000003">
    <ele>331.75000000000006</ele>
   </trkpt>
   <trkpt lat="-37.87693" lon="145.37134">
    <ele>333.07000000000005</ele>
   </trkpt>
   <trkpt lat="-37.87713" lon="145.37159000000003">
    <ele>334.02000000000004</ele>
   </trkpt>
   <trkpt lat="-37.877570000000006" lon="145.37197">
    <ele>337.51000000000005</ele>
   </trkpt>
   <trkpt lat="-37.87773" lon="145.37208">
    <ele>338.26</ele>
   </trkpt>
   <trkpt lat="-37.87778" lon="145.37220000000002">
    <ele>338.41</ele>
   </trkpt>
   <trkpt lat="-37.87782" lon="145.37237000000002">
    <ele>338.64000000000004</ele>
   </trkpt>
   <trkpt lat="-37.87791" lon="145.37255000000002">
    <ele>339.3</ele>
   </trkpt>
   <trkpt lat="-37.87807" lon="145.37275000000002">
    <ele>341.25000000000006</ele>
   </trkpt>
   <trkpt lat="-37.87832" lon="145.37275000000002">
    <ele>333.33</ele>
   </trkpt>
   <trkpt lat="-37.87841" lon="145.37286">
    <ele>330.72</ele>
   </trkpt>
   <trkpt lat="-37.87845" lon="145.37307">
    <ele>324.73</ele>
   </trkpt>
   <trkpt lat="-37.8787" lon="145.37261">
    <ele>330.63000000000005</ele>
   </trkpt>
   <trkpt lat="-37.87883" lon="145.37248000000002">
    <ele>332.79</ele>
   </trkpt>
   <trkpt lat="-37.878980000000006" lon="145.3724">
    <ele>332.79</ele>
   </trkpt>
   <trkpt lat="-37.87946" lon="145.37229000000002">
    <ele>339.3</ele>
   </trkpt>
   <trkpt lat="-37.87993" lon="145.37233">
    <ele>341.1</ele>
   </trkpt>
   <trkpt lat="-37.88033" lon="145.37228000000002">
    <ele>342.94</ele>
   </trkpt>
   <trkpt lat="-37.88073" lon="145.37217">
    <ele>345.69000000000005</ele>
   </trkpt>
   <trkpt lat="-37.88121500026849" lon="145.37192500160603">
    <ele>349.21000000000004</ele>
   </trkpt>
   <trkpt lat="-37.8817" lon="145.37168">
    <ele>352.6</ele>
   </trkpt>
   <trkpt lat="-37.88192" lon="145.37155">
    <ele>354.83000000000004</ele>
   </trkpt>
   <trkpt lat="-37.88240000013765" lon="145.3713150015786">
    <ele>357.51000000000005</ele>
   </trkpt>
   <trkpt lat="-37.88288" lon="145.37108">
    <ele>359.71000000000004</ele>
   </trkpt>
   <trkpt lat="-37.88302" lon="145.37098">
    <ele>360.96</ele>
   </trkpt>
   <trkpt lat="-37.883680000000005" lon="145.37036">
    <ele>364.45000000000005</ele>
   </trkpt>
   <trkpt lat="-37.88376" lon="145.37043">
    <ele>365.41</ele>
   </trkpt>
   <trkpt lat="-37.883860000000006" lon="145.37046">
    <ele>366.2300000000001</ele>
   </trkpt>
   <trkpt lat="-37.88431000010919" lon="145.37038000047428">
    <ele>368.09000000000003</ele>
   </trkpt>
   <trkpt lat="-37.88476" lon="145.37030000000001">
    <ele>369.57</ele>
   </trkpt>
   <trkpt lat="-37.88485" lon="145.37033000000002">
    <ele>369.57</ele>
   </trkpt>
   <trkpt lat="-37.88495" lon="145.37048000000001">
    <ele>369.8</ele>
   </trkpt>
   <trkpt lat="-37.88506" lon="145.37043">
    <ele>368.33000000000004</ele>
   </trkpt>
   <trkpt lat="-37.88534000000001" lon="145.37124">
    <ele>371.07</ele>
   </trkpt>
   <trkpt lat="-37.88541" lon="145.37132000000003">
    <ele>371.39000000000004</ele>
   </trkpt>
   <trkpt lat="-37.88546" lon="145.37145">
    <ele>371.37</ele>
   </trkpt>
   <trkpt lat="-37.88584" lon="145.37130000000002">
    <ele>367.14</ele>
   </trkpt>
   <trkpt lat="-37.88617" lon="145.37130000000002">
    <ele>363.42</ele>
   </trkpt>
   <trkpt lat="-37.88642" lon="145.37114000000003">
    <ele>358.79</ele>
   </trkpt>
   <trkpt lat="-37.88689" lon="145.37060000000002">
    <ele>353.45000000000005</ele>
   </trkpt>
   <trkpt lat="-37.88693" lon="145.37054">
    <ele>353.17</ele>
   </trkpt>
   <trkpt lat="-37.88729" lon="145.37024000000002">
    <ele>351.3</ele>
   </trkpt>
   <trkpt lat="-37.88740000000001" lon="145.37007">
    <ele>350.99</ele>
   </trkpt>
  </trkseg>
 </trk>
</gpx>
