<?xml version="1.0" encoding="UTF-8"?>
<gpx creator="StravaGPX" version="1.1" xmlns="http://www.topografix.com/GPX/1/1" xmlns:xsi="http://www.w3.org/2001/XMLSchema-instance" xsi:schemaLocation="http://www.topografix.com/GPX/1/1 http://www.topografix.com/GPX/1/1/gpx.xsd">
 <metadata>
  <name>DTR 9 Jan22</name>
  <author>
   <name>john csorgo</name>
  </author>
  <copyright author="OpenStreetMap contributors">
   <year>2020</year>
   <license>https://www.openstreetmap.org/copyright</license>
  </copyright>
 </metadata>
 <trk>
  <name>DTR 9 Jan22</name>
  <link href=""/>
  <type>running</type>
  <trkseg>
   <trkpt lat="-37.84742" lon="145.36041">
    <ele>508.53000000000003</ele>
   </trkpt>
   <trkpt lat="-37.84730000124737" lon="145.35985999896005">
    <ele>511.78000000000003</ele>
   </trkpt>
   <trkpt lat="-37.84718" lon="145.35931000000002">
    <ele>513.84</ele>
   </trkpt>
   <trkpt lat="-37.847060000000006" lon="145.35884000000001">
    <ele>515.0</ele>
   </trkpt>
   <trkpt lat="-37.84693" lon="145.35843">
    <ele>514.76</ele>
   </trkpt>
   <trkpt lat="-37.84678" lon="145.35819">
    <ele>513.8900000000001</ele>
   </trkpt>
   <trkpt lat="-37.84664" lon="145.35795000000002">
    <ele>511.53000000000003</ele>
   </trkpt>
   <trkpt lat="-37.846540000000005" lon="145.35771000000003">
    <ele>510.15</ele>
   </trkpt>
   <trkpt lat="-37.84644" lon="145.35760000000002">
    <ele>509.56</ele>
   </trkpt>
   <trkpt lat="-37.846360000000004" lon="145.35734000000002">
    <ele>508.4700000000001</ele>
   </trkpt>
   <trkpt lat="-37.846006670389734" lon="145.35667666031446">
    <ele>508.33000000000004</ele>
   </trkpt>
   <trkpt lat="-37.84565333705871" lon="145.35601332698553">
    <ele>509.72</ele>
   </trkpt>
   <trkpt lat="-37.8453" lon="145.35535000000002">
    <ele>509.97</ele>
   </trkpt>
   <trkpt lat="-37.84517" lon="145.35528000000002">
    <ele>510.6</ele>
   </trkpt>
   <trkpt lat="-37.84514" lon="145.35531">
    <ele>510.72</ele>
   </trkpt>
   <trkpt lat="-37.844620000000006" lon="145.35536000000002">
    <ele>512.42</ele>
   </trkpt>
   <trkpt lat="-37.84458" lon="145.35522">
    <ele>513.45</ele>
   </trkpt>
   <trkpt lat="-37.84456" lon="145.35451">
    <ele>520.8000000000001</ele>
   </trkpt>
   <trkpt lat="-37.84431" lon="145.35374000000002">
    <ele>526.96</ele>
   </trkpt>
   <trkpt lat="-37.84385" lon="145.35334">
    <ele>530.19</ele>
   </trkpt>
   <trkpt lat="-37.84333000019119" lon="145.35314499863648">
    <ele>533.1600000000001</ele>
   </trkpt>
   <trkpt lat="-37.84281" lon="145.35295000000002">
    <ele>536.19</ele>
   </trkpt>
   <trkpt lat="-37.84207" lon="145.35285000000002">
    <ele>541.4300000000001</ele>
   </trkpt>
   <trkpt lat="-37.84131000029801" lon="145.35304500197412">
    <ele>543.7800000000001</ele>
   </trkpt>
   <trkpt lat="-37.84055" lon="145.35324">
    <ele>546.2600000000001</ele>
   </trkpt>
   <trkpt lat="-37.84051" lon="145.3528">
    <ele>547.59</ele>
   </trkpt>
   <trkpt lat="-37.84042" lon="145.35260000000002">
    <ele>547.9000000000001</ele>
   </trkpt>
   <trkpt lat="-37.83958500063917" lon="145.3522099955832">
    <ele>552.09</ele>
   </trkpt>
   <trkpt lat="-37.838750000000005" lon="145.35182">
    <ele>558.0</ele>
   </trkpt>
   <trkpt lat="-37.838370000000005" lon="145.3512">
    <ele>561.28</ele>
   </trkpt>
   <trkpt lat="-37.83836" lon="145.3512">
    <ele>561.28</ele>
   </trkpt>
   <trkpt lat="-37.83813" lon="145.35073">
    <ele>563.6000000000001</ele>
   </trkpt>
   <trkpt lat="-37.83773" lon="145.34973000000002">
    <ele>566.99</ele>
   </trkpt>
   <trkpt lat="-37.83773" lon="145.34956000000003">
    <ele>567.4800000000001</ele>
   </trkpt>
   <trkpt lat="-37.8378" lon="145.34934">
    <ele>568.5400000000001</ele>
   </trkpt>
   <trkpt lat="-37.83782" lon="145.34913">
    <ele>569.7500000000001</ele>
   </trkpt>
   <trkpt lat="-37.83789" lon="145.34899000000001">
    <ele>571.23</ele>
   </trkpt>
   <trkpt lat="-37.83793" lon="145.34877">
    <ele>572.08</ele>
   </trkpt>
   <trkpt lat="-37.83811" lon="145.34829000000002">
    <ele>577.46</ele>
   </trkpt>
   <trkpt lat="-37.83825" lon="145.34805">
    <ele>579.61</ele>
   </trkpt>
   <trkpt lat="-37.83831" lon="145.34782">
    <ele>582.87</ele>
   </trkpt>
   <trkpt lat="-37.83822" lon="145.34768000000003">
    <ele>587.47</ele>
   </trkpt>
   <trkpt lat="-37.8382" lon="145.34754">
    <ele>589.71</ele>
   </trkpt>
   <trkpt lat="-37.83858" lon="145.34734">
    <ele>584.6800000000001</ele>
   </trkpt>
   <trkpt lat="-37.83885" lon="145.34699">
    <ele>580.85</ele>
   </trkpt>
   <trkpt lat="-37.83896" lon="145.34687000000002">
    <ele>578.33</ele>
   </trkpt>
   <trkpt lat="-37.83908" lon="145.34678000000002">
    <ele>575.5300000000001</ele>
   </trkpt>
   <trkpt lat="-37.83914" lon="145.34669000000002">
    <ele>572.98</ele>
   </trkpt>
   <trkpt lat="-37.8391" lon="145.34649000000002">
    <ele>569.1800000000001</ele>
   </trkpt>
   <trkpt lat="-37.83894" lon="145.3462">
    <ele>566.3900000000001</ele>
   </trkpt>
   <trkpt lat="-37.83896" lon="145.34608">
    <ele>564.3900000000001</ele>
   </trkpt>
   <trkpt lat="-37.838710000000006" lon="145.34588000000002">
    <ele>564.2900000000001</ele>
   </trkpt>
   <trkpt lat="-37.83872" lon="145.34589000000003">
    <ele>564.2900000000001</ele>
   </trkpt>
   <trkpt lat="-37.83856" lon="145.34584">
    <ele>565.73</ele>
   </trkpt>
   <trkpt lat="-37.83843" lon="145.34587000000002">
    <ele>568.72</ele>
   </trkpt>
   <trkpt lat="-37.83834" lon="145.34596000000002">
    <ele>571.28</ele>
   </trkpt>
   <trkpt lat="-37.83813" lon="145.34605000000002">
    <ele>579.32</ele>
   </trkpt>
   <trkpt lat="-37.83791" lon="145.34608">
    <ele>585.1800000000001</ele>
   </trkpt>
   <trkpt lat="-37.83771" lon="145.34619">
    <ele>590.1800000000001</ele>
   </trkpt>
   <trkpt lat="-37.8376" lon="145.34623000000002">
    <ele>593.48</ele>
   </trkpt>
   <trkpt lat="-37.83733" lon="145.34626">
    <ele>599.07</ele>
   </trkpt>
   <trkpt lat="-37.83726" lon="145.34629">
    <ele>601.11</ele>
   </trkpt>
   <trkpt lat="-37.83706" lon="145.34649000000002">
    <ele>606.34</ele>
   </trkpt>
   <trkpt lat="-37.83699" lon="145.34654">
    <ele>608.14</ele>
   </trkpt>
   <trkpt lat="-37.83681" lon="145.34658000000002">
    <ele>610.36</ele>
   </trkpt>
   <trkpt lat="-37.83668" lon="145.34659000000002">
    <ele>610.58</ele>
   </trkpt>
   <trkpt lat="-37.8363" lon="145.34654">
    <ele>605.87</ele>
   </trkpt>
   <trkpt lat="-37.83601" lon="145.34655">
    <ele>602.89</ele>
   </trkpt>
   <trkpt lat="-37.83574" lon="145.34658000000002">
    <ele>600.4200000000001</ele>
   </trkpt>
   <trkpt lat="-37.835150000000006" lon="145.34676000000002">
    <ele>596.8500000000001</ele>
   </trkpt>
   <trkpt lat="-37.83487" lon="145.34681">
    <ele>596.33</ele>
   </trkpt>
   <trkpt lat="-37.8344" lon="145.34703000000002">
    <ele>596.2400000000001</ele>
   </trkpt>
   <trkpt lat="-37.83413" lon="145.34727">
    <ele>596.4200000000001</ele>
   </trkpt>
   <trkpt lat="-37.83379500086186" lon="145.3476750016354">
    <ele>596.7900000000001</ele>
   </trkpt>
   <trkpt lat="-37.83346" lon="145.34808">
    <ele>594.62</ele>
   </trkpt>
   <trkpt lat="-37.833330000000004" lon="145.3484">
    <ele>595.25</ele>
   </trkpt>
   <trkpt lat="-37.83323" lon="145.34911000000002">
    <ele>590.86</ele>
   </trkpt>
   <trkpt lat="-37.83296" lon="145.34934">
    <ele>587.34</ele>
   </trkpt>
   <trkpt lat="-37.83287" lon="145.34947000000003">
    <ele>586.1</ele>
   </trkpt>
   <trkpt lat="-37.83274" lon="145.34954000000002">
    <ele>585.5600000000001</ele>
   </trkpt>
   <trkpt lat="-37.83267" lon="145.34969">
    <ele>584.6300000000001</ele>
   </trkpt>
   <trkpt lat="-37.83231" lon="145.35010000000003">
    <ele>576.71</ele>
   </trkpt>
   <trkpt lat="-37.83196" lon="145.35046">
    <ele>569.8000000000001</ele>
   </trkpt>
   <trkpt lat="-37.83162" lon="145.35071000000002">
    <ele>562.45</ele>
   </trkpt>
   <trkpt lat="-37.83122" lon="145.35091">
    <ele>555.5300000000001</ele>
   </trkpt>
   <trkpt lat="-37.83093" lon="145.35097000000002">
    <ele>555.48</ele>
   </trkpt>
   <trkpt lat="-37.83066" lon="145.35092">
    <ele>557.62</ele>
   </trkpt>
   <trkpt lat="-37.83032" lon="145.35069000000001">
    <ele>559.47</ele>
   </trkpt>
   <trkpt lat="-37.82999" lon="145.35055">
    <ele>562.84</ele>
   </trkpt>
   <trkpt lat="-37.82963" lon="145.35047">
    <ele>565.6300000000001</ele>
   </trkpt>
   <trkpt lat="-37.82943" lon="145.35047">
    <ele>567.9399999999999</ele>
   </trkpt>
   <trkpt lat="-37.82911" lon="145.35060000000001">
    <ele>573.76</ele>
   </trkpt>
   <trkpt lat="-37.828629999903704" lon="145.35060500003354">
    <ele>576.01</ele>
   </trkpt>
   <trkpt lat="-37.82815" lon="145.35061000000002">
    <ele>574.1700000000001</ele>
   </trkpt>
   <trkpt lat="-37.82758000003291" lon="145.35072500089296">
    <ele>573.3900000000001</ele>
   </trkpt>
   <trkpt lat="-37.82701" lon="145.35084">
    <ele>576.07</ele>
   </trkpt>
   <trkpt lat="-37.82658" lon="145.35101">
    <ele>575.5</ele>
   </trkpt>
   <trkpt lat="-37.82625" lon="145.35122">
    <ele>577.1400000000001</ele>
   </trkpt>
   <trkpt lat="-37.82625" lon="145.35123000000002">
    <ele>577.1400000000001</ele>
   </trkpt>
   <trkpt lat="-37.82596" lon="145.35162000000003">
    <ele>579.95</ele>
   </trkpt>
   <trkpt lat="-37.82558" lon="145.35231000000002">
    <ele>583.21</ele>
   </trkpt>
   <trkpt lat="-37.82551" lon="145.35260000000002">
    <ele>583.9700000000001</ele>
   </trkpt>
   <trkpt lat="-37.82547" lon="145.35287000000002">
    <ele>584.4200000000001</ele>
   </trkpt>
   <trkpt lat="-37.82553" lon="145.35331000000002">
    <ele>584.49</ele>
   </trkpt>
   <trkpt lat="-37.82555" lon="145.35337">
    <ele>584.49</ele>
   </trkpt>
   <trkpt lat="-37.82544" lon="145.35431">
    <ele>577.64</ele>
   </trkpt>
   <trkpt lat="-37.82535" lon="145.35486">
    <ele>572.73</ele>
   </trkpt>
   <trkpt lat="-37.82531" lon="145.35505">
    <ele>571.72</ele>
   </trkpt>
   <trkpt lat="-37.82529" lon="145.35529000000002">
    <ele>571.22</ele>
   </trkpt>
   <trkpt lat="-37.82529" lon="145.35569">
    <ele>570.6</ele>
   </trkpt>
   <trkpt lat="-37.82536" lon="145.35629">
    <ele>566.88</ele>
   </trkpt>
   <trkpt lat="-37.825320000000005" lon="145.35658">
    <ele>564.4200000000001</ele>
   </trkpt>
   <trkpt lat="-37.82504" lon="145.35681000000002">
    <ele>558.2900000000001</ele>
   </trkpt>
   <trkpt lat="-37.82493" lon="145.35696000000002">
    <ele>557.62</ele>
   </trkpt>
   <trkpt lat="-37.82419" lon="145.35738">
    <ele>545.51</ele>
   </trkpt>
   <trkpt lat="-37.82405" lon="145.35753000000003">
    <ele>545.24</ele>
   </trkpt>
   <trkpt lat="-37.8237" lon="145.35811">
    <ele>547.7200000000001</ele>
   </trkpt>
   <trkpt lat="-37.82334" lon="145.3588">
    <ele>546.8700000000001</ele>
   </trkpt>
   <trkpt lat="-37.82314" lon="145.35915">
    <ele>541.45</ele>
   </trkpt>
   <trkpt lat="-37.82291" lon="145.35968000000003">
    <ele>541.0200000000001</ele>
   </trkpt>
   <trkpt lat="-37.82251" lon="145.36048000000002">
    <ele>537.37</ele>
   </trkpt>
   <trkpt lat="-37.82247" lon="145.36068">
    <ele>539.34</ele>
   </trkpt>
   <trkpt lat="-37.82251" lon="145.36086">
    <ele>543.52</ele>
   </trkpt>
   <trkpt lat="-37.82287" lon="145.36139">
    <ele>550.6500000000001</ele>
   </trkpt>
   <trkpt lat="-37.82285" lon="145.36151">
    <ele>550.94</ele>
   </trkpt>
   <trkpt lat="-37.82278" lon="145.36161">
    <ele>551.15</ele>
   </trkpt>
   <trkpt lat="-37.82251" lon="145.36179">
    <ele>551.8100000000001</ele>
   </trkpt>
   <trkpt lat="-37.822390000000006" lon="145.36191000000002">
    <ele>551.9900000000001</ele>
   </trkpt>
   <trkpt lat="-37.82222" lon="145.36195">
    <ele>552.5300000000001</ele>
   </trkpt>
   <trkpt lat="-37.82186" lon="145.36196">
    <ele>552.46</ele>
   </trkpt>
   <trkpt lat="-37.82168" lon="145.36193">
    <ele>551.5600000000001</ele>
   </trkpt>
   <trkpt lat="-37.82114" lon="145.36204">
    <ele>543.07</ele>
   </trkpt>
   <trkpt lat="-37.82092" lon="145.36214">
    <ele>536.76</ele>
   </trkpt>
   <trkpt lat="-37.82016" lon="145.36235000000002">
    <ele>511.19</ele>
   </trkpt>
   <trkpt lat="-37.81996" lon="145.36259">
    <ele>505.97</ele>
   </trkpt>
   <trkpt lat="-37.81976" lon="145.36298000000002">
    <ele>503.45000000000005</ele>
   </trkpt>
   <trkpt lat="-37.81969" lon="145.36317000000003">
    <ele>503.45000000000005</ele>
   </trkpt>
   <trkpt lat="-37.81958" lon="145.36325000000002">
    <ele>502.07</ele>
   </trkpt>
   <trkpt lat="-37.81949" lon="145.36302">
    <ele>496.34000000000003</ele>
   </trkpt>
   <trkpt lat="-37.81931" lon="145.36299000000002">
    <ele>484.53000000000003</ele>
   </trkpt>
   <trkpt lat="-37.81877" lon="145.36299000000002">
    <ele>468.05</ele>
   </trkpt>
   <trkpt lat="-37.8183" lon="145.36328">
    <ele>462.40000000000003</ele>
   </trkpt>
   <trkpt lat="-37.817980000000006" lon="145.36344000000003">
    <ele>462.59000000000003</ele>
   </trkpt>
   <trkpt lat="-37.81779" lon="145.36370000000002">
    <ele>463.33</ele>
   </trkpt>
   <trkpt lat="-37.81765" lon="145.36397000000002">
    <ele>463.52000000000004</ele>
   </trkpt>
   <trkpt lat="-37.817600000000006" lon="145.36438">
    <ele>464.97</ele>
   </trkpt>
   <trkpt lat="-37.817600000000006" lon="145.36507">
    <ele>468.22</ele>
   </trkpt>
   <trkpt lat="-37.8177" lon="145.36568000000003">
    <ele>471.08000000000004</ele>
   </trkpt>
   <trkpt lat="-37.81774" lon="145.36581">
    <ele>472.19000000000005</ele>
   </trkpt>
   <trkpt lat="-37.81774" lon="145.36595">
    <ele>472.49</ele>
   </trkpt>
   <trkpt lat="-37.81765" lon="145.36620000000002">
    <ele>472.83000000000004</ele>
   </trkpt>
   <trkpt lat="-37.817510000000006" lon="145.36671">
    <ele>469.03000000000003</ele>
   </trkpt>
   <trkpt lat="-37.816829999901934" lon="145.36669999990644">
    <ele>460.92</ele>
   </trkpt>
   <trkpt lat="-37.81615" lon="145.36669">
    <ele>453.11</ele>
   </trkpt>
   <trkpt lat="-37.81573" lon="145.36681000000002">
    <ele>448.11000000000007</ele>
   </trkpt>
   <trkpt lat="-37.8155" lon="145.36708000000002">
    <ele>445.72</ele>
   </trkpt>
   <trkpt lat="-37.81537" lon="145.36716">
    <ele>444.63</ele>
   </trkpt>
   <trkpt lat="-37.81508" lon="145.36724">
    <ele>445.32000000000005</ele>
   </trkpt>
   <trkpt lat="-37.81488" lon="145.36741">
    <ele>446.91</ele>
   </trkpt>
   <trkpt lat="-37.814710000000005" lon="145.36781000000002">
    <ele>451.21000000000004</ele>
   </trkpt>
   <trkpt lat="-37.8147" lon="145.36782000000002">
    <ele>451.21000000000004</ele>
   </trkpt>
   <trkpt lat="-37.81459" lon="145.36827000000002">
    <ele>454.77000000000004</ele>
   </trkpt>
   <trkpt lat="-37.81459" lon="145.36878000000002">
    <ele>458.78000000000003</ele>
   </trkpt>
   <trkpt lat="-37.81467" lon="145.36967">
    <ele>467.59000000000003</ele>
   </trkpt>
   <trkpt lat="-37.81481" lon="145.37055">
    <ele>475.23</ele>
   </trkpt>
   <trkpt lat="-37.81479" lon="145.37143">
    <ele>471.95000000000005</ele>
   </trkpt>
   <trkpt lat="-37.81461" lon="145.37204">
    <ele>467.49</ele>
   </trkpt>
   <trkpt lat="-37.81441" lon="145.37232">
    <ele>465.16</ele>
   </trkpt>
   <trkpt lat="-37.81396" lon="145.37239000000002">
    <ele>463.45000000000005</ele>
   </trkpt>
   <trkpt lat="-37.81358" lon="145.37265000000002">
    <ele>460.69000000000005</ele>
   </trkpt>
   <trkpt lat="-37.81331" lon="145.37307">
    <ele>459.37000000000006</ele>
   </trkpt>
   <trkpt lat="-37.81349" lon="145.37412">
    <ele>458.38000000000005</ele>
   </trkpt>
   <trkpt lat="-37.81367000268485" lon="145.3749149981211">
    <ele>453.98</ele>
   </trkpt>
   <trkpt lat="-37.81385" lon="145.37571">
    <ele>444.93000000000006</ele>
   </trkpt>
   <trkpt lat="-37.81395000162117" lon="145.37632499930535">
    <ele>441.72</ele>
   </trkpt>
   <trkpt lat="-37.81405" lon="145.37694000000002">
    <ele>436.82000000000005</ele>
   </trkpt>
   <trkpt lat="-37.81451500141575" lon="145.37752499627666">
    <ele>431.32000000000005</ele>
   </trkpt>
   <trkpt lat="-37.814980000000006" lon="145.37811000000002">
    <ele>424.95000000000005</ele>
   </trkpt>
   <trkpt lat="-37.8153" lon="145.37861">
    <ele>419.13000000000005</ele>
   </trkpt>
   <trkpt lat="-37.81528" lon="145.37923">
    <ele>415.63000000000005</ele>
   </trkpt>
   <trkpt lat="-37.81503500222022" lon="145.3799500023041">
    <ele>409.79</ele>
   </trkpt>
   <trkpt lat="-37.81479" lon="145.38067">
    <ele>404.58000000000004</ele>
   </trkpt>
   <trkpt lat="-37.81481" lon="145.38123000000002">
    <ele>400.17</ele>
   </trkpt>
   <trkpt lat="-37.814800000000005" lon="145.3813">
    <ele>399.99</ele>
   </trkpt>
   <trkpt lat="-37.8149" lon="145.38214000000002">
    <ele>398.14000000000004</ele>
   </trkpt>
   <trkpt lat="-37.81524" lon="145.38317">
    <ele>395.08000000000004</ele>
   </trkpt>
   <trkpt lat="-37.815440001445175" lon="145.38374999849617">
    <ele>387.70000000000005</ele>
   </trkpt>
   <trkpt lat="-37.81564" lon="145.38433">
    <ele>381.86</ele>
   </trkpt>
   <trkpt lat="-37.81564" lon="145.38443">
    <ele>380.54</ele>
   </trkpt>
   <trkpt lat="-37.81562" lon="145.38453">
    <ele>379.93000000000006</ele>
   </trkpt>
   <trkpt lat="-37.81517" lon="145.38471">
    <ele>371.58000000000004</ele>
   </trkpt>
   <trkpt lat="-37.8153" lon="145.3853">
    <ele>366.41</ele>
   </trkpt>
   <trkpt lat="-37.81548" lon="145.38594">
    <ele>364.69</ele>
   </trkpt>
   <trkpt lat="-37.81559" lon="145.38597000000001">
    <ele>364.56000000000006</ele>
   </trkpt>
   <trkpt lat="-37.81564" lon="145.38616000000002">
    <ele>363.83000000000004</ele>
   </trkpt>
   <trkpt lat="-37.81566" lon="145.38664">
    <ele>361.86</ele>
   </trkpt>
   <trkpt lat="-37.8157" lon="145.38694">
    <ele>360.72</ele>
   </trkpt>
   <trkpt lat="-37.81568" lon="145.38728">
    <ele>361.1</ele>
   </trkpt>
   <trkpt lat="-37.81559" lon="145.38736">
    <ele>361.82000000000005</ele>
   </trkpt>
   <trkpt lat="-37.814910000000005" lon="145.38760000000002">
    <ele>365.25</ele>
   </trkpt>
   <trkpt lat="-37.814276667026526" lon="145.38780333681862">
    <ele>355.02</ele>
   </trkpt>
   <trkpt lat="-37.81364333370353" lon="145.38800667014857">
    <ele>345.73</ele>
   </trkpt>
   <trkpt lat="-37.813010000000006" lon="145.38821000000002">
    <ele>336.90000000000003</ele>
   </trkpt>
   <trkpt lat="-37.81264" lon="145.38830000000002">
    <ele>332.87000000000006</ele>
   </trkpt>
   <trkpt lat="-37.8121" lon="145.38851000000003">
    <ele>325.08000000000004</ele>
   </trkpt>
   <trkpt lat="-37.81183" lon="145.38856">
    <ele>325.73</ele>
   </trkpt>
   <trkpt lat="-37.81179" lon="145.38861">
    <ele>326.26000000000005</ele>
   </trkpt>
   <trkpt lat="-37.81181" lon="145.3891">
    <ele>334.57000000000005</ele>
   </trkpt>
   <trkpt lat="-37.811890000000005" lon="145.38958000000002">
    <ele>337.81000000000006</ele>
   </trkpt>
   <trkpt lat="-37.81211500490776" lon="145.39065499683528">
    <ele>317.02000000000004</ele>
   </trkpt>
   <trkpt lat="-37.812340000000006" lon="145.39173000000002">
    <ele>294.77000000000004</ele>
   </trkpt>
   <trkpt lat="-37.811750002660844" lon="145.39252500636695">
    <ele>265.5</ele>
   </trkpt>
   <trkpt lat="-37.81116" lon="145.39332000000002">
    <ele>246.6</ele>
   </trkpt>
   <trkpt lat="-37.81087" lon="145.39360000000002">
    <ele>240.29000000000002</ele>
   </trkpt>
   <trkpt lat="-37.81053" lon="145.39382">
    <ele>231.87</ele>
   </trkpt>
   <trkpt lat="-37.81015" lon="145.39394000000001">
    <ele>225.20000000000002</ele>
   </trkpt>
   <trkpt lat="-37.81002" lon="145.39404000000002">
    <ele>223.77</ele>
   </trkpt>
   <trkpt lat="-37.80991" lon="145.39425">
    <ele>220.02</ele>
   </trkpt>
   <trkpt lat="-37.80978" lon="145.39460000000003">
    <ele>216.57000000000002</ele>
   </trkpt>
   <trkpt lat="-37.81" lon="145.39474">
    <ele>217.31000000000003</ele>
   </trkpt>
   <trkpt lat="-37.810280000000006" lon="145.39497">
    <ele>217.72000000000003</ele>
   </trkpt>
   <trkpt lat="-37.81038" lon="145.39503000000002">
    <ele>216.13000000000002</ele>
   </trkpt>
   <trkpt lat="-37.81067" lon="145.39538000000002">
    <ele>210.55</ele>
   </trkpt>
   <trkpt lat="-37.81089" lon="145.39578">
    <ele>212.16000000000003</ele>
   </trkpt>
   <trkpt lat="-37.81114" lon="145.39649">
    <ele>214.00000000000003</ele>
   </trkpt>
   <trkpt lat="-37.811170000000004" lon="145.39678">
    <ele>213.4</ele>
   </trkpt>
   <trkpt lat="-37.81125" lon="145.39697">
    <ele>213.58</ele>
   </trkpt>
   <trkpt lat="-37.81141" lon="145.39698">
    <ele>214.61</ele>
   </trkpt>
   <trkpt lat="-37.81156" lon="145.39692000000002">
    <ele>216.3</ele>
   </trkpt>
   <trkpt lat="-37.81166" lon="145.3968">
    <ele>217.84</ele>
   </trkpt>
   <trkpt lat="-37.81185" lon="145.39616">
    <ele>222.59</ele>
   </trkpt>
   <trkpt lat="-37.8119" lon="145.39583000000002">
    <ele>224.76000000000002</ele>
   </trkpt>
   <trkpt lat="-37.81197" lon="145.39574000000002">
    <ele>225.83</ele>
   </trkpt>
   <trkpt lat="-37.81221" lon="145.39567000000002">
    <ele>229.34</ele>
   </trkpt>
   <trkpt lat="-37.81237" lon="145.3956">
    <ele>232.58</ele>
   </trkpt>
   <trkpt lat="-37.81259" lon="145.3956">
    <ele>237.28</ele>
   </trkpt>
   <trkpt lat="-37.81279" lon="145.39551">
    <ele>243.70000000000002</ele>
   </trkpt>
   <trkpt lat="-37.81293" lon="145.39548000000002">
    <ele>245.78000000000003</ele>
   </trkpt>
   <trkpt lat="-37.813100000000006" lon="145.39549000000002">
    <ele>249.60000000000002</ele>
   </trkpt>
   <trkpt lat="-37.81315" lon="145.39547000000002">
    <ele>250.4</ele>
   </trkpt>
   <trkpt lat="-37.81326" lon="145.39535">
    <ele>253.5</ele>
   </trkpt>
   <trkpt lat="-37.81344" lon="145.39523">
    <ele>257.61</ele>
   </trkpt>
   <trkpt lat="-37.81349" lon="145.39532">
    <ele>261.26000000000005</ele>
   </trkpt>
   <trkpt lat="-37.813570000000006" lon="145.3956">
    <ele>269.14000000000004</ele>
   </trkpt>
   <trkpt lat="-37.81358" lon="145.39583000000002">
    <ele>271.11</ele>
   </trkpt>
   <trkpt lat="-37.81367" lon="145.39581">
    <ele>272.68</ele>
   </trkpt>
   <trkpt lat="-37.81385" lon="145.39562">
    <ele>275.28000000000003</ele>
   </trkpt>
   <trkpt lat="-37.814" lon="145.39542">
    <ele>279.0</ele>
   </trkpt>
   <trkpt lat="-37.81407" lon="145.39542">
    <ele>279.41</ele>
   </trkpt>
   <trkpt lat="-37.81407" lon="145.39546">
    <ele>279.72</ele>
   </trkpt>
   <trkpt lat="-37.81398" lon="145.39566000000002">
    <ele>280.54</ele>
   </trkpt>
   <trkpt lat="-37.81391" lon="145.39592000000002">
    <ele>282.15000000000003</ele>
   </trkpt>
   <trkpt lat="-37.81387" lon="145.39618000000002">
    <ele>283.42</ele>
   </trkpt>
   <trkpt lat="-37.81405" lon="145.39655000000002">
    <ele>287.79</ele>
   </trkpt>
   <trkpt lat="-37.81414" lon="145.39663000000002">
    <ele>288.6</ele>
   </trkpt>
   <trkpt lat="-37.81425" lon="145.39671">
    <ele>291.97</ele>
   </trkpt>
   <trkpt lat="-37.81432" lon="145.39667">
    <ele>293.21000000000004</ele>
   </trkpt>
   <trkpt lat="-37.81427" lon="145.39647000000002">
    <ele>294.64</ele>
   </trkpt>
   <trkpt lat="-37.81425" lon="145.39624">
    <ele>295.77000000000004</ele>
   </trkpt>
   <trkpt lat="-37.81434" lon="145.39602000000002">
    <ele>298.43</ele>
   </trkpt>
   <trkpt lat="-37.81452" lon="145.39582000000001">
    <ele>299.23</ele>
   </trkpt>
   <trkpt lat="-37.81461" lon="145.3956">
    <ele>298.04</ele>
   </trkpt>
   <trkpt lat="-37.81467" lon="145.39551">
    <ele>297.9</ele>
   </trkpt>
   <trkpt lat="-37.81488" lon="145.39536">
    <ele>297.51</ele>
   </trkpt>
   <trkpt lat="-37.81508" lon="145.39530000000002">
    <ele>298.03000000000003</ele>
   </trkpt>
   <trkpt lat="-37.81535" lon="145.39498">
    <ele>301.18</ele>
   </trkpt>
   <trkpt lat="-37.81546" lon="145.39493000000002">
    <ele>303.41</ele>
   </trkpt>
   <trkpt lat="-37.81548" lon="145.39493000000002">
    <ele>303.41</ele>
   </trkpt>
   <trkpt lat="-37.81555" lon="145.39502000000002">
    <ele>305.21000000000004</ele>
   </trkpt>
   <trkpt lat="-37.815540000000006" lon="145.39511000000002">
    <ele>305.69</ele>
   </trkpt>
   <trkpt lat="-37.81526" lon="145.39556000000002">
    <ele>307.06</ele>
   </trkpt>
   <trkpt lat="-37.81488" lon="145.39579">
    <ele>309.54</ele>
   </trkpt>
   <trkpt lat="-37.81481" lon="145.39588">
    <ele>310.16</ele>
   </trkpt>
   <trkpt lat="-37.81479" lon="145.39596">
    <ele>310.91</ele>
   </trkpt>
   <trkpt lat="-37.81481" lon="145.39607">
    <ele>311.76000000000005</ele>
   </trkpt>
   <trkpt lat="-37.81485" lon="145.39616">
    <ele>312.16</ele>
   </trkpt>
   <trkpt lat="-37.81488" lon="145.39609000000002">
    <ele>312.76000000000005</ele>
   </trkpt>
   <trkpt lat="-37.81501" lon="145.39595">
    <ele>313.14000000000004</ele>
   </trkpt>
   <trkpt lat="-37.815160000000006" lon="145.39585000000002">
    <ele>313.27000000000004</ele>
   </trkpt>
   <trkpt lat="-37.81541" lon="145.39571">
    <ele>313.71999999999997</ele>
   </trkpt>
   <trkpt lat="-37.81553" lon="145.39559">
    <ele>314.5</ele>
   </trkpt>
   <trkpt lat="-37.81564" lon="145.39538000000002">
    <ele>315.92</ele>
   </trkpt>
   <trkpt lat="-37.81579" lon="145.39526">
    <ele>318.86</ele>
   </trkpt>
   <trkpt lat="-37.81595" lon="145.39520000000002">
    <ele>320.99000000000007</ele>
   </trkpt>
   <trkpt lat="-37.81582" lon="145.39548000000002">
    <ele>323.59000000000003</ele>
   </trkpt>
   <trkpt lat="-37.81564" lon="145.39594000000002">
    <ele>325.82000000000005</ele>
   </trkpt>
   <trkpt lat="-37.81548" lon="145.39618000000002">
    <ele>328.77</ele>
   </trkpt>
   <trkpt lat="-37.81553" lon="145.39625">
    <ele>330.26000000000005</ele>
   </trkpt>
   <trkpt lat="-37.81555" lon="145.39626">
    <ele>330.26000000000005</ele>
   </trkpt>
   <trkpt lat="-37.81564" lon="145.39619000000002">
    <ele>330.26000000000005</ele>
   </trkpt>
   <trkpt lat="-37.81568" lon="145.39619000000002">
    <ele>334.90000000000003</ele>
   </trkpt>
   <trkpt lat="-37.8157" lon="145.39626">
    <ele>334.90000000000003</ele>
   </trkpt>
   <trkpt lat="-37.81577" lon="145.39624">
    <ele>335.6</ele>
   </trkpt>
   <trkpt lat="-37.81597" lon="145.39600000000002">
    <ele>338.63000000000005</ele>
   </trkpt>
   <trkpt lat="-37.81611" lon="145.3959">
    <ele>341.18</ele>
   </trkpt>
   <trkpt lat="-37.8162" lon="145.3959">
    <ele>342.08000000000004</ele>
   </trkpt>
   <trkpt lat="-37.81638" lon="145.39595">
    <ele>346.40000000000003</ele>
   </trkpt>
   <trkpt lat="-37.81642" lon="145.39603000000002">
    <ele>346.93</ele>
   </trkpt>
   <trkpt lat="-37.81644" lon="145.39613">
    <ele>347.72</ele>
   </trkpt>
   <trkpt lat="-37.81658" lon="145.39624">
    <ele>348.69000000000005</ele>
   </trkpt>
   <trkpt lat="-37.81662" lon="145.39625">
    <ele>348.69000000000005</ele>
   </trkpt>
   <trkpt lat="-37.81707" lon="145.39607">
    <ele>350.37</ele>
   </trkpt>
   <trkpt lat="-37.81732" lon="145.39592000000002">
    <ele>351.03000000000003</ele>
   </trkpt>
   <trkpt lat="-37.81745" lon="145.39589">
    <ele>351.37</ele>
   </trkpt>
   <trkpt lat="-37.81761" lon="145.39591000000001">
    <ele>352.7</ele>
   </trkpt>
   <trkpt lat="-37.81765" lon="145.3959">
    <ele>353.22</ele>
   </trkpt>
   <trkpt lat="-37.81772" lon="145.39582000000001">
    <ele>354.95000000000005</ele>
   </trkpt>
   <trkpt lat="-37.81776" lon="145.39566000000002">
    <ele>355.97</ele>
   </trkpt>
   <trkpt lat="-37.81785" lon="145.39561">
    <ele>356.87</ele>
   </trkpt>
   <trkpt lat="-37.8179" lon="145.39562">
    <ele>356.87</ele>
   </trkpt>
   <trkpt lat="-37.81801" lon="145.39569">
    <ele>358.16</ele>
   </trkpt>
   <trkpt lat="-37.8181" lon="145.39571">
    <ele>359.97</ele>
   </trkpt>
   <trkpt lat="-37.81821" lon="145.3957">
    <ele>360.81</ele>
   </trkpt>
   <trkpt lat="-37.81848" lon="145.39561">
    <ele>361.85</ele>
   </trkpt>
   <trkpt lat="-37.818490000000004" lon="145.39585000000002">
    <ele>359.49</ele>
   </trkpt>
   <trkpt lat="-37.81853" lon="145.39600000000002">
    <ele>358.43</ele>
   </trkpt>
   <trkpt lat="-37.81855" lon="145.39604">
    <ele>357.42</ele>
   </trkpt>
   <trkpt lat="-37.81864" lon="145.39611000000002">
    <ele>356.07000000000005</ele>
   </trkpt>
   <trkpt lat="-37.81897" lon="145.39602000000002">
    <ele>354.31</ele>
   </trkpt>
   <trkpt lat="-37.81929" lon="145.39589">
    <ele>350.39000000000004</ele>
   </trkpt>
   <trkpt lat="-37.81947" lon="145.39585000000002">
    <ele>347.83000000000004</ele>
   </trkpt>
   <trkpt lat="-37.81976" lon="145.39572">
    <ele>341.80000000000007</ele>
   </trkpt>
   <trkpt lat="-37.81998" lon="145.39567000000002">
    <ele>339.09</ele>
   </trkpt>
   <trkpt lat="-37.8207" lon="145.39543">
    <ele>322.34000000000003</ele>
   </trkpt>
   <trkpt lat="-37.82099" lon="145.39538000000002">
    <ele>314.0</ele>
   </trkpt>
   <trkpt lat="-37.82121" lon="145.39530000000002">
    <ele>309.91</ele>
   </trkpt>
   <trkpt lat="-37.821450000000006" lon="145.39530000000002">
    <ele>307.43</ele>
   </trkpt>
   <trkpt lat="-37.82193" lon="145.39532">
    <ele>303.07</ele>
   </trkpt>
   <trkpt lat="-37.82222" lon="145.39527">
    <ele>299.27000000000004</ele>
   </trkpt>
   <trkpt lat="-37.82235" lon="145.39530000000002">
    <ele>298.31</ele>
   </trkpt>
   <trkpt lat="-37.822590000000005" lon="145.39541">
    <ele>295.51000000000005</ele>
   </trkpt>
   <trkpt lat="-37.82267" lon="145.39542">
    <ele>294.51000000000005</ele>
   </trkpt>
   <trkpt lat="-37.82267" lon="145.39543">
    <ele>294.51000000000005</ele>
   </trkpt>
   <trkpt lat="-37.823240000000006" lon="145.39521000000002">
    <ele>290.34000000000003</ele>
   </trkpt>
   <trkpt lat="-37.82354" lon="145.39499">
    <ele>287.58</ele>
   </trkpt>
   <trkpt lat="-37.82374" lon="145.39478000000003">
    <ele>283.48</ele>
   </trkpt>
   <trkpt lat="-37.823890000000006" lon="145.39452">
    <ele>279.17</ele>
   </trkpt>
   <trkpt lat="-37.82417" lon="145.39417">
    <ele>274.71</ele>
   </trkpt>
   <trkpt lat="-37.824740000000006" lon="145.39372">
    <ele>261.19000000000005</ele>
   </trkpt>
   <trkpt lat="-37.82486" lon="145.39357">
    <ele>258.57</ele>
   </trkpt>
   <trkpt lat="-37.82515" lon="145.39312">
    <ele>249.52</ele>
   </trkpt>
   <trkpt lat="-37.82528000000001" lon="145.39302">
    <ele>247.47000000000003</ele>
   </trkpt>
   <trkpt lat="-37.82549" lon="145.39275">
    <ele>243.15000000000003</ele>
   </trkpt>
   <trkpt lat="-37.82558" lon="145.39251000000002">
    <ele>241.68</ele>
   </trkpt>
   <trkpt lat="-37.82587" lon="145.39213">
    <ele>240.54000000000002</ele>
   </trkpt>
   <trkpt lat="-37.82611" lon="145.39178">
    <ele>240.50000000000003</ele>
   </trkpt>
   <trkpt lat="-37.82636" lon="145.3912">
    <ele>242.25000000000003</ele>
   </trkpt>
   <trkpt lat="-37.82647" lon="145.39103">
    <ele>243.42000000000002</ele>
   </trkpt>
   <trkpt lat="-37.82661" lon="145.39093000000003">
    <ele>244.38</ele>
   </trkpt>
   <trkpt lat="-37.82674" lon="145.39086">
    <ele>245.12000000000003</ele>
   </trkpt>
   <trkpt lat="-37.82701" lon="145.39096">
    <ele>248.87</ele>
   </trkpt>
   <trkpt lat="-37.82728" lon="145.39110000000002">
    <ele>250.48000000000002</ele>
   </trkpt>
   <trkpt lat="-37.82782" lon="145.39147">
    <ele>255.70000000000005</ele>
   </trkpt>
   <trkpt lat="-37.828160000000004" lon="145.39166">
    <ele>257.53000000000003</ele>
   </trkpt>
   <trkpt lat="-37.8282" lon="145.39166">
    <ele>257.59000000000003</ele>
   </trkpt>
   <trkpt lat="-37.82846" lon="145.39174">
    <ele>258.46000000000004</ele>
   </trkpt>
   <trkpt lat="-37.8286" lon="145.39170000000001">
    <ele>258.59999999999997</ele>
   </trkpt>
   <trkpt lat="-37.82869" lon="145.39164000000002">
    <ele>258.59999999999997</ele>
   </trkpt>
   <trkpt lat="-37.82902" lon="145.39116">
    <ele>258.09999999999997</ele>
   </trkpt>
   <trkpt lat="-37.82909" lon="145.39100000000002">
    <ele>258.09999999999997</ele>
   </trkpt>
   <trkpt lat="-37.8292" lon="145.39066000000003">
    <ele>258.29</ele>
   </trkpt>
   <trkpt lat="-37.82927" lon="145.39053">
    <ele>258.49</ele>
   </trkpt>
   <trkpt lat="-37.829350000000005" lon="145.39053">
    <ele>258.79</ele>
   </trkpt>
   <trkpt lat="-37.82936" lon="145.39064000000002">
    <ele>258.51</ele>
   </trkpt>
   <trkpt lat="-37.82952" lon="145.39076">
    <ele>259.05</ele>
   </trkpt>
   <trkpt lat="-37.82972" lon="145.39087">
    <ele>259.64000000000004</ele>
   </trkpt>
   <trkpt lat="-37.82994" lon="145.39091000000002">
    <ele>260.65000000000003</ele>
   </trkpt>
   <trkpt lat="-37.83043" lon="145.39088">
    <ele>262.39</ele>
   </trkpt>
   <trkpt lat="-37.831030000000005" lon="145.3908">
    <ele>266.08000000000004</ele>
   </trkpt>
   <trkpt lat="-37.83104" lon="145.3908">
    <ele>266.08000000000004</ele>
   </trkpt>
   <trkpt lat="-37.83122" lon="145.39006">
    <ele>270.21</ele>
   </trkpt>
   <trkpt lat="-37.83124" lon="145.38937">
    <ele>274.72</ele>
   </trkpt>
   <trkpt lat="-37.83131" lon="145.38892">
    <ele>277.74</ele>
   </trkpt>
   <trkpt lat="-37.83135" lon="145.38858000000002">
    <ele>280.5</ele>
   </trkpt>
   <trkpt lat="-37.83149" lon="145.38801">
    <ele>283.83000000000004</ele>
   </trkpt>
   <trkpt lat="-37.83162" lon="145.38725000000002">
    <ele>288.94</ele>
   </trkpt>
   <trkpt lat="-37.83162" lon="145.38670000000002">
    <ele>293.49</ele>
   </trkpt>
   <trkpt lat="-37.83153" lon="145.38604">
    <ele>296.41</ele>
   </trkpt>
   <trkpt lat="-37.83155" lon="145.38576">
    <ele>297.39000000000004</ele>
   </trkpt>
   <trkpt lat="-37.83173" lon="145.38513">
    <ele>299.94000000000005</ele>
   </trkpt>
   <trkpt lat="-37.8318" lon="145.38498">
    <ele>300.65000000000003</ele>
   </trkpt>
   <trkpt lat="-37.83196" lon="145.38479">
    <ele>302.04</ele>
   </trkpt>
   <trkpt lat="-37.83198" lon="145.38464000000002">
    <ele>302.76000000000005</ele>
   </trkpt>
   <trkpt lat="-37.83211" lon="145.38427000000001">
    <ele>305.16</ele>
   </trkpt>
   <trkpt lat="-37.83231" lon="145.38392000000002">
    <ele>309.67</ele>
   </trkpt>
   <trkpt lat="-37.8324" lon="145.3838">
    <ele>311.18</ele>
   </trkpt>
   <trkpt lat="-37.833000000000006" lon="145.38347000000002">
    <ele>322.18</ele>
   </trkpt>
   <trkpt lat="-37.8333" lon="145.38317">
    <ele>335.33</ele>
   </trkpt>
   <trkpt lat="-37.83346" lon="145.38306">
    <ele>338.25000000000006</ele>
   </trkpt>
   <trkpt lat="-37.83357" lon="145.383">
    <ele>338.25000000000006</ele>
   </trkpt>
   <trkpt lat="-37.8339" lon="145.38292">
    <ele>346.71000000000004</ele>
   </trkpt>
   <trkpt lat="-37.83419" lon="145.38279">
    <ele>354.90999999999997</ele>
   </trkpt>
   <trkpt lat="-37.83428" lon="145.38267000000002">
    <ele>354.90999999999997</ele>
   </trkpt>
   <trkpt lat="-37.8346" lon="145.38209">
    <ele>367.89000000000004</ele>
   </trkpt>
   <trkpt lat="-37.83475" lon="145.38187000000002">
    <ele>376.34</ele>
   </trkpt>
   <trkpt lat="-37.83498" lon="145.38171">
    <ele>381.16</ele>
   </trkpt>
   <trkpt lat="-37.83529" lon="145.38157">
    <ele>389.84000000000003</ele>
   </trkpt>
   <trkpt lat="-37.83578" lon="145.38116000000002">
    <ele>406.27000000000004</ele>
   </trkpt>
   <trkpt lat="-37.83599" lon="145.38093">
    <ele>411.97</ele>
   </trkpt>
   <trkpt lat="-37.83605" lon="145.38073">
    <ele>416.16</ele>
   </trkpt>
   <trkpt lat="-37.83605" lon="145.38061000000002">
    <ele>417.05</ele>
   </trkpt>
   <trkpt lat="-37.8359" lon="145.38023">
    <ele>423.31</ele>
   </trkpt>
   <trkpt lat="-37.83572" lon="145.37938000000003">
    <ele>430.04</ele>
   </trkpt>
   <trkpt lat="-37.83572" lon="145.37914">
    <ele>431.61</ele>
   </trkpt>
   <trkpt lat="-37.83576" lon="145.37886">
    <ele>435.26000000000005</ele>
   </trkpt>
   <trkpt lat="-37.83581" lon="145.37869">
    <ele>436.07</ele>
   </trkpt>
   <trkpt lat="-37.8359" lon="145.37852">
    <ele>437.39000000000004</ele>
   </trkpt>
   <trkpt lat="-37.836310000000005" lon="145.37792000000002">
    <ele>437.46</ele>
   </trkpt>
   <trkpt lat="-37.83672000053975" lon="145.3775850018086">
    <ele>431.44000000000005</ele>
   </trkpt>
   <trkpt lat="-37.83713" lon="145.37725">
    <ele>426.40000000000003</ele>
   </trkpt>
   <trkpt lat="-37.83722" lon="145.37716">
    <ele>425.11</ele>
   </trkpt>
   <trkpt lat="-37.83731" lon="145.37695000000002">
    <ele>422.37</ele>
   </trkpt>
   <trkpt lat="-37.83731" lon="145.37681">
    <ele>420.59000000000003</ele>
   </trkpt>
   <trkpt lat="-37.83722" lon="145.37645">
    <ele>417.37</ele>
   </trkpt>
   <trkpt lat="-37.83724" lon="145.3762">
    <ele>415.47</ele>
   </trkpt>
   <trkpt lat="-37.83724" lon="145.37557">
    <ele>410.19000000000005</ele>
   </trkpt>
   <trkpt lat="-37.83728" lon="145.37513">
    <ele>408.07000000000005</ele>
   </trkpt>
   <trkpt lat="-37.83731" lon="145.37496000000002">
    <ele>407.89000000000004</ele>
   </trkpt>
   <trkpt lat="-37.83738" lon="145.37475">
    <ele>407.97</ele>
   </trkpt>
   <trkpt lat="-37.83719" lon="145.37407000000002">
    <ele>409.14000000000004</ele>
   </trkpt>
   <trkpt lat="-37.83719" lon="145.37388">
    <ele>409.85</ele>
   </trkpt>
   <trkpt lat="-37.83708" lon="145.37331">
    <ele>414.21000000000004</ele>
   </trkpt>
   <trkpt lat="-37.83699" lon="145.37235">
    <ele>423.7</ele>
   </trkpt>
   <trkpt lat="-37.837030000000006" lon="145.3719">
    <ele>427.00000000000006</ele>
   </trkpt>
   <trkpt lat="-37.83699" lon="145.37133">
    <ele>429.72</ele>
   </trkpt>
   <trkpt lat="-37.837030000000006" lon="145.37094000000002">
    <ele>432.32000000000005</ele>
   </trkpt>
   <trkpt lat="-37.83701000000001" lon="145.37063">
    <ele>434.14000000000004</ele>
   </trkpt>
   <trkpt lat="-37.83737" lon="145.37053">
    <ele>431.68</ele>
   </trkpt>
   <trkpt lat="-37.83769" lon="145.37040000000002">
    <ele>429.05</ele>
   </trkpt>
   <trkpt lat="-37.83798" lon="145.37023000000002">
    <ele>430.2900000000001</ele>
   </trkpt>
   <trkpt lat="-37.83849" lon="145.36997000000002">
    <ele>436.98</ele>
   </trkpt>
   <trkpt lat="-37.83869" lon="145.36991">
    <ele>440.53000000000003</ele>
   </trkpt>
   <trkpt lat="-37.83885" lon="145.3698">
    <ele>442.87</ele>
   </trkpt>
   <trkpt lat="-37.8391" lon="145.36968000000002">
    <ele>446.01</ele>
   </trkpt>
   <trkpt lat="-37.839560000000006" lon="145.36941000000002">
    <ele>453.59000000000003</ele>
   </trkpt>
   <trkpt lat="-37.83975" lon="145.36926000000003">
    <ele>455.98</ele>
   </trkpt>
   <trkpt lat="-37.839940000000006" lon="145.36906000000002">
    <ele>460.44</ele>
   </trkpt>
   <trkpt lat="-37.83999" lon="145.36903">
    <ele>460.94</ele>
   </trkpt>
   <trkpt lat="-37.84022" lon="145.36902">
    <ele>463.20000000000005</ele>
   </trkpt>
   <trkpt lat="-37.84057" lon="145.36894">
    <ele>468.33000000000004</ele>
   </trkpt>
   <trkpt lat="-37.84087" lon="145.36892">
    <ele>471.08000000000004</ele>
   </trkpt>
   <trkpt lat="-37.840880000000006" lon="145.36921">
    <ele>469.44</ele>
   </trkpt>
   <trkpt lat="-37.84080500173106" lon="145.36985000065633">
    <ele>465.4200000000001</ele>
   </trkpt>
   <trkpt lat="-37.84073" lon="145.37049000000002">
    <ele>463.79</ele>
   </trkpt>
   <trkpt lat="-37.84073" lon="145.37071">
    <ele>463.62</ele>
   </trkpt>
   <trkpt lat="-37.84075" lon="145.37084000000002">
    <ele>463.61</ele>
   </trkpt>
   <trkpt lat="-37.84089" lon="145.37119">
    <ele>463.75000000000006</ele>
   </trkpt>
   <trkpt lat="-37.841245002043856" lon="145.37188999657602">
    <ele>464.40000000000003</ele>
   </trkpt>
   <trkpt lat="-37.8416" lon="145.37259">
    <ele>466.0</ele>
   </trkpt>
   <trkpt lat="-37.84183" lon="145.37294">
    <ele>466.27</ele>
   </trkpt>
   <trkpt lat="-37.84205" lon="145.37321">
    <ele>466.45000000000005</ele>
   </trkpt>
   <trkpt lat="-37.84232" lon="145.37346000000002">
    <ele>467.11</ele>
   </trkpt>
   <trkpt lat="-37.84261" lon="145.37362000000002">
    <ele>469.07000000000005</ele>
   </trkpt>
   <trkpt lat="-37.84313" lon="145.37378">
    <ele>472.90000000000003</ele>
   </trkpt>
   <trkpt lat="-37.843410000000006" lon="145.37382000000002">
    <ele>476.35</ele>
   </trkpt>
   <trkpt lat="-37.84373" lon="145.37384">
    <ele>478.27000000000004</ele>
   </trkpt>
   <trkpt lat="-37.8442" lon="145.37382000000002">
    <ele>480.92</ele>
   </trkpt>
   <trkpt lat="-37.84445" lon="145.37379">
    <ele>482.51000000000005</ele>
   </trkpt>
   <trkpt lat="-37.84489500003845" lon="145.3736950005732">
    <ele>483.78000000000003</ele>
   </trkpt>
   <trkpt lat="-37.84534" lon="145.3736">
    <ele>486.19000000000005</ele>
   </trkpt>
   <trkpt lat="-37.8457" lon="145.37356000000003">
    <ele>487.00000000000006</ele>
   </trkpt>
   <trkpt lat="-37.84595" lon="145.37358">
    <ele>486.50000000000006</ele>
   </trkpt>
   <trkpt lat="-37.846700000000006" lon="145.37385">
    <ele>482.35</ele>
   </trkpt>
   <trkpt lat="-37.84745" lon="145.37404">
    <ele>479.65000000000003</ele>
   </trkpt>
   <trkpt lat="-37.84765" lon="145.37413">
    <ele>478.82</ele>
   </trkpt>
   <trkpt lat="-37.84794" lon="145.37421">
    <ele>478.5</ele>
   </trkpt>
   <trkpt lat="-37.848200000000006" lon="145.37433000000001">
    <ele>477.65000000000003</ele>
   </trkpt>
   <trkpt lat="-37.84832" lon="145.37447">
    <ele>477.66</ele>
   </trkpt>
   <trkpt lat="-37.848330000000004" lon="145.3745">
    <ele>477.66</ele>
   </trkpt>
   <trkpt lat="-37.84832" lon="145.37447">
    <ele>477.66</ele>
   </trkpt>
   <trkpt lat="-37.84834" lon="145.37458">
    <ele>477.87</ele>
   </trkpt>
   <trkpt lat="-37.84816" lon="145.37506000000002">
    <ele>479.95000000000005</ele>
   </trkpt>
   <trkpt lat="-37.8481" lon="145.37556">
    <ele>483.18000000000006</ele>
   </trkpt>
   <trkpt lat="-37.84816" lon="145.37637">
    <ele>488.03000000000003</ele>
   </trkpt>
   <trkpt lat="-37.84814" lon="145.37654">
    <ele>488.46000000000004</ele>
   </trkpt>
   <trkpt lat="-37.8481" lon="145.3767">
    <ele>488.52000000000004</ele>
   </trkpt>
   <trkpt lat="-37.84787" lon="145.37705000000003">
    <ele>487.2</ele>
   </trkpt>
   <trkpt lat="-37.84751" lon="145.37740000000002">
    <ele>483.07000000000005</ele>
   </trkpt>
   <trkpt lat="-37.84729" lon="145.37757000000002">
    <ele>481.78000000000003</ele>
   </trkpt>
   <trkpt lat="-37.84742" lon="145.3778">
    <ele>482.92</ele>
   </trkpt>
   <trkpt lat="-37.84747" lon="145.37811000000002">
    <ele>482.96000000000004</ele>
   </trkpt>
   <trkpt lat="-37.8476" lon="145.37832">
    <ele>482.49</ele>
   </trkpt>
   <trkpt lat="-37.84774" lon="145.37845000000002">
    <ele>482.62000000000006</ele>
   </trkpt>
   <trkpt lat="-37.84774" lon="145.37846000000002">
    <ele>482.62000000000006</ele>
   </trkpt>
   <trkpt lat="-37.84794" lon="145.37849">
    <ele>483.14</ele>
   </trkpt>
   <trkpt lat="-37.84825" lon="145.37846000000002">
    <ele>484.84000000000003</ele>
   </trkpt>
   <trkpt lat="-37.84848" lon="145.3784">
    <ele>486.2</ele>
   </trkpt>
   <trkpt lat="-37.8491" lon="145.37814">
    <ele>491.92</ele>
   </trkpt>
   <trkpt lat="-37.84951" lon="145.37792000000002">
    <ele>497.39000000000004</ele>
   </trkpt>
   <trkpt lat="-37.84964" lon="145.37782">
    <ele>500.13000000000005</ele>
   </trkpt>
   <trkpt lat="-37.85029" lon="145.3775">
    <ele>506.58000000000004</ele>
   </trkpt>
   <trkpt lat="-37.85047" lon="145.37738000000002">
    <ele>508.49</ele>
   </trkpt>
   <trkpt lat="-37.85085" lon="145.37730000000002">
    <ele>511.19</ele>
   </trkpt>
   <trkpt lat="-37.85121" lon="145.37741000000003">
    <ele>511.93</ele>
   </trkpt>
   <trkpt lat="-37.85157" lon="145.3776">
    <ele>510.34000000000003</ele>
   </trkpt>
   <trkpt lat="-37.85172" lon="145.37773">
    <ele>508.68</ele>
   </trkpt>
   <trkpt lat="-37.85188" lon="145.37808">
    <ele>505.82000000000005</ele>
   </trkpt>
   <trkpt lat="-37.85201" lon="145.37857000000002">
    <ele>503.87</ele>
   </trkpt>
   <trkpt lat="-37.85228" lon="145.37909000000002">
    <ele>506.21999999999997</ele>
   </trkpt>
   <trkpt lat="-37.85251" lon="145.37935000000002">
    <ele>507.78</ele>
   </trkpt>
   <trkpt lat="-37.85282" lon="145.3796">
    <ele>510.0800000000001</ele>
   </trkpt>
   <trkpt lat="-37.85293" lon="145.37962000000002">
    <ele>510.9600000000001</ele>
   </trkpt>
   <trkpt lat="-37.85307" lon="145.37959">
    <ele>511.37</ele>
   </trkpt>
   <trkpt lat="-37.853080000000006" lon="145.37959">
    <ele>511.37</ele>
   </trkpt>
   <trkpt lat="-37.85336" lon="145.37931">
    <ele>511.9600000000001</ele>
   </trkpt>
   <trkpt lat="-37.85351" lon="145.37909000000002">
    <ele>514.84</ele>
   </trkpt>
   <trkpt lat="-37.85387" lon="145.37866000000002">
    <ele>521.7900000000001</ele>
   </trkpt>
   <trkpt lat="-37.85427" lon="145.37793000000002">
    <ele>533.94</ele>
   </trkpt>
   <trkpt lat="-37.85468" lon="145.37728">
    <ele>545.1100000000001</ele>
   </trkpt>
   <trkpt lat="-37.854960000000005" lon="145.37689">
    <ele>551.6</ele>
   </trkpt>
   <trkpt lat="-37.85501" lon="145.37684000000002">
    <ele>551.6</ele>
   </trkpt>
   <trkpt lat="-37.85533" lon="145.37614000000002">
    <ele>563.5300000000001</ele>
   </trkpt>
   <trkpt lat="-37.85571" lon="145.37552000000002">
    <ele>569.4800000000001</ele>
   </trkpt>
   <trkpt lat="-37.85604" lon="145.37508000000003">
    <ele>572.22</ele>
   </trkpt>
   <trkpt lat="-37.85622" lon="145.37490000000003">
    <ele>574.21</ele>
   </trkpt>
   <trkpt lat="-37.856260000000006" lon="145.37480000000002">
    <ele>573.6600000000001</ele>
   </trkpt>
   <trkpt lat="-37.85568" lon="145.3742">
    <ele>577.7800000000001</ele>
   </trkpt>
   <trkpt lat="-37.85535" lon="145.37377">
    <ele>577.19</ele>
   </trkpt>
   <trkpt lat="-37.85531" lon="145.37379">
    <ele>577.28</ele>
   </trkpt>
   <trkpt lat="-37.85521" lon="145.37367">
    <ele>577.28</ele>
   </trkpt>
   <trkpt lat="-37.854845000635606" lon="145.37326999797466">
    <ele>577.3900000000001</ele>
   </trkpt>
   <trkpt lat="-37.85448" lon="145.37287">
    <ele>578.08</ele>
   </trkpt>
   <trkpt lat="-37.8543" lon="145.37263000000002">
    <ele>578.2</ele>
   </trkpt>
   <trkpt lat="-37.85414" lon="145.37239000000002">
    <ele>578.43</ele>
   </trkpt>
   <trkpt lat="-37.8541" lon="145.37224">
    <ele>578.44</ele>
   </trkpt>
   <trkpt lat="-37.85405" lon="145.37201000000002">
    <ele>578.32</ele>
   </trkpt>
   <trkpt lat="-37.85409500288599" lon="145.37118500035484">
    <ele>575.08</ele>
   </trkpt>
   <trkpt lat="-37.85414" lon="145.37036">
    <ele>572.57</ele>
   </trkpt>
   <trkpt lat="-37.85423" lon="145.36961000000002">
    <ele>569.37</ele>
   </trkpt>
   <trkpt lat="-37.85436" lon="145.36925000000002">
    <ele>569.3600000000001</ele>
   </trkpt>
   <trkpt lat="-37.854440000000004" lon="145.36914000000002">
    <ele>569.5100000000001</ele>
   </trkpt>
   <trkpt lat="-37.85412" lon="145.36883">
    <ele>574.21</ele>
   </trkpt>
   <trkpt lat="-37.853660000000005" lon="145.36857">
    <ele>576.22</ele>
   </trkpt>
   <trkpt lat="-37.85314" lon="145.36833000000001">
    <ele>574.72</ele>
   </trkpt>
   <trkpt lat="-37.85295" lon="145.36822">
    <ele>573.6600000000001</ele>
   </trkpt>
   <trkpt lat="-37.85264" lon="145.36819">
    <ele>570.67</ele>
   </trkpt>
   <trkpt lat="-37.85228" lon="145.36824000000001">
    <ele>567.49</ele>
   </trkpt>
   <trkpt lat="-37.85208" lon="145.36833000000001">
    <ele>565.33</ele>
   </trkpt>
   <trkpt lat="-37.851760000000006" lon="145.36859">
    <ele>562.08</ele>
   </trkpt>
   <trkpt lat="-37.85159" lon="145.36880000000002">
    <ele>560.97</ele>
   </trkpt>
   <trkpt lat="-37.85105" lon="145.36917000000003">
    <ele>559.2</ele>
   </trkpt>
   <trkpt lat="-37.85072" lon="145.36927">
    <ele>557.47</ele>
   </trkpt>
   <trkpt lat="-37.850370000000005" lon="145.36927">
    <ele>555.7500000000001</ele>
   </trkpt>
   <trkpt lat="-37.84973000374444" lon="145.36879998368812">
    <ele>546.3100000000001</ele>
   </trkpt>
   <trkpt lat="-37.849090005620795" lon="145.3683299755356">
    <ele>538.21</ele>
   </trkpt>
   <trkpt lat="-37.848450005629154" lon="145.3678599755421">
    <ele>533.6899999999999</ele>
   </trkpt>
   <trkpt lat="-37.847810003769574" lon="145.3673899837073">
    <ele>534.09</ele>
   </trkpt>
   <trkpt lat="-37.847170000000006" lon="145.36692000000002">
    <ele>533.0</ele>
   </trkpt>
   <trkpt lat="-37.847040002436835" lon="145.36615999862937">
    <ele>526.85</ele>
   </trkpt>
   <trkpt lat="-37.84691" lon="145.36540000000002">
    <ele>515.0</ele>
   </trkpt>
   <trkpt lat="-37.84689" lon="145.36482">
    <ele>508.59</ele>
   </trkpt>
   <trkpt lat="-37.84679000159328" lon="145.3642049991299">
    <ele>498.24</ele>
   </trkpt>
   <trkpt lat="-37.84669" lon="145.36359000000002">
    <ele>488.02000000000004</ele>
   </trkpt>
   <trkpt lat="-37.84655000177262" lon="145.36294499883846">
    <ele>489.03000000000003</ele>
   </trkpt>
   <trkpt lat="-37.846410000000006" lon="145.3623">
    <ele>503.04</ele>
   </trkpt>
   <trkpt lat="-37.84630000000001" lon="145.3617">
    <ele>506.6700000000001</ele>
   </trkpt>
   <trkpt lat="-37.8462" lon="145.36065000000002">
    <ele>508.86000000000007</ele>
   </trkpt>
   <trkpt lat="-37.84655" lon="145.36057000000002">
    <ele>508.51</ele>
   </trkpt>
   <trkpt lat="-37.84682" lon="145.36054000000001">
    <ele>508.29</ele>
   </trkpt>
   <trkpt lat="-37.847060000000006" lon="145.36058">
    <ele>507.88</ele>
   </trkpt>
  </trkseg>
 </trk>
</gpx>
