<?xml version="1.0" encoding="UTF-8"?>
<gpx creator="StravaGPX" version="1.1" xmlns="http://www.topografix.com/GPX/1/1" xmlns:xsi="http://www.w3.org/2001/XMLSchema-instance" xsi:schemaLocation="http://www.topografix.com/GPX/1/1 http://www.topografix.com/GPX/1/1/gpx.xsd">
 <metadata>
  <name>DTR Thursday 9 December</name>
  <author>
   <name>john csorgo</name>
  </author>
  <copyright author="OpenStreetMap contributors">
   <year>2020</year>
   <license>https://www.openstreetmap.org/copyright</license>
  </copyright>
 </metadata>
 <trk>
  <name>DTR Thursday 9 December</name>
  <link href=""/>
  <type>running</type>
  <trkseg>
   <trkpt lat="-37.87261" lon="145.31905">
    <ele>510.06000000000006</ele>
   </trkpt>
   <trkpt lat="-37.87247" lon="145.31936000000002">
    <ele>512.6700000000001</ele>
   </trkpt>
   <trkpt lat="-37.872440000000005" lon="145.31953000000001">
    <ele>513.35</ele>
   </trkpt>
   <trkpt lat="-37.872600000000006" lon="145.31964000000002">
    <ele>513.8900000000001</ele>
   </trkpt>
   <trkpt lat="-37.87275" lon="145.31964000000002">
    <ele>513.7400000000001</ele>
   </trkpt>
   <trkpt lat="-37.87272" lon="145.31971000000001">
    <ele>513.71</ele>
   </trkpt>
   <trkpt lat="-37.87268" lon="145.32001000000002">
    <ele>511.9600000000001</ele>
   </trkpt>
   <trkpt lat="-37.87261" lon="145.32053000000002">
    <ele>503.26000000000005</ele>
   </trkpt>
   <trkpt lat="-37.87272" lon="145.32123">
    <ele>492.61</ele>
   </trkpt>
   <trkpt lat="-37.87272" lon="145.32133000000002">
    <ele>492.61</ele>
   </trkpt>
   <trkpt lat="-37.872580000000006" lon="145.32192">
    <ele>481.38</ele>
   </trkpt>
   <trkpt lat="-37.872580000000006" lon="145.3219">
    <ele>481.53000000000003</ele>
   </trkpt>
   <trkpt lat="-37.87256" lon="145.32222000000002">
    <ele>477.15000000000003</ele>
   </trkpt>
   <trkpt lat="-37.87263" lon="145.32314000000002">
    <ele>472.35</ele>
   </trkpt>
   <trkpt lat="-37.87272" lon="145.32376000000002">
    <ele>477.76</ele>
   </trkpt>
   <trkpt lat="-37.87268" lon="145.32410000000002">
    <ele>481.74000000000007</ele>
   </trkpt>
   <trkpt lat="-37.87245" lon="145.32441">
    <ele>483.2</ele>
   </trkpt>
   <trkpt lat="-37.87228" lon="145.32458000000003">
    <ele>482.91</ele>
   </trkpt>
   <trkpt lat="-37.8723" lon="145.32456000000002">
    <ele>482.94</ele>
   </trkpt>
   <trkpt lat="-37.87198" lon="145.32489">
    <ele>481.92</ele>
   </trkpt>
   <trkpt lat="-37.871750000000006" lon="145.32545000000002">
    <ele>481.25000000000006</ele>
   </trkpt>
   <trkpt lat="-37.87142" lon="145.32584">
    <ele>470.33000000000004</ele>
   </trkpt>
   <trkpt lat="-37.87124" lon="145.32594">
    <ele>470.33000000000004</ele>
   </trkpt>
   <trkpt lat="-37.871120000000005" lon="145.32594">
    <ele>470.33000000000004</ele>
   </trkpt>
   <trkpt lat="-37.87113" lon="145.32594">
    <ele>470.33000000000004</ele>
   </trkpt>
   <trkpt lat="-37.87104" lon="145.32594">
    <ele>470.33000000000004</ele>
   </trkpt>
   <trkpt lat="-37.87093" lon="145.32597">
    <ele>470.33000000000004</ele>
   </trkpt>
   <trkpt lat="-37.87082" lon="145.32609000000002">
    <ele>470.33000000000004</ele>
   </trkpt>
   <trkpt lat="-37.870720000000006" lon="145.32623">
    <ele>470.33000000000004</ele>
   </trkpt>
   <trkpt lat="-37.87053" lon="145.32625000000002">
    <ele>470.33000000000004</ele>
   </trkpt>
   <trkpt lat="-37.87024" lon="145.32659">
    <ele>446.81000000000006</ele>
   </trkpt>
   <trkpt lat="-37.87006" lon="145.32671000000002">
    <ele>446.81000000000006</ele>
   </trkpt>
   <trkpt lat="-37.87003" lon="145.32679000000002">
    <ele>446.81000000000006</ele>
   </trkpt>
   <trkpt lat="-37.870020000000004" lon="145.32702">
    <ele>446.81000000000006</ele>
   </trkpt>
   <trkpt lat="-37.870020000000004" lon="145.32701">
    <ele>446.81000000000006</ele>
   </trkpt>
   <trkpt lat="-37.87003" lon="145.32713">
    <ele>446.81000000000006</ele>
   </trkpt>
   <trkpt lat="-37.87008" lon="145.32731">
    <ele>446.81000000000006</ele>
   </trkpt>
   <trkpt lat="-37.87024" lon="145.32759000000001">
    <ele>446.81000000000006</ele>
   </trkpt>
   <trkpt lat="-37.87035" lon="145.32771000000002">
    <ele>446.81000000000006</ele>
   </trkpt>
   <trkpt lat="-37.87062" lon="145.32791">
    <ele>446.81000000000006</ele>
   </trkpt>
   <trkpt lat="-37.871" lon="145.32801">
    <ele>446.81000000000006</ele>
   </trkpt>
   <trkpt lat="-37.87131" lon="145.32817">
    <ele>394.90000000000003</ele>
   </trkpt>
   <trkpt lat="-37.8714" lon="145.32824000000002">
    <ele>394.90000000000003</ele>
   </trkpt>
   <trkpt lat="-37.87158" lon="145.32842000000002">
    <ele>394.90000000000003</ele>
   </trkpt>
   <trkpt lat="-37.87169" lon="145.32861000000003">
    <ele>394.90000000000003</ele>
   </trkpt>
   <trkpt lat="-37.87171" lon="145.32889">
    <ele>394.90000000000003</ele>
   </trkpt>
   <trkpt lat="-37.8718" lon="145.32905000000002">
    <ele>394.90000000000003</ele>
   </trkpt>
   <trkpt lat="-37.87196" lon="145.32921000000002">
    <ele>394.90000000000003</ele>
   </trkpt>
   <trkpt lat="-37.87216" lon="145.32951">
    <ele>394.90000000000003</ele>
   </trkpt>
   <trkpt lat="-37.87223" lon="145.32968000000002">
    <ele>394.90000000000003</ele>
   </trkpt>
   <trkpt lat="-37.87225" lon="145.32982">
    <ele>394.90000000000003</ele>
   </trkpt>
   <trkpt lat="-37.87225" lon="145.32981">
    <ele>394.90000000000003</ele>
   </trkpt>
   <trkpt lat="-37.87227" lon="145.33004000000003">
    <ele>392.14000000000004</ele>
   </trkpt>
   <trkpt lat="-37.87223" lon="145.33017">
    <ele>390.67</ele>
   </trkpt>
   <trkpt lat="-37.87219" lon="145.33061">
    <ele>386.61</ele>
   </trkpt>
   <trkpt lat="-37.87225" lon="145.33113">
    <ele>384.8</ele>
   </trkpt>
   <trkpt lat="-37.87236" lon="145.33138000000002">
    <ele>384.24</ele>
   </trkpt>
   <trkpt lat="-37.87263" lon="145.33171000000002">
    <ele>382.66</ele>
   </trkpt>
   <trkpt lat="-37.87279" lon="145.33183000000002">
    <ele>381.3</ele>
   </trkpt>
   <trkpt lat="-37.87297" lon="145.33206">
    <ele>379.24</ele>
   </trkpt>
   <trkpt lat="-37.87301" lon="145.33218000000002">
    <ele>378.63</ele>
   </trkpt>
   <trkpt lat="-37.87301" lon="145.33226000000002">
    <ele>378.55000000000007</ele>
   </trkpt>
   <trkpt lat="-37.872890000000005" lon="145.3325">
    <ele>378.29</ele>
   </trkpt>
   <trkpt lat="-37.87268" lon="145.33283">
    <ele>376.81</ele>
   </trkpt>
   <trkpt lat="-37.87238" lon="145.33305000000001">
    <ele>374.79</ele>
   </trkpt>
   <trkpt lat="-37.87207" lon="145.33307000000002">
    <ele>370.81</ele>
   </trkpt>
   <trkpt lat="-37.87167" lon="145.33290000000002">
    <ele>364.93</ele>
   </trkpt>
   <trkpt lat="-37.871280000000006" lon="145.33282">
    <ele>362.1</ele>
   </trkpt>
   <trkpt lat="-37.87113" lon="145.33284">
    <ele>361.71000000000004</ele>
   </trkpt>
   <trkpt lat="-37.87102" lon="145.33292">
    <ele>361.61</ele>
   </trkpt>
   <trkpt lat="-37.87091" lon="145.33315000000002">
    <ele>361.37</ele>
   </trkpt>
   <trkpt lat="-37.87082" lon="145.33339">
    <ele>359.91</ele>
   </trkpt>
   <trkpt lat="-37.87075" lon="145.33419">
    <ele>355.01000000000005</ele>
   </trkpt>
   <trkpt lat="-37.87079000000001" lon="145.33439">
    <ele>354.12000000000006</ele>
   </trkpt>
   <trkpt lat="-37.870810000000006" lon="145.3347">
    <ele>352.59000000000003</ele>
   </trkpt>
   <trkpt lat="-37.87075" lon="145.33478000000002">
    <ele>351.46999999999997</ele>
   </trkpt>
   <trkpt lat="-37.87066" lon="145.33478000000002">
    <ele>351.46999999999997</ele>
   </trkpt>
   <trkpt lat="-37.870450000000005" lon="145.33465">
    <ele>349.7</ele>
   </trkpt>
   <trkpt lat="-37.87055" lon="145.33518">
    <ele>359.19</ele>
   </trkpt>
   <trkpt lat="-37.87035" lon="145.3356">
    <ele>372.81</ele>
   </trkpt>
   <trkpt lat="-37.8701" lon="145.33595000000003">
    <ele>380.02000000000004</ele>
   </trkpt>
   <trkpt lat="-37.87019" lon="145.33630000000002">
    <ele>388.15000000000003</ele>
   </trkpt>
   <trkpt lat="-37.87019" lon="145.3368">
    <ele>402.76</ele>
   </trkpt>
   <trkpt lat="-37.87024" lon="145.33688">
    <ele>403.66</ele>
   </trkpt>
   <trkpt lat="-37.87048" lon="145.33697">
    <ele>407.85</ele>
   </trkpt>
   <trkpt lat="-37.87077" lon="145.33726000000001">
    <ele>413.75</ele>
   </trkpt>
   <trkpt lat="-37.87091" lon="145.33758">
    <ele>416.81</ele>
   </trkpt>
   <trkpt lat="-37.871100000000006" lon="145.33779">
    <ele>423.29</ele>
   </trkpt>
   <trkpt lat="-37.87115" lon="145.33794">
    <ele>425.87</ele>
   </trkpt>
   <trkpt lat="-37.87118" lon="145.33812">
    <ele>429.96</ele>
   </trkpt>
   <trkpt lat="-37.87113" lon="145.33831">
    <ele>434.99</ele>
   </trkpt>
   <trkpt lat="-37.871" lon="145.33853000000002">
    <ele>441.07</ele>
   </trkpt>
   <trkpt lat="-37.87091" lon="145.33863000000002">
    <ele>442.51</ele>
   </trkpt>
   <trkpt lat="-37.87079000000001" lon="145.33871000000002">
    <ele>448.48</ele>
   </trkpt>
   <trkpt lat="-37.8708" lon="145.33870000000002">
    <ele>448.48</ele>
   </trkpt>
   <trkpt lat="-37.87075" lon="145.33874">
    <ele>450.04</ele>
   </trkpt>
   <trkpt lat="-37.87059" lon="145.33873">
    <ele>452.34000000000003</ele>
   </trkpt>
   <trkpt lat="-37.87046" lon="145.33875">
    <ele>455.62</ele>
   </trkpt>
   <trkpt lat="-37.87035" lon="145.33879000000002">
    <ele>455.62</ele>
   </trkpt>
   <trkpt lat="-37.87026" lon="145.33888000000002">
    <ele>459.20000000000005</ele>
   </trkpt>
   <trkpt lat="-37.87037" lon="145.33894">
    <ele>460.89</ele>
   </trkpt>
   <trkpt lat="-37.87059" lon="145.33917000000002">
    <ele>461.94</ele>
   </trkpt>
   <trkpt lat="-37.87082" lon="145.33948">
    <ele>463.70000000000005</ele>
   </trkpt>
   <trkpt lat="-37.87106" lon="145.33963">
    <ele>466.02000000000004</ele>
   </trkpt>
   <trkpt lat="-37.8712" lon="145.33964">
    <ele>466.79</ele>
   </trkpt>
   <trkpt lat="-37.871320000000004" lon="145.33969000000002">
    <ele>468.46000000000004</ele>
   </trkpt>
   <trkpt lat="-37.87185" lon="145.33998000000003">
    <ele>473.77000000000004</ele>
   </trkpt>
   <trkpt lat="-37.87214" lon="145.34024000000002">
    <ele>475.85</ele>
   </trkpt>
   <trkpt lat="-37.87263" lon="145.34076000000002">
    <ele>480.18000000000006</ele>
   </trkpt>
   <trkpt lat="-37.87272" lon="145.34083">
    <ele>482.43</ele>
   </trkpt>
   <trkpt lat="-37.87288" lon="145.3409">
    <ele>482.43</ele>
   </trkpt>
   <trkpt lat="-37.87315" lon="145.34105000000002">
    <ele>484.58000000000004</ele>
   </trkpt>
   <trkpt lat="-37.87375" lon="145.34154">
    <ele>490.73</ele>
   </trkpt>
   <trkpt lat="-37.87406" lon="145.34185000000002">
    <ele>492.84000000000003</ele>
   </trkpt>
   <trkpt lat="-37.8744" lon="145.34218">
    <ele>495.43</ele>
   </trkpt>
   <trkpt lat="-37.87478" lon="145.3426">
    <ele>499.28000000000003</ele>
   </trkpt>
   <trkpt lat="-37.87511000000001" lon="145.34298">
    <ele>500.05</ele>
   </trkpt>
   <trkpt lat="-37.87523" lon="145.34291000000002">
    <ele>500.21000000000004</ele>
   </trkpt>
   <trkpt lat="-37.87541" lon="145.34295">
    <ele>501.12</ele>
   </trkpt>
   <trkpt lat="-37.875510000000006" lon="145.34301000000002">
    <ele>501.73</ele>
   </trkpt>
   <trkpt lat="-37.87574" lon="145.34297">
    <ele>517.42</ele>
   </trkpt>
   <trkpt lat="-37.87585" lon="145.34284000000002">
    <ele>517.4000000000001</ele>
   </trkpt>
   <trkpt lat="-37.87592" lon="145.34281000000001">
    <ele>517.42</ele>
   </trkpt>
   <trkpt lat="-37.8759" lon="145.34281000000001">
    <ele>517.42</ele>
   </trkpt>
   <trkpt lat="-37.87599" lon="145.34278">
    <ele>517.49</ele>
   </trkpt>
   <trkpt lat="-37.8763" lon="145.34273000000002">
    <ele>517.6700000000001</ele>
   </trkpt>
   <trkpt lat="-37.87688" lon="145.3428">
    <ele>517.59</ele>
   </trkpt>
   <trkpt lat="-37.87722" lon="145.34272">
    <ele>519.26</ele>
   </trkpt>
   <trkpt lat="-37.87778" lon="145.34271">
    <ele>520.0</ele>
   </trkpt>
   <trkpt lat="-37.87791" lon="145.34269">
    <ele>520.0400000000001</ele>
   </trkpt>
   <trkpt lat="-37.87807" lon="145.34255000000002">
    <ele>521.44</ele>
   </trkpt>
   <trkpt lat="-37.87832" lon="145.34217">
    <ele>523.7900000000001</ele>
   </trkpt>
   <trkpt lat="-37.87847" lon="145.34209">
    <ele>522.4300000000001</ele>
   </trkpt>
   <trkpt lat="-37.87856" lon="145.34212000000002">
    <ele>521.07</ele>
   </trkpt>
   <trkpt lat="-37.8787" lon="145.34225">
    <ele>519.44</ele>
   </trkpt>
   <trkpt lat="-37.87874" lon="145.34236">
    <ele>515.8900000000001</ele>
   </trkpt>
   <trkpt lat="-37.878690000000006" lon="145.34248000000002">
    <ele>514.21</ele>
   </trkpt>
   <trkpt lat="-37.87865" lon="145.34264000000002">
    <ele>512.7</ele>
   </trkpt>
   <trkpt lat="-37.87865" lon="145.34273000000002">
    <ele>511.97999999999996</ele>
   </trkpt>
   <trkpt lat="-37.87877" lon="145.34292000000002">
    <ele>512.98</ele>
   </trkpt>
   <trkpt lat="-37.87892" lon="145.34343">
    <ele>515.5000000000001</ele>
   </trkpt>
   <trkpt lat="-37.87903" lon="145.34388">
    <ele>516.22</ele>
   </trkpt>
   <trkpt lat="-37.87919" lon="145.34452000000002">
    <ele>515.78</ele>
   </trkpt>
   <trkpt lat="-37.87944" lon="145.34486">
    <ele>518.27</ele>
   </trkpt>
   <trkpt lat="-37.87973" lon="145.34534000000002">
    <ele>517.34</ele>
   </trkpt>
   <trkpt lat="-37.8802" lon="145.34602">
    <ele>514.5200000000001</ele>
   </trkpt>
   <trkpt lat="-37.88042" lon="145.34634">
    <ele>512.66</ele>
   </trkpt>
   <trkpt lat="-37.88067" lon="145.34663">
    <ele>511.86000000000007</ele>
   </trkpt>
   <trkpt lat="-37.880860000000006" lon="145.34682">
    <ele>511.50000000000006</ele>
   </trkpt>
   <trkpt lat="-37.88105" lon="145.34695000000002">
    <ele>510.94000000000005</ele>
   </trkpt>
   <trkpt lat="-37.88154" lon="145.34723000000002">
    <ele>509.33000000000004</ele>
   </trkpt>
   <trkpt lat="-37.88167" lon="145.34744">
    <ele>508.06000000000006</ele>
   </trkpt>
   <trkpt lat="-37.88201" lon="145.34819000000002">
    <ele>503.4700000000001</ele>
   </trkpt>
   <trkpt lat="-37.88226" lon="145.34839000000002">
    <ele>502.50000000000006</ele>
   </trkpt>
   <trkpt lat="-37.88255" lon="145.34856000000002">
    <ele>502.13000000000005</ele>
   </trkpt>
   <trkpt lat="-37.88302" lon="145.3487">
    <ele>502.6400000000001</ele>
   </trkpt>
   <trkpt lat="-37.88311" lon="145.34876">
    <ele>502.68</ele>
   </trkpt>
   <trkpt lat="-37.8836" lon="145.34926000000002">
    <ele>502.41</ele>
   </trkpt>
   <trkpt lat="-37.88405" lon="145.34945000000002">
    <ele>502.31</ele>
   </trkpt>
   <trkpt lat="-37.88436" lon="145.34969">
    <ele>501.9100000000001</ele>
   </trkpt>
   <trkpt lat="-37.88449" lon="145.34991000000002">
    <ele>501.19</ele>
   </trkpt>
   <trkpt lat="-37.88449" lon="145.34990000000002">
    <ele>501.19</ele>
   </trkpt>
   <trkpt lat="-37.88456" lon="145.35004">
    <ele>500.53000000000003</ele>
   </trkpt>
   <trkpt lat="-37.88461" lon="145.35017000000002">
    <ele>499.88000000000005</ele>
   </trkpt>
   <trkpt lat="-37.884640000000005" lon="145.35035000000002">
    <ele>498.40000000000003</ele>
   </trkpt>
   <trkpt lat="-37.88461" lon="145.35046">
    <ele>498.57</ele>
   </trkpt>
   <trkpt lat="-37.88461" lon="145.35066">
    <ele>498.61000000000007</ele>
   </trkpt>
   <trkpt lat="-37.884730000000005" lon="145.35098000000002">
    <ele>493.34000000000003</ele>
   </trkpt>
   <trkpt lat="-37.88456" lon="145.35107000000002">
    <ele>493.34000000000003</ele>
   </trkpt>
   <trkpt lat="-37.88443" lon="145.35108000000002">
    <ele>478.64000000000004</ele>
   </trkpt>
   <trkpt lat="-37.88418" lon="145.35115000000002">
    <ele>478.64000000000004</ele>
   </trkpt>
   <trkpt lat="-37.88401" lon="145.35123000000002">
    <ele>472.52000000000004</ele>
   </trkpt>
   <trkpt lat="-37.88402" lon="145.35122">
    <ele>472.76</ele>
   </trkpt>
   <trkpt lat="-37.88385" lon="145.3513">
    <ele>468.27</ele>
   </trkpt>
   <trkpt lat="-37.88369" lon="145.35151000000002">
    <ele>470.93</ele>
   </trkpt>
   <trkpt lat="-37.88353" lon="145.35180000000003">
    <ele>472.97</ele>
   </trkpt>
   <trkpt lat="-37.88342" lon="145.35195000000002">
    <ele>474.39000000000004</ele>
   </trkpt>
   <trkpt lat="-37.88311" lon="145.35219">
    <ele>476.08000000000004</ele>
   </trkpt>
   <trkpt lat="-37.883" lon="145.35234">
    <ele>477.28000000000003</ele>
   </trkpt>
   <trkpt lat="-37.88266" lon="145.3531">
    <ele>482.01000000000005</ele>
   </trkpt>
   <trkpt lat="-37.88266" lon="145.35319">
    <ele>484.06000000000006</ele>
   </trkpt>
   <trkpt lat="-37.88282" lon="145.35356000000002">
    <ele>487.7</ele>
   </trkpt>
   <trkpt lat="-37.88282" lon="145.3536">
    <ele>487.7</ele>
   </trkpt>
   <trkpt lat="-37.88291" lon="145.35394000000002">
    <ele>488.83000000000004</ele>
   </trkpt>
   <trkpt lat="-37.88293" lon="145.35439000000002">
    <ele>492.31</ele>
   </trkpt>
   <trkpt lat="-37.88315" lon="145.35522">
    <ele>499.53000000000003</ele>
   </trkpt>
   <trkpt lat="-37.88318" lon="145.3554">
    <ele>501.70000000000005</ele>
   </trkpt>
   <trkpt lat="-37.88302" lon="145.35574000000003">
    <ele>502.8</ele>
   </trkpt>
   <trkpt lat="-37.88288" lon="145.35593">
    <ele>503.46000000000004</ele>
   </trkpt>
   <trkpt lat="-37.88266" lon="145.35619">
    <ele>503.24</ele>
   </trkpt>
   <trkpt lat="-37.88244" lon="145.35639">
    <ele>502.1500000000001</ele>
   </trkpt>
   <trkpt lat="-37.88226" lon="145.35667">
    <ele>500.86000000000007</ele>
   </trkpt>
   <trkpt lat="-37.88212" lon="145.35702">
    <ele>500.44</ele>
   </trkpt>
   <trkpt lat="-37.88183" lon="145.35763">
    <ele>499.66</ele>
   </trkpt>
   <trkpt lat="-37.88176" lon="145.35773">
    <ele>498.42</ele>
   </trkpt>
   <trkpt lat="-37.88177" lon="145.35773">
    <ele>498.48</ele>
   </trkpt>
   <trkpt lat="-37.88138" lon="145.35829">
    <ele>492.64</ele>
   </trkpt>
   <trkpt lat="-37.88123" lon="145.35861">
    <ele>490.42</ele>
   </trkpt>
   <trkpt lat="-37.881190000000004" lon="145.35876000000002">
    <ele>490.42</ele>
   </trkpt>
   <trkpt lat="-37.88103" lon="145.35904000000002">
    <ele>488.79</ele>
   </trkpt>
   <trkpt lat="-37.88094" lon="145.35907">
    <ele>488.23</ele>
   </trkpt>
   <trkpt lat="-37.8808" lon="145.35903000000002">
    <ele>487.03000000000003</ele>
   </trkpt>
   <trkpt lat="-37.88051" lon="145.35909">
    <ele>485.34000000000003</ele>
   </trkpt>
   <trkpt lat="-37.88033" lon="145.3591">
    <ele>484.69000000000005</ele>
   </trkpt>
   <trkpt lat="-37.8802" lon="145.35908">
    <ele>484.12000000000006</ele>
   </trkpt>
   <trkpt lat="-37.88006" lon="145.35903000000002">
    <ele>483.06000000000006</ele>
   </trkpt>
   <trkpt lat="-37.87991" lon="145.35891">
    <ele>482.05</ele>
   </trkpt>
   <trkpt lat="-37.87975" lon="145.35876000000002">
    <ele>480.29</ele>
   </trkpt>
   <trkpt lat="-37.87952000000001" lon="145.35863">
    <ele>479.27000000000004</ele>
   </trkpt>
   <trkpt lat="-37.87951" lon="145.35862">
    <ele>479.27000000000004</ele>
   </trkpt>
   <trkpt lat="-37.87919" lon="145.35846">
    <ele>479.26</ele>
   </trkpt>
   <trkpt lat="-37.87876" lon="145.35842000000002">
    <ele>478.94</ele>
   </trkpt>
   <trkpt lat="-37.87856" lon="145.35833000000002">
    <ele>477.90000000000003</ele>
   </trkpt>
   <trkpt lat="-37.87834" lon="145.35811">
    <ele>475.94</ele>
   </trkpt>
   <trkpt lat="-37.87818" lon="145.35801">
    <ele>474.40000000000003</ele>
   </trkpt>
   <trkpt lat="-37.87798" lon="145.35797000000002">
    <ele>472.53000000000003</ele>
   </trkpt>
   <trkpt lat="-37.8778" lon="145.35791">
    <ele>470.14000000000004</ele>
   </trkpt>
   <trkpt lat="-37.8776" lon="145.35774">
    <ele>469.32</ele>
   </trkpt>
   <trkpt lat="-37.87733" lon="145.35716000000002">
    <ele>463.84000000000003</ele>
   </trkpt>
   <trkpt lat="-37.877100000000006" lon="145.35656">
    <ele>459.1000000000001</ele>
   </trkpt>
   <trkpt lat="-37.87693" lon="145.35664">
    <ele>457.44</ele>
   </trkpt>
   <trkpt lat="-37.87675" lon="145.35619">
    <ele>455.93000000000006</ele>
   </trkpt>
   <trkpt lat="-37.87635" lon="145.35549">
    <ele>457.08000000000004</ele>
   </trkpt>
   <trkpt lat="-37.876160000000006" lon="145.3553">
    <ele>461.51000000000005</ele>
   </trkpt>
   <trkpt lat="-37.8761" lon="145.35524">
    <ele>462.9800000000001</ele>
   </trkpt>
   <trkpt lat="-37.87635" lon="145.35549">
    <ele>457.08000000000004</ele>
   </trkpt>
   <trkpt lat="-37.8763" lon="145.35531">
    <ele>457.97</ele>
   </trkpt>
   <trkpt lat="-37.876290000000004" lon="145.35504">
    <ele>461.20000000000005</ele>
   </trkpt>
   <trkpt lat="-37.876180000000005" lon="145.35491000000002">
    <ele>464.90000000000003</ele>
   </trkpt>
   <trkpt lat="-37.87608" lon="145.35447000000002">
    <ele>468.90000000000003</ele>
   </trkpt>
   <trkpt lat="-37.87601" lon="145.35412000000002">
    <ele>472.03000000000003</ele>
   </trkpt>
   <trkpt lat="-37.87621" lon="145.35324">
    <ele>480.97</ele>
   </trkpt>
   <trkpt lat="-37.87635" lon="145.35295000000002">
    <ele>483.62000000000006</ele>
   </trkpt>
   <trkpt lat="-37.87637" lon="145.35271">
    <ele>486.77000000000004</ele>
   </trkpt>
   <trkpt lat="-37.87621" lon="145.35214000000002">
    <ele>494.58</ele>
   </trkpt>
   <trkpt lat="-37.87621" lon="145.35187000000002">
    <ele>498.42</ele>
   </trkpt>
   <trkpt lat="-37.87617" lon="145.35166">
    <ele>499.85</ele>
   </trkpt>
   <trkpt lat="-37.876090000000005" lon="145.35155">
    <ele>501.84000000000003</ele>
   </trkpt>
   <trkpt lat="-37.8761" lon="145.35155">
    <ele>501.84000000000003</ele>
   </trkpt>
   <trkpt lat="-37.87601" lon="145.35145">
    <ele>503.26000000000005</ele>
   </trkpt>
   <trkpt lat="-37.87592" lon="145.35115000000002">
    <ele>507.89000000000004</ele>
   </trkpt>
   <trkpt lat="-37.87576" lon="145.35083">
    <ele>512.8000000000001</ele>
   </trkpt>
   <trkpt lat="-37.8755" lon="145.3505">
    <ele>517.39</ele>
   </trkpt>
   <trkpt lat="-37.87518" lon="145.35024">
    <ele>519.25</ele>
   </trkpt>
   <trkpt lat="-37.8748" lon="145.34975">
    <ele>522.9</ele>
   </trkpt>
   <trkpt lat="-37.87438" lon="145.34938000000002">
    <ele>522.84</ele>
   </trkpt>
   <trkpt lat="-37.87413" lon="145.34910000000002">
    <ele>523.4100000000001</ele>
   </trkpt>
   <trkpt lat="-37.87407" lon="145.34900000000002">
    <ele>523.7400000000001</ele>
   </trkpt>
   <trkpt lat="-37.87406" lon="145.34898">
    <ele>523.7400000000001</ele>
   </trkpt>
   <trkpt lat="-37.87397" lon="145.34883000000002">
    <ele>524.3800000000001</ele>
   </trkpt>
   <trkpt lat="-37.87397" lon="145.34874000000002">
    <ele>524.3800000000001</ele>
   </trkpt>
   <trkpt lat="-37.87429500230742" lon="145.34800000328377">
    <ele>526.2800000000001</ele>
   </trkpt>
   <trkpt lat="-37.87462" lon="145.34726">
    <ele>525.1600000000001</ele>
   </trkpt>
   <trkpt lat="-37.87462" lon="145.34694000000002">
    <ele>525.3100000000001</ele>
   </trkpt>
   <trkpt lat="-37.874370000000006" lon="145.34631000000002">
    <ele>527.86</ele>
   </trkpt>
   <trkpt lat="-37.87438" lon="145.34633000000002">
    <ele>527.86</ele>
   </trkpt>
   <trkpt lat="-37.87415" lon="145.34579000000002">
    <ele>524.2800000000001</ele>
   </trkpt>
   <trkpt lat="-37.87413" lon="145.34576">
    <ele>524.2800000000001</ele>
   </trkpt>
   <trkpt lat="-37.87361666905017" lon="145.3452299926218">
    <ele>522.37</ele>
   </trkpt>
   <trkpt lat="-37.873103335724444" lon="145.34469999262976">
    <ele>518.8900000000001</ele>
   </trkpt>
   <trkpt lat="-37.87259" lon="145.34417000000002">
    <ele>514.75</ele>
   </trkpt>
   <trkpt lat="-37.872175000550136" lon="145.34379999789013">
    <ele>513.42</ele>
   </trkpt>
   <trkpt lat="-37.87176" lon="145.34343">
    <ele>512.02</ele>
   </trkpt>
   <trkpt lat="-37.87176" lon="145.34341">
    <ele>512.05</ele>
   </trkpt>
   <trkpt lat="-37.87211500197111" lon="145.3427400030912">
    <ele>511.97999999999996</ele>
   </trkpt>
   <trkpt lat="-37.87247" lon="145.34207">
    <ele>506.53999999999996</ele>
   </trkpt>
   <trkpt lat="-37.87272" lon="145.34221000000002">
    <ele>505.3500000000001</ele>
   </trkpt>
   <trkpt lat="-37.87288" lon="145.34221000000002">
    <ele>504.21999999999997</ele>
   </trkpt>
   <trkpt lat="-37.873360000000005" lon="145.34208">
    <ele>500.0300000000001</ele>
   </trkpt>
   <trkpt lat="-37.873380000000004" lon="145.34208">
    <ele>499.94000000000005</ele>
   </trkpt>
   <trkpt lat="-37.87375" lon="145.34193000000002">
    <ele>495.05</ele>
   </trkpt>
   <trkpt lat="-37.87406" lon="145.34185000000002">
    <ele>492.84000000000003</ele>
   </trkpt>
   <trkpt lat="-37.87375" lon="145.34154">
    <ele>490.73</ele>
   </trkpt>
   <trkpt lat="-37.87315" lon="145.34105000000002">
    <ele>484.58000000000004</ele>
   </trkpt>
   <trkpt lat="-37.87288" lon="145.3409">
    <ele>482.43</ele>
   </trkpt>
   <trkpt lat="-37.87272" lon="145.34083">
    <ele>480.18000000000006</ele>
   </trkpt>
   <trkpt lat="-37.87263" lon="145.34076000000002">
    <ele>480.18000000000006</ele>
   </trkpt>
   <trkpt lat="-37.87214" lon="145.34024000000002">
    <ele>475.85</ele>
   </trkpt>
   <trkpt lat="-37.87185" lon="145.33998000000003">
    <ele>472.48</ele>
   </trkpt>
   <trkpt lat="-37.871320000000004" lon="145.33969000000002">
    <ele>468.46000000000004</ele>
   </trkpt>
   <trkpt lat="-37.8712" lon="145.33964">
    <ele>466.79</ele>
   </trkpt>
   <trkpt lat="-37.87106" lon="145.33963">
    <ele>466.02000000000004</ele>
   </trkpt>
   <trkpt lat="-37.87082" lon="145.33948">
    <ele>463.70000000000005</ele>
   </trkpt>
   <trkpt lat="-37.87059" lon="145.33917000000002">
    <ele>461.94</ele>
   </trkpt>
   <trkpt lat="-37.87037" lon="145.33894">
    <ele>459.20000000000005</ele>
   </trkpt>
   <trkpt lat="-37.87026" lon="145.33888000000002">
    <ele>459.20000000000005</ele>
   </trkpt>
   <trkpt lat="-37.87035" lon="145.33879000000002">
    <ele>455.62</ele>
   </trkpt>
   <trkpt lat="-37.87046" lon="145.33875">
    <ele>453.95</ele>
   </trkpt>
   <trkpt lat="-37.87059" lon="145.33873">
    <ele>452.34000000000003</ele>
   </trkpt>
   <trkpt lat="-37.87075" lon="145.33874">
    <ele>448.62</ele>
   </trkpt>
   <trkpt lat="-37.87078" lon="145.33871000000002">
    <ele>448.62</ele>
   </trkpt>
   <trkpt lat="-37.87088" lon="145.33873">
    <ele>448.13</ele>
   </trkpt>
   <trkpt lat="-37.871080000000006" lon="145.33880000000002">
    <ele>447.95</ele>
   </trkpt>
   <trkpt lat="-37.87115" lon="145.33883">
    <ele>448.14000000000004</ele>
   </trkpt>
   <trkpt lat="-37.87122" lon="145.33881000000002">
    <ele>448.29</ele>
   </trkpt>
   <trkpt lat="-37.87135" lon="145.33871000000002">
    <ele>448.09000000000003</ele>
   </trkpt>
   <trkpt lat="-37.87158" lon="145.33859">
    <ele>445.51</ele>
   </trkpt>
   <trkpt lat="-37.87194" lon="145.3386">
    <ele>443.8</ele>
   </trkpt>
   <trkpt lat="-37.87207" lon="145.33867">
    <ele>442.90000000000003</ele>
   </trkpt>
   <trkpt lat="-37.87229" lon="145.33889000000002">
    <ele>442.23</ele>
   </trkpt>
   <trkpt lat="-37.87245" lon="145.339">
    <ele>443.28000000000003</ele>
   </trkpt>
   <trkpt lat="-37.87261" lon="145.33905000000001">
    <ele>447.68</ele>
   </trkpt>
   <trkpt lat="-37.87279" lon="145.33904">
    <ele>454.04</ele>
   </trkpt>
   <trkpt lat="-37.87292" lon="145.33882">
    <ele>458.39</ele>
   </trkpt>
   <trkpt lat="-37.87297" lon="145.33866">
    <ele>459.85</ele>
   </trkpt>
   <trkpt lat="-37.87306" lon="145.33864">
    <ele>462.56</ele>
   </trkpt>
   <trkpt lat="-37.87321" lon="145.33846">
    <ele>466.58000000000004</ele>
   </trkpt>
   <trkpt lat="-37.87326" lon="145.33836000000002">
    <ele>468.74</ele>
   </trkpt>
   <trkpt lat="-37.87348" lon="145.33819000000003">
    <ele>475.63000000000005</ele>
   </trkpt>
   <trkpt lat="-37.873630000000006" lon="145.33789000000002">
    <ele>481.55</ele>
   </trkpt>
   <trkpt lat="-37.873720000000006" lon="145.33774000000003">
    <ele>485.86</ele>
   </trkpt>
   <trkpt lat="-37.87382" lon="145.33763000000002">
    <ele>487.97</ele>
   </trkpt>
   <trkpt lat="-37.87397" lon="145.33744000000002">
    <ele>492.56000000000006</ele>
   </trkpt>
   <trkpt lat="-37.874" lon="145.33733">
    <ele>493.65000000000003</ele>
   </trkpt>
   <trkpt lat="-37.874030000000005" lon="145.33723">
    <ele>494.07000000000005</ele>
   </trkpt>
   <trkpt lat="-37.874010000000006" lon="145.33712">
    <ele>493.89000000000004</ele>
   </trkpt>
   <trkpt lat="-37.87395" lon="145.33692000000002">
    <ele>490.46000000000004</ele>
   </trkpt>
   <trkpt lat="-37.87391" lon="145.33668">
    <ele>490.46000000000004</ele>
   </trkpt>
   <trkpt lat="-37.87393" lon="145.33620000000002">
    <ele>485.13000000000005</ele>
   </trkpt>
   <trkpt lat="-37.87406" lon="145.33561">
    <ele>480.44</ele>
   </trkpt>
   <trkpt lat="-37.87414000145162" lon="145.33503000041983">
    <ele>474.26</ele>
   </trkpt>
   <trkpt lat="-37.87422" lon="145.33445">
    <ele>469.95000000000005</ele>
   </trkpt>
   <trkpt lat="-37.87442500199419" lon="145.33376500187345">
    <ele>465.56</ele>
   </trkpt>
   <trkpt lat="-37.87463" lon="145.33308000000002">
    <ele>458.82000000000005</ele>
   </trkpt>
   <trkpt lat="-37.87471" lon="145.33291">
    <ele>457.04</ele>
   </trkpt>
   <trkpt lat="-37.874700000000004" lon="145.33292">
    <ele>456.96000000000004</ele>
   </trkpt>
   <trkpt lat="-37.87489" lon="145.33247">
    <ele>451.78000000000003</ele>
   </trkpt>
   <trkpt lat="-37.87534" lon="145.33156000000002">
    <ele>439.01</ele>
   </trkpt>
   <trkpt lat="-37.87543" lon="145.33131">
    <ele>437.00000000000006</ele>
   </trkpt>
   <trkpt lat="-37.87545" lon="145.33118000000002">
    <ele>436.78000000000003</ele>
   </trkpt>
   <trkpt lat="-37.87543" lon="145.33104">
    <ele>435.92</ele>
   </trkpt>
   <trkpt lat="-37.875400000000006" lon="145.33097">
    <ele>435.92</ele>
   </trkpt>
   <trkpt lat="-37.875130000000006" lon="145.33068">
    <ele>436.31</ele>
   </trkpt>
   <trkpt lat="-37.87498" lon="145.33044">
    <ele>436.18</ele>
   </trkpt>
   <trkpt lat="-37.87487" lon="145.33021000000002">
    <ele>436.18</ele>
   </trkpt>
   <trkpt lat="-37.87469" lon="145.32956000000001">
    <ele>436.75</ele>
   </trkpt>
   <trkpt lat="-37.87456" lon="145.32923000000002">
    <ele>438.85</ele>
   </trkpt>
   <trkpt lat="-37.87435" lon="145.32887000000002">
    <ele>442.8</ele>
   </trkpt>
   <trkpt lat="-37.874100000000006" lon="145.32861000000003">
    <ele>445.13</ele>
   </trkpt>
   <trkpt lat="-37.87411" lon="145.32862">
    <ele>445.13</ele>
   </trkpt>
   <trkpt lat="-37.87382" lon="145.32833000000002">
    <ele>448.61000000000007</ele>
   </trkpt>
   <trkpt lat="-37.87375" lon="145.3282">
    <ele>450.25000000000006</ele>
   </trkpt>
   <trkpt lat="-37.87368" lon="145.32803">
    <ele>452.72</ele>
   </trkpt>
   <trkpt lat="-37.87366" lon="145.32778000000002">
    <ele>458.5</ele>
   </trkpt>
   <trkpt lat="-37.87359" lon="145.32762000000002">
    <ele>461.32000000000005</ele>
   </trkpt>
   <trkpt lat="-37.87315500148315" lon="145.32701999640304">
    <ele>468.32</ele>
   </trkpt>
   <trkpt lat="-37.87272" lon="145.32642">
    <ele>476.69000000000005</ele>
   </trkpt>
   <trkpt lat="-37.87261" lon="145.32628000000003">
    <ele>478.02000000000004</ele>
   </trkpt>
   <trkpt lat="-37.87238" lon="145.32607000000002">
    <ele>480.07000000000005</ele>
   </trkpt>
   <trkpt lat="-37.87223" lon="145.32596">
    <ele>480.65000000000003</ele>
   </trkpt>
   <trkpt lat="-37.872240000000005" lon="145.32597">
    <ele>480.65000000000003</ele>
   </trkpt>
   <trkpt lat="-37.87182" lon="145.3257">
    <ele>480.92</ele>
   </trkpt>
   <trkpt lat="-37.87171" lon="145.32548">
    <ele>481.37</ele>
   </trkpt>
   <trkpt lat="-37.871750000000006" lon="145.32506">
    <ele>480.0</ele>
   </trkpt>
   <trkpt lat="-37.87184500277681" lon="145.32425000102566">
    <ele>472.74000000000007</ele>
   </trkpt>
   <trkpt lat="-37.87194" lon="145.32344">
    <ele>461.96000000000004</ele>
   </trkpt>
   <trkpt lat="-37.871880000000004" lon="145.32333">
    <ele>457.84000000000003</ele>
   </trkpt>
   <trkpt lat="-37.87185" lon="145.3232">
    <ele>456.96000000000004</ele>
   </trkpt>
   <trkpt lat="-37.87187" lon="145.32276000000002">
    <ele>457.43000000000006</ele>
   </trkpt>
   <trkpt lat="-37.871840000000006" lon="145.32255">
    <ele>458.67</ele>
   </trkpt>
   <trkpt lat="-37.87191" lon="145.32233000000002">
    <ele>462.47</ele>
   </trkpt>
   <trkpt lat="-37.87203" lon="145.32209">
    <ele>470.40000000000003</ele>
   </trkpt>
   <trkpt lat="-37.87207" lon="145.32187000000002">
    <ele>474.56</ele>
   </trkpt>
   <trkpt lat="-37.872" lon="145.32135000000002">
    <ele>482.27000000000004</ele>
   </trkpt>
   <trkpt lat="-37.872" lon="145.32119">
    <ele>485.30000000000007</ele>
   </trkpt>
   <trkpt lat="-37.87203" lon="145.32099000000002">
    <ele>487.56000000000006</ele>
   </trkpt>
   <trkpt lat="-37.87223" lon="145.32034000000002">
    <ele>503.87</ele>
   </trkpt>
   <trkpt lat="-37.87232" lon="145.31989000000002">
    <ele>511.94000000000005</ele>
   </trkpt>
   <trkpt lat="-37.87254" lon="145.31967">
    <ele>513.9100000000001</ele>
   </trkpt>
   <trkpt lat="-37.872600000000006" lon="145.31964000000002">
    <ele>513.8900000000001</ele>
   </trkpt>
   <trkpt lat="-37.872440000000005" lon="145.31953000000001">
    <ele>513.35</ele>
   </trkpt>
   <trkpt lat="-37.87247" lon="145.31936000000002">
    <ele>512.38</ele>
   </trkpt>
   <trkpt lat="-37.87256" lon="145.31916">
    <ele>511.0</ele>
   </trkpt>
  </trkseg>
 </trk>
</gpx>
