<?xml version="1.0" encoding="UTF-8"?>
<gpx creator="StravaGPX" version="1.1" xmlns="http://www.topografix.com/GPX/1/1" xmlns:xsi="http://www.w3.org/2001/XMLSchema-instance" xsi:schemaLocation="http://www.topografix.com/GPX/1/1 http://www.topografix.com/GPX/1/1/gpx.xsd">
 <metadata>
  <name>Dtr 30 10 21</name>
  <author>
   <name>john csorgo</name>
  </author>
  <copyright author="OpenStreetMap contributors">
   <year>2020</year>
   <license>https://www.openstreetmap.org/copyright</license>
  </copyright>
 </metadata>
 <trk>
  <name>Dtr 30 10 21</name>
  <link href=""/>
  <type>running</type>
  <trkseg>
   <trkpt lat="-37.84716" lon="145.34429">
    <ele>288.53000000000003</ele>
   </trkpt>
   <trkpt lat="-37.8472" lon="145.34408000000002">
    <ele>289.90999999999997</ele>
   </trkpt>
   <trkpt lat="-37.84718" lon="145.34387">
    <ele>291.39000000000004</ele>
   </trkpt>
   <trkpt lat="-37.847170000000006" lon="145.34381000000002">
    <ele>291.39000000000004</ele>
   </trkpt>
   <trkpt lat="-37.84709" lon="145.34374000000003">
    <ele>291.39000000000004</ele>
   </trkpt>
   <trkpt lat="-37.84702" lon="145.34371000000002">
    <ele>292.02</ele>
   </trkpt>
   <trkpt lat="-37.84691" lon="145.34377">
    <ele>293.2</ele>
   </trkpt>
   <trkpt lat="-37.84666" lon="145.3442">
    <ele>298.33000000000004</ele>
   </trkpt>
   <trkpt lat="-37.84657" lon="145.34428">
    <ele>300.26000000000005</ele>
   </trkpt>
   <trkpt lat="-37.84642" lon="145.34432">
    <ele>302.43</ele>
   </trkpt>
   <trkpt lat="-37.84599" lon="145.34422">
    <ele>310.49</ele>
   </trkpt>
   <trkpt lat="-37.84586" lon="145.34415">
    <ele>311.95</ele>
   </trkpt>
   <trkpt lat="-37.84586" lon="145.34416000000002">
    <ele>312.28</ele>
   </trkpt>
   <trkpt lat="-37.84579" lon="145.34413">
    <ele>312.28</ele>
   </trkpt>
   <trkpt lat="-37.84568" lon="145.34411">
    <ele>315.03000000000003</ele>
   </trkpt>
   <trkpt lat="-37.8457" lon="145.34397">
    <ele>316.51</ele>
   </trkpt>
   <trkpt lat="-37.8457" lon="145.34371000000002">
    <ele>320.07</ele>
   </trkpt>
   <trkpt lat="-37.84561" lon="145.34342">
    <ele>321.49000000000007</ele>
   </trkpt>
   <trkpt lat="-37.8455" lon="145.34315">
    <ele>323.08000000000004</ele>
   </trkpt>
   <trkpt lat="-37.84532" lon="145.34259">
    <ele>322.81000000000006</ele>
   </trkpt>
   <trkpt lat="-37.8451" lon="145.34224">
    <ele>320.39</ele>
   </trkpt>
   <trkpt lat="-37.84496" lon="145.34209">
    <ele>320.0</ele>
   </trkpt>
   <trkpt lat="-37.84451500060959" lon="145.3417299978776">
    <ele>318.65000000000003</ele>
   </trkpt>
   <trkpt lat="-37.84407" lon="145.34137">
    <ele>316.89</ele>
   </trkpt>
   <trkpt lat="-37.8438" lon="145.34104000000002">
    <ele>315.71999999999997</ele>
   </trkpt>
   <trkpt lat="-37.84369" lon="145.34098">
    <ele>315.71999999999997</ele>
   </trkpt>
   <trkpt lat="-37.84348" lon="145.34089">
    <ele>314.74</ele>
   </trkpt>
   <trkpt lat="-37.84297" lon="145.34079">
    <ele>314.56</ele>
   </trkpt>
   <trkpt lat="-37.84275" lon="145.3407">
    <ele>313.82000000000005</ele>
   </trkpt>
   <trkpt lat="-37.84252" lon="145.34050000000002">
    <ele>310.49</ele>
   </trkpt>
   <trkpt lat="-37.84228" lon="145.34016000000003">
    <ele>308.24</ele>
   </trkpt>
   <trkpt lat="-37.8421" lon="145.33983">
    <ele>307.65000000000003</ele>
   </trkpt>
   <trkpt lat="-37.841950000000004" lon="145.33969000000002">
    <ele>307.05</ele>
   </trkpt>
   <trkpt lat="-37.84178" lon="145.33959000000002">
    <ele>306.94000000000005</ele>
   </trkpt>
   <trkpt lat="-37.8416" lon="145.33959000000002">
    <ele>307.61000000000007</ele>
   </trkpt>
   <trkpt lat="-37.84143" lon="145.33965">
    <ele>309.45</ele>
   </trkpt>
   <trkpt lat="-37.84098" lon="145.33985">
    <ele>315.08000000000004</ele>
   </trkpt>
   <trkpt lat="-37.84069" lon="145.33977000000002">
    <ele>317.04</ele>
   </trkpt>
   <trkpt lat="-37.84042" lon="145.33958">
    <ele>318.78000000000003</ele>
   </trkpt>
   <trkpt lat="-37.84015" lon="145.33934000000002">
    <ele>323.64000000000004</ele>
   </trkpt>
   <trkpt lat="-37.83977" lon="145.33871000000002">
    <ele>332.84000000000003</ele>
   </trkpt>
   <trkpt lat="-37.83961" lon="145.33852000000002">
    <ele>333.99</ele>
   </trkpt>
   <trkpt lat="-37.83941" lon="145.33834000000002">
    <ele>334.02000000000004</ele>
   </trkpt>
   <trkpt lat="-37.83928" lon="145.33822">
    <ele>333.40000000000003</ele>
   </trkpt>
   <trkpt lat="-37.83885" lon="145.33808000000002">
    <ele>330.44</ele>
   </trkpt>
   <trkpt lat="-37.83847" lon="145.33802">
    <ele>331.17</ele>
   </trkpt>
   <trkpt lat="-37.83809" lon="145.33800000000002">
    <ele>335.19000000000005</ele>
   </trkpt>
   <trkpt lat="-37.83766" lon="145.33823">
    <ele>343.34000000000003</ele>
   </trkpt>
   <trkpt lat="-37.836940000000006" lon="145.33883">
    <ele>356.56000000000006</ele>
   </trkpt>
   <trkpt lat="-37.83677" lon="145.339">
    <ele>358.14</ele>
   </trkpt>
   <trkpt lat="-37.83626" lon="145.33925000000002">
    <ele>358.94000000000005</ele>
   </trkpt>
   <trkpt lat="-37.836270000000006" lon="145.33925000000002">
    <ele>358.94000000000005</ele>
   </trkpt>
   <trkpt lat="-37.83576" lon="145.33959000000002">
    <ele>354.98</ele>
   </trkpt>
   <trkpt lat="-37.83543" lon="145.33977000000002">
    <ele>349.1</ele>
   </trkpt>
   <trkpt lat="-37.835150000000006" lon="145.33989000000003">
    <ele>346.27000000000004</ele>
   </trkpt>
   <trkpt lat="-37.83475" lon="145.34023000000002">
    <ele>338.28000000000003</ele>
   </trkpt>
   <trkpt lat="-37.83442" lon="145.34049000000002">
    <ele>343.7</ele>
   </trkpt>
   <trkpt lat="-37.83415" lon="145.34074">
    <ele>346.36</ele>
   </trkpt>
   <trkpt lat="-37.83397" lon="145.34079">
    <ele>341.79</ele>
   </trkpt>
   <trkpt lat="-37.83357" lon="145.34077000000002">
    <ele>331.93</ele>
   </trkpt>
   <trkpt lat="-37.83337" lon="145.34082">
    <ele>329.33</ele>
   </trkpt>
   <trkpt lat="-37.83323" lon="145.34098">
    <ele>328.36</ele>
   </trkpt>
   <trkpt lat="-37.83303" lon="145.34146">
    <ele>328.77</ele>
   </trkpt>
   <trkpt lat="-37.83303" lon="145.34145">
    <ele>328.78000000000003</ele>
   </trkpt>
   <trkpt lat="-37.83301" lon="145.34152">
    <ele>328.56</ele>
   </trkpt>
   <trkpt lat="-37.8327" lon="145.34184000000002">
    <ele>326.23</ele>
   </trkpt>
   <trkpt lat="-37.83238" lon="145.34191">
    <ele>328.89</ele>
   </trkpt>
   <trkpt lat="-37.83178" lon="145.34217">
    <ele>330.44</ele>
   </trkpt>
   <trkpt lat="-37.83164" lon="145.34225">
    <ele>330.15000000000003</ele>
   </trkpt>
   <trkpt lat="-37.83153" lon="145.3424">
    <ele>330.3</ele>
   </trkpt>
   <trkpt lat="-37.83144" lon="145.34259">
    <ele>330.88</ele>
   </trkpt>
   <trkpt lat="-37.83124" lon="145.34334">
    <ele>331.63000000000005</ele>
   </trkpt>
   <trkpt lat="-37.83113" lon="145.34359">
    <ele>332.47</ele>
   </trkpt>
   <trkpt lat="-37.831050000000005" lon="145.34371000000002">
    <ele>332.76</ele>
   </trkpt>
   <trkpt lat="-37.831050000000005" lon="145.3437">
    <ele>332.76</ele>
   </trkpt>
   <trkpt lat="-37.83095" lon="145.34385">
    <ele>332.54</ele>
   </trkpt>
   <trkpt lat="-37.83034" lon="145.34411">
    <ele>334.81000000000006</ele>
   </trkpt>
   <trkpt lat="-37.829930000000004" lon="145.34408000000002">
    <ele>328.90000000000003</ele>
   </trkpt>
   <trkpt lat="-37.829620000000006" lon="145.34424">
    <ele>325.26000000000005</ele>
   </trkpt>
   <trkpt lat="-37.82929" lon="145.34414">
    <ele>322.56</ele>
   </trkpt>
   <trkpt lat="-37.82912" lon="145.34417000000002">
    <ele>324.13</ele>
   </trkpt>
   <trkpt lat="-37.82891" lon="145.3443">
    <ele>328.69000000000005</ele>
   </trkpt>
   <trkpt lat="-37.82862" lon="145.34468">
    <ele>338.71</ele>
   </trkpt>
   <trkpt lat="-37.82844" lon="145.34486">
    <ele>340.52000000000004</ele>
   </trkpt>
   <trkpt lat="-37.82824" lon="145.34493">
    <ele>340.71</ele>
   </trkpt>
   <trkpt lat="-37.828250000000004" lon="145.34493">
    <ele>340.73</ele>
   </trkpt>
   <trkpt lat="-37.82797" lon="145.34504">
    <ele>338.86000000000007</ele>
   </trkpt>
   <trkpt lat="-37.82755" lon="145.34513">
    <ele>340.11</ele>
   </trkpt>
   <trkpt lat="-37.826800000000006" lon="145.34566">
    <ele>351.16</ele>
   </trkpt>
   <trkpt lat="-37.82656" lon="145.34569000000002">
    <ele>356.08</ele>
   </trkpt>
   <trkpt lat="-37.82627" lon="145.34583">
    <ele>359.37</ele>
   </trkpt>
   <trkpt lat="-37.82569" lon="145.34635">
    <ele>369.1700000000001</ele>
   </trkpt>
   <trkpt lat="-37.82531" lon="145.34704000000002">
    <ele>379.83000000000004</ele>
   </trkpt>
   <trkpt lat="-37.82506" lon="145.34728">
    <ele>394.6</ele>
   </trkpt>
   <trkpt lat="-37.82502" lon="145.34735">
    <ele>394.6</ele>
   </trkpt>
   <trkpt lat="-37.82502" lon="145.34734">
    <ele>394.28000000000003</ele>
   </trkpt>
   <trkpt lat="-37.82453500247538" lon="145.34810500502502">
    <ele>415.86</ele>
   </trkpt>
   <trkpt lat="-37.82405" lon="145.34887">
    <ele>422.78000000000003</ele>
   </trkpt>
   <trkpt lat="-37.823875002051466" lon="145.34956000148267">
    <ele>429.74</ele>
   </trkpt>
   <trkpt lat="-37.8237" lon="145.35025000000002">
    <ele>441.59000000000003</ele>
   </trkpt>
   <trkpt lat="-37.82343" lon="145.35046">
    <ele>443.35</ele>
   </trkpt>
   <trkpt lat="-37.823" lon="145.35069000000001">
    <ele>446.01</ele>
   </trkpt>
   <trkpt lat="-37.822590000000005" lon="145.35107000000002">
    <ele>447.26000000000005</ele>
   </trkpt>
   <trkpt lat="-37.8224" lon="145.35143000000002">
    <ele>444.88000000000005</ele>
   </trkpt>
   <trkpt lat="-37.822410000000005" lon="145.35143000000002">
    <ele>444.93000000000006</ele>
   </trkpt>
   <trkpt lat="-37.82211" lon="145.35201">
    <ele>435.41</ele>
   </trkpt>
   <trkpt lat="-37.82159" lon="145.35263">
    <ele>418.45000000000005</ele>
   </trkpt>
   <trkpt lat="-37.82155" lon="145.35288">
    <ele>416.42</ele>
   </trkpt>
   <trkpt lat="-37.82159" lon="145.35368000000003">
    <ele>408.90000000000003</ele>
   </trkpt>
   <trkpt lat="-37.82164" lon="145.35381">
    <ele>407.19000000000005</ele>
   </trkpt>
   <trkpt lat="-37.82193" lon="145.3544">
    <ele>399.21</ele>
   </trkpt>
   <trkpt lat="-37.82204" lon="145.35479">
    <ele>394.34000000000003</ele>
   </trkpt>
   <trkpt lat="-37.82204" lon="145.35498">
    <ele>395.51000000000005</ele>
   </trkpt>
   <trkpt lat="-37.82202" lon="145.35513">
    <ele>396.45</ele>
   </trkpt>
   <trkpt lat="-37.82164" lon="145.35581000000002">
    <ele>397.83</ele>
   </trkpt>
   <trkpt lat="-37.821450000000006" lon="145.35625000000002">
    <ele>396.36</ele>
   </trkpt>
   <trkpt lat="-37.82126" lon="145.35643000000002">
    <ele>396.23</ele>
   </trkpt>
   <trkpt lat="-37.82112" lon="145.35653000000002">
    <ele>395.24</ele>
   </trkpt>
   <trkpt lat="-37.82099" lon="145.35655">
    <ele>393.53000000000003</ele>
   </trkpt>
   <trkpt lat="-37.820890000000006" lon="145.35666">
    <ele>392.96000000000004</ele>
   </trkpt>
   <trkpt lat="-37.8209" lon="145.35666">
    <ele>392.95</ele>
   </trkpt>
   <trkpt lat="-37.82045" lon="145.3573">
    <ele>393.18</ele>
   </trkpt>
   <trkpt lat="-37.82043" lon="145.35744000000003">
    <ele>393.09000000000003</ele>
   </trkpt>
   <trkpt lat="-37.820420000000006" lon="145.35778000000002">
    <ele>393.17</ele>
   </trkpt>
   <trkpt lat="-37.8205" lon="145.35833000000002">
    <ele>393.71000000000004</ele>
   </trkpt>
   <trkpt lat="-37.82043" lon="145.35848000000001">
    <ele>393.77</ele>
   </trkpt>
   <trkpt lat="-37.820330000000006" lon="145.35863">
    <ele>393.91</ele>
   </trkpt>
   <trkpt lat="-37.81987" lon="145.35896000000002">
    <ele>392.17</ele>
   </trkpt>
   <trkpt lat="-37.81951" lon="145.35937">
    <ele>390.15000000000003</ele>
   </trkpt>
   <trkpt lat="-37.81929" lon="145.35952">
    <ele>390.84000000000003</ele>
   </trkpt>
   <trkpt lat="-37.819050000000004" lon="145.35957000000002">
    <ele>388.07</ele>
   </trkpt>
   <trkpt lat="-37.819050000000004" lon="145.35956000000002">
    <ele>388.0</ele>
   </trkpt>
   <trkpt lat="-37.81895" lon="145.35959000000003">
    <ele>386.40000000000003</ele>
   </trkpt>
   <trkpt lat="-37.81873" lon="145.35982">
    <ele>380.32000000000005</ele>
   </trkpt>
   <trkpt lat="-37.81864" lon="145.35987">
    <ele>378.35</ele>
   </trkpt>
   <trkpt lat="-37.81857" lon="145.36003000000002">
    <ele>377.88000000000005</ele>
   </trkpt>
   <trkpt lat="-37.8187" lon="145.36094">
    <ele>388.64000000000004</ele>
   </trkpt>
   <trkpt lat="-37.8187" lon="145.36124">
    <ele>392.38</ele>
   </trkpt>
   <trkpt lat="-37.81861" lon="145.36159">
    <ele>397.01000000000005</ele>
   </trkpt>
   <trkpt lat="-37.81828" lon="145.36215">
    <ele>404.13000000000005</ele>
   </trkpt>
   <trkpt lat="-37.8181" lon="145.36234000000002">
    <ele>409.27000000000004</ele>
   </trkpt>
   <trkpt lat="-37.8177" lon="145.36251000000001">
    <ele>416.75</ele>
   </trkpt>
   <trkpt lat="-37.81734" lon="145.36311">
    <ele>426.85</ele>
   </trkpt>
   <trkpt lat="-37.81721" lon="145.36373">
    <ele>433.72</ele>
   </trkpt>
   <trkpt lat="-37.81723" lon="145.36425">
    <ele>439.81</ele>
   </trkpt>
   <trkpt lat="-37.81736" lon="145.36494000000002">
    <ele>447.95</ele>
   </trkpt>
   <trkpt lat="-37.817420000000006" lon="145.36538000000002">
    <ele>452.86</ele>
   </trkpt>
   <trkpt lat="-37.81745" lon="145.36571">
    <ele>455.93000000000006</ele>
   </trkpt>
   <trkpt lat="-37.81743" lon="145.36671">
    <ele>468.90000000000003</ele>
   </trkpt>
   <trkpt lat="-37.817510000000006" lon="145.36671">
    <ele>469.03000000000003</ele>
   </trkpt>
   <trkpt lat="-37.81758000000001" lon="145.36648000000002">
    <ele>472.03000000000003</ele>
   </trkpt>
   <trkpt lat="-37.81758000000001" lon="145.36647000000002">
    <ele>472.04</ele>
   </trkpt>
   <trkpt lat="-37.817510000000006" lon="145.36671">
    <ele>469.03000000000003</ele>
   </trkpt>
   <trkpt lat="-37.81743" lon="145.36671">
    <ele>468.90000000000003</ele>
   </trkpt>
   <trkpt lat="-37.81745" lon="145.36571">
    <ele>455.93000000000006</ele>
   </trkpt>
   <trkpt lat="-37.81736" lon="145.36494000000002">
    <ele>447.95</ele>
   </trkpt>
   <trkpt lat="-37.81723" lon="145.36425">
    <ele>438.53000000000003</ele>
   </trkpt>
   <trkpt lat="-37.81721" lon="145.36373">
    <ele>432.46</ele>
   </trkpt>
   <trkpt lat="-37.81723" lon="145.36362000000003">
    <ele>432.46</ele>
   </trkpt>
   <trkpt lat="-37.81723" lon="145.36361000000002">
    <ele>432.35</ele>
   </trkpt>
   <trkpt lat="-37.81721" lon="145.36373">
    <ele>433.72</ele>
   </trkpt>
   <trkpt lat="-37.81723" lon="145.36425">
    <ele>439.81</ele>
   </trkpt>
   <trkpt lat="-37.81736" lon="145.36494000000002">
    <ele>447.95</ele>
   </trkpt>
   <trkpt lat="-37.81745" lon="145.36571">
    <ele>455.93000000000006</ele>
   </trkpt>
   <trkpt lat="-37.81743" lon="145.36671">
    <ele>468.90000000000003</ele>
   </trkpt>
   <trkpt lat="-37.817510000000006" lon="145.36671">
    <ele>469.03000000000003</ele>
   </trkpt>
   <trkpt lat="-37.81765" lon="145.36620000000002">
    <ele>472.91</ele>
   </trkpt>
   <trkpt lat="-37.81774" lon="145.36595">
    <ele>472.49</ele>
   </trkpt>
   <trkpt lat="-37.81774" lon="145.36581">
    <ele>471.11</ele>
   </trkpt>
   <trkpt lat="-37.817710000000005" lon="145.36572">
    <ele>471.11</ele>
   </trkpt>
   <trkpt lat="-37.817600000000006" lon="145.36507">
    <ele>468.22</ele>
   </trkpt>
   <trkpt lat="-37.817600000000006" lon="145.36438">
    <ele>464.97</ele>
   </trkpt>
   <trkpt lat="-37.81765" lon="145.36397000000002">
    <ele>463.52000000000004</ele>
   </trkpt>
   <trkpt lat="-37.81779" lon="145.36370000000002">
    <ele>463.33</ele>
   </trkpt>
   <trkpt lat="-37.817980000000006" lon="145.36344000000003">
    <ele>462.59000000000003</ele>
   </trkpt>
   <trkpt lat="-37.8183" lon="145.36328">
    <ele>462.57000000000005</ele>
   </trkpt>
   <trkpt lat="-37.81877" lon="145.36299000000002">
    <ele>469.07000000000005</ele>
   </trkpt>
   <trkpt lat="-37.81931" lon="145.36299000000002">
    <ele>484.53000000000003</ele>
   </trkpt>
   <trkpt lat="-37.81949" lon="145.36302">
    <ele>496.34000000000003</ele>
   </trkpt>
   <trkpt lat="-37.81958" lon="145.36325000000002">
    <ele>502.07</ele>
   </trkpt>
   <trkpt lat="-37.81969" lon="145.36317000000003">
    <ele>503.45000000000005</ele>
   </trkpt>
   <trkpt lat="-37.81976" lon="145.36298000000002">
    <ele>503.4200000000001</ele>
   </trkpt>
   <trkpt lat="-37.81996" lon="145.36259">
    <ele>505.97</ele>
   </trkpt>
   <trkpt lat="-37.82" lon="145.36254000000002">
    <ele>506.4700000000001</ele>
   </trkpt>
   <trkpt lat="-37.82001" lon="145.36254000000002">
    <ele>506.61</ele>
   </trkpt>
   <trkpt lat="-37.82016" lon="145.36235000000002">
    <ele>511.19</ele>
   </trkpt>
   <trkpt lat="-37.82092" lon="145.36214">
    <ele>536.76</ele>
   </trkpt>
   <trkpt lat="-37.82114" lon="145.36204">
    <ele>544.12</ele>
   </trkpt>
   <trkpt lat="-37.82168" lon="145.36193">
    <ele>551.5600000000001</ele>
   </trkpt>
   <trkpt lat="-37.82186" lon="145.36196">
    <ele>552.46</ele>
   </trkpt>
   <trkpt lat="-37.82222" lon="145.36195">
    <ele>552.07</ele>
   </trkpt>
   <trkpt lat="-37.822390000000006" lon="145.36191000000002">
    <ele>551.9900000000001</ele>
   </trkpt>
   <trkpt lat="-37.82251" lon="145.36179">
    <ele>551.8100000000001</ele>
   </trkpt>
   <trkpt lat="-37.82278" lon="145.36161">
    <ele>550.94</ele>
   </trkpt>
   <trkpt lat="-37.82285" lon="145.36151">
    <ele>550.8100000000001</ele>
   </trkpt>
   <trkpt lat="-37.82287" lon="145.36139">
    <ele>550.44</ele>
   </trkpt>
   <trkpt lat="-37.822630000000004" lon="145.36103">
    <ele>546.46</ele>
   </trkpt>
   <trkpt lat="-37.82251" lon="145.36086">
    <ele>543.52</ele>
   </trkpt>
   <trkpt lat="-37.82247" lon="145.36068">
    <ele>539.34</ele>
   </trkpt>
   <trkpt lat="-37.82251" lon="145.36048000000002">
    <ele>537.37</ele>
   </trkpt>
   <trkpt lat="-37.82291" lon="145.35968000000003">
    <ele>541.0200000000001</ele>
   </trkpt>
   <trkpt lat="-37.82314" lon="145.35915">
    <ele>541.45</ele>
   </trkpt>
   <trkpt lat="-37.82334" lon="145.3588">
    <ele>546.8700000000001</ele>
   </trkpt>
   <trkpt lat="-37.8237" lon="145.35811">
    <ele>547.7200000000001</ele>
   </trkpt>
   <trkpt lat="-37.82405" lon="145.35753000000003">
    <ele>545.24</ele>
   </trkpt>
   <trkpt lat="-37.82419" lon="145.35738">
    <ele>545.22</ele>
   </trkpt>
   <trkpt lat="-37.82493" lon="145.35696000000002">
    <ele>557.62</ele>
   </trkpt>
   <trkpt lat="-37.82504" lon="145.35681000000002">
    <ele>558.2900000000001</ele>
   </trkpt>
   <trkpt lat="-37.825320000000005" lon="145.35658">
    <ele>564.4200000000001</ele>
   </trkpt>
   <trkpt lat="-37.82536" lon="145.35629">
    <ele>566.88</ele>
   </trkpt>
   <trkpt lat="-37.825320000000005" lon="145.35598000000002">
    <ele>568.86</ele>
   </trkpt>
   <trkpt lat="-37.82536" lon="145.35629">
    <ele>566.88</ele>
   </trkpt>
   <trkpt lat="-37.82562" lon="145.35584">
    <ele>578.26</ele>
   </trkpt>
   <trkpt lat="-37.82573" lon="145.35558">
    <ele>583.11</ele>
   </trkpt>
   <trkpt lat="-37.82598" lon="145.35515">
    <ele>589.9100000000001</ele>
   </trkpt>
   <trkpt lat="-37.82636" lon="145.35471">
    <ele>603.45</ele>
   </trkpt>
   <trkpt lat="-37.82647" lon="145.35462">
    <ele>607.51</ele>
   </trkpt>
   <trkpt lat="-37.82665" lon="145.35438000000002">
    <ele>611.7900000000001</ele>
   </trkpt>
   <trkpt lat="-37.826750000000004" lon="145.35420000000002">
    <ele>614.45</ele>
   </trkpt>
   <trkpt lat="-37.82683" lon="145.35421000000002">
    <ele>615.08</ele>
   </trkpt>
   <trkpt lat="-37.82692" lon="145.35419000000002">
    <ele>615.83</ele>
   </trkpt>
   <trkpt lat="-37.82699" lon="145.35414">
    <ele>616.84</ele>
   </trkpt>
   <trkpt lat="-37.8271" lon="145.35397">
    <ele>619.3100000000001</ele>
   </trkpt>
   <trkpt lat="-37.82705" lon="145.35386000000003">
    <ele>619.3100000000001</ele>
   </trkpt>
   <trkpt lat="-37.826980000000006" lon="145.35382">
    <ele>622.61</ele>
   </trkpt>
   <trkpt lat="-37.82692" lon="145.35366000000002">
    <ele>622.61</ele>
   </trkpt>
   <trkpt lat="-37.82687" lon="145.35351">
    <ele>624.59</ele>
   </trkpt>
   <trkpt lat="-37.826800000000006" lon="145.35342">
    <ele>624.72</ele>
   </trkpt>
   <trkpt lat="-37.82679" lon="145.35327">
    <ele>624.45</ele>
   </trkpt>
   <trkpt lat="-37.82687" lon="145.35279">
    <ele>624.1300000000001</ele>
   </trkpt>
   <trkpt lat="-37.826600000000006" lon="145.35283">
    <ele>619.23</ele>
   </trkpt>
   <trkpt lat="-37.826330000000006" lon="145.35287000000002">
    <ele>618.23</ele>
   </trkpt>
   <trkpt lat="-37.826170000000005" lon="145.35315">
    <ele>618.56</ele>
   </trkpt>
   <trkpt lat="-37.82618" lon="145.35317">
    <ele>620.0600000000001</ele>
   </trkpt>
   <trkpt lat="-37.82602" lon="145.35317">
    <ele>613.74</ele>
   </trkpt>
   <trkpt lat="-37.82589" lon="145.35312000000002">
    <ele>600.71</ele>
   </trkpt>
   <trkpt lat="-37.8258" lon="145.35314000000002">
    <ele>600.71</ele>
   </trkpt>
   <trkpt lat="-37.82564" lon="145.35313000000002">
    <ele>594.34</ele>
   </trkpt>
   <trkpt lat="-37.82553" lon="145.35331000000002">
    <ele>584.49</ele>
   </trkpt>
   <trkpt lat="-37.82547" lon="145.35287000000002">
    <ele>584.4200000000001</ele>
   </trkpt>
   <trkpt lat="-37.82551" lon="145.35260000000002">
    <ele>583.9700000000001</ele>
   </trkpt>
   <trkpt lat="-37.82558" lon="145.35231000000002">
    <ele>583.21</ele>
   </trkpt>
   <trkpt lat="-37.82596" lon="145.35162000000003">
    <ele>579.95</ele>
   </trkpt>
   <trkpt lat="-37.82603" lon="145.35151000000002">
    <ele>579.04</ele>
   </trkpt>
   <trkpt lat="-37.826040000000006" lon="145.35151000000002">
    <ele>579.0300000000001</ele>
   </trkpt>
   <trkpt lat="-37.82625" lon="145.35123000000002">
    <ele>577.5100000000001</ele>
   </trkpt>
   <trkpt lat="-37.82658" lon="145.35101">
    <ele>575.47</ele>
   </trkpt>
   <trkpt lat="-37.82701" lon="145.35084">
    <ele>575.98</ele>
   </trkpt>
   <trkpt lat="-37.82758000007891" lon="145.35072500088367">
    <ele>573.3900000000001</ele>
   </trkpt>
   <trkpt lat="-37.82815" lon="145.35061000000002">
    <ele>574.1700000000001</ele>
   </trkpt>
   <trkpt lat="-37.8286300000965" lon="145.35060500003155">
    <ele>576.01</ele>
   </trkpt>
   <trkpt lat="-37.82911" lon="145.35060000000001">
    <ele>573.16</ele>
   </trkpt>
   <trkpt lat="-37.82943" lon="145.35047">
    <ele>567.9399999999999</ele>
   </trkpt>
   <trkpt lat="-37.82963" lon="145.35047">
    <ele>565.2600000000001</ele>
   </trkpt>
   <trkpt lat="-37.82999" lon="145.35055">
    <ele>562.84</ele>
   </trkpt>
   <trkpt lat="-37.83032" lon="145.35069000000001">
    <ele>559.47</ele>
   </trkpt>
   <trkpt lat="-37.830600000000004" lon="145.35087000000001">
    <ele>557.71</ele>
   </trkpt>
   <trkpt lat="-37.83066" lon="145.35092">
    <ele>557.71</ele>
   </trkpt>
   <trkpt lat="-37.83093" lon="145.35097000000002">
    <ele>555.48</ele>
   </trkpt>
   <trkpt lat="-37.83122" lon="145.35091">
    <ele>555.84</ele>
   </trkpt>
   <trkpt lat="-37.83162" lon="145.35071000000002">
    <ele>562.45</ele>
   </trkpt>
   <trkpt lat="-37.83196" lon="145.35046">
    <ele>569.8000000000001</ele>
   </trkpt>
   <trkpt lat="-37.83231" lon="145.35010000000003">
    <ele>576.71</ele>
   </trkpt>
   <trkpt lat="-37.83267" lon="145.34969">
    <ele>585.0000000000001</ele>
   </trkpt>
   <trkpt lat="-37.83274" lon="145.34954000000002">
    <ele>585.5600000000001</ele>
   </trkpt>
   <trkpt lat="-37.83287" lon="145.34947000000003">
    <ele>586.37</ele>
   </trkpt>
   <trkpt lat="-37.83296" lon="145.34934">
    <ele>587.34</ele>
   </trkpt>
   <trkpt lat="-37.83323" lon="145.34911000000002">
    <ele>591.92</ele>
   </trkpt>
   <trkpt lat="-37.833310000000004" lon="145.3486">
    <ele>594.9000000000001</ele>
   </trkpt>
   <trkpt lat="-37.833310000000004" lon="145.34859">
    <ele>594.96</ele>
   </trkpt>
   <trkpt lat="-37.833330000000004" lon="145.3484">
    <ele>595.25</ele>
   </trkpt>
   <trkpt lat="-37.83346" lon="145.34808">
    <ele>594.62</ele>
   </trkpt>
   <trkpt lat="-37.83379500052499" lon="145.34767500204265">
    <ele>596.7900000000001</ele>
   </trkpt>
   <trkpt lat="-37.83413" lon="145.34727">
    <ele>596.4200000000001</ele>
   </trkpt>
   <trkpt lat="-37.8344" lon="145.34703000000002">
    <ele>596.4200000000001</ele>
   </trkpt>
   <trkpt lat="-37.83487" lon="145.34681">
    <ele>596.33</ele>
   </trkpt>
   <trkpt lat="-37.835150000000006" lon="145.34676000000002">
    <ele>596.8500000000001</ele>
   </trkpt>
   <trkpt lat="-37.83574" lon="145.34658000000002">
    <ele>600.4200000000001</ele>
   </trkpt>
   <trkpt lat="-37.83619" lon="145.34654">
    <ele>605.28</ele>
   </trkpt>
   <trkpt lat="-37.836200000000005" lon="145.34654">
    <ele>605.28</ele>
   </trkpt>
   <trkpt lat="-37.8363" lon="145.34654">
    <ele>605.87</ele>
   </trkpt>
   <trkpt lat="-37.83668" lon="145.34659000000002">
    <ele>610.58</ele>
   </trkpt>
   <trkpt lat="-37.83681" lon="145.34658000000002">
    <ele>610.36</ele>
   </trkpt>
   <trkpt lat="-37.83699" lon="145.34654">
    <ele>608.14</ele>
   </trkpt>
   <trkpt lat="-37.83706" lon="145.34649000000002">
    <ele>606.34</ele>
   </trkpt>
   <trkpt lat="-37.83726" lon="145.34629">
    <ele>601.11</ele>
   </trkpt>
   <trkpt lat="-37.83733" lon="145.34626">
    <ele>599.07</ele>
   </trkpt>
   <trkpt lat="-37.8376" lon="145.34623000000002">
    <ele>593.48</ele>
   </trkpt>
   <trkpt lat="-37.83771" lon="145.34619">
    <ele>590.1800000000001</ele>
   </trkpt>
   <trkpt lat="-37.83791" lon="145.34608">
    <ele>585.1800000000001</ele>
   </trkpt>
   <trkpt lat="-37.83813" lon="145.34605000000002">
    <ele>579.32</ele>
   </trkpt>
   <trkpt lat="-37.83834" lon="145.34596000000002">
    <ele>571.28</ele>
   </trkpt>
   <trkpt lat="-37.83843" lon="145.34587000000002">
    <ele>568.72</ele>
   </trkpt>
   <trkpt lat="-37.83856" lon="145.34584">
    <ele>565.73</ele>
   </trkpt>
   <trkpt lat="-37.83872" lon="145.34589000000003">
    <ele>564.24</ele>
   </trkpt>
   <trkpt lat="-37.83896" lon="145.34608">
    <ele>564.3900000000001</ele>
   </trkpt>
   <trkpt lat="-37.83912" lon="145.34611">
    <ele>562.7800000000001</ele>
   </trkpt>
   <trkpt lat="-37.83941" lon="145.34606000000002">
    <ele>556.3100000000001</ele>
   </trkpt>
   <trkpt lat="-37.839420000000004" lon="145.34606000000002">
    <ele>556.0500000000001</ele>
   </trkpt>
   <trkpt lat="-37.83979" lon="145.34601">
    <ele>548.3</ele>
   </trkpt>
   <trkpt lat="-37.84004" lon="145.34603">
    <ele>542.35</ele>
   </trkpt>
   <trkpt lat="-37.84013" lon="145.34605000000002">
    <ele>540.91</ele>
   </trkpt>
   <trkpt lat="-37.84033" lon="145.34614000000002">
    <ele>539.58</ele>
   </trkpt>
   <trkpt lat="-37.84035" lon="145.34613000000002">
    <ele>537.0100000000001</ele>
   </trkpt>
   <trkpt lat="-37.84035" lon="145.34608">
    <ele>537.0100000000001</ele>
   </trkpt>
   <trkpt lat="-37.84004" lon="145.34539">
    <ele>527.3500000000001</ele>
   </trkpt>
   <trkpt lat="-37.83977" lon="145.34502">
    <ele>515.15</ele>
   </trkpt>
   <trkpt lat="-37.83977" lon="145.34496000000001">
    <ele>515.15</ele>
   </trkpt>
   <trkpt lat="-37.83979" lon="145.34494">
    <ele>515.15</ele>
   </trkpt>
   <trkpt lat="-37.8401" lon="145.34494">
    <ele>510.15</ele>
   </trkpt>
   <trkpt lat="-37.84053" lon="145.34499000000002">
    <ele>504.73</ele>
   </trkpt>
   <trkpt lat="-37.84082" lon="145.34505000000001">
    <ele>500.02</ele>
   </trkpt>
   <trkpt lat="-37.84118" lon="145.34518">
    <ele>494.7900000000001</ele>
   </trkpt>
   <trkpt lat="-37.84122" lon="145.34518">
    <ele>490.28000000000003</ele>
   </trkpt>
   <trkpt lat="-37.8412" lon="145.34506000000002">
    <ele>490.28000000000003</ele>
   </trkpt>
   <trkpt lat="-37.84066" lon="145.34425000000002">
    <ele>473.59000000000003</ele>
   </trkpt>
   <trkpt lat="-37.84051" lon="145.34409000000002">
    <ele>470.59000000000003</ele>
   </trkpt>
   <trkpt lat="-37.84028" lon="145.34392000000003">
    <ele>466.84000000000003</ele>
   </trkpt>
   <trkpt lat="-37.84024" lon="145.34384">
    <ele>465.39000000000004</ele>
   </trkpt>
   <trkpt lat="-37.84057" lon="145.34386">
    <ele>462.64000000000004</ele>
   </trkpt>
   <trkpt lat="-37.84076" lon="145.34390000000002">
    <ele>460.92</ele>
   </trkpt>
   <trkpt lat="-37.84091" lon="145.34394">
    <ele>459.34000000000003</ele>
   </trkpt>
   <trkpt lat="-37.84125" lon="145.34408000000002">
    <ele>457.69000000000005</ele>
   </trkpt>
   <trkpt lat="-37.84163" lon="145.34426000000002">
    <ele>454.61</ele>
   </trkpt>
   <trkpt lat="-37.84183" lon="145.34441">
    <ele>454.08000000000004</ele>
   </trkpt>
   <trkpt lat="-37.842040000000004" lon="145.34463000000002">
    <ele>453.17</ele>
   </trkpt>
   <trkpt lat="-37.84221" lon="145.34493">
    <ele>452.26000000000005</ele>
   </trkpt>
   <trkpt lat="-37.8423" lon="145.34518">
    <ele>451.48</ele>
   </trkpt>
   <trkpt lat="-37.84239" lon="145.34554">
    <ele>450.97</ele>
   </trkpt>
   <trkpt lat="-37.84241" lon="145.34594">
    <ele>449.0</ele>
   </trkpt>
   <trkpt lat="-37.84239" lon="145.34612">
    <ele>447.95</ele>
   </trkpt>
   <trkpt lat="-37.84234" lon="145.34640000000002">
    <ele>447.20000000000005</ele>
   </trkpt>
   <trkpt lat="-37.84234" lon="145.34639">
    <ele>447.18</ele>
   </trkpt>
   <trkpt lat="-37.84228" lon="145.3468">
    <ele>445.07</ele>
   </trkpt>
   <trkpt lat="-37.84228" lon="145.347">
    <ele>444.79</ele>
   </trkpt>
   <trkpt lat="-37.84232" lon="145.34731000000002">
    <ele>443.12</ele>
   </trkpt>
   <trkpt lat="-37.8423" lon="145.34775000000002">
    <ele>439.58000000000004</ele>
   </trkpt>
   <trkpt lat="-37.84221" lon="145.34804000000003">
    <ele>438.76000000000005</ele>
   </trkpt>
   <trkpt lat="-37.842000000000006" lon="145.34844">
    <ele>437.18</ele>
   </trkpt>
   <trkpt lat="-37.841770000000004" lon="145.34919000000002">
    <ele>443.98</ele>
   </trkpt>
   <trkpt lat="-37.84176" lon="145.34928000000002">
    <ele>443.98</ele>
   </trkpt>
   <trkpt lat="-37.84179" lon="145.34944000000002">
    <ele>446.57</ele>
   </trkpt>
   <trkpt lat="-37.84196" lon="145.34958">
    <ele>445.19</ele>
   </trkpt>
   <trkpt lat="-37.84219" lon="145.34969">
    <ele>443.35</ele>
   </trkpt>
   <trkpt lat="-37.84262500025573" lon="145.34986999898746">
    <ele>439.25</ele>
   </trkpt>
   <trkpt lat="-37.84306" lon="145.35005">
    <ele>436.32000000000005</ele>
   </trkpt>
   <trkpt lat="-37.84355" lon="145.35018000000002">
    <ele>433.96</ele>
   </trkpt>
   <trkpt lat="-37.84367" lon="145.35018000000002">
    <ele>432.63</ele>
   </trkpt>
   <trkpt lat="-37.84409" lon="145.35022">
    <ele>430.87</ele>
   </trkpt>
   <trkpt lat="-37.844440000000006" lon="145.35021">
    <ele>427.59000000000003</ele>
   </trkpt>
   <trkpt lat="-37.84493500020032" lon="145.35014000044447">
    <ele>423.51000000000005</ele>
   </trkpt>
   <trkpt lat="-37.84543" lon="145.35007000000002">
    <ele>419.52000000000004</ele>
   </trkpt>
   <trkpt lat="-37.846230000000006" lon="145.35004">
    <ele>415.51000000000005</ele>
   </trkpt>
   <trkpt lat="-37.84653" lon="145.35004">
    <ele>412.62000000000006</ele>
   </trkpt>
   <trkpt lat="-37.84678" lon="145.35007000000002">
    <ele>411.46000000000004</ele>
   </trkpt>
   <trkpt lat="-37.84695" lon="145.35014">
    <ele>411.61</ele>
   </trkpt>
   <trkpt lat="-37.8472" lon="145.35029">
    <ele>413.16</ele>
   </trkpt>
   <trkpt lat="-37.84767" lon="145.35063000000002">
    <ele>416.91</ele>
   </trkpt>
   <trkpt lat="-37.84792" lon="145.35087000000001">
    <ele>417.65000000000003</ele>
   </trkpt>
   <trkpt lat="-37.84819" lon="145.35123000000002">
    <ele>420.91</ele>
   </trkpt>
   <trkpt lat="-37.84825" lon="145.35136">
    <ele>422.04</ele>
   </trkpt>
   <trkpt lat="-37.8485" lon="145.35187000000002">
    <ele>426.44000000000005</ele>
   </trkpt>
   <trkpt lat="-37.848670000000006" lon="145.35243">
    <ele>432.84000000000003</ele>
   </trkpt>
   <trkpt lat="-37.84877" lon="145.35304000000002">
    <ele>437.07</ele>
   </trkpt>
   <trkpt lat="-37.84884" lon="145.35374000000002">
    <ele>440.72</ele>
   </trkpt>
   <trkpt lat="-37.84881" lon="145.35385000000002">
    <ele>441.74</ele>
   </trkpt>
   <trkpt lat="-37.84863" lon="145.35433">
    <ele>446.20000000000005</ele>
   </trkpt>
   <trkpt lat="-37.84852" lon="145.35456000000002">
    <ele>446.49000000000007</ele>
   </trkpt>
   <trkpt lat="-37.84839" lon="145.35525">
    <ele>442.79</ele>
   </trkpt>
   <trkpt lat="-37.84814" lon="145.3557">
    <ele>439.1700000000001</ele>
   </trkpt>
   <trkpt lat="-37.84812" lon="145.35582000000002">
    <ele>439.55000000000007</ele>
   </trkpt>
   <trkpt lat="-37.84814" lon="145.35590000000002">
    <ele>439.89000000000004</ele>
   </trkpt>
   <trkpt lat="-37.84821" lon="145.35601">
    <ele>440.89000000000004</ele>
   </trkpt>
   <trkpt lat="-37.84859" lon="145.35638">
    <ele>439.20000000000005</ele>
   </trkpt>
   <trkpt lat="-37.84866" lon="145.35649">
    <ele>437.94000000000005</ele>
   </trkpt>
   <trkpt lat="-37.8487" lon="145.35663000000002">
    <ele>436.9</ele>
   </trkpt>
   <trkpt lat="-37.84872" lon="145.35680000000002">
    <ele>436.14000000000004</ele>
   </trkpt>
   <trkpt lat="-37.84877" lon="145.35692">
    <ele>435.28000000000003</ele>
   </trkpt>
   <trkpt lat="-37.84886" lon="145.35699000000002">
    <ele>432.93</ele>
   </trkpt>
   <trkpt lat="-37.84895" lon="145.35702">
    <ele>431.03000000000003</ele>
   </trkpt>
   <trkpt lat="-37.84951" lon="145.35711">
    <ele>420.46000000000004</ele>
   </trkpt>
   <trkpt lat="-37.849700000000006" lon="145.35709">
    <ele>417.01000000000005</ele>
   </trkpt>
   <trkpt lat="-37.84998" lon="145.35682">
    <ele>410.38</ele>
   </trkpt>
   <trkpt lat="-37.85007" lon="145.35677">
    <ele>410.06</ele>
   </trkpt>
   <trkpt lat="-37.850080000000005" lon="145.35677">
    <ele>410.07000000000005</ele>
   </trkpt>
   <trkpt lat="-37.85054" lon="145.35639">
    <ele>413.38</ele>
   </trkpt>
   <trkpt lat="-37.85083" lon="145.35617000000002">
    <ele>413.45000000000005</ele>
   </trkpt>
   <trkpt lat="-37.85101" lon="145.35612">
    <ele>413.31</ele>
   </trkpt>
   <trkpt lat="-37.851480000049214" lon="145.35608500021982">
    <ele>412.84000000000003</ele>
   </trkpt>
   <trkpt lat="-37.85195" lon="145.35605">
    <ele>418.53000000000003</ele>
   </trkpt>
   <trkpt lat="-37.8526" lon="145.35617000000002">
    <ele>436.75</ele>
   </trkpt>
   <trkpt lat="-37.85284" lon="145.3561">
    <ele>440.39000000000004</ele>
   </trkpt>
   <trkpt lat="-37.85289" lon="145.35602">
    <ele>440.44000000000005</ele>
   </trkpt>
   <trkpt lat="-37.85298" lon="145.3556">
    <ele>439.42</ele>
   </trkpt>
   <trkpt lat="-37.853" lon="145.35505">
    <ele>437.18</ele>
   </trkpt>
   <trkpt lat="-37.85331" lon="145.35443">
    <ele>438.26000000000005</ele>
   </trkpt>
   <trkpt lat="-37.85342" lon="145.35415">
    <ele>441.98</ele>
   </trkpt>
   <trkpt lat="-37.85396" lon="145.35339000000002">
    <ele>448.98</ele>
   </trkpt>
   <trkpt lat="-37.854130000000005" lon="145.35325">
    <ele>451.84000000000003</ele>
   </trkpt>
   <trkpt lat="-37.854130000000005" lon="145.35324">
    <ele>451.87000000000006</ele>
   </trkpt>
   <trkpt lat="-37.854350000000004" lon="145.35299">
    <ele>454.89</ele>
   </trkpt>
   <trkpt lat="-37.85439" lon="145.35299">
    <ele>454.89</ele>
   </trkpt>
   <trkpt lat="-37.85452" lon="145.35320000000002">
    <ele>458.49000000000007</ele>
   </trkpt>
   <trkpt lat="-37.854580000000006" lon="145.35319">
    <ele>459.79</ele>
   </trkpt>
   <trkpt lat="-37.85461" lon="145.35309">
    <ele>460.9800000000001</ele>
   </trkpt>
   <trkpt lat="-37.85461" lon="145.35294000000002">
    <ele>462.97</ele>
   </trkpt>
   <trkpt lat="-37.85466" lon="145.35276000000002">
    <ele>466.05</ele>
   </trkpt>
   <trkpt lat="-37.85472" lon="145.3527">
    <ele>466.79</ele>
   </trkpt>
   <trkpt lat="-37.85486" lon="145.3523">
    <ele>472.59000000000003</ele>
   </trkpt>
   <trkpt lat="-37.85513" lon="145.35198000000003">
    <ele>480.16</ele>
   </trkpt>
   <trkpt lat="-37.855140000000006" lon="145.35198000000003">
    <ele>480.06000000000006</ele>
   </trkpt>
   <trkpt lat="-37.85521" lon="145.35193">
    <ele>481.72</ele>
   </trkpt>
   <trkpt lat="-37.85526" lon="145.35179000000002">
    <ele>482.77000000000004</ele>
   </trkpt>
   <trkpt lat="-37.85528" lon="145.35168000000002">
    <ele>484.02000000000004</ele>
   </trkpt>
   <trkpt lat="-37.855470000000004" lon="145.35148">
    <ele>486.69000000000005</ele>
   </trkpt>
   <trkpt lat="-37.85508500122551" lon="145.3509299970511">
    <ele>477.73</ele>
   </trkpt>
   <trkpt lat="-37.8547" lon="145.35038">
    <ele>467.81000000000006</ele>
   </trkpt>
   <trkpt lat="-37.85419" lon="145.34983000000003">
    <ele>454.11</ele>
   </trkpt>
   <trkpt lat="-37.85378" lon="145.34931">
    <ele>446.83000000000004</ele>
   </trkpt>
   <trkpt lat="-37.85349" lon="145.34869">
    <ele>442.42</ele>
   </trkpt>
   <trkpt lat="-37.85343" lon="145.34844">
    <ele>434.37</ele>
   </trkpt>
   <trkpt lat="-37.853440000000006" lon="145.34834">
    <ele>434.1700000000001</ele>
   </trkpt>
   <trkpt lat="-37.85343" lon="145.34844">
    <ele>434.37</ele>
   </trkpt>
   <trkpt lat="-37.85349" lon="145.34869">
    <ele>442.42</ele>
   </trkpt>
   <trkpt lat="-37.85378" lon="145.34931">
    <ele>446.83000000000004</ele>
   </trkpt>
   <trkpt lat="-37.853860000000005" lon="145.34941">
    <ele>447.81000000000006</ele>
   </trkpt>
   <trkpt lat="-37.85416" lon="145.34943">
    <ele>448.27000000000004</ele>
   </trkpt>
   <trkpt lat="-37.85474500023648" lon="145.3495549990445">
    <ele>449.94000000000005</ele>
   </trkpt>
   <trkpt lat="-37.85533" lon="145.34968">
    <ele>451.91</ele>
   </trkpt>
   <trkpt lat="-37.85577" lon="145.34973000000002">
    <ele>448.55000000000007</ele>
   </trkpt>
   <trkpt lat="-37.85632999992552" lon="145.34984499909962">
    <ele>437.26000000000005</ele>
   </trkpt>
   <trkpt lat="-37.85689" lon="145.34996">
    <ele>420.36</ele>
   </trkpt>
   <trkpt lat="-37.85716" lon="145.34998000000002">
    <ele>414.93</ele>
   </trkpt>
   <trkpt lat="-37.85743" lon="145.34995">
    <ele>410.03000000000003</ele>
   </trkpt>
   <trkpt lat="-37.85757" lon="145.34989000000002">
    <ele>404.34000000000003</ele>
   </trkpt>
   <trkpt lat="-37.85781" lon="145.34966">
    <ele>399.37000000000006</ele>
   </trkpt>
   <trkpt lat="-37.85801" lon="145.34944000000002">
    <ele>395.58000000000004</ele>
   </trkpt>
   <trkpt lat="-37.8581" lon="145.34938000000002">
    <ele>394.04</ele>
   </trkpt>
   <trkpt lat="-37.85875" lon="145.34924">
    <ele>383.76000000000005</ele>
   </trkpt>
   <trkpt lat="-37.8588" lon="145.34917000000002">
    <ele>383.08000000000004</ele>
   </trkpt>
   <trkpt lat="-37.85877" lon="145.34889">
    <ele>379.72</ele>
   </trkpt>
   <trkpt lat="-37.85893" lon="145.34861">
    <ele>370.82000000000005</ele>
   </trkpt>
   <trkpt lat="-37.859" lon="145.34836">
    <ele>368.21000000000004</ele>
   </trkpt>
   <trkpt lat="-37.85902" lon="145.34832">
    <ele>367.55</ele>
   </trkpt>
   <trkpt lat="-37.859080000000006" lon="145.34832">
    <ele>366.98</ele>
   </trkpt>
   <trkpt lat="-37.8592" lon="145.34841">
    <ele>364.82000000000005</ele>
   </trkpt>
   <trkpt lat="-37.85927" lon="145.34839000000002">
    <ele>363.48</ele>
   </trkpt>
   <trkpt lat="-37.8594" lon="145.34808">
    <ele>359.69</ele>
   </trkpt>
   <trkpt lat="-37.859500000000004" lon="145.34782">
    <ele>357.55</ele>
   </trkpt>
   <trkpt lat="-37.85942" lon="145.34772">
    <ele>350.39000000000004</ele>
   </trkpt>
   <trkpt lat="-37.859410000000004" lon="145.34767000000002">
    <ele>350.39000000000004</ele>
   </trkpt>
   <trkpt lat="-37.859370000000006" lon="145.34754">
    <ele>345.84000000000003</ele>
   </trkpt>
   <trkpt lat="-37.85931" lon="145.34758000000002">
    <ele>345.84000000000003</ele>
   </trkpt>
   <trkpt lat="-37.85918" lon="145.3476">
    <ele>347.96000000000004</ele>
   </trkpt>
   <trkpt lat="-37.8586" lon="145.34761">
    <ele>351.64</ele>
   </trkpt>
   <trkpt lat="-37.85853" lon="145.34743">
    <ele>349.87</ele>
   </trkpt>
   <trkpt lat="-37.85833" lon="145.34718">
    <ele>345.64</ele>
   </trkpt>
   <trkpt lat="-37.85806" lon="145.34698">
    <ele>341.5</ele>
   </trkpt>
   <trkpt lat="-37.85797" lon="145.34686000000002">
    <ele>340.37</ele>
   </trkpt>
   <trkpt lat="-37.85783" lon="145.34678000000002">
    <ele>339.46000000000004</ele>
   </trkpt>
   <trkpt lat="-37.8575" lon="145.34649000000002">
    <ele>332.89</ele>
   </trkpt>
   <trkpt lat="-37.8573" lon="145.34642000000002">
    <ele>330.92</ele>
   </trkpt>
   <trkpt lat="-37.85703" lon="145.34640000000002">
    <ele>329.48</ele>
   </trkpt>
   <trkpt lat="-37.856860000000005" lon="145.3463">
    <ele>330.0</ele>
   </trkpt>
   <trkpt lat="-37.85663" lon="145.34618">
    <ele>334.76</ele>
   </trkpt>
   <trkpt lat="-37.85622" lon="145.34578000000002">
    <ele>342.24</ele>
   </trkpt>
   <trkpt lat="-37.85609" lon="145.34559000000002">
    <ele>346.57000000000005</ele>
   </trkpt>
   <trkpt lat="-37.85593" lon="145.34545">
    <ele>348.71000000000004</ele>
   </trkpt>
   <trkpt lat="-37.85553" lon="145.34492">
    <ele>352.15000000000003</ele>
   </trkpt>
   <trkpt lat="-37.85544" lon="145.34475">
    <ele>352.46999999999997</ele>
   </trkpt>
   <trkpt lat="-37.85528" lon="145.34457">
    <ele>353.85</ele>
   </trkpt>
   <trkpt lat="-37.85515" lon="145.34415">
    <ele>353.68000000000006</ele>
   </trkpt>
   <trkpt lat="-37.8551" lon="145.34404">
    <ele>352.41</ele>
   </trkpt>
   <trkpt lat="-37.855050000000006" lon="145.34368">
    <ele>350.04</ele>
   </trkpt>
   <trkpt lat="-37.85492" lon="145.34354000000002">
    <ele>345.89000000000004</ele>
   </trkpt>
   <trkpt lat="-37.8549" lon="145.34348">
    <ele>345.89000000000004</ele>
   </trkpt>
   <trkpt lat="-37.85488" lon="145.34337000000002">
    <ele>343.80000000000007</ele>
   </trkpt>
   <trkpt lat="-37.85492" lon="145.34293000000002">
    <ele>337.83</ele>
   </trkpt>
   <trkpt lat="-37.85474" lon="145.3426">
    <ele>332.43</ele>
   </trkpt>
   <trkpt lat="-37.85472" lon="145.34233">
    <ele>328.62</ele>
   </trkpt>
   <trkpt lat="-37.85468" lon="145.34225">
    <ele>325.83</ele>
   </trkpt>
   <trkpt lat="-37.85448" lon="145.34206">
    <ele>316.53000000000003</ele>
   </trkpt>
   <trkpt lat="-37.85419" lon="145.34158000000002">
    <ele>306.36</ele>
   </trkpt>
   <trkpt lat="-37.85387" lon="145.34123000000002">
    <ele>309.66</ele>
   </trkpt>
   <trkpt lat="-37.85374" lon="145.34099">
    <ele>309.79</ele>
   </trkpt>
   <trkpt lat="-37.85365" lon="145.34067000000002">
    <ele>306.50000000000006</ele>
   </trkpt>
   <trkpt lat="-37.85358" lon="145.33991">
    <ele>296.82000000000005</ele>
   </trkpt>
   <trkpt lat="-37.853460000000005" lon="145.33943000000002">
    <ele>295.67</ele>
   </trkpt>
   <trkpt lat="-37.8534" lon="145.33894">
    <ele>292.50000000000006</ele>
   </trkpt>
   <trkpt lat="-37.85333" lon="145.33871000000002">
    <ele>290.81</ele>
   </trkpt>
   <trkpt lat="-37.85333" lon="145.33832">
    <ele>286.55</ele>
   </trkpt>
   <trkpt lat="-37.85327" lon="145.33823">
    <ele>285.90000000000003</ele>
   </trkpt>
   <trkpt lat="-37.85313" lon="145.33813">
    <ele>288.2</ele>
   </trkpt>
   <trkpt lat="-37.85304" lon="145.33812">
    <ele>290.78000000000003</ele>
   </trkpt>
   <trkpt lat="-37.85293" lon="145.33818000000002">
    <ele>292.24</ele>
   </trkpt>
   <trkpt lat="-37.85242" lon="145.33856">
    <ele>313.24</ele>
   </trkpt>
   <trkpt lat="-37.85233" lon="145.33851">
    <ele>314.74</ele>
   </trkpt>
   <trkpt lat="-37.85215" lon="145.33823">
    <ele>316.19</ele>
   </trkpt>
   <trkpt lat="-37.85206" lon="145.33798000000002">
    <ele>316.12</ele>
   </trkpt>
   <trkpt lat="-37.8519" lon="145.33773000000002">
    <ele>316.51</ele>
   </trkpt>
   <trkpt lat="-37.85177" lon="145.33761">
    <ele>316.49000000000007</ele>
   </trkpt>
   <trkpt lat="-37.85172" lon="145.33751">
    <ele>316.18</ele>
   </trkpt>
   <trkpt lat="-37.85168" lon="145.33735000000001">
    <ele>315.48</ele>
   </trkpt>
   <trkpt lat="-37.85139" lon="145.33696">
    <ele>313.91</ele>
   </trkpt>
   <trkpt lat="-37.85116" lon="145.33651">
    <ele>310.46</ele>
   </trkpt>
   <trkpt lat="-37.851060000000004" lon="145.33639000000002">
    <ele>309.6</ele>
   </trkpt>
   <trkpt lat="-37.85096" lon="145.33634">
    <ele>309.67</ele>
   </trkpt>
   <trkpt lat="-37.85085" lon="145.33637000000002">
    <ele>309.47</ele>
   </trkpt>
   <trkpt lat="-37.85074" lon="145.33634">
    <ele>309.07</ele>
   </trkpt>
   <trkpt lat="-37.85067" lon="145.33615">
    <ele>306.94000000000005</ele>
   </trkpt>
   <trkpt lat="-37.85063" lon="145.33599">
    <ele>305.46</ele>
   </trkpt>
   <trkpt lat="-37.85051" lon="145.33530000000002">
    <ele>293.83000000000004</ele>
   </trkpt>
   <trkpt lat="-37.85051" lon="145.33468000000002">
    <ele>278.25</ele>
   </trkpt>
   <trkpt lat="-37.850645001564736" lon="145.33407000115557">
    <ele>268.67</ele>
   </trkpt>
   <trkpt lat="-37.85078" lon="145.33346">
    <ele>253.51000000000002</ele>
   </trkpt>
   <trkpt lat="-37.8508" lon="145.33325000000002">
    <ele>250.21000000000004</ele>
   </trkpt>
   <trkpt lat="-37.85076" lon="145.33294">
    <ele>244.98000000000002</ele>
   </trkpt>
   <trkpt lat="-37.85085" lon="145.33266">
    <ele>238.28</ele>
   </trkpt>
   <trkpt lat="-37.850860000000004" lon="145.33241">
    <ele>230.64000000000001</ele>
   </trkpt>
   <trkpt lat="-37.8506" lon="145.33256">
    <ele>232.24000000000004</ele>
   </trkpt>
   <trkpt lat="-37.85061" lon="145.33256">
    <ele>232.20000000000002</ele>
   </trkpt>
   <trkpt lat="-37.85036" lon="145.33271000000002">
    <ele>233.91</ele>
   </trkpt>
   <trkpt lat="-37.8502" lon="145.33283">
    <ele>234.87</ele>
   </trkpt>
   <trkpt lat="-37.85004" lon="145.333">
    <ele>236.15000000000003</ele>
   </trkpt>
   <trkpt lat="-37.84989" lon="145.33313">
    <ele>236.60000000000002</ele>
   </trkpt>
   <trkpt lat="-37.84975" lon="145.33316000000002">
    <ele>237.56</ele>
   </trkpt>
   <trkpt lat="-37.84926" lon="145.33305000000001">
    <ele>240.26000000000002</ele>
   </trkpt>
   <trkpt lat="-37.849140000000006" lon="145.33307000000002">
    <ele>240.93000000000004</ele>
   </trkpt>
   <trkpt lat="-37.84899" lon="145.33313">
    <ele>241.35</ele>
   </trkpt>
   <trkpt lat="-37.848800000000004" lon="145.33329">
    <ele>242.40000000000003</ele>
   </trkpt>
   <trkpt lat="-37.84857" lon="145.33327">
    <ele>240.37000000000003</ele>
   </trkpt>
   <trkpt lat="-37.84848" lon="145.3333">
    <ele>239.81000000000003</ele>
   </trkpt>
   <trkpt lat="-37.84841" lon="145.33336">
    <ele>239.37000000000003</ele>
   </trkpt>
   <trkpt lat="-37.848420000000004" lon="145.33336">
    <ele>239.37000000000003</ele>
   </trkpt>
   <trkpt lat="-37.84792" lon="145.33391">
    <ele>236.22</ele>
   </trkpt>
   <trkpt lat="-37.847820000000006" lon="145.33396000000002">
    <ele>235.24000000000004</ele>
   </trkpt>
   <trkpt lat="-37.84769" lon="145.33421">
    <ele>234.54000000000002</ele>
   </trkpt>
   <trkpt lat="-37.84725" lon="145.33479">
    <ele>229.66000000000003</ele>
   </trkpt>
   <trkpt lat="-37.84709" lon="145.33493">
    <ele>229.66000000000003</ele>
   </trkpt>
   <trkpt lat="-37.84675" lon="145.33514000000002">
    <ele>226.68</ele>
   </trkpt>
   <trkpt lat="-37.846560000000004" lon="145.33532000000002">
    <ele>225.52</ele>
   </trkpt>
   <trkpt lat="-37.846560000000004" lon="145.33531000000002">
    <ele>225.54000000000002</ele>
   </trkpt>
   <trkpt lat="-37.84642" lon="145.33547000000002">
    <ele>224.77</ele>
   </trkpt>
   <trkpt lat="-37.84624" lon="145.33588">
    <ele>223.34</ele>
   </trkpt>
   <trkpt lat="-37.84631" lon="145.33607">
    <ele>222.62</ele>
   </trkpt>
   <trkpt lat="-37.84626" lon="145.33624">
    <ele>222.55</ele>
   </trkpt>
   <trkpt lat="-37.8466" lon="145.33685">
    <ele>226.27</ele>
   </trkpt>
   <trkpt lat="-37.84684" lon="145.33762000000002">
    <ele>228.54000000000002</ele>
   </trkpt>
   <trkpt lat="-37.847240000000006" lon="145.33862000000002">
    <ele>236.14000000000001</ele>
   </trkpt>
   <trkpt lat="-37.84729" lon="145.33877">
    <ele>236.18000000000004</ele>
   </trkpt>
   <trkpt lat="-37.84756" lon="145.33926000000002">
    <ele>242.40000000000003</ele>
   </trkpt>
   <trkpt lat="-37.84765" lon="145.33934000000002">
    <ele>242.40000000000003</ele>
   </trkpt>
   <trkpt lat="-37.84776" lon="145.33938">
    <ele>243.16</ele>
   </trkpt>
   <trkpt lat="-37.84807" lon="145.33973">
    <ele>246.38000000000002</ele>
   </trkpt>
   <trkpt lat="-37.84816" lon="145.33994">
    <ele>247.99</ele>
   </trkpt>
   <trkpt lat="-37.84845" lon="145.34047">
    <ele>252.5</ele>
   </trkpt>
   <trkpt lat="-37.84852" lon="145.34067000000002">
    <ele>254.47000000000003</ele>
   </trkpt>
   <trkpt lat="-37.84869000161858" lon="145.3412899985462">
    <ele>258.85</ele>
   </trkpt>
   <trkpt lat="-37.84886" lon="145.34191">
    <ele>260.95</ele>
   </trkpt>
   <trkpt lat="-37.84888" lon="145.34242">
    <ele>263.14000000000004</ele>
   </trkpt>
   <trkpt lat="-37.84888" lon="145.34241">
    <ele>263.09000000000003</ele>
   </trkpt>
   <trkpt lat="-37.84886" lon="145.34281000000001">
    <ele>264.69000000000005</ele>
   </trkpt>
   <trkpt lat="-37.848770001908534" lon="145.34348000073928">
    <ele>265.99</ele>
   </trkpt>
   <trkpt lat="-37.84868" lon="145.34415">
    <ele>266.97</ele>
   </trkpt>
   <trkpt lat="-37.84861" lon="145.34492">
    <ele>268.29</ele>
   </trkpt>
   <trkpt lat="-37.848600001896216" lon="145.34559000020948">
    <ele>271.23</ele>
   </trkpt>
   <trkpt lat="-37.84859" lon="145.34626">
    <ele>275.76</ele>
   </trkpt>
   <trkpt lat="-37.84857" lon="145.34639">
    <ele>275.76</ele>
   </trkpt>
   <trkpt lat="-37.84854" lon="145.34643">
    <ele>277.72</ele>
   </trkpt>
   <trkpt lat="-37.84848" lon="145.34639">
    <ele>277.72</ele>
   </trkpt>
   <trkpt lat="-37.848200000000006" lon="145.3459">
    <ele>281.96000000000004</ele>
   </trkpt>
   <trkpt lat="-37.84798" lon="145.34563">
    <ele>284.19</ele>
   </trkpt>
   <trkpt lat="-37.84789" lon="145.34557">
    <ele>285.17</ele>
   </trkpt>
   <trkpt lat="-37.84781" lon="145.34555">
    <ele>285.17</ele>
   </trkpt>
   <trkpt lat="-37.84756" lon="145.34556">
    <ele>286.74000000000007</ele>
   </trkpt>
   <trkpt lat="-37.84745" lon="145.34555">
    <ele>286.96999999999997</ele>
   </trkpt>
   <trkpt lat="-37.84731" lon="145.34550000000002">
    <ele>287.12000000000006</ele>
   </trkpt>
   <trkpt lat="-37.84722" lon="145.34541000000002">
    <ele>287.11</ele>
   </trkpt>
   <trkpt lat="-37.847170000000006" lon="145.34528">
    <ele>287.03000000000003</ele>
   </trkpt>
   <trkpt lat="-37.84707" lon="145.34496000000001">
    <ele>286.62000000000006</ele>
   </trkpt>
   <trkpt lat="-37.84707" lon="145.34472000000002">
    <ele>286.62000000000006</ele>
   </trkpt>
   <trkpt lat="-37.84716" lon="145.34429">
    <ele>288.53000000000003</ele>
   </trkpt>
   <trkpt lat="-37.84707" lon="145.3443">
    <ele>289.97</ele>
   </trkpt>
   <trkpt lat="-37.84698" lon="145.34445000000002">
    <ele>290.96</ele>
   </trkpt>
   <trkpt lat="-37.84691" lon="145.34470000000002">
    <ele>294.28000000000003</ele>
   </trkpt>
  </trkseg>
 </trk>
</gpx>
