<?xml version="1.0" encoding="UTF-8"?>
<gpx creator="StravaGPX" version="1.1" xmlns="http://www.topografix.com/GPX/1/1" xmlns:xsi="http://www.w3.org/2001/XMLSchema-instance" xsi:schemaLocation="http://www.topografix.com/GPX/1/1 http://www.topografix.com/GPX/1/1/gpx.xsd">
 <metadata>
  <name>DTR 31 10 21</name>
  <author>
   <name>john csorgo</name>
  </author>
  <copyright author="OpenStreetMap contributors">
   <year>2020</year>
   <license>https://www.openstreetmap.org/copyright</license>
  </copyright>
 </metadata>
 <trk>
  <name>DTR 31 10 21</name>
  <link href=""/>
  <type>running</type>
  <trkseg>
   <trkpt lat="-37.85305" lon="145.32983000000002">
    <ele>210.46</ele>
   </trkpt>
   <trkpt lat="-37.85269" lon="145.33069">
    <ele>213.8</ele>
   </trkpt>
   <trkpt lat="-37.85244" lon="145.33113">
    <ele>216.15</ele>
   </trkpt>
   <trkpt lat="-37.85215" lon="145.33154000000002">
    <ele>218.28000000000003</ele>
   </trkpt>
   <trkpt lat="-37.85188" lon="145.33175">
    <ele>220.95000000000002</ele>
   </trkpt>
   <trkpt lat="-37.85141" lon="145.33196">
    <ele>224.37</ele>
   </trkpt>
   <trkpt lat="-37.8513" lon="145.33203">
    <ele>224.67000000000002</ele>
   </trkpt>
   <trkpt lat="-37.850860000000004" lon="145.33241">
    <ele>230.64000000000001</ele>
   </trkpt>
   <trkpt lat="-37.85036" lon="145.33271000000002">
    <ele>233.91</ele>
   </trkpt>
   <trkpt lat="-37.8502" lon="145.33283">
    <ele>234.87</ele>
   </trkpt>
   <trkpt lat="-37.85004" lon="145.333">
    <ele>236.15000000000003</ele>
   </trkpt>
   <trkpt lat="-37.84989" lon="145.33313">
    <ele>236.60000000000002</ele>
   </trkpt>
   <trkpt lat="-37.84975" lon="145.33316000000002">
    <ele>237.56</ele>
   </trkpt>
   <trkpt lat="-37.84926" lon="145.33305000000001">
    <ele>240.26000000000002</ele>
   </trkpt>
   <trkpt lat="-37.849140000000006" lon="145.33307000000002">
    <ele>240.93000000000004</ele>
   </trkpt>
   <trkpt lat="-37.84899" lon="145.33313">
    <ele>241.35</ele>
   </trkpt>
   <trkpt lat="-37.848800000000004" lon="145.33329">
    <ele>242.40000000000003</ele>
   </trkpt>
   <trkpt lat="-37.84868" lon="145.33328">
    <ele>241.35</ele>
   </trkpt>
   <trkpt lat="-37.84857" lon="145.33327">
    <ele>240.37000000000003</ele>
   </trkpt>
   <trkpt lat="-37.84848" lon="145.3333">
    <ele>239.81000000000003</ele>
   </trkpt>
   <trkpt lat="-37.84839" lon="145.33338">
    <ele>239.36</ele>
   </trkpt>
   <trkpt lat="-37.84792" lon="145.33391">
    <ele>236.22</ele>
   </trkpt>
   <trkpt lat="-37.84778" lon="145.33398000000003">
    <ele>235.24000000000004</ele>
   </trkpt>
   <trkpt lat="-37.84772" lon="145.33393">
    <ele>235.24000000000004</ele>
   </trkpt>
   <trkpt lat="-37.84767" lon="145.33385">
    <ele>235.24000000000004</ele>
   </trkpt>
   <trkpt lat="-37.8476" lon="145.33334000000002">
    <ele>227.78</ele>
   </trkpt>
   <trkpt lat="-37.84754" lon="145.3331">
    <ele>225.06</ele>
   </trkpt>
   <trkpt lat="-37.84745" lon="145.33298000000002">
    <ele>221.65</ele>
   </trkpt>
   <trkpt lat="-37.847390000000004" lon="145.33296">
    <ele>221.65</ele>
   </trkpt>
   <trkpt lat="-37.84731" lon="145.33297000000002">
    <ele>221.65</ele>
   </trkpt>
   <trkpt lat="-37.84713" lon="145.33309">
    <ele>219.55</ele>
   </trkpt>
   <trkpt lat="-37.84646" lon="145.33379000000002">
    <ele>214.85000000000002</ele>
   </trkpt>
   <trkpt lat="-37.84646" lon="145.33378000000002">
    <ele>214.87</ele>
   </trkpt>
   <trkpt lat="-37.84599" lon="145.33424000000002">
    <ele>212.95000000000002</ele>
   </trkpt>
   <trkpt lat="-37.84593" lon="145.33428">
    <ele>212.69000000000003</ele>
   </trkpt>
   <trkpt lat="-37.84586" lon="145.33431000000002">
    <ele>211.57</ele>
   </trkpt>
   <trkpt lat="-37.84566" lon="145.33428">
    <ele>208.32</ele>
   </trkpt>
   <trkpt lat="-37.84545" lon="145.33419">
    <ele>205.28</ele>
   </trkpt>
   <trkpt lat="-37.84485" lon="145.33372">
    <ele>200.27</ele>
   </trkpt>
   <trkpt lat="-37.84463" lon="145.33361000000002">
    <ele>201.3</ele>
   </trkpt>
   <trkpt lat="-37.84451" lon="145.33359000000002">
    <ele>202.31</ele>
   </trkpt>
   <trkpt lat="-37.84431" lon="145.33359000000002">
    <ele>203.75</ele>
   </trkpt>
   <trkpt lat="-37.84389" lon="145.33365">
    <ele>206.26000000000002</ele>
   </trkpt>
   <trkpt lat="-37.84371" lon="145.33363">
    <ele>207.27</ele>
   </trkpt>
   <trkpt lat="-37.84353" lon="145.33365">
    <ele>208.69</ele>
   </trkpt>
   <trkpt lat="-37.84313" lon="145.33376">
    <ele>213.41000000000003</ele>
   </trkpt>
   <trkpt lat="-37.84295" lon="145.33379000000002">
    <ele>217.4</ele>
   </trkpt>
   <trkpt lat="-37.84243" lon="145.33378000000002">
    <ele>223.12</ele>
   </trkpt>
   <trkpt lat="-37.84176" lon="145.3339">
    <ele>230.65</ele>
   </trkpt>
   <trkpt lat="-37.84116" lon="145.33403">
    <ele>231.92000000000002</ele>
   </trkpt>
   <trkpt lat="-37.84091" lon="145.33406000000002">
    <ele>231.72</ele>
   </trkpt>
   <trkpt lat="-37.84055" lon="145.33406000000002">
    <ele>230.79000000000002</ele>
   </trkpt>
   <trkpt lat="-37.84004" lon="145.3341">
    <ele>229.70000000000002</ele>
   </trkpt>
   <trkpt lat="-37.83954000000001" lon="145.33409">
    <ele>227.46</ele>
   </trkpt>
   <trkpt lat="-37.839220000000005" lon="145.33411">
    <ele>225.48000000000002</ele>
   </trkpt>
   <trkpt lat="-37.83923" lon="145.33411">
    <ele>225.5</ele>
   </trkpt>
   <trkpt lat="-37.83901" lon="145.33413000000002">
    <ele>225.11</ele>
   </trkpt>
   <trkpt lat="-37.83825" lon="145.33406000000002">
    <ele>228.31</ele>
   </trkpt>
   <trkpt lat="-37.838010000000004" lon="145.33407000000003">
    <ele>229.51000000000002</ele>
   </trkpt>
   <trkpt lat="-37.83722" lon="145.33425000000003">
    <ele>236.22</ele>
   </trkpt>
   <trkpt lat="-37.83677" lon="145.33428">
    <ele>236.98000000000002</ele>
   </trkpt>
   <trkpt lat="-37.83628" lon="145.33443000000003">
    <ele>237.94</ele>
   </trkpt>
   <trkpt lat="-37.835750000000004" lon="145.33454">
    <ele>238.02</ele>
   </trkpt>
   <trkpt lat="-37.835440000000006" lon="145.33481">
    <ele>237.52</ele>
   </trkpt>
   <trkpt lat="-37.83496" lon="145.33540000000002">
    <ele>236.07000000000002</ele>
   </trkpt>
   <trkpt lat="-37.834970000000006" lon="145.33546">
    <ele>237.04000000000002</ele>
   </trkpt>
   <trkpt lat="-37.83498" lon="145.33549000000002">
    <ele>237.04000000000002</ele>
   </trkpt>
   <trkpt lat="-37.835170000000005" lon="145.33556000000002">
    <ele>239.71</ele>
   </trkpt>
   <trkpt lat="-37.83538" lon="145.33562">
    <ele>243.61</ele>
   </trkpt>
   <trkpt lat="-37.83561" lon="145.33572">
    <ele>249.44000000000003</ele>
   </trkpt>
   <trkpt lat="-37.83574" lon="145.33575000000002">
    <ele>253.68</ele>
   </trkpt>
   <trkpt lat="-37.8359" lon="145.33574000000002">
    <ele>253.68</ele>
   </trkpt>
   <trkpt lat="-37.83619" lon="145.33565000000002">
    <ele>262.23</ele>
   </trkpt>
   <trkpt lat="-37.83634" lon="145.33562">
    <ele>267.46000000000004</ele>
   </trkpt>
   <trkpt lat="-37.83652" lon="145.33563">
    <ele>269.84000000000003</ele>
   </trkpt>
   <trkpt lat="-37.837050000000005" lon="145.33555">
    <ele>276.23</ele>
   </trkpt>
   <trkpt lat="-37.83731" lon="145.33561">
    <ele>279.15</ele>
   </trkpt>
   <trkpt lat="-37.83789" lon="145.33617">
    <ele>293.89000000000004</ele>
   </trkpt>
   <trkpt lat="-37.83805" lon="145.33651">
    <ele>298.75</ele>
   </trkpt>
   <trkpt lat="-37.83811" lon="145.33692000000002">
    <ele>305.81</ele>
   </trkpt>
   <trkpt lat="-37.83816" lon="145.33717000000001">
    <ele>310.21000000000004</ele>
   </trkpt>
   <trkpt lat="-37.83825" lon="145.33732">
    <ele>311.11000000000007</ele>
   </trkpt>
   <trkpt lat="-37.83845" lon="145.33756000000002">
    <ele>318.75</ele>
   </trkpt>
   <trkpt lat="-37.83876" lon="145.33791000000002">
    <ele>324.90000000000003</ele>
   </trkpt>
   <trkpt lat="-37.83928" lon="145.33822">
    <ele>333.40000000000003</ele>
   </trkpt>
   <trkpt lat="-37.839180000000006" lon="145.33816000000002">
    <ele>332.07000000000005</ele>
   </trkpt>
   <trkpt lat="-37.83928" lon="145.33822">
    <ele>333.40000000000003</ele>
   </trkpt>
   <trkpt lat="-37.83885" lon="145.33808000000002">
    <ele>330.44</ele>
   </trkpt>
   <trkpt lat="-37.83847" lon="145.33802">
    <ele>331.17</ele>
   </trkpt>
   <trkpt lat="-37.83809" lon="145.33800000000002">
    <ele>335.19000000000005</ele>
   </trkpt>
   <trkpt lat="-37.83766" lon="145.33823">
    <ele>343.34000000000003</ele>
   </trkpt>
   <trkpt lat="-37.836940000000006" lon="145.33883">
    <ele>356.56000000000006</ele>
   </trkpt>
   <trkpt lat="-37.83677" lon="145.339">
    <ele>358.14</ele>
   </trkpt>
   <trkpt lat="-37.83625" lon="145.33926000000002">
    <ele>358.94000000000005</ele>
   </trkpt>
   <trkpt lat="-37.83606" lon="145.3394">
    <ele>358.45000000000005</ele>
   </trkpt>
   <trkpt lat="-37.83576" lon="145.33959000000002">
    <ele>354.98</ele>
   </trkpt>
   <trkpt lat="-37.83543" lon="145.33977000000002">
    <ele>349.1</ele>
   </trkpt>
   <trkpt lat="-37.835150000000006" lon="145.33989000000003">
    <ele>346.27000000000004</ele>
   </trkpt>
   <trkpt lat="-37.83476500035543" lon="145.34020500169632">
    <ele>338.28000000000003</ele>
   </trkpt>
   <trkpt lat="-37.83438" lon="145.34052">
    <ele>343.61</ele>
   </trkpt>
   <trkpt lat="-37.834390000000006" lon="145.34052">
    <ele>343.41</ele>
   </trkpt>
   <trkpt lat="-37.83415" lon="145.34074">
    <ele>346.36</ele>
   </trkpt>
   <trkpt lat="-37.83397" lon="145.34079">
    <ele>343.07000000000005</ele>
   </trkpt>
   <trkpt lat="-37.83357" lon="145.34077000000002">
    <ele>332.73</ele>
   </trkpt>
   <trkpt lat="-37.83337" lon="145.34082">
    <ele>329.33</ele>
   </trkpt>
   <trkpt lat="-37.83323" lon="145.34098">
    <ele>328.36</ele>
   </trkpt>
   <trkpt lat="-37.83301" lon="145.34152">
    <ele>328.56</ele>
   </trkpt>
   <trkpt lat="-37.8327" lon="145.34184000000002">
    <ele>326.23</ele>
   </trkpt>
   <trkpt lat="-37.83238" lon="145.34191">
    <ele>328.89</ele>
   </trkpt>
   <trkpt lat="-37.83178" lon="145.34217">
    <ele>330.44</ele>
   </trkpt>
   <trkpt lat="-37.83164" lon="145.34225">
    <ele>330.15000000000003</ele>
   </trkpt>
   <trkpt lat="-37.83153" lon="145.3424">
    <ele>330.3</ele>
   </trkpt>
   <trkpt lat="-37.83144" lon="145.34259">
    <ele>330.88</ele>
   </trkpt>
   <trkpt lat="-37.83124" lon="145.34334">
    <ele>331.63000000000005</ele>
   </trkpt>
   <trkpt lat="-37.83113" lon="145.34359">
    <ele>332.47</ele>
   </trkpt>
   <trkpt lat="-37.83095" lon="145.34385">
    <ele>332.54</ele>
   </trkpt>
   <trkpt lat="-37.830560000000006" lon="145.34402">
    <ele>334.38</ele>
   </trkpt>
   <trkpt lat="-37.830560000000006" lon="145.34401000000003">
    <ele>334.34000000000003</ele>
   </trkpt>
   <trkpt lat="-37.83034" lon="145.34411">
    <ele>334.81000000000006</ele>
   </trkpt>
   <trkpt lat="-37.829930000000004" lon="145.34408000000002">
    <ele>328.90000000000003</ele>
   </trkpt>
   <trkpt lat="-37.829620000000006" lon="145.34424">
    <ele>325.26000000000005</ele>
   </trkpt>
   <trkpt lat="-37.82929" lon="145.34414">
    <ele>322.56</ele>
   </trkpt>
   <trkpt lat="-37.82912" lon="145.34417000000002">
    <ele>324.13</ele>
   </trkpt>
   <trkpt lat="-37.82891" lon="145.3443">
    <ele>328.69000000000005</ele>
   </trkpt>
   <trkpt lat="-37.82862" lon="145.34468">
    <ele>338.71</ele>
   </trkpt>
   <trkpt lat="-37.82844" lon="145.34486">
    <ele>340.52000000000004</ele>
   </trkpt>
   <trkpt lat="-37.82797" lon="145.34504">
    <ele>338.86000000000007</ele>
   </trkpt>
   <trkpt lat="-37.82755" lon="145.34513">
    <ele>340.11</ele>
   </trkpt>
   <trkpt lat="-37.826800000000006" lon="145.34566">
    <ele>351.16</ele>
   </trkpt>
   <trkpt lat="-37.82656" lon="145.34569000000002">
    <ele>356.08</ele>
   </trkpt>
   <trkpt lat="-37.82627" lon="145.34583">
    <ele>363.87</ele>
   </trkpt>
   <trkpt lat="-37.82569" lon="145.34635">
    <ele>369.1700000000001</ele>
   </trkpt>
   <trkpt lat="-37.82555" lon="145.34661">
    <ele>371.85</ele>
   </trkpt>
   <trkpt lat="-37.82555" lon="145.34660000000002">
    <ele>371.68</ele>
   </trkpt>
   <trkpt lat="-37.82531" lon="145.34704000000002">
    <ele>379.83000000000004</ele>
   </trkpt>
   <trkpt lat="-37.82506" lon="145.34728">
    <ele>389.94</ele>
   </trkpt>
   <trkpt lat="-37.824555002667815" lon="145.3480750054461">
    <ele>415.86</ele>
   </trkpt>
   <trkpt lat="-37.82405" lon="145.34887">
    <ele>422.78000000000003</ele>
   </trkpt>
   <trkpt lat="-37.823875002051466" lon="145.34956000148267">
    <ele>429.74</ele>
   </trkpt>
   <trkpt lat="-37.8237" lon="145.35025000000002">
    <ele>441.59000000000003</ele>
   </trkpt>
   <trkpt lat="-37.82343" lon="145.35046">
    <ele>443.35</ele>
   </trkpt>
   <trkpt lat="-37.823" lon="145.35069000000001">
    <ele>446.01</ele>
   </trkpt>
   <trkpt lat="-37.822590000000005" lon="145.35107000000002">
    <ele>447.26000000000005</ele>
   </trkpt>
   <trkpt lat="-37.82211" lon="145.35201">
    <ele>435.41</ele>
   </trkpt>
   <trkpt lat="-37.82159" lon="145.35263">
    <ele>418.45000000000005</ele>
   </trkpt>
   <trkpt lat="-37.82155" lon="145.35288">
    <ele>416.42</ele>
   </trkpt>
   <trkpt lat="-37.821580000000004" lon="145.35345">
    <ele>412.30000000000007</ele>
   </trkpt>
   <trkpt lat="-37.82159" lon="145.35368000000003">
    <ele>408.90000000000003</ele>
   </trkpt>
   <trkpt lat="-37.82164" lon="145.35381">
    <ele>407.19000000000005</ele>
   </trkpt>
   <trkpt lat="-37.82193" lon="145.3544">
    <ele>399.21</ele>
   </trkpt>
   <trkpt lat="-37.82204" lon="145.35479">
    <ele>394.34000000000003</ele>
   </trkpt>
   <trkpt lat="-37.82204" lon="145.35498">
    <ele>395.09000000000003</ele>
   </trkpt>
   <trkpt lat="-37.82202" lon="145.35513">
    <ele>396.45</ele>
   </trkpt>
   <trkpt lat="-37.82164" lon="145.35581000000002">
    <ele>397.83</ele>
   </trkpt>
   <trkpt lat="-37.821450000000006" lon="145.35625000000002">
    <ele>396.36</ele>
   </trkpt>
   <trkpt lat="-37.82126" lon="145.35643000000002">
    <ele>396.23</ele>
   </trkpt>
   <trkpt lat="-37.82112" lon="145.35653000000002">
    <ele>395.24</ele>
   </trkpt>
   <trkpt lat="-37.82099" lon="145.35655">
    <ele>393.53000000000003</ele>
   </trkpt>
   <trkpt lat="-37.82085" lon="145.35671000000002">
    <ele>392.84000000000003</ele>
   </trkpt>
   <trkpt lat="-37.82045" lon="145.3573">
    <ele>393.18</ele>
   </trkpt>
   <trkpt lat="-37.82043" lon="145.35744000000003">
    <ele>393.09000000000003</ele>
   </trkpt>
   <trkpt lat="-37.820420000000006" lon="145.35778000000002">
    <ele>393.17</ele>
   </trkpt>
   <trkpt lat="-37.8205" lon="145.35833000000002">
    <ele>393.71000000000004</ele>
   </trkpt>
   <trkpt lat="-37.82043" lon="145.35848000000001">
    <ele>393.77</ele>
   </trkpt>
   <trkpt lat="-37.820330000000006" lon="145.35863">
    <ele>393.91</ele>
   </trkpt>
   <trkpt lat="-37.81987" lon="145.35896000000002">
    <ele>392.17</ele>
   </trkpt>
   <trkpt lat="-37.81951" lon="145.35937">
    <ele>390.15000000000003</ele>
   </trkpt>
   <trkpt lat="-37.81929" lon="145.35952">
    <ele>390.84000000000003</ele>
   </trkpt>
   <trkpt lat="-37.819140000000004" lon="145.35955">
    <ele>389.47</ele>
   </trkpt>
   <trkpt lat="-37.81915" lon="145.35954">
    <ele>389.61</ele>
   </trkpt>
   <trkpt lat="-37.81895" lon="145.35959000000003">
    <ele>386.40000000000003</ele>
   </trkpt>
   <trkpt lat="-37.81873" lon="145.35982">
    <ele>380.32000000000005</ele>
   </trkpt>
   <trkpt lat="-37.81864" lon="145.35987">
    <ele>378.35</ele>
   </trkpt>
   <trkpt lat="-37.81857" lon="145.36003000000002">
    <ele>377.88000000000005</ele>
   </trkpt>
   <trkpt lat="-37.8187" lon="145.36094">
    <ele>388.64000000000004</ele>
   </trkpt>
   <trkpt lat="-37.8187" lon="145.36124">
    <ele>392.38</ele>
   </trkpt>
   <trkpt lat="-37.81861" lon="145.36159">
    <ele>397.01000000000005</ele>
   </trkpt>
   <trkpt lat="-37.81828" lon="145.36215">
    <ele>404.13000000000005</ele>
   </trkpt>
   <trkpt lat="-37.8181" lon="145.36234000000002">
    <ele>409.27000000000004</ele>
   </trkpt>
   <trkpt lat="-37.8177" lon="145.36251000000001">
    <ele>416.75</ele>
   </trkpt>
   <trkpt lat="-37.81734" lon="145.36311">
    <ele>426.85</ele>
   </trkpt>
   <trkpt lat="-37.81721" lon="145.36373">
    <ele>433.72</ele>
   </trkpt>
   <trkpt lat="-37.81723" lon="145.36425">
    <ele>439.81</ele>
   </trkpt>
   <trkpt lat="-37.81732" lon="145.36472">
    <ele>444.93000000000006</ele>
   </trkpt>
   <trkpt lat="-37.81732" lon="145.36471">
    <ele>444.93000000000006</ele>
   </trkpt>
   <trkpt lat="-37.81736" lon="145.36494000000002">
    <ele>444.93000000000006</ele>
   </trkpt>
   <trkpt lat="-37.81745" lon="145.36571">
    <ele>455.93000000000006</ele>
   </trkpt>
   <trkpt lat="-37.817440000000005" lon="145.36626">
    <ele>463.59000000000003</ele>
   </trkpt>
   <trkpt lat="-37.81743" lon="145.36671">
    <ele>468.90000000000003</ele>
   </trkpt>
   <trkpt lat="-37.817510000000006" lon="145.36671">
    <ele>469.03000000000003</ele>
   </trkpt>
   <trkpt lat="-37.81761" lon="145.36637000000002">
    <ele>472.36000000000007</ele>
   </trkpt>
   <trkpt lat="-37.81761" lon="145.36636000000001">
    <ele>472.39000000000004</ele>
   </trkpt>
   <trkpt lat="-37.817510000000006" lon="145.36671">
    <ele>469.03000000000003</ele>
   </trkpt>
   <trkpt lat="-37.81743" lon="145.36671">
    <ele>468.90000000000003</ele>
   </trkpt>
   <trkpt lat="-37.81745" lon="145.36571">
    <ele>455.93000000000006</ele>
   </trkpt>
   <trkpt lat="-37.81734" lon="145.36479">
    <ele>445.84000000000003</ele>
   </trkpt>
   <trkpt lat="-37.81745" lon="145.36571">
    <ele>455.93000000000006</ele>
   </trkpt>
   <trkpt lat="-37.81743" lon="145.36671">
    <ele>468.90000000000003</ele>
   </trkpt>
   <trkpt lat="-37.817510000000006" lon="145.36671">
    <ele>469.03000000000003</ele>
   </trkpt>
   <trkpt lat="-37.81765" lon="145.36620000000002">
    <ele>472.83000000000004</ele>
   </trkpt>
   <trkpt lat="-37.81772" lon="145.36602000000002">
    <ele>472.81000000000006</ele>
   </trkpt>
   <trkpt lat="-37.81772" lon="145.36601000000002">
    <ele>472.77000000000004</ele>
   </trkpt>
   <trkpt lat="-37.81774" lon="145.36595">
    <ele>472.49</ele>
   </trkpt>
   <trkpt lat="-37.81774" lon="145.36581">
    <ele>472.19000000000005</ele>
   </trkpt>
   <trkpt lat="-37.8177" lon="145.36568000000003">
    <ele>470.73</ele>
   </trkpt>
   <trkpt lat="-37.817600000000006" lon="145.36507">
    <ele>468.22</ele>
   </trkpt>
   <trkpt lat="-37.817600000000006" lon="145.36438">
    <ele>464.97</ele>
   </trkpt>
   <trkpt lat="-37.81765" lon="145.36397000000002">
    <ele>463.52000000000004</ele>
   </trkpt>
   <trkpt lat="-37.81779" lon="145.36370000000002">
    <ele>463.33</ele>
   </trkpt>
   <trkpt lat="-37.817980000000006" lon="145.36344000000003">
    <ele>462.59000000000003</ele>
   </trkpt>
   <trkpt lat="-37.8183" lon="145.36328">
    <ele>462.57000000000005</ele>
   </trkpt>
   <trkpt lat="-37.81877" lon="145.36299000000002">
    <ele>468.05</ele>
   </trkpt>
   <trkpt lat="-37.81931" lon="145.36299000000002">
    <ele>484.53000000000003</ele>
   </trkpt>
   <trkpt lat="-37.81949" lon="145.36302">
    <ele>496.34000000000003</ele>
   </trkpt>
   <trkpt lat="-37.81958" lon="145.36325000000002">
    <ele>502.07</ele>
   </trkpt>
   <trkpt lat="-37.81969" lon="145.36317000000003">
    <ele>503.45000000000005</ele>
   </trkpt>
   <trkpt lat="-37.81973" lon="145.36307000000002">
    <ele>503.51</ele>
   </trkpt>
   <trkpt lat="-37.81973" lon="145.36306000000002">
    <ele>503.50000000000006</ele>
   </trkpt>
   <trkpt lat="-37.81996" lon="145.36259">
    <ele>505.97</ele>
   </trkpt>
   <trkpt lat="-37.82016" lon="145.36235000000002">
    <ele>511.19</ele>
   </trkpt>
   <trkpt lat="-37.82092" lon="145.36214">
    <ele>536.76</ele>
   </trkpt>
   <trkpt lat="-37.82114" lon="145.36204">
    <ele>544.12</ele>
   </trkpt>
   <trkpt lat="-37.82168" lon="145.36193">
    <ele>551.5600000000001</ele>
   </trkpt>
   <trkpt lat="-37.82186" lon="145.36196">
    <ele>552.46</ele>
   </trkpt>
   <trkpt lat="-37.82222" lon="145.36195">
    <ele>552.07</ele>
   </trkpt>
   <trkpt lat="-37.822390000000006" lon="145.36191000000002">
    <ele>551.9900000000001</ele>
   </trkpt>
   <trkpt lat="-37.82251" lon="145.36179">
    <ele>551.8100000000001</ele>
   </trkpt>
   <trkpt lat="-37.82278" lon="145.36161">
    <ele>550.94</ele>
   </trkpt>
   <trkpt lat="-37.82285" lon="145.36151">
    <ele>550.8100000000001</ele>
   </trkpt>
   <trkpt lat="-37.82287" lon="145.36139">
    <ele>550.44</ele>
   </trkpt>
   <trkpt lat="-37.82251" lon="145.36086">
    <ele>540.2800000000001</ele>
   </trkpt>
   <trkpt lat="-37.82247" lon="145.36068">
    <ele>538.5699999999999</ele>
   </trkpt>
   <trkpt lat="-37.82247" lon="145.36064000000002">
    <ele>538.3100000000001</ele>
   </trkpt>
   <trkpt lat="-37.82251" lon="145.36048000000002">
    <ele>537.37</ele>
   </trkpt>
   <trkpt lat="-37.82291" lon="145.35968000000003">
    <ele>541.0200000000001</ele>
   </trkpt>
   <trkpt lat="-37.82314" lon="145.35915">
    <ele>541.8000000000001</ele>
   </trkpt>
   <trkpt lat="-37.82334" lon="145.3588">
    <ele>546.8700000000001</ele>
   </trkpt>
   <trkpt lat="-37.8237" lon="145.35811">
    <ele>547.7200000000001</ele>
   </trkpt>
   <trkpt lat="-37.82405" lon="145.35753000000003">
    <ele>545.24</ele>
   </trkpt>
   <trkpt lat="-37.82419" lon="145.35738">
    <ele>545.51</ele>
   </trkpt>
   <trkpt lat="-37.82493" lon="145.35696000000002">
    <ele>557.62</ele>
   </trkpt>
   <trkpt lat="-37.82504" lon="145.35681000000002">
    <ele>558.2900000000001</ele>
   </trkpt>
   <trkpt lat="-37.825320000000005" lon="145.35658">
    <ele>564.4200000000001</ele>
   </trkpt>
   <trkpt lat="-37.82536" lon="145.35629">
    <ele>566.88</ele>
   </trkpt>
   <trkpt lat="-37.82542" lon="145.3562">
    <ele>568.9000000000001</ele>
   </trkpt>
   <trkpt lat="-37.82542" lon="145.35619">
    <ele>569.0500000000001</ele>
   </trkpt>
   <trkpt lat="-37.82536" lon="145.35629">
    <ele>566.88</ele>
   </trkpt>
   <trkpt lat="-37.82562" lon="145.35584">
    <ele>576.23</ele>
   </trkpt>
   <trkpt lat="-37.82573" lon="145.35558">
    <ele>583.11</ele>
   </trkpt>
   <trkpt lat="-37.82598" lon="145.35515">
    <ele>589.9100000000001</ele>
   </trkpt>
   <trkpt lat="-37.8264" lon="145.35467">
    <ele>604.86</ele>
   </trkpt>
   <trkpt lat="-37.82641" lon="145.35467">
    <ele>604.9000000000001</ele>
   </trkpt>
   <trkpt lat="-37.82647" lon="145.35462">
    <ele>605.53</ele>
   </trkpt>
   <trkpt lat="-37.82665" lon="145.35438000000002">
    <ele>611.7900000000001</ele>
   </trkpt>
   <trkpt lat="-37.826750000000004" lon="145.35420000000002">
    <ele>614.45</ele>
   </trkpt>
   <trkpt lat="-37.82683" lon="145.35421000000002">
    <ele>615.08</ele>
   </trkpt>
   <trkpt lat="-37.82692" lon="145.35419000000002">
    <ele>615.83</ele>
   </trkpt>
   <trkpt lat="-37.82699" lon="145.35414">
    <ele>616.84</ele>
   </trkpt>
   <trkpt lat="-37.8271" lon="145.35397">
    <ele>619.3100000000001</ele>
   </trkpt>
   <trkpt lat="-37.82705" lon="145.35386000000003">
    <ele>619.3100000000001</ele>
   </trkpt>
   <trkpt lat="-37.826980000000006" lon="145.35382">
    <ele>622.61</ele>
   </trkpt>
   <trkpt lat="-37.82692" lon="145.35366000000002">
    <ele>622.61</ele>
   </trkpt>
   <trkpt lat="-37.82683" lon="145.35363">
    <ele>622.19</ele>
   </trkpt>
   <trkpt lat="-37.82674" lon="145.35355">
    <ele>621.8100000000001</ele>
   </trkpt>
   <trkpt lat="-37.82663" lon="145.35322000000002">
    <ele>620.73</ele>
   </trkpt>
   <trkpt lat="-37.826620000000005" lon="145.35292">
    <ele>620.14</ele>
   </trkpt>
   <trkpt lat="-37.826620000000005" lon="145.3529">
    <ele>620.11</ele>
   </trkpt>
   <trkpt lat="-37.82663" lon="145.35322000000002">
    <ele>620.73</ele>
   </trkpt>
   <trkpt lat="-37.82674" lon="145.35355">
    <ele>621.8100000000001</ele>
   </trkpt>
   <trkpt lat="-37.82683" lon="145.35363">
    <ele>622.19</ele>
   </trkpt>
   <trkpt lat="-37.82692" lon="145.35366000000002">
    <ele>622.61</ele>
   </trkpt>
   <trkpt lat="-37.826980000000006" lon="145.35382">
    <ele>622.61</ele>
   </trkpt>
   <trkpt lat="-37.82705" lon="145.35386000000003">
    <ele>619.3100000000001</ele>
   </trkpt>
   <trkpt lat="-37.8271" lon="145.35397">
    <ele>619.3100000000001</ele>
   </trkpt>
   <trkpt lat="-37.82699" lon="145.35414">
    <ele>616.84</ele>
   </trkpt>
   <trkpt lat="-37.82692" lon="145.35419000000002">
    <ele>615.83</ele>
   </trkpt>
   <trkpt lat="-37.82683" lon="145.35421000000002">
    <ele>615.08</ele>
   </trkpt>
   <trkpt lat="-37.826750000000004" lon="145.35420000000002">
    <ele>614.45</ele>
   </trkpt>
   <trkpt lat="-37.82665" lon="145.35438000000002">
    <ele>611.7900000000001</ele>
   </trkpt>
   <trkpt lat="-37.82647" lon="145.35462">
    <ele>607.51</ele>
   </trkpt>
   <trkpt lat="-37.82636" lon="145.35471">
    <ele>603.45</ele>
   </trkpt>
   <trkpt lat="-37.82598" lon="145.35515">
    <ele>589.9100000000001</ele>
   </trkpt>
   <trkpt lat="-37.82573" lon="145.35558">
    <ele>583.11</ele>
   </trkpt>
   <trkpt lat="-37.82562" lon="145.35584">
    <ele>576.23</ele>
   </trkpt>
   <trkpt lat="-37.82536" lon="145.35629">
    <ele>566.88</ele>
   </trkpt>
   <trkpt lat="-37.82529" lon="145.35569">
    <ele>570.6</ele>
   </trkpt>
   <trkpt lat="-37.82529" lon="145.35529000000002">
    <ele>571.22</ele>
   </trkpt>
   <trkpt lat="-37.82531" lon="145.35505">
    <ele>571.72</ele>
   </trkpt>
   <trkpt lat="-37.82535" lon="145.35486">
    <ele>572.73</ele>
   </trkpt>
   <trkpt lat="-37.82544" lon="145.35431">
    <ele>577.64</ele>
   </trkpt>
   <trkpt lat="-37.82555" lon="145.35337">
    <ele>584.49</ele>
   </trkpt>
   <trkpt lat="-37.82553" lon="145.35331000000002">
    <ele>584.49</ele>
   </trkpt>
   <trkpt lat="-37.82547" lon="145.35287000000002">
    <ele>584.4200000000001</ele>
   </trkpt>
   <trkpt lat="-37.82551" lon="145.35260000000002">
    <ele>583.9700000000001</ele>
   </trkpt>
   <trkpt lat="-37.82558" lon="145.35231000000002">
    <ele>583.21</ele>
   </trkpt>
   <trkpt lat="-37.82596" lon="145.35162000000003">
    <ele>579.95</ele>
   </trkpt>
   <trkpt lat="-37.82625" lon="145.35123000000002">
    <ele>577.5100000000001</ele>
   </trkpt>
   <trkpt lat="-37.826510000000006" lon="145.35105000000001">
    <ele>575.6</ele>
   </trkpt>
   <trkpt lat="-37.82652" lon="145.35105000000001">
    <ele>575.58</ele>
   </trkpt>
   <trkpt lat="-37.82658" lon="145.35101">
    <ele>575.47</ele>
   </trkpt>
   <trkpt lat="-37.82701" lon="145.35084">
    <ele>575.98</ele>
   </trkpt>
   <trkpt lat="-37.82758000007891" lon="145.35072500088367">
    <ele>573.3900000000001</ele>
   </trkpt>
   <trkpt lat="-37.82815" lon="145.35061000000002">
    <ele>574.1700000000001</ele>
   </trkpt>
   <trkpt lat="-37.8286300000965" lon="145.35060500003155">
    <ele>576.01</ele>
   </trkpt>
   <trkpt lat="-37.82911" lon="145.35060000000001">
    <ele>573.16</ele>
   </trkpt>
   <trkpt lat="-37.82943" lon="145.35047">
    <ele>567.9399999999999</ele>
   </trkpt>
   <trkpt lat="-37.82963" lon="145.35047">
    <ele>565.2600000000001</ele>
   </trkpt>
   <trkpt lat="-37.83003" lon="145.35056">
    <ele>562.0200000000001</ele>
   </trkpt>
   <trkpt lat="-37.83032" lon="145.35069000000001">
    <ele>559.47</ele>
   </trkpt>
   <trkpt lat="-37.83066" lon="145.35092">
    <ele>557.62</ele>
   </trkpt>
   <trkpt lat="-37.83093" lon="145.35097000000002">
    <ele>555.48</ele>
   </trkpt>
   <trkpt lat="-37.83122" lon="145.35091">
    <ele>555.84</ele>
   </trkpt>
   <trkpt lat="-37.83162" lon="145.35071000000002">
    <ele>562.45</ele>
   </trkpt>
   <trkpt lat="-37.83196" lon="145.35046">
    <ele>569.8000000000001</ele>
   </trkpt>
   <trkpt lat="-37.83231" lon="145.35010000000003">
    <ele>576.71</ele>
   </trkpt>
   <trkpt lat="-37.83267" lon="145.34969">
    <ele>585.0000000000001</ele>
   </trkpt>
   <trkpt lat="-37.83274" lon="145.34954000000002">
    <ele>585.5600000000001</ele>
   </trkpt>
   <trkpt lat="-37.83287" lon="145.34947000000003">
    <ele>586.37</ele>
   </trkpt>
   <trkpt lat="-37.83296" lon="145.34934">
    <ele>587.34</ele>
   </trkpt>
   <trkpt lat="-37.83323" lon="145.34911000000002">
    <ele>591.92</ele>
   </trkpt>
   <trkpt lat="-37.833330000000004" lon="145.3484">
    <ele>595.25</ele>
   </trkpt>
   <trkpt lat="-37.83346" lon="145.34808">
    <ele>594.62</ele>
   </trkpt>
   <trkpt lat="-37.83379500052499" lon="145.34767500204265">
    <ele>596.7900000000001</ele>
   </trkpt>
   <trkpt lat="-37.83413" lon="145.34727">
    <ele>596.4200000000001</ele>
   </trkpt>
   <trkpt lat="-37.8344" lon="145.34703000000002">
    <ele>596.2400000000001</ele>
   </trkpt>
   <trkpt lat="-37.83487" lon="145.34681">
    <ele>596.33</ele>
   </trkpt>
   <trkpt lat="-37.835150000000006" lon="145.34676000000002">
    <ele>596.8500000000001</ele>
   </trkpt>
   <trkpt lat="-37.83574" lon="145.34658000000002">
    <ele>600.4200000000001</ele>
   </trkpt>
   <trkpt lat="-37.83601" lon="145.34655">
    <ele>602.89</ele>
   </trkpt>
   <trkpt lat="-37.8363" lon="145.34654">
    <ele>605.87</ele>
   </trkpt>
   <trkpt lat="-37.83668" lon="145.34659000000002">
    <ele>610.58</ele>
   </trkpt>
   <trkpt lat="-37.83681" lon="145.34658000000002">
    <ele>610.36</ele>
   </trkpt>
   <trkpt lat="-37.83699" lon="145.34654">
    <ele>608.14</ele>
   </trkpt>
   <trkpt lat="-37.83706" lon="145.34649000000002">
    <ele>606.34</ele>
   </trkpt>
   <trkpt lat="-37.837250000000004" lon="145.3463">
    <ele>600.89</ele>
   </trkpt>
   <trkpt lat="-37.83726" lon="145.34629">
    <ele>600.77</ele>
   </trkpt>
   <trkpt lat="-37.83733" lon="145.34626">
    <ele>599.07</ele>
   </trkpt>
   <trkpt lat="-37.8376" lon="145.34623000000002">
    <ele>593.48</ele>
   </trkpt>
   <trkpt lat="-37.83771" lon="145.34619">
    <ele>590.1800000000001</ele>
   </trkpt>
   <trkpt lat="-37.83791" lon="145.34608">
    <ele>585.1800000000001</ele>
   </trkpt>
   <trkpt lat="-37.83813" lon="145.34605000000002">
    <ele>579.32</ele>
   </trkpt>
   <trkpt lat="-37.83834" lon="145.34596000000002">
    <ele>571.28</ele>
   </trkpt>
   <trkpt lat="-37.83843" lon="145.34587000000002">
    <ele>568.72</ele>
   </trkpt>
   <trkpt lat="-37.83856" lon="145.34584">
    <ele>565.73</ele>
   </trkpt>
   <trkpt lat="-37.83872" lon="145.34589000000003">
    <ele>564.24</ele>
   </trkpt>
   <trkpt lat="-37.83896" lon="145.34608">
    <ele>564.3900000000001</ele>
   </trkpt>
   <trkpt lat="-37.83912" lon="145.34611">
    <ele>562.06</ele>
   </trkpt>
   <trkpt lat="-37.83979" lon="145.34601">
    <ele>548.3</ele>
   </trkpt>
   <trkpt lat="-37.84004" lon="145.34603">
    <ele>542.35</ele>
   </trkpt>
   <trkpt lat="-37.84013" lon="145.34605000000002">
    <ele>540.91</ele>
   </trkpt>
   <trkpt lat="-37.84033" lon="145.34614000000002">
    <ele>539.58</ele>
   </trkpt>
   <trkpt lat="-37.84035" lon="145.34613000000002">
    <ele>537.0100000000001</ele>
   </trkpt>
   <trkpt lat="-37.84035" lon="145.34608">
    <ele>537.0100000000001</ele>
   </trkpt>
   <trkpt lat="-37.84004" lon="145.34539">
    <ele>527.3500000000001</ele>
   </trkpt>
   <trkpt lat="-37.83977" lon="145.34502">
    <ele>515.15</ele>
   </trkpt>
   <trkpt lat="-37.83977" lon="145.34496000000001">
    <ele>515.15</ele>
   </trkpt>
   <trkpt lat="-37.83979" lon="145.34494">
    <ele>515.15</ele>
   </trkpt>
   <trkpt lat="-37.8401" lon="145.34494">
    <ele>510.15</ele>
   </trkpt>
   <trkpt lat="-37.84053" lon="145.34499000000002">
    <ele>504.73</ele>
   </trkpt>
   <trkpt lat="-37.84082" lon="145.34505000000001">
    <ele>500.02</ele>
   </trkpt>
   <trkpt lat="-37.84118" lon="145.34518">
    <ele>494.7900000000001</ele>
   </trkpt>
   <trkpt lat="-37.84122" lon="145.34518">
    <ele>490.28000000000003</ele>
   </trkpt>
   <trkpt lat="-37.8412" lon="145.34506000000002">
    <ele>490.28000000000003</ele>
   </trkpt>
   <trkpt lat="-37.84066" lon="145.34425000000002">
    <ele>473.59000000000003</ele>
   </trkpt>
   <trkpt lat="-37.84051" lon="145.34409000000002">
    <ele>470.59000000000003</ele>
   </trkpt>
   <trkpt lat="-37.84028" lon="145.34392000000003">
    <ele>466.84000000000003</ele>
   </trkpt>
   <trkpt lat="-37.84024" lon="145.34384">
    <ele>465.39000000000004</ele>
   </trkpt>
   <trkpt lat="-37.840610000000005" lon="145.34386">
    <ele>462.14000000000004</ele>
   </trkpt>
   <trkpt lat="-37.84091" lon="145.34394">
    <ele>459.34000000000003</ele>
   </trkpt>
   <trkpt lat="-37.84125" lon="145.34408000000002">
    <ele>457.69000000000005</ele>
   </trkpt>
   <trkpt lat="-37.84163" lon="145.34426000000002">
    <ele>454.61</ele>
   </trkpt>
   <trkpt lat="-37.84183" lon="145.34441">
    <ele>454.08000000000004</ele>
   </trkpt>
   <trkpt lat="-37.842040000000004" lon="145.34463000000002">
    <ele>453.17</ele>
   </trkpt>
   <trkpt lat="-37.84221" lon="145.34493">
    <ele>452.26000000000005</ele>
   </trkpt>
   <trkpt lat="-37.8423" lon="145.34518">
    <ele>451.48</ele>
   </trkpt>
   <trkpt lat="-37.84239" lon="145.34554">
    <ele>450.97</ele>
   </trkpt>
   <trkpt lat="-37.84241" lon="145.34594">
    <ele>449.0</ele>
   </trkpt>
   <trkpt lat="-37.84239" lon="145.34612">
    <ele>447.95</ele>
   </trkpt>
   <trkpt lat="-37.8423" lon="145.34661">
    <ele>446.51</ele>
   </trkpt>
   <trkpt lat="-37.84228" lon="145.3468">
    <ele>445.07</ele>
   </trkpt>
   <trkpt lat="-37.84228" lon="145.347">
    <ele>444.79</ele>
   </trkpt>
   <trkpt lat="-37.842310000000005" lon="145.34722000000002">
    <ele>443.36</ele>
   </trkpt>
   <trkpt lat="-37.84232" lon="145.34731000000002">
    <ele>443.12</ele>
   </trkpt>
   <trkpt lat="-37.8423" lon="145.34775000000002">
    <ele>439.58000000000004</ele>
   </trkpt>
   <trkpt lat="-37.84221" lon="145.34804000000003">
    <ele>438.76000000000005</ele>
   </trkpt>
   <trkpt lat="-37.842000000000006" lon="145.34844">
    <ele>437.18</ele>
   </trkpt>
   <trkpt lat="-37.841770000000004" lon="145.34919000000002">
    <ele>443.98</ele>
   </trkpt>
   <trkpt lat="-37.84176" lon="145.34928000000002">
    <ele>443.98</ele>
   </trkpt>
   <trkpt lat="-37.84179" lon="145.34944000000002">
    <ele>446.57</ele>
   </trkpt>
   <trkpt lat="-37.84196" lon="145.34958">
    <ele>445.19</ele>
   </trkpt>
   <trkpt lat="-37.84219" lon="145.34969">
    <ele>443.35</ele>
   </trkpt>
   <trkpt lat="-37.84262500025573" lon="145.34986999898746">
    <ele>439.25</ele>
   </trkpt>
   <trkpt lat="-37.84306" lon="145.35005">
    <ele>436.32000000000005</ele>
   </trkpt>
   <trkpt lat="-37.843320000000006" lon="145.35011">
    <ele>435.03000000000003</ele>
   </trkpt>
   <trkpt lat="-37.84355" lon="145.35018000000002">
    <ele>433.96</ele>
   </trkpt>
   <trkpt lat="-37.84409" lon="145.35022">
    <ele>430.87</ele>
   </trkpt>
   <trkpt lat="-37.844440000000006" lon="145.35021">
    <ele>427.59000000000003</ele>
   </trkpt>
   <trkpt lat="-37.84493500020032" lon="145.35014000044447">
    <ele>423.51000000000005</ele>
   </trkpt>
   <trkpt lat="-37.84543" lon="145.35007000000002">
    <ele>419.52000000000004</ele>
   </trkpt>
   <trkpt lat="-37.846230000000006" lon="145.35004">
    <ele>415.51000000000005</ele>
   </trkpt>
   <trkpt lat="-37.84653" lon="145.35004">
    <ele>412.62000000000006</ele>
   </trkpt>
   <trkpt lat="-37.84678" lon="145.35007000000002">
    <ele>411.46000000000004</ele>
   </trkpt>
   <trkpt lat="-37.84695" lon="145.35014">
    <ele>411.61</ele>
   </trkpt>
   <trkpt lat="-37.8472" lon="145.35029">
    <ele>413.16</ele>
   </trkpt>
   <trkpt lat="-37.84767" lon="145.35063000000002">
    <ele>416.91</ele>
   </trkpt>
   <trkpt lat="-37.84796" lon="145.35092">
    <ele>417.92</ele>
   </trkpt>
   <trkpt lat="-37.84819" lon="145.35123000000002">
    <ele>420.91</ele>
   </trkpt>
   <trkpt lat="-37.8485" lon="145.35187000000002">
    <ele>426.44000000000005</ele>
   </trkpt>
   <trkpt lat="-37.848670000000006" lon="145.35243">
    <ele>432.84000000000003</ele>
   </trkpt>
   <trkpt lat="-37.84877" lon="145.35304000000002">
    <ele>437.07</ele>
   </trkpt>
   <trkpt lat="-37.84884" lon="145.35374000000002">
    <ele>440.72</ele>
   </trkpt>
   <trkpt lat="-37.84881" lon="145.35385000000002">
    <ele>441.74</ele>
   </trkpt>
   <trkpt lat="-37.84863" lon="145.35433">
    <ele>446.20000000000005</ele>
   </trkpt>
   <trkpt lat="-37.84852" lon="145.35456000000002">
    <ele>446.49000000000007</ele>
   </trkpt>
   <trkpt lat="-37.84839" lon="145.35525">
    <ele>442.79</ele>
   </trkpt>
   <trkpt lat="-37.84814" lon="145.3557">
    <ele>439.1700000000001</ele>
   </trkpt>
   <trkpt lat="-37.84812" lon="145.35582000000002">
    <ele>439.55000000000007</ele>
   </trkpt>
   <trkpt lat="-37.84814" lon="145.35590000000002">
    <ele>439.89000000000004</ele>
   </trkpt>
   <trkpt lat="-37.84821" lon="145.35601">
    <ele>440.89000000000004</ele>
   </trkpt>
   <trkpt lat="-37.84859" lon="145.35638">
    <ele>439.20000000000005</ele>
   </trkpt>
   <trkpt lat="-37.84866" lon="145.35649">
    <ele>437.94000000000005</ele>
   </trkpt>
   <trkpt lat="-37.8487" lon="145.35663000000002">
    <ele>436.9</ele>
   </trkpt>
   <trkpt lat="-37.84872" lon="145.35680000000002">
    <ele>436.14000000000004</ele>
   </trkpt>
   <trkpt lat="-37.84877" lon="145.35692">
    <ele>435.28000000000003</ele>
   </trkpt>
   <trkpt lat="-37.84886" lon="145.35699000000002">
    <ele>432.93</ele>
   </trkpt>
   <trkpt lat="-37.84895" lon="145.35702">
    <ele>431.03000000000003</ele>
   </trkpt>
   <trkpt lat="-37.84951" lon="145.35711">
    <ele>420.46000000000004</ele>
   </trkpt>
   <trkpt lat="-37.849700000000006" lon="145.35709">
    <ele>413.53</ele>
   </trkpt>
   <trkpt lat="-37.84998" lon="145.35682">
    <ele>410.38</ele>
   </trkpt>
   <trkpt lat="-37.85009" lon="145.35676">
    <ele>410.0</ele>
   </trkpt>
   <trkpt lat="-37.85025" lon="145.35662000000002">
    <ele>410.78000000000003</ele>
   </trkpt>
   <trkpt lat="-37.85054" lon="145.35639">
    <ele>413.38</ele>
   </trkpt>
   <trkpt lat="-37.85083" lon="145.35617000000002">
    <ele>413.45000000000005</ele>
   </trkpt>
   <trkpt lat="-37.85101" lon="145.35612">
    <ele>413.31</ele>
   </trkpt>
   <trkpt lat="-37.851480000049214" lon="145.35608500021982">
    <ele>412.84000000000003</ele>
   </trkpt>
   <trkpt lat="-37.85195" lon="145.35605">
    <ele>418.53000000000003</ele>
   </trkpt>
   <trkpt lat="-37.8526" lon="145.35617000000002">
    <ele>436.75</ele>
   </trkpt>
   <trkpt lat="-37.85284" lon="145.3561">
    <ele>440.39000000000004</ele>
   </trkpt>
   <trkpt lat="-37.85289" lon="145.35602">
    <ele>440.44000000000005</ele>
   </trkpt>
   <trkpt lat="-37.85298" lon="145.3556">
    <ele>439.42</ele>
   </trkpt>
   <trkpt lat="-37.853" lon="145.35505">
    <ele>437.18</ele>
   </trkpt>
   <trkpt lat="-37.85331" lon="145.35443">
    <ele>438.26000000000005</ele>
   </trkpt>
   <trkpt lat="-37.85342" lon="145.35415">
    <ele>441.98</ele>
   </trkpt>
   <trkpt lat="-37.8538" lon="145.35362">
    <ele>446.23</ele>
   </trkpt>
   <trkpt lat="-37.8538" lon="145.35361">
    <ele>446.23</ele>
   </trkpt>
   <trkpt lat="-37.85396" lon="145.35339000000002">
    <ele>448.98</ele>
   </trkpt>
   <trkpt lat="-37.854110000000006" lon="145.35328">
    <ele>452.31000000000006</ele>
   </trkpt>
   <trkpt lat="-37.854350000000004" lon="145.35299">
    <ele>454.89</ele>
   </trkpt>
   <trkpt lat="-37.85439" lon="145.35299">
    <ele>454.89</ele>
   </trkpt>
   <trkpt lat="-37.85452" lon="145.35320000000002">
    <ele>458.49000000000007</ele>
   </trkpt>
   <trkpt lat="-37.854580000000006" lon="145.35319">
    <ele>459.79</ele>
   </trkpt>
   <trkpt lat="-37.85461" lon="145.35309">
    <ele>460.9800000000001</ele>
   </trkpt>
   <trkpt lat="-37.85461" lon="145.35294000000002">
    <ele>462.97</ele>
   </trkpt>
   <trkpt lat="-37.85466" lon="145.35276000000002">
    <ele>466.05</ele>
   </trkpt>
   <trkpt lat="-37.85472" lon="145.3527">
    <ele>466.79</ele>
   </trkpt>
   <trkpt lat="-37.85486" lon="145.3523">
    <ele>472.59000000000003</ele>
   </trkpt>
   <trkpt lat="-37.855140000000006" lon="145.35198000000003">
    <ele>480.26</ele>
   </trkpt>
   <trkpt lat="-37.85521" lon="145.35193">
    <ele>481.72</ele>
   </trkpt>
   <trkpt lat="-37.85526" lon="145.35179000000002">
    <ele>482.77000000000004</ele>
   </trkpt>
   <trkpt lat="-37.85528" lon="145.35168000000002">
    <ele>484.02000000000004</ele>
   </trkpt>
   <trkpt lat="-37.855470000000004" lon="145.35148">
    <ele>486.69000000000005</ele>
   </trkpt>
   <trkpt lat="-37.85507500121872" lon="145.3509249969086">
    <ele>477.73</ele>
   </trkpt>
   <trkpt lat="-37.85468" lon="145.35037">
    <ele>469.93</ele>
   </trkpt>
   <trkpt lat="-37.85419" lon="145.34983000000003">
    <ele>454.11</ele>
   </trkpt>
   <trkpt lat="-37.853860000000005" lon="145.34941">
    <ele>447.81000000000006</ele>
   </trkpt>
   <trkpt lat="-37.85416" lon="145.34943">
    <ele>448.27000000000004</ele>
   </trkpt>
   <trkpt lat="-37.854260000000004" lon="145.34945000000002">
    <ele>448.52000000000004</ele>
   </trkpt>
   <trkpt lat="-37.854795000154375" lon="145.34956499918655">
    <ele>451.06</ele>
   </trkpt>
   <trkpt lat="-37.85533" lon="145.34968">
    <ele>451.91</ele>
   </trkpt>
   <trkpt lat="-37.85577" lon="145.34973000000002">
    <ele>448.55000000000007</ele>
   </trkpt>
   <trkpt lat="-37.85632999992552" lon="145.34984499909962">
    <ele>437.26000000000005</ele>
   </trkpt>
   <trkpt lat="-37.85689" lon="145.34996">
    <ele>420.36</ele>
   </trkpt>
   <trkpt lat="-37.85716" lon="145.34998000000002">
    <ele>414.93</ele>
   </trkpt>
   <trkpt lat="-37.85743" lon="145.34995">
    <ele>410.03000000000003</ele>
   </trkpt>
   <trkpt lat="-37.85757" lon="145.34989000000002">
    <ele>404.34000000000003</ele>
   </trkpt>
   <trkpt lat="-37.85781" lon="145.34966">
    <ele>399.37000000000006</ele>
   </trkpt>
   <trkpt lat="-37.85801" lon="145.34944000000002">
    <ele>395.58000000000004</ele>
   </trkpt>
   <trkpt lat="-37.8581" lon="145.34938000000002">
    <ele>394.04</ele>
   </trkpt>
   <trkpt lat="-37.85875" lon="145.34924">
    <ele>383.76000000000005</ele>
   </trkpt>
   <trkpt lat="-37.8588" lon="145.34917000000002">
    <ele>382.34000000000003</ele>
   </trkpt>
   <trkpt lat="-37.85877" lon="145.34889">
    <ele>379.72</ele>
   </trkpt>
   <trkpt lat="-37.85893" lon="145.34861">
    <ele>370.82000000000005</ele>
   </trkpt>
   <trkpt lat="-37.859" lon="145.34836">
    <ele>368.21000000000004</ele>
   </trkpt>
   <trkpt lat="-37.85902" lon="145.34832">
    <ele>367.55</ele>
   </trkpt>
   <trkpt lat="-37.859080000000006" lon="145.34832">
    <ele>366.98</ele>
   </trkpt>
   <trkpt lat="-37.8592" lon="145.34841">
    <ele>364.82000000000005</ele>
   </trkpt>
   <trkpt lat="-37.85927" lon="145.34839000000002">
    <ele>363.48</ele>
   </trkpt>
   <trkpt lat="-37.8594" lon="145.34808">
    <ele>359.69</ele>
   </trkpt>
   <trkpt lat="-37.859500000000004" lon="145.34782">
    <ele>357.55</ele>
   </trkpt>
   <trkpt lat="-37.86027" lon="145.34776000000002">
    <ele>365.59000000000003</ele>
   </trkpt>
   <trkpt lat="-37.86027" lon="145.34750000000003">
    <ele>365.87</ele>
   </trkpt>
   <trkpt lat="-37.86027" lon="145.34749000000002">
    <ele>365.87</ele>
   </trkpt>
   <trkpt lat="-37.8603" lon="145.34677000000002">
    <ele>363.7</ele>
   </trkpt>
   <trkpt lat="-37.86027" lon="145.3463">
    <ele>360.14</ele>
   </trkpt>
   <trkpt lat="-37.86021" lon="145.34592">
    <ele>358.25</ele>
   </trkpt>
   <trkpt lat="-37.86012" lon="145.34572">
    <ele>356.15000000000003</ele>
   </trkpt>
   <trkpt lat="-37.85994" lon="145.34545">
    <ele>353.19</ele>
   </trkpt>
   <trkpt lat="-37.859930000000006" lon="145.34519">
    <ele>349.0</ele>
   </trkpt>
   <trkpt lat="-37.860400000000006" lon="145.3451">
    <ele>342.40000000000003</ele>
   </trkpt>
   <trkpt lat="-37.860730000000004" lon="145.34489000000002">
    <ele>345.42</ele>
   </trkpt>
   <trkpt lat="-37.86074" lon="145.34489000000002">
    <ele>345.64</ele>
   </trkpt>
   <trkpt lat="-37.86121000071686" lon="145.34450000242586">
    <ele>348.90000000000003</ele>
   </trkpt>
   <trkpt lat="-37.86168" lon="145.34411">
    <ele>353.71000000000004</ele>
   </trkpt>
   <trkpt lat="-37.86189" lon="145.34416000000002">
    <ele>355.64</ele>
   </trkpt>
   <trkpt lat="-37.86195" lon="145.34400000000002">
    <ele>356.83000000000004</ele>
   </trkpt>
   <trkpt lat="-37.862" lon="145.34399000000002">
    <ele>357.55</ele>
   </trkpt>
   <trkpt lat="-37.86204" lon="145.34386">
    <ele>360.17</ele>
   </trkpt>
   <trkpt lat="-37.86211" lon="145.34383000000003">
    <ele>362.41</ele>
   </trkpt>
   <trkpt lat="-37.86229" lon="145.34367">
    <ele>367.98</ele>
   </trkpt>
   <trkpt lat="-37.86231" lon="145.34352">
    <ele>371.69</ele>
   </trkpt>
   <trkpt lat="-37.86168" lon="145.34332">
    <ele>367.7300000000001</ele>
   </trkpt>
   <trkpt lat="-37.861520000000006" lon="145.34317000000001">
    <ele>366.02</ele>
   </trkpt>
   <trkpt lat="-37.86139" lon="145.34300000000002">
    <ele>365.07</ele>
   </trkpt>
   <trkpt lat="-37.86128" lon="145.34276">
    <ele>363.38000000000005</ele>
   </trkpt>
   <trkpt lat="-37.86121" lon="145.34249">
    <ele>362.08</ele>
   </trkpt>
   <trkpt lat="-37.86108" lon="145.3417">
    <ele>357.16</ele>
   </trkpt>
   <trkpt lat="-37.86097" lon="145.34123000000002">
    <ele>353.95000000000005</ele>
   </trkpt>
   <trkpt lat="-37.86092" lon="145.34113000000002">
    <ele>353.95000000000005</ele>
   </trkpt>
   <trkpt lat="-37.8603" lon="145.34063">
    <ele>348.15000000000003</ele>
   </trkpt>
   <trkpt lat="-37.86012" lon="145.34056">
    <ele>342.25000000000006</ele>
   </trkpt>
   <trkpt lat="-37.85992" lon="145.34057">
    <ele>342.25000000000006</ele>
   </trkpt>
   <trkpt lat="-37.859930000000006" lon="145.34057">
    <ele>342.5</ele>
   </trkpt>
   <trkpt lat="-37.859460000000006" lon="145.34061">
    <ele>336.79</ele>
   </trkpt>
   <trkpt lat="-37.85927" lon="145.34058000000002">
    <ele>336.79</ele>
   </trkpt>
   <trkpt lat="-37.85913" lon="145.34049000000002">
    <ele>331.55</ele>
   </trkpt>
   <trkpt lat="-37.85902" lon="145.34036">
    <ele>331.55</ele>
   </trkpt>
   <trkpt lat="-37.85868" lon="145.33979000000002">
    <ele>322.94</ele>
   </trkpt>
   <trkpt lat="-37.85834500291492" lon="145.33895499612223">
    <ele>318.59000000000003</ele>
   </trkpt>
   <trkpt lat="-37.85801" lon="145.33812">
    <ele>310.53000000000003</ele>
   </trkpt>
   <trkpt lat="-37.85788" lon="145.33765000000002">
    <ele>306.15000000000003</ele>
   </trkpt>
   <trkpt lat="-37.85772" lon="145.33722">
    <ele>300.93</ele>
   </trkpt>
   <trkpt lat="-37.85768" lon="145.33698">
    <ele>300.93</ele>
   </trkpt>
   <trkpt lat="-37.85768" lon="145.33674000000002">
    <ele>292.96</ele>
   </trkpt>
   <trkpt lat="-37.85777" lon="145.33627">
    <ele>291.40000000000003</ele>
   </trkpt>
   <trkpt lat="-37.85799" lon="145.3357">
    <ele>285.14</ele>
   </trkpt>
   <trkpt lat="-37.85808" lon="145.33543">
    <ele>281.58</ele>
   </trkpt>
   <trkpt lat="-37.8581" lon="145.33531000000002">
    <ele>280.82</ele>
   </trkpt>
   <trkpt lat="-37.8581" lon="145.33530000000002">
    <ele>280.94</ele>
   </trkpt>
   <trkpt lat="-37.8581" lon="145.33454">
    <ele>273.81</ele>
   </trkpt>
   <trkpt lat="-37.857980000000005" lon="145.33416000000003">
    <ele>269.11</ele>
   </trkpt>
   <trkpt lat="-37.85793" lon="145.3341">
    <ele>268.65</ele>
   </trkpt>
   <trkpt lat="-37.85786" lon="145.3339">
    <ele>265.23</ele>
   </trkpt>
   <trkpt lat="-37.85774" lon="145.33369000000002">
    <ele>262.56</ele>
   </trkpt>
   <trkpt lat="-37.85755" lon="145.33302">
    <ele>254.3</ele>
   </trkpt>
   <trkpt lat="-37.85745" lon="145.33264">
    <ele>250.54000000000005</ele>
   </trkpt>
   <trkpt lat="-37.85741" lon="145.33232">
    <ele>247.59000000000003</ele>
   </trkpt>
   <trkpt lat="-37.85743" lon="145.33185">
    <ele>242.03000000000003</ele>
   </trkpt>
   <trkpt lat="-37.85739" lon="145.33149">
    <ele>236.64000000000001</ele>
   </trkpt>
   <trkpt lat="-37.85734" lon="145.33128000000002">
    <ele>235.33</ele>
   </trkpt>
   <trkpt lat="-37.85727" lon="145.33113">
    <ele>234.11</ele>
   </trkpt>
   <trkpt lat="-37.85707" lon="145.33084000000002">
    <ele>229.08</ele>
   </trkpt>
   <trkpt lat="-37.85678" lon="145.33056000000002">
    <ele>226.29000000000002</ele>
   </trkpt>
   <trkpt lat="-37.85674" lon="145.33047000000002">
    <ele>226.29000000000002</ele>
   </trkpt>
   <trkpt lat="-37.85665" lon="145.33011000000002">
    <ele>220.79000000000002</ele>
   </trkpt>
   <trkpt lat="-37.8566" lon="145.32998">
    <ele>220.12</ele>
   </trkpt>
   <trkpt lat="-37.85656" lon="145.3299">
    <ele>217.23</ele>
   </trkpt>
   <trkpt lat="-37.856460000000006" lon="145.32982">
    <ele>215.25000000000003</ele>
   </trkpt>
   <trkpt lat="-37.85633" lon="145.32976000000002">
    <ele>214.03000000000003</ele>
   </trkpt>
   <trkpt lat="-37.85627" lon="145.32971">
    <ele>214.03000000000003</ele>
   </trkpt>
   <trkpt lat="-37.85618" lon="145.32958000000002">
    <ele>211.13</ele>
   </trkpt>
   <trkpt lat="-37.85616" lon="145.32944">
    <ele>208.73000000000002</ele>
   </trkpt>
   <trkpt lat="-37.856170000000006" lon="145.32934">
    <ele>208.73000000000002</ele>
   </trkpt>
   <trkpt lat="-37.8564" lon="145.32877000000002">
    <ele>202.04000000000002</ele>
   </trkpt>
   <trkpt lat="-37.856570000000005" lon="145.32850000000002">
    <ele>199.07000000000002</ele>
   </trkpt>
   <trkpt lat="-37.85694" lon="145.32815000000002">
    <ele>192.58</ele>
   </trkpt>
   <trkpt lat="-37.85694" lon="145.32789000000002">
    <ele>189.59</ele>
   </trkpt>
   <trkpt lat="-37.85687" lon="145.32754">
    <ele>183.92000000000002</ele>
   </trkpt>
   <trkpt lat="-37.85674" lon="145.32711">
    <ele>179.81000000000003</ele>
   </trkpt>
   <trkpt lat="-37.85663401412781" lon="145.32619599472835">
    <ele>175.96</ele>
   </trkpt>
   <trkpt lat="-37.85652802119084" lon="145.3252819920851">
    <ele>174.62000000000003</ele>
   </trkpt>
   <trkpt lat="-37.856422021189104" lon="145.32436799207036">
    <ele>174.03</ele>
   </trkpt>
   <trkpt lat="-37.85631601412266" lon="145.32345399468434">
    <ele>171.04000000000002</ele>
   </trkpt>
   <trkpt lat="-37.856210000000004" lon="145.32254">
    <ele>167.55</ele>
   </trkpt>
   <trkpt lat="-37.856" lon="145.32263">
    <ele>166.9</ele>
   </trkpt>
   <trkpt lat="-37.85515" lon="145.32283">
    <ele>166.16</ele>
   </trkpt>
   <trkpt lat="-37.855160000000005" lon="145.32283">
    <ele>166.16</ele>
   </trkpt>
   <trkpt lat="-37.85441000026116" lon="145.3230000034552">
    <ele>168.85</ele>
   </trkpt>
   <trkpt lat="-37.85366000027793" lon="145.32317000345134">
    <ele>177.39000000000001</ele>
   </trkpt>
   <trkpt lat="-37.85291" lon="145.32334">
    <ele>180.12</ele>
   </trkpt>
   <trkpt lat="-37.85244" lon="145.32341000000002">
    <ele>177.59000000000003</ele>
   </trkpt>
   <trkpt lat="-37.852360000000004" lon="145.32344">
    <ele>177.59000000000003</ele>
   </trkpt>
   <trkpt lat="-37.85233" lon="145.32357000000002">
    <ele>177.77</ele>
   </trkpt>
   <trkpt lat="-37.85235" lon="145.32383000000002">
    <ele>178.42000000000002</ele>
   </trkpt>
   <trkpt lat="-37.85244" lon="145.32437000000002">
    <ele>180.68</ele>
   </trkpt>
   <trkpt lat="-37.85255000242962" lon="145.325129998779">
    <ele>183.84</ele>
   </trkpt>
   <trkpt lat="-37.85266" lon="145.32589000000002">
    <ele>188.74</ele>
   </trkpt>
   <trkpt lat="-37.8527966746853" lon="145.32686332977573">
    <ele>194.15</ele>
   </trkpt>
   <trkpt lat="-37.85293334135916" lon="145.3278366631602">
    <ele>202.96000000000004</ele>
   </trkpt>
   <trkpt lat="-37.85307" lon="145.32881">
    <ele>205.85</ele>
   </trkpt>
   <trkpt lat="-37.85313" lon="145.32939000000002">
    <ele>208.70000000000002</ele>
   </trkpt>
   <trkpt lat="-37.853120000000004" lon="145.32948000000002">
    <ele>209.08</ele>
   </trkpt>
  </trkseg>
 </trk>
</gpx>
