<?xml version="1.0" encoding="UTF-8"?>
<gpx creator="StravaGPX" version="1.1" xmlns="http://www.topografix.com/GPX/1/1" xmlns:xsi="http://www.w3.org/2001/XMLSchema-instance" xsi:schemaLocation="http://www.topografix.com/GPX/1/1 http://www.topografix.com/GPX/1/1/gpx.xsd">
 <metadata>
  <name>DTR 14 March </name>
  <author>
   <name>john csorgo</name>
  </author>
  <copyright author="OpenStreetMap contributors">
   <year>2020</year>
   <license>https://www.openstreetmap.org/copyright</license>
  </copyright>
 </metadata>
 <trk>
  <name>DTR 14 March </name>
  <link href=""/>
  <type>running</type>
  <trkseg>
   <trkpt lat="-37.86285" lon="145.35369">
    <ele>478.72</ele>
   </trkpt>
   <trkpt lat="-37.86265" lon="145.35319">
    <ele>476.34000000000003</ele>
   </trkpt>
   <trkpt lat="-37.86258" lon="145.35298">
    <ele>475.07000000000005</ele>
   </trkpt>
   <trkpt lat="-37.862570000000005" lon="145.35281">
    <ele>474.23</ele>
   </trkpt>
   <trkpt lat="-37.862460000000006" lon="145.35279">
    <ele>473.03000000000003</ele>
   </trkpt>
   <trkpt lat="-37.8624" lon="145.35274">
    <ele>473.03000000000003</ele>
   </trkpt>
   <trkpt lat="-37.862190000000005" lon="145.3522">
    <ele>469.4200000000001</ele>
   </trkpt>
   <trkpt lat="-37.86218" lon="145.35177000000002">
    <ele>467.5</ele>
   </trkpt>
   <trkpt lat="-37.8622" lon="145.3514">
    <ele>462.62</ele>
   </trkpt>
   <trkpt lat="-37.86256" lon="145.35098000000002">
    <ele>457.14000000000004</ele>
   </trkpt>
   <trkpt lat="-37.86258" lon="145.35084">
    <ele>455.31000000000006</ele>
   </trkpt>
   <trkpt lat="-37.862730000000006" lon="145.35069000000001">
    <ele>452.97</ele>
   </trkpt>
   <trkpt lat="-37.86233" lon="145.35036000000002">
    <ele>442.34</ele>
   </trkpt>
   <trkpt lat="-37.86234" lon="145.35036000000002">
    <ele>442.34</ele>
   </trkpt>
   <trkpt lat="-37.86218" lon="145.35036000000002">
    <ele>441.70000000000005</ele>
   </trkpt>
   <trkpt lat="-37.86175" lon="145.35062000000002">
    <ele>443.54</ele>
   </trkpt>
   <trkpt lat="-37.86157" lon="145.35075">
    <ele>443.93000000000006</ele>
   </trkpt>
   <trkpt lat="-37.86144" lon="145.35096000000001">
    <ele>443.09000000000003</ele>
   </trkpt>
   <trkpt lat="-37.86104" lon="145.35133000000002">
    <ele>441.77000000000004</ele>
   </trkpt>
   <trkpt lat="-37.860960000000006" lon="145.35146">
    <ele>443.91</ele>
   </trkpt>
   <trkpt lat="-37.860490000000006" lon="145.35181">
    <ele>454.07</ele>
   </trkpt>
   <trkpt lat="-37.86023" lon="145.35196000000002">
    <ele>457.5</ele>
   </trkpt>
   <trkpt lat="-37.85994" lon="145.35221">
    <ele>462.43000000000006</ele>
   </trkpt>
   <trkpt lat="-37.8596" lon="145.35241000000002">
    <ele>467.40000000000003</ele>
   </trkpt>
   <trkpt lat="-37.85945" lon="145.35244">
    <ele>469.23</ele>
   </trkpt>
   <trkpt lat="-37.8592" lon="145.35248">
    <ele>472.84000000000003</ele>
   </trkpt>
   <trkpt lat="-37.85851" lon="145.35268000000002">
    <ele>483.69000000000005</ele>
   </trkpt>
   <trkpt lat="-37.85815" lon="145.35273">
    <ele>488.29</ele>
   </trkpt>
   <trkpt lat="-37.857635000010575" lon="145.35270499982573">
    <ele>493.6</ele>
   </trkpt>
   <trkpt lat="-37.85712" lon="145.35268000000002">
    <ele>500.68</ele>
   </trkpt>
   <trkpt lat="-37.85701" lon="145.35266000000001">
    <ele>502.18000000000006</ele>
   </trkpt>
   <trkpt lat="-37.85683" lon="145.35260000000002">
    <ele>503.53000000000003</ele>
   </trkpt>
   <trkpt lat="-37.85636" lon="145.35252">
    <ele>505.41</ele>
   </trkpt>
   <trkpt lat="-37.85622" lon="145.35247">
    <ele>504.69000000000005</ele>
   </trkpt>
   <trkpt lat="-37.85614" lon="145.35240000000002">
    <ele>503.7900000000001</ele>
   </trkpt>
   <trkpt lat="-37.85580500080854" lon="145.3519449978415">
    <ele>495.2300000000001</ele>
   </trkpt>
   <trkpt lat="-37.855470000000004" lon="145.35149">
    <ele>487.61</ele>
   </trkpt>
   <trkpt lat="-37.855470000000004" lon="145.35148">
    <ele>487.50000000000006</ele>
   </trkpt>
   <trkpt lat="-37.85528" lon="145.35168000000002">
    <ele>484.93</ele>
   </trkpt>
   <trkpt lat="-37.85526" lon="145.35179000000002">
    <ele>483.74000000000007</ele>
   </trkpt>
   <trkpt lat="-37.85521" lon="145.35193">
    <ele>482.71000000000004</ele>
   </trkpt>
   <trkpt lat="-37.855140000000006" lon="145.35198000000003">
    <ele>481.29</ele>
   </trkpt>
   <trkpt lat="-37.85486" lon="145.3523">
    <ele>473.73</ele>
   </trkpt>
   <trkpt lat="-37.85472" lon="145.3527">
    <ele>467.67</ele>
   </trkpt>
   <trkpt lat="-37.85466" lon="145.35276000000002">
    <ele>466.93</ele>
   </trkpt>
   <trkpt lat="-37.85461" lon="145.35294000000002">
    <ele>463.81000000000006</ele>
   </trkpt>
   <trkpt lat="-37.85461" lon="145.35309">
    <ele>461.74</ele>
   </trkpt>
   <trkpt lat="-37.854580000000006" lon="145.35319">
    <ele>459.87000000000006</ele>
   </trkpt>
   <trkpt lat="-37.85452" lon="145.35320000000002">
    <ele>459.87000000000006</ele>
   </trkpt>
   <trkpt lat="-37.85439" lon="145.35299">
    <ele>457.13000000000005</ele>
   </trkpt>
   <trkpt lat="-37.854350000000004" lon="145.35299">
    <ele>455.81000000000006</ele>
   </trkpt>
   <trkpt lat="-37.854110000000006" lon="145.35328">
    <ele>453.03000000000003</ele>
   </trkpt>
   <trkpt lat="-37.85396" lon="145.35339000000002">
    <ele>450.34000000000003</ele>
   </trkpt>
   <trkpt lat="-37.85342" lon="145.35415">
    <ele>442.63</ele>
   </trkpt>
   <trkpt lat="-37.85331" lon="145.35443">
    <ele>439.42</ele>
   </trkpt>
   <trkpt lat="-37.853" lon="145.35505">
    <ele>438.13</ele>
   </trkpt>
   <trkpt lat="-37.85298" lon="145.3556">
    <ele>440.45000000000005</ele>
   </trkpt>
   <trkpt lat="-37.85289" lon="145.35602">
    <ele>441.31</ele>
   </trkpt>
   <trkpt lat="-37.85284" lon="145.3561">
    <ele>441.1</ele>
   </trkpt>
   <trkpt lat="-37.85275" lon="145.35644000000002">
    <ele>463.0</ele>
   </trkpt>
   <trkpt lat="-37.85264" lon="145.35660000000001">
    <ele>463.87000000000006</ele>
   </trkpt>
   <trkpt lat="-37.85239" lon="145.35723000000002">
    <ele>472.17</ele>
   </trkpt>
   <trkpt lat="-37.852230000000006" lon="145.3574">
    <ele>475.15000000000003</ele>
   </trkpt>
   <trkpt lat="-37.8521" lon="145.35760000000002">
    <ele>476.16</ele>
   </trkpt>
   <trkpt lat="-37.85195" lon="145.35778000000002">
    <ele>478.92</ele>
   </trkpt>
   <trkpt lat="-37.851910000000004" lon="145.35784">
    <ele>479.99</ele>
   </trkpt>
   <trkpt lat="-37.85177" lon="145.35780000000003">
    <ele>476.36000000000007</ele>
   </trkpt>
   <trkpt lat="-37.85157" lon="145.35757">
    <ele>468.40000000000003</ele>
   </trkpt>
   <trkpt lat="-37.8515" lon="145.35757">
    <ele>466.0</ele>
   </trkpt>
   <trkpt lat="-37.85132" lon="145.35802">
    <ele>469.85</ele>
   </trkpt>
   <trkpt lat="-37.85121" lon="145.35867000000002">
    <ele>472.72</ele>
   </trkpt>
   <trkpt lat="-37.851110000000006" lon="145.35914000000002">
    <ele>470.51000000000005</ele>
   </trkpt>
   <trkpt lat="-37.85092" lon="145.35967000000002">
    <ele>472.16</ele>
   </trkpt>
   <trkpt lat="-37.85085" lon="145.35979">
    <ele>475.14000000000004</ele>
   </trkpt>
   <trkpt lat="-37.850730000000006" lon="145.35992000000002">
    <ele>478.57000000000005</ele>
   </trkpt>
   <trkpt lat="-37.850640000000006" lon="145.35994000000002">
    <ele>479.23</ele>
   </trkpt>
   <trkpt lat="-37.85051" lon="145.35993000000002">
    <ele>481.03000000000003</ele>
   </trkpt>
   <trkpt lat="-37.850030000000004" lon="145.35998">
    <ele>491.77000000000004</ele>
   </trkpt>
   <trkpt lat="-37.84998" lon="145.35998">
    <ele>492.58</ele>
   </trkpt>
   <trkpt lat="-37.84978" lon="145.35994000000002">
    <ele>496.70000000000005</ele>
   </trkpt>
   <trkpt lat="-37.84942" lon="145.35956000000002">
    <ele>500.88</ele>
   </trkpt>
   <trkpt lat="-37.84913" lon="145.35913000000002">
    <ele>504.2000000000001</ele>
   </trkpt>
   <trkpt lat="-37.84874500075761" lon="145.35868999763292">
    <ele>503.15</ele>
   </trkpt>
   <trkpt lat="-37.84836" lon="145.35825">
    <ele>499.1</ele>
   </trkpt>
   <trkpt lat="-37.84792" lon="145.35783">
    <ele>499.05</ele>
   </trkpt>
   <trkpt lat="-37.84772" lon="145.35770000000002">
    <ele>501.96000000000004</ele>
   </trkpt>
   <trkpt lat="-37.84754" lon="145.35752000000002">
    <ele>503.02000000000004</ele>
   </trkpt>
   <trkpt lat="-37.84713" lon="145.35719">
    <ele>502.41</ele>
   </trkpt>
   <trkpt lat="-37.84682" lon="145.35668">
    <ele>499.1700000000001</ele>
   </trkpt>
   <trkpt lat="-37.84651" lon="145.3563">
    <ele>502.92999999999995</ele>
   </trkpt>
   <trkpt lat="-37.84626" lon="145.35571000000002">
    <ele>507.57000000000005</ele>
   </trkpt>
   <trkpt lat="-37.84624" lon="145.35552">
    <ele>507.81000000000006</ele>
   </trkpt>
   <trkpt lat="-37.84631" lon="145.3554">
    <ele>507.55000000000007</ele>
   </trkpt>
   <trkpt lat="-37.84662" lon="145.35509000000002">
    <ele>505.24</ele>
   </trkpt>
   <trkpt lat="-37.84673" lon="145.35492000000002">
    <ele>504.99000000000007</ele>
   </trkpt>
   <trkpt lat="-37.846810000000005" lon="145.35467">
    <ele>505.92</ele>
   </trkpt>
   <trkpt lat="-37.84698" lon="145.35392000000002">
    <ele>503.0800000000001</ele>
   </trkpt>
   <trkpt lat="-37.84691" lon="145.35384000000002">
    <ele>506.4700000000001</ele>
   </trkpt>
   <trkpt lat="-37.84685" lon="145.35385000000002">
    <ele>506.4700000000001</ele>
   </trkpt>
   <trkpt lat="-37.84682" lon="145.35361">
    <ele>507.84000000000003</ele>
   </trkpt>
   <trkpt lat="-37.84671" lon="145.35329000000002">
    <ele>509.12</ele>
   </trkpt>
   <trkpt lat="-37.84657" lon="145.35303000000002">
    <ele>510.3500000000001</ele>
   </trkpt>
   <trkpt lat="-37.84633" lon="145.35282">
    <ele>511.87000000000006</ele>
   </trkpt>
   <trkpt lat="-37.846230000000006" lon="145.35278000000002">
    <ele>512.26</ele>
   </trkpt>
   <trkpt lat="-37.84601" lon="145.35263">
    <ele>512.6200000000001</ele>
   </trkpt>
   <trkpt lat="-37.845850000000006" lon="145.35258000000002">
    <ele>512.35</ele>
   </trkpt>
   <trkpt lat="-37.84568" lon="145.35238">
    <ele>510.31000000000006</ele>
   </trkpt>
   <trkpt lat="-37.845690000000005" lon="145.35239">
    <ele>510.33000000000004</ele>
   </trkpt>
   <trkpt lat="-37.84557" lon="145.35234">
    <ele>509.94000000000005</ele>
   </trkpt>
   <trkpt lat="-37.84503" lon="145.3523">
    <ele>509.56</ele>
   </trkpt>
   <trkpt lat="-37.84476" lon="145.35224000000002">
    <ele>509.2000000000001</ele>
   </trkpt>
   <trkpt lat="-37.84454" lon="145.35216">
    <ele>509.34000000000003</ele>
   </trkpt>
   <trkpt lat="-37.844350000000006" lon="145.35216">
    <ele>511.56</ele>
   </trkpt>
   <trkpt lat="-37.84407" lon="145.35236">
    <ele>518.33</ele>
   </trkpt>
   <trkpt lat="-37.843790000000006" lon="145.35248">
    <ele>522.8900000000001</ele>
   </trkpt>
   <trkpt lat="-37.8436" lon="145.35240000000002">
    <ele>524.14</ele>
   </trkpt>
   <trkpt lat="-37.84348" lon="145.3523">
    <ele>524.14</ele>
   </trkpt>
   <trkpt lat="-37.84335" lon="145.35238">
    <ele>524.3500000000001</ele>
   </trkpt>
   <trkpt lat="-37.84362" lon="145.3528">
    <ele>529.34</ele>
   </trkpt>
   <trkpt lat="-37.84369" lon="145.35302000000001">
    <ele>531.52</ele>
   </trkpt>
   <trkpt lat="-37.843560000000004" lon="145.35324">
    <ele>532.95</ele>
   </trkpt>
   <trkpt lat="-37.84281" lon="145.35295000000002">
    <ele>537.39</ele>
   </trkpt>
   <trkpt lat="-37.84207" lon="145.35285000000002">
    <ele>542.27</ele>
   </trkpt>
   <trkpt lat="-37.84131000019206" lon="145.35304000194796">
    <ele>544.42</ele>
   </trkpt>
   <trkpt lat="-37.84055" lon="145.35323000000002">
    <ele>546.91</ele>
   </trkpt>
   <trkpt lat="-37.84055" lon="145.35324">
    <ele>546.9300000000001</ele>
   </trkpt>
   <trkpt lat="-37.84051" lon="145.3528">
    <ele>547.54</ele>
   </trkpt>
   <trkpt lat="-37.84042" lon="145.35260000000002">
    <ele>547.86</ele>
   </trkpt>
   <trkpt lat="-37.83958500063917" lon="145.3522099955832">
    <ele>551.48</ele>
   </trkpt>
   <trkpt lat="-37.838750000000005" lon="145.35182">
    <ele>558.0</ele>
   </trkpt>
   <trkpt lat="-37.83836" lon="145.3512">
    <ele>567.57</ele>
   </trkpt>
   <trkpt lat="-37.83813" lon="145.35073">
    <ele>571.88</ele>
   </trkpt>
   <trkpt lat="-37.837920000000004" lon="145.35055">
    <ele>575.1800000000001</ele>
   </trkpt>
   <trkpt lat="-37.83775" lon="145.34975">
    <ele>569.43</ele>
   </trkpt>
   <trkpt lat="-37.83773" lon="145.34957">
    <ele>571.46</ele>
   </trkpt>
   <trkpt lat="-37.83796500227668" lon="145.34883500236413">
    <ele>573.3600000000001</ele>
   </trkpt>
   <trkpt lat="-37.8382" lon="145.34810000000002">
    <ele>586.07</ele>
   </trkpt>
   <trkpt lat="-37.83809" lon="145.34758000000002">
    <ele>597.89</ele>
   </trkpt>
   <trkpt lat="-37.838100000000004" lon="145.34758000000002">
    <ele>595.13</ele>
   </trkpt>
   <trkpt lat="-37.837860000000006" lon="145.34767000000002">
    <ele>598.72</ele>
   </trkpt>
   <trkpt lat="-37.83722666879709" lon="145.3481733419855">
    <ele>599.98</ele>
   </trkpt>
   <trkpt lat="-37.83659333545205" lon="145.34867667532802">
    <ele>600.7300000000001</ele>
   </trkpt>
   <trkpt lat="-37.83596" lon="145.34918000000002">
    <ele>601.0600000000001</ele>
   </trkpt>
   <trkpt lat="-37.83531" lon="145.34941">
    <ele>600.9000000000001</ele>
   </trkpt>
   <trkpt lat="-37.83525" lon="145.34979">
    <ele>594.41</ele>
   </trkpt>
   <trkpt lat="-37.83489" lon="145.34972000000002">
    <ele>595.97</ele>
   </trkpt>
   <trkpt lat="-37.83422" lon="145.34982000000002">
    <ele>592.82</ele>
   </trkpt>
   <trkpt lat="-37.83402" lon="145.34993">
    <ele>590.21</ele>
   </trkpt>
   <trkpt lat="-37.83379" lon="145.35012">
    <ele>587.87</ele>
   </trkpt>
   <trkpt lat="-37.83361" lon="145.35041">
    <ele>586.43</ele>
   </trkpt>
   <trkpt lat="-37.83328" lon="145.35001000000003">
    <ele>590.23</ele>
   </trkpt>
   <trkpt lat="-37.83321" lon="145.34988">
    <ele>590.7600000000001</ele>
   </trkpt>
   <trkpt lat="-37.83319" lon="145.34932">
    <ele>589.5400000000001</ele>
   </trkpt>
   <trkpt lat="-37.833090000000006" lon="145.34922">
    <ele>589.48</ele>
   </trkpt>
   <trkpt lat="-37.8331" lon="145.34921">
    <ele>589.48</ele>
   </trkpt>
   <trkpt lat="-37.833090000000006" lon="145.34922">
    <ele>589.46</ele>
   </trkpt>
   <trkpt lat="-37.83323" lon="145.34911000000002">
    <ele>591.7900000000001</ele>
   </trkpt>
   <trkpt lat="-37.833330000000004" lon="145.3484">
    <ele>595.36</ele>
   </trkpt>
   <trkpt lat="-37.83346" lon="145.34808">
    <ele>595.07</ele>
   </trkpt>
   <trkpt lat="-37.83379500052499" lon="145.34767500204265">
    <ele>597.41</ele>
   </trkpt>
   <trkpt lat="-37.83413" lon="145.34727">
    <ele>597.1200000000001</ele>
   </trkpt>
   <trkpt lat="-37.8344" lon="145.34703000000002">
    <ele>597.13</ele>
   </trkpt>
   <trkpt lat="-37.83487" lon="145.34681">
    <ele>597.04</ele>
   </trkpt>
   <trkpt lat="-37.835150000000006" lon="145.34676000000002">
    <ele>597.5100000000001</ele>
   </trkpt>
   <trkpt lat="-37.83574" lon="145.34658000000002">
    <ele>601.3900000000001</ele>
   </trkpt>
   <trkpt lat="-37.83601" lon="145.34655">
    <ele>604.38</ele>
   </trkpt>
   <trkpt lat="-37.8363" lon="145.34654">
    <ele>606.75</ele>
   </trkpt>
   <trkpt lat="-37.83668" lon="145.34659000000002">
    <ele>611.35</ele>
   </trkpt>
   <trkpt lat="-37.83681" lon="145.34658000000002">
    <ele>611.09</ele>
   </trkpt>
   <trkpt lat="-37.83699" lon="145.34654">
    <ele>608.85</ele>
   </trkpt>
   <trkpt lat="-37.83706" lon="145.34649000000002">
    <ele>607.02</ele>
   </trkpt>
   <trkpt lat="-37.83726" lon="145.34629">
    <ele>600.6700000000001</ele>
   </trkpt>
   <trkpt lat="-37.83733" lon="145.34626">
    <ele>598.77</ele>
   </trkpt>
   <trkpt lat="-37.8376" lon="145.34623000000002">
    <ele>593.2700000000001</ele>
   </trkpt>
   <trkpt lat="-37.83771" lon="145.34619">
    <ele>589.7800000000001</ele>
   </trkpt>
   <trkpt lat="-37.83791" lon="145.34608">
    <ele>584.74</ele>
   </trkpt>
   <trkpt lat="-37.83813" lon="145.34605000000002">
    <ele>580.2</ele>
   </trkpt>
   <trkpt lat="-37.83834" lon="145.34596000000002">
    <ele>570.71</ele>
   </trkpt>
   <trkpt lat="-37.83843" lon="145.34587000000002">
    <ele>569.44</ele>
   </trkpt>
   <trkpt lat="-37.83856" lon="145.34584">
    <ele>566.4100000000001</ele>
   </trkpt>
   <trkpt lat="-37.83872" lon="145.34589000000003">
    <ele>565.24</ele>
   </trkpt>
   <trkpt lat="-37.83896" lon="145.34608">
    <ele>565.5400000000001</ele>
   </trkpt>
   <trkpt lat="-37.83912" lon="145.34611">
    <ele>562.97</ele>
   </trkpt>
   <trkpt lat="-37.83979" lon="145.34601">
    <ele>547.7200000000001</ele>
   </trkpt>
   <trkpt lat="-37.84013" lon="145.34605000000002">
    <ele>542.19</ele>
   </trkpt>
   <trkpt lat="-37.84033" lon="145.34614000000002">
    <ele>538.98</ele>
   </trkpt>
   <trkpt lat="-37.84035" lon="145.34611">
    <ele>538.98</ele>
   </trkpt>
   <trkpt lat="-37.84035" lon="145.34613000000002">
    <ele>539.1</ele>
   </trkpt>
   <trkpt lat="-37.84035" lon="145.34608">
    <ele>539.1</ele>
   </trkpt>
   <trkpt lat="-37.84004" lon="145.34539">
    <ele>528.5000000000001</ele>
   </trkpt>
   <trkpt lat="-37.83977" lon="145.34502">
    <ele>519.48</ele>
   </trkpt>
   <trkpt lat="-37.83977" lon="145.34496000000001">
    <ele>516.2800000000001</ele>
   </trkpt>
   <trkpt lat="-37.83979" lon="145.34494">
    <ele>516.2800000000001</ele>
   </trkpt>
   <trkpt lat="-37.8401" lon="145.34494">
    <ele>512.9</ele>
   </trkpt>
   <trkpt lat="-37.84053" lon="145.34499000000002">
    <ele>505.5900000000001</ele>
   </trkpt>
   <trkpt lat="-37.84082" lon="145.34505000000001">
    <ele>499.37</ele>
   </trkpt>
   <trkpt lat="-37.84118" lon="145.34518">
    <ele>496.33000000000004</ele>
   </trkpt>
   <trkpt lat="-37.84122" lon="145.34518">
    <ele>496.33000000000004</ele>
   </trkpt>
   <trkpt lat="-37.84122" lon="145.34513">
    <ele>489.14</ele>
   </trkpt>
   <trkpt lat="-37.8412" lon="145.34506000000002">
    <ele>489.14</ele>
   </trkpt>
   <trkpt lat="-37.84066" lon="145.34425000000002">
    <ele>474.07000000000005</ele>
   </trkpt>
   <trkpt lat="-37.84051" lon="145.34409000000002">
    <ele>470.97</ele>
   </trkpt>
   <trkpt lat="-37.84028" lon="145.34392000000003">
    <ele>467.12</ele>
   </trkpt>
   <trkpt lat="-37.84024" lon="145.34384">
    <ele>465.72</ele>
   </trkpt>
   <trkpt lat="-37.84057" lon="145.34386">
    <ele>462.84000000000003</ele>
   </trkpt>
   <trkpt lat="-37.84091" lon="145.34394">
    <ele>460.21000000000004</ele>
   </trkpt>
   <trkpt lat="-37.84125" lon="145.34408000000002">
    <ele>456.41</ele>
   </trkpt>
   <trkpt lat="-37.84163" lon="145.34426000000002">
    <ele>454.77000000000004</ele>
   </trkpt>
   <trkpt lat="-37.84183" lon="145.34441">
    <ele>453.90000000000003</ele>
   </trkpt>
   <trkpt lat="-37.842040000000004" lon="145.34463000000002">
    <ele>453.34000000000003</ele>
   </trkpt>
   <trkpt lat="-37.84221" lon="145.34493">
    <ele>452.77000000000004</ele>
   </trkpt>
   <trkpt lat="-37.8423" lon="145.34518">
    <ele>451.70000000000005</ele>
   </trkpt>
   <trkpt lat="-37.84239" lon="145.34554">
    <ele>450.59000000000003</ele>
   </trkpt>
   <trkpt lat="-37.84241" lon="145.34594">
    <ele>448.76000000000005</ele>
   </trkpt>
   <trkpt lat="-37.84239" lon="145.34612">
    <ele>448.03000000000003</ele>
   </trkpt>
   <trkpt lat="-37.8423" lon="145.34661">
    <ele>446.70000000000005</ele>
   </trkpt>
   <trkpt lat="-37.84228" lon="145.3468">
    <ele>445.6</ele>
   </trkpt>
   <trkpt lat="-37.84228" lon="145.347">
    <ele>444.38000000000005</ele>
   </trkpt>
   <trkpt lat="-37.84232" lon="145.34731000000002">
    <ele>443.50000000000006</ele>
   </trkpt>
   <trkpt lat="-37.8423" lon="145.34775000000002">
    <ele>440.48</ele>
   </trkpt>
   <trkpt lat="-37.84221" lon="145.34804000000003">
    <ele>439.03000000000003</ele>
   </trkpt>
   <trkpt lat="-37.842000000000006" lon="145.34844">
    <ele>437.50000000000006</ele>
   </trkpt>
   <trkpt lat="-37.841860000000004" lon="145.34887">
    <ele>436.01</ele>
   </trkpt>
   <trkpt lat="-37.84198000000001" lon="145.34904">
    <ele>432.18</ele>
   </trkpt>
   <trkpt lat="-37.8421" lon="145.34902000000002">
    <ele>429.07000000000005</ele>
   </trkpt>
   <trkpt lat="-37.84219" lon="145.34892000000002">
    <ele>426.05</ele>
   </trkpt>
   <trkpt lat="-37.84237" lon="145.3488">
    <ele>423.15000000000003</ele>
   </trkpt>
   <trkpt lat="-37.842760000000006" lon="145.34866000000002">
    <ele>413.38</ele>
   </trkpt>
   <trkpt lat="-37.84286" lon="145.34865000000002">
    <ele>411.65000000000003</ele>
   </trkpt>
   <trkpt lat="-37.84297" lon="145.34869">
    <ele>409.17</ele>
   </trkpt>
   <trkpt lat="-37.84304" lon="145.34869">
    <ele>409.17</ele>
   </trkpt>
   <trkpt lat="-37.84313" lon="145.34868">
    <ele>407.68</ele>
   </trkpt>
   <trkpt lat="-37.84322" lon="145.34862">
    <ele>406.05</ele>
   </trkpt>
   <trkpt lat="-37.84328" lon="145.34847000000002">
    <ele>405.36000000000007</ele>
   </trkpt>
   <trkpt lat="-37.84337" lon="145.34801000000002">
    <ele>403.11</ele>
   </trkpt>
   <trkpt lat="-37.84362" lon="145.34750000000003">
    <ele>397.26000000000005</ele>
   </trkpt>
   <trkpt lat="-37.84357" lon="145.34719">
    <ele>398.56</ele>
   </trkpt>
   <trkpt lat="-37.84342" lon="145.34677000000002">
    <ele>399.17</ele>
   </trkpt>
   <trkpt lat="-37.84342" lon="145.34661">
    <ele>399.14000000000004</ele>
   </trkpt>
   <trkpt lat="-37.84331" lon="145.34614000000002">
    <ele>401.15</ele>
   </trkpt>
   <trkpt lat="-37.84317" lon="145.34537">
    <ele>401.13000000000005</ele>
   </trkpt>
   <trkpt lat="-37.84328" lon="145.34499000000002">
    <ele>397.4800000000001</ele>
   </trkpt>
   <trkpt lat="-37.84326" lon="145.34479000000002">
    <ele>396.0</ele>
   </trkpt>
   <trkpt lat="-37.84328" lon="145.34459">
    <ele>394.84000000000003</ele>
   </trkpt>
   <trkpt lat="-37.84333" lon="145.3444">
    <ele>391.61</ele>
   </trkpt>
   <trkpt lat="-37.84353" lon="145.34413">
    <ele>385.03000000000003</ele>
   </trkpt>
   <trkpt lat="-37.84364" lon="145.34393">
    <ele>385.03000000000003</ele>
   </trkpt>
   <trkpt lat="-37.84371" lon="145.34359">
    <ele>381.99000000000007</ele>
   </trkpt>
   <trkpt lat="-37.84378" lon="145.34388">
    <ele>378.06</ele>
   </trkpt>
   <trkpt lat="-37.84373" lon="145.34419000000003">
    <ele>374.01</ele>
   </trkpt>
   <trkpt lat="-37.843790000000006" lon="145.34432">
    <ele>371.87</ele>
   </trkpt>
   <trkpt lat="-37.844" lon="145.34427000000002">
    <ele>364.03000000000003</ele>
   </trkpt>
   <trkpt lat="-37.84422" lon="145.3443">
    <ele>360.43</ele>
   </trkpt>
   <trkpt lat="-37.84416" lon="145.34442">
    <ele>358.95000000000005</ele>
   </trkpt>
   <trkpt lat="-37.84416" lon="145.34455">
    <ele>357.03000000000003</ele>
   </trkpt>
   <trkpt lat="-37.8442" lon="145.34464">
    <ele>355.48</ele>
   </trkpt>
   <trkpt lat="-37.84427" lon="145.34468">
    <ele>353.51000000000005</ele>
   </trkpt>
   <trkpt lat="-37.84436" lon="145.34470000000002">
    <ele>352.41</ele>
   </trkpt>
   <trkpt lat="-37.84451" lon="145.34465">
    <ele>347.79</ele>
   </trkpt>
   <trkpt lat="-37.84469" lon="145.34469">
    <ele>342.38</ele>
   </trkpt>
   <trkpt lat="-37.8446" lon="145.34483">
    <ele>343.04</ele>
   </trkpt>
   <trkpt lat="-37.84456" lon="145.34508000000002">
    <ele>343.51000000000005</ele>
   </trkpt>
   <trkpt lat="-37.8446" lon="145.34527">
    <ele>343.74000000000007</ele>
   </trkpt>
   <trkpt lat="-37.84483" lon="145.34551000000002">
    <ele>344.81</ele>
   </trkpt>
   <trkpt lat="-37.84505" lon="145.34582">
    <ele>344.54</ele>
   </trkpt>
   <trkpt lat="-37.8451" lon="145.34592">
    <ele>344.73</ele>
   </trkpt>
   <trkpt lat="-37.845060000000004" lon="145.34613000000002">
    <ele>346.06</ele>
   </trkpt>
   <trkpt lat="-37.84519" lon="145.34607000000003">
    <ele>341.56</ele>
   </trkpt>
   <trkpt lat="-37.84543" lon="145.3459">
    <ele>337.31000000000006</ele>
   </trkpt>
   <trkpt lat="-37.84548" lon="145.34592">
    <ele>336.58000000000004</ele>
   </trkpt>
   <trkpt lat="-37.84561" lon="145.34591">
    <ele>333.24</ele>
   </trkpt>
   <trkpt lat="-37.845650000000006" lon="145.34588000000002">
    <ele>333.24</ele>
   </trkpt>
   <trkpt lat="-37.84566" lon="145.34605000000002">
    <ele>335.29</ele>
   </trkpt>
   <trkpt lat="-37.84566" lon="145.34625">
    <ele>337.75000000000006</ele>
   </trkpt>
   <trkpt lat="-37.8455" lon="145.34657">
    <ele>342.52000000000004</ele>
   </trkpt>
   <trkpt lat="-37.84539" lon="145.34672">
    <ele>345.64</ele>
   </trkpt>
   <trkpt lat="-37.84532" lon="145.34689">
    <ele>348.35</ele>
   </trkpt>
   <trkpt lat="-37.84525" lon="145.34717">
    <ele>349.18000000000006</ele>
   </trkpt>
   <trkpt lat="-37.845290000000006" lon="145.34726">
    <ele>348.87</ele>
   </trkpt>
   <trkpt lat="-37.845310000000005" lon="145.34728">
    <ele>348.78000000000003</ele>
   </trkpt>
   <trkpt lat="-37.84539" lon="145.34731000000002">
    <ele>348.29</ele>
   </trkpt>
   <trkpt lat="-37.84548" lon="145.34724">
    <ele>347.93</ele>
   </trkpt>
   <trkpt lat="-37.84564" lon="145.347">
    <ele>349.0</ele>
   </trkpt>
   <trkpt lat="-37.84579" lon="145.34685000000002">
    <ele>342.26</ele>
   </trkpt>
   <trkpt lat="-37.84592" lon="145.34679">
    <ele>340.01000000000005</ele>
   </trkpt>
   <trkpt lat="-37.84619" lon="145.34649000000002">
    <ele>331.59000000000003</ele>
   </trkpt>
   <trkpt lat="-37.846410000000006" lon="145.34633000000002">
    <ele>327.17</ele>
   </trkpt>
   <trkpt lat="-37.84666" lon="145.3459">
    <ele>316.73</ele>
   </trkpt>
   <trkpt lat="-37.84675" lon="145.34558">
    <ele>310.82000000000005</ele>
   </trkpt>
   <trkpt lat="-37.846880000000006" lon="145.34483">
    <ele>302.03000000000003</ele>
   </trkpt>
   <trkpt lat="-37.84698" lon="145.34445000000002">
    <ele>294.58</ele>
   </trkpt>
   <trkpt lat="-37.84707" lon="145.3443">
    <ele>291.33000000000004</ele>
   </trkpt>
   <trkpt lat="-37.84716" lon="145.34429">
    <ele>289.39000000000004</ele>
   </trkpt>
   <trkpt lat="-37.84707" lon="145.34472000000002">
    <ele>287.51000000000005</ele>
   </trkpt>
   <trkpt lat="-37.84707" lon="145.34496000000001">
    <ele>287.5</ele>
   </trkpt>
   <trkpt lat="-37.847170000000006" lon="145.34528">
    <ele>287.85</ele>
   </trkpt>
   <trkpt lat="-37.84722" lon="145.34541000000002">
    <ele>287.93</ele>
   </trkpt>
   <trkpt lat="-37.84731" lon="145.34550000000002">
    <ele>287.94</ele>
   </trkpt>
   <trkpt lat="-37.84745" lon="145.34555">
    <ele>287.76</ele>
   </trkpt>
   <trkpt lat="-37.84756" lon="145.34556">
    <ele>287.49</ele>
   </trkpt>
   <trkpt lat="-37.84781" lon="145.34555">
    <ele>286.44</ele>
   </trkpt>
   <trkpt lat="-37.84789" lon="145.34557">
    <ele>285.90999999999997</ele>
   </trkpt>
   <trkpt lat="-37.84798" lon="145.34563">
    <ele>285.33000000000004</ele>
   </trkpt>
   <trkpt lat="-37.848200000000006" lon="145.3459">
    <ele>282.53</ele>
   </trkpt>
   <trkpt lat="-37.84848" lon="145.34639">
    <ele>279.17</ele>
   </trkpt>
   <trkpt lat="-37.848510000000005" lon="145.34640000000002">
    <ele>278.67</ele>
   </trkpt>
   <trkpt lat="-37.848560000000006" lon="145.34641000000002">
    <ele>278.40000000000003</ele>
   </trkpt>
   <trkpt lat="-37.84857" lon="145.34639">
    <ele>278.40000000000003</ele>
   </trkpt>
   <trkpt lat="-37.84859" lon="145.34626">
    <ele>277.74</ele>
   </trkpt>
   <trkpt lat="-37.848600001899754" lon="145.34558999997228">
    <ele>272.77</ele>
   </trkpt>
   <trkpt lat="-37.84861" lon="145.34492">
    <ele>269.85</ele>
   </trkpt>
   <trkpt lat="-37.84868" lon="145.34415">
    <ele>267.99</ele>
   </trkpt>
   <trkpt lat="-37.84877000188744" lon="145.3434800008963">
    <ele>267.57000000000005</ele>
   </trkpt>
   <trkpt lat="-37.84886" lon="145.34281000000001">
    <ele>266.18</ele>
   </trkpt>
   <trkpt lat="-37.84888" lon="145.34232">
    <ele>264.25000000000006</ele>
   </trkpt>
   <trkpt lat="-37.84886" lon="145.34191">
    <ele>262.23</ele>
   </trkpt>
   <trkpt lat="-37.84870000387963" lon="145.3409549980681">
    <ele>259.15000000000003</ele>
   </trkpt>
   <trkpt lat="-37.84854" lon="145.34">
    <ele>257.8</ele>
   </trkpt>
   <trkpt lat="-37.84848" lon="145.33938">
    <ele>257.12</ele>
   </trkpt>
   <trkpt lat="-37.84832" lon="145.33889000000002">
    <ele>256.61</ele>
   </trkpt>
   <trkpt lat="-37.8483" lon="145.33871000000002">
    <ele>256.49</ele>
   </trkpt>
   <trkpt lat="-37.8483" lon="145.33857">
    <ele>256.07</ele>
   </trkpt>
   <trkpt lat="-37.84839" lon="145.33828000000003">
    <ele>255.54000000000005</ele>
   </trkpt>
   <trkpt lat="-37.84843" lon="145.33804">
    <ele>255.32000000000005</ele>
   </trkpt>
   <trkpt lat="-37.84839" lon="145.33696">
    <ele>254.26999999999998</ele>
   </trkpt>
   <trkpt lat="-37.84841" lon="145.33623">
    <ele>253.20000000000002</ele>
   </trkpt>
   <trkpt lat="-37.84836" lon="145.33582">
    <ele>252.54000000000005</ele>
   </trkpt>
   <trkpt lat="-37.84839" lon="145.33564">
    <ele>252.31000000000003</ele>
   </trkpt>
   <trkpt lat="-37.8485" lon="145.33511000000001">
    <ele>250.51000000000002</ele>
   </trkpt>
   <trkpt lat="-37.84852" lon="145.33491">
    <ele>250.16</ele>
   </trkpt>
   <trkpt lat="-37.84852" lon="145.33427">
    <ele>248.18</ele>
   </trkpt>
   <trkpt lat="-37.84857" lon="145.3339">
    <ele>245.78000000000003</ele>
   </trkpt>
   <trkpt lat="-37.84863" lon="145.33362000000002">
    <ele>245.78000000000003</ele>
   </trkpt>
   <trkpt lat="-37.84872" lon="145.33342000000002">
    <ele>244.17000000000002</ele>
   </trkpt>
   <trkpt lat="-37.848800000000004" lon="145.33329">
    <ele>243.41</ele>
   </trkpt>
   <trkpt lat="-37.84899" lon="145.33313">
    <ele>242.48000000000002</ele>
   </trkpt>
   <trkpt lat="-37.849140000000006" lon="145.33307000000002">
    <ele>241.57</ele>
   </trkpt>
   <trkpt lat="-37.84926" lon="145.33305000000001">
    <ele>241.17000000000002</ele>
   </trkpt>
   <trkpt lat="-37.84975" lon="145.33316000000002">
    <ele>239.31000000000003</ele>
   </trkpt>
   <trkpt lat="-37.84989" lon="145.33313">
    <ele>238.36</ele>
   </trkpt>
   <trkpt lat="-37.85004" lon="145.333">
    <ele>237.06</ele>
   </trkpt>
   <trkpt lat="-37.8502" lon="145.33283">
    <ele>236.08</ele>
   </trkpt>
   <trkpt lat="-37.85036" lon="145.33271000000002">
    <ele>234.66</ele>
   </trkpt>
   <trkpt lat="-37.85087" lon="145.3324">
    <ele>232.07000000000002</ele>
   </trkpt>
   <trkpt lat="-37.850860000000004" lon="145.33241">
    <ele>232.07000000000002</ele>
   </trkpt>
   <trkpt lat="-37.85085" lon="145.33266">
    <ele>237.75</ele>
   </trkpt>
   <trkpt lat="-37.85076" lon="145.33294">
    <ele>244.45000000000002</ele>
   </trkpt>
   <trkpt lat="-37.8508" lon="145.33325000000002">
    <ele>249.71</ele>
   </trkpt>
   <trkpt lat="-37.85078" lon="145.33346">
    <ele>251.9</ele>
   </trkpt>
   <trkpt lat="-37.85064500158185" lon="145.33407000107826">
    <ele>271.05</ele>
   </trkpt>
   <trkpt lat="-37.85051" lon="145.33468000000002">
    <ele>280.40000000000003</ele>
   </trkpt>
   <trkpt lat="-37.85051" lon="145.33530000000002">
    <ele>290.62000000000006</ele>
   </trkpt>
   <trkpt lat="-37.85063" lon="145.33599">
    <ele>304.87</ele>
   </trkpt>
   <trkpt lat="-37.85067" lon="145.33617">
    <ele>307.8</ele>
   </trkpt>
   <trkpt lat="-37.85074" lon="145.33634">
    <ele>309.34</ele>
   </trkpt>
   <trkpt lat="-37.85085" lon="145.33637000000002">
    <ele>309.59000000000003</ele>
   </trkpt>
   <trkpt lat="-37.85096" lon="145.33634">
    <ele>309.56</ele>
   </trkpt>
   <trkpt lat="-37.851060000000004" lon="145.33639000000002">
    <ele>309.25</ele>
   </trkpt>
   <trkpt lat="-37.85116" lon="145.33651">
    <ele>310.46</ele>
   </trkpt>
   <trkpt lat="-37.85139" lon="145.33696">
    <ele>313.85</ele>
   </trkpt>
   <trkpt lat="-37.85168" lon="145.33735000000001">
    <ele>315.28</ele>
   </trkpt>
   <trkpt lat="-37.85172" lon="145.33751">
    <ele>316.06</ele>
   </trkpt>
   <trkpt lat="-37.85177" lon="145.33761">
    <ele>316.40000000000003</ele>
   </trkpt>
   <trkpt lat="-37.8519" lon="145.33773000000002">
    <ele>316.36</ele>
   </trkpt>
   <trkpt lat="-37.85206" lon="145.33798000000002">
    <ele>315.93000000000006</ele>
   </trkpt>
   <trkpt lat="-37.85215" lon="145.33823">
    <ele>315.96000000000004</ele>
   </trkpt>
   <trkpt lat="-37.85233" lon="145.33851">
    <ele>313.58000000000004</ele>
   </trkpt>
   <trkpt lat="-37.85242" lon="145.33856">
    <ele>311.63</ele>
   </trkpt>
   <trkpt lat="-37.85293" lon="145.33818000000002">
    <ele>293.34999999999997</ele>
   </trkpt>
   <trkpt lat="-37.85304" lon="145.33812">
    <ele>289.3</ele>
   </trkpt>
   <trkpt lat="-37.85313" lon="145.33813">
    <ele>287.3</ele>
   </trkpt>
   <trkpt lat="-37.85327" lon="145.33823">
    <ele>286.22</ele>
   </trkpt>
   <trkpt lat="-37.85333" lon="145.33833">
    <ele>287.01000000000005</ele>
   </trkpt>
   <trkpt lat="-37.85333" lon="145.33871000000002">
    <ele>290.72</ele>
   </trkpt>
   <trkpt lat="-37.8534" lon="145.33894">
    <ele>292.49</ele>
   </trkpt>
   <trkpt lat="-37.853460000000005" lon="145.33943000000002">
    <ele>295.53000000000003</ele>
   </trkpt>
   <trkpt lat="-37.85358" lon="145.33991">
    <ele>297.27000000000004</ele>
   </trkpt>
   <trkpt lat="-37.85365" lon="145.34067000000002">
    <ele>307.34</ele>
   </trkpt>
   <trkpt lat="-37.85374" lon="145.34099">
    <ele>310.25</ele>
   </trkpt>
   <trkpt lat="-37.85387" lon="145.34123000000002">
    <ele>309.26000000000005</ele>
   </trkpt>
   <trkpt lat="-37.85419" lon="145.34158000000002">
    <ele>307.24</ele>
   </trkpt>
   <trkpt lat="-37.85448" lon="145.34206">
    <ele>317.21999999999997</ele>
   </trkpt>
   <trkpt lat="-37.85468" lon="145.34225">
    <ele>327.77</ele>
   </trkpt>
   <trkpt lat="-37.85472" lon="145.34233">
    <ele>329.07000000000005</ele>
   </trkpt>
   <trkpt lat="-37.85474" lon="145.3426">
    <ele>333.0</ele>
   </trkpt>
   <trkpt lat="-37.85492" lon="145.34293000000002">
    <ele>338.68</ele>
   </trkpt>
   <trkpt lat="-37.85488" lon="145.34337000000002">
    <ele>347.32</ele>
   </trkpt>
   <trkpt lat="-37.8549" lon="145.34348">
    <ele>347.32</ele>
   </trkpt>
   <trkpt lat="-37.85492" lon="145.34354000000002">
    <ele>347.32</ele>
   </trkpt>
   <trkpt lat="-37.855050000000006" lon="145.34368">
    <ele>350.71000000000004</ele>
   </trkpt>
   <trkpt lat="-37.8551" lon="145.34404">
    <ele>353.40000000000003</ele>
   </trkpt>
   <trkpt lat="-37.85515" lon="145.34415">
    <ele>354.33000000000004</ele>
   </trkpt>
   <trkpt lat="-37.85528" lon="145.34455">
    <ele>354.49</ele>
   </trkpt>
   <trkpt lat="-37.855290000000004" lon="145.34457">
    <ele>354.44</ele>
   </trkpt>
   <trkpt lat="-37.85544" lon="145.34475">
    <ele>352.92</ele>
   </trkpt>
   <trkpt lat="-37.85553" lon="145.34492">
    <ele>352.7</ele>
   </trkpt>
   <trkpt lat="-37.85593" lon="145.34545">
    <ele>349.23</ele>
   </trkpt>
   <trkpt lat="-37.85609" lon="145.34559000000002">
    <ele>345.05</ele>
   </trkpt>
   <trkpt lat="-37.85622" lon="145.34578000000002">
    <ele>343.55</ele>
   </trkpt>
   <trkpt lat="-37.85663" lon="145.34618">
    <ele>335.71</ele>
   </trkpt>
   <trkpt lat="-37.85703" lon="145.34640000000002">
    <ele>330.38</ele>
   </trkpt>
   <trkpt lat="-37.8573" lon="145.34642000000002">
    <ele>331.86</ele>
   </trkpt>
   <trkpt lat="-37.8575" lon="145.34649000000002">
    <ele>333.71</ele>
   </trkpt>
   <trkpt lat="-37.85783" lon="145.34678000000002">
    <ele>340.30000000000007</ele>
   </trkpt>
   <trkpt lat="-37.85797" lon="145.34686000000002">
    <ele>341.25000000000006</ele>
   </trkpt>
   <trkpt lat="-37.85806" lon="145.34698">
    <ele>342.38</ele>
   </trkpt>
   <trkpt lat="-37.85833" lon="145.34718">
    <ele>346.67</ele>
   </trkpt>
   <trkpt lat="-37.85853" lon="145.34743">
    <ele>350.28000000000003</ele>
   </trkpt>
   <trkpt lat="-37.8586" lon="145.34761">
    <ele>352.54</ele>
   </trkpt>
   <trkpt lat="-37.85918" lon="145.3476">
    <ele>349.19000000000005</ele>
   </trkpt>
   <trkpt lat="-37.85931" lon="145.34758000000002">
    <ele>347.39000000000004</ele>
   </trkpt>
   <trkpt lat="-37.859370000000006" lon="145.34754">
    <ele>346.73</ele>
   </trkpt>
   <trkpt lat="-37.85942" lon="145.34772">
    <ele>351.56000000000006</ele>
   </trkpt>
   <trkpt lat="-37.859500000000004" lon="145.34782">
    <ele>356.78000000000003</ele>
   </trkpt>
   <trkpt lat="-37.86027" lon="145.34776000000002">
    <ele>365.2300000000001</ele>
   </trkpt>
   <trkpt lat="-37.86032" lon="145.34775000000002">
    <ele>366.3</ele>
   </trkpt>
   <trkpt lat="-37.86068" lon="145.34759000000003">
    <ele>371.43</ele>
   </trkpt>
   <trkpt lat="-37.86097" lon="145.34757000000002">
    <ele>377.48</ele>
   </trkpt>
   <trkpt lat="-37.86101" lon="145.34763">
    <ele>378.15000000000003</ele>
   </trkpt>
   <trkpt lat="-37.86101" lon="145.34771">
    <ele>378.74</ele>
   </trkpt>
   <trkpt lat="-37.86097" lon="145.34788">
    <ele>380.99000000000007</ele>
   </trkpt>
   <trkpt lat="-37.86097" lon="145.34804000000003">
    <ele>381.99000000000007</ele>
   </trkpt>
   <trkpt lat="-37.86104" lon="145.34814">
    <ele>383.24</ele>
   </trkpt>
   <trkpt lat="-37.86112" lon="145.34822">
    <ele>383.96000000000004</ele>
   </trkpt>
   <trkpt lat="-37.86121" lon="145.34824">
    <ele>387.03000000000003</ele>
   </trkpt>
   <trkpt lat="-37.8613" lon="145.34821000000002">
    <ele>387.73</ele>
   </trkpt>
   <trkpt lat="-37.86128" lon="145.34822">
    <ele>387.53000000000003</ele>
   </trkpt>
   <trkpt lat="-37.86159" lon="145.34802000000002">
    <ele>391.09000000000003</ele>
   </trkpt>
   <trkpt lat="-37.86164" lon="145.34794000000002">
    <ele>391.09000000000003</ele>
   </trkpt>
   <trkpt lat="-37.86168" lon="145.34779">
    <ele>391.94</ele>
   </trkpt>
   <trkpt lat="-37.86162" lon="145.34753">
    <ele>394.12</ele>
   </trkpt>
   <trkpt lat="-37.86162" lon="145.34737">
    <ele>397.53000000000003</ele>
   </trkpt>
   <trkpt lat="-37.861790000000006" lon="145.34698">
    <ele>400.12</ele>
   </trkpt>
   <trkpt lat="-37.86186" lon="145.34658000000002">
    <ele>398.59000000000003</ele>
   </trkpt>
   <trkpt lat="-37.86193" lon="145.34642000000002">
    <ele>397.96000000000004</ele>
   </trkpt>
   <trkpt lat="-37.86209" lon="145.34566">
    <ele>392.09000000000003</ele>
   </trkpt>
   <trkpt lat="-37.86213" lon="145.34550000000002">
    <ele>390.95</ele>
   </trkpt>
   <trkpt lat="-37.86238" lon="145.34501">
    <ele>386.46000000000004</ele>
   </trkpt>
   <trkpt lat="-37.86253" lon="145.34477">
    <ele>382.43000000000006</ele>
   </trkpt>
   <trkpt lat="-37.862840000000006" lon="145.3444">
    <ele>379.52000000000004</ele>
   </trkpt>
   <trkpt lat="-37.86305" lon="145.34406">
    <ele>376.62</ele>
   </trkpt>
   <trkpt lat="-37.86307" lon="145.34395">
    <ele>376.20000000000005</ele>
   </trkpt>
   <trkpt lat="-37.863060000000004" lon="145.34392000000003">
    <ele>376.20000000000005</ele>
   </trkpt>
   <trkpt lat="-37.86307" lon="145.34396">
    <ele>376.29</ele>
   </trkpt>
   <trkpt lat="-37.86303" lon="145.34388">
    <ele>375.98</ele>
   </trkpt>
   <trkpt lat="-37.86296" lon="145.34383000000003">
    <ele>375.63</ele>
   </trkpt>
   <trkpt lat="-37.86231" lon="145.34352">
    <ele>371.64000000000004</ele>
   </trkpt>
   <trkpt lat="-37.86168" lon="145.34332">
    <ele>367.27000000000004</ele>
   </trkpt>
   <trkpt lat="-37.861520000000006" lon="145.34317000000001">
    <ele>366.25</ele>
   </trkpt>
   <trkpt lat="-37.86139" lon="145.34300000000002">
    <ele>364.75</ele>
   </trkpt>
   <trkpt lat="-37.86128" lon="145.34276">
    <ele>363.41</ele>
   </trkpt>
   <trkpt lat="-37.86121" lon="145.34249">
    <ele>361.89000000000004</ele>
   </trkpt>
   <trkpt lat="-37.86108" lon="145.3417">
    <ele>357.62000000000006</ele>
   </trkpt>
   <trkpt lat="-37.86097" lon="145.34123000000002">
    <ele>352.28000000000003</ele>
   </trkpt>
   <trkpt lat="-37.86092" lon="145.34113000000002">
    <ele>352.28000000000003</ele>
   </trkpt>
   <trkpt lat="-37.8603" lon="145.34063">
    <ele>347.17</ele>
   </trkpt>
   <trkpt lat="-37.86012" lon="145.34056">
    <ele>343.37</ele>
   </trkpt>
   <trkpt lat="-37.859460000000006" lon="145.34061">
    <ele>336.26</ele>
   </trkpt>
   <trkpt lat="-37.85927" lon="145.34058000000002">
    <ele>335.24</ele>
   </trkpt>
   <trkpt lat="-37.85913" lon="145.34049000000002">
    <ele>333.1</ele>
   </trkpt>
   <trkpt lat="-37.85902" lon="145.34036">
    <ele>331.54</ele>
   </trkpt>
   <trkpt lat="-37.85868" lon="145.33979000000002">
    <ele>325.51</ele>
   </trkpt>
   <trkpt lat="-37.85834500291492" lon="145.33895499612223">
    <ele>316.52000000000004</ele>
   </trkpt>
   <trkpt lat="-37.85801" lon="145.33812">
    <ele>308.21000000000004</ele>
   </trkpt>
   <trkpt lat="-37.85788" lon="145.33765000000002">
    <ele>304.47</ele>
   </trkpt>
   <trkpt lat="-37.85772" lon="145.33722">
    <ele>299.27000000000004</ele>
   </trkpt>
   <trkpt lat="-37.85768" lon="145.33698">
    <ele>295.64</ele>
   </trkpt>
   <trkpt lat="-37.85768" lon="145.33674000000002">
    <ele>295.64</ele>
   </trkpt>
   <trkpt lat="-37.85777" lon="145.33627">
    <ele>290.00000000000006</ele>
   </trkpt>
   <trkpt lat="-37.85799" lon="145.3357">
    <ele>284.2</ele>
   </trkpt>
   <trkpt lat="-37.85808" lon="145.33543">
    <ele>281.73</ele>
   </trkpt>
   <trkpt lat="-37.8581" lon="145.33530000000002">
    <ele>281.73</ele>
   </trkpt>
   <trkpt lat="-37.8581" lon="145.33454">
    <ele>274.12</ele>
   </trkpt>
   <trkpt lat="-37.85797" lon="145.33415000000002">
    <ele>268.94</ele>
   </trkpt>
   <trkpt lat="-37.85821" lon="145.33414000000002">
    <ele>271.08000000000004</ele>
   </trkpt>
   <trkpt lat="-37.85833" lon="145.33419">
    <ele>272.68</ele>
   </trkpt>
   <trkpt lat="-37.85844" lon="145.33431000000002">
    <ele>273.43</ele>
   </trkpt>
   <trkpt lat="-37.85887500137247" lon="145.3348699967549">
    <ele>277.49</ele>
   </trkpt>
   <trkpt lat="-37.85931" lon="145.33543">
    <ele>285.72</ele>
   </trkpt>
   <trkpt lat="-37.85965" lon="145.33569">
    <ele>287.49</ele>
   </trkpt>
   <trkpt lat="-37.85996" lon="145.33583000000002">
    <ele>291.42</ele>
   </trkpt>
   <trkpt lat="-37.86065" lon="145.33601000000002">
    <ele>298.69</ele>
   </trkpt>
   <trkpt lat="-37.8609" lon="145.33604000000003">
    <ele>298.97</ele>
   </trkpt>
   <trkpt lat="-37.86164" lon="145.33602000000002">
    <ele>298.25</ele>
   </trkpt>
   <trkpt lat="-37.86204" lon="145.33606">
    <ele>301.00000000000006</ele>
   </trkpt>
   <trkpt lat="-37.86231" lon="145.33606">
    <ele>302.62</ele>
   </trkpt>
   <trkpt lat="-37.86292" lon="145.33596">
    <ele>304.35</ele>
   </trkpt>
   <trkpt lat="-37.86305" lon="145.33591">
    <ele>303.95</ele>
   </trkpt>
   <trkpt lat="-37.86303" lon="145.33592000000002">
    <ele>304.01</ele>
   </trkpt>
   <trkpt lat="-37.86309" lon="145.33587">
    <ele>303.49</ele>
   </trkpt>
   <trkpt lat="-37.86314" lon="145.3357">
    <ele>303.17</ele>
   </trkpt>
   <trkpt lat="-37.8628" lon="145.33489">
    <ele>302.73</ele>
   </trkpt>
   <trkpt lat="-37.86242" lon="145.33416000000003">
    <ele>302.29</ele>
   </trkpt>
   <trkpt lat="-37.86227" lon="145.33360000000002">
    <ele>301.78000000000003</ele>
   </trkpt>
   <trkpt lat="-37.86224" lon="145.33325000000002">
    <ele>301.36</ele>
   </trkpt>
   <trkpt lat="-37.86224" lon="145.33262000000002">
    <ele>301.67</ele>
   </trkpt>
   <trkpt lat="-37.86227" lon="145.33246000000003">
    <ele>301.67</ele>
   </trkpt>
   <trkpt lat="-37.86236" lon="145.33227000000002">
    <ele>301.75</ele>
   </trkpt>
   <trkpt lat="-37.862480000000005" lon="145.33209000000002">
    <ele>301.97</ele>
   </trkpt>
   <trkpt lat="-37.8628" lon="145.33177">
    <ele>302.74</ele>
   </trkpt>
   <trkpt lat="-37.86294" lon="145.33152">
    <ele>303.07</ele>
   </trkpt>
   <trkpt lat="-37.86303" lon="145.33113">
    <ele>303.69</ele>
   </trkpt>
   <trkpt lat="-37.86316" lon="145.33042">
    <ele>303.74</ele>
   </trkpt>
   <trkpt lat="-37.86332" lon="145.33006">
    <ele>303.98</ele>
   </trkpt>
   <trkpt lat="-37.86341" lon="145.32991">
    <ele>304.74</ele>
   </trkpt>
   <trkpt lat="-37.86352" lon="145.3298">
    <ele>304.74</ele>
   </trkpt>
   <trkpt lat="-37.86361" lon="145.32976000000002">
    <ele>304.99</ele>
   </trkpt>
   <trkpt lat="-37.864050000000006" lon="145.32975000000002">
    <ele>306.97</ele>
   </trkpt>
   <trkpt lat="-37.86403" lon="145.32975000000002">
    <ele>306.92</ele>
   </trkpt>
   <trkpt lat="-37.86424" lon="145.32978">
    <ele>308.56</ele>
   </trkpt>
   <trkpt lat="-37.86446" lon="145.32988">
    <ele>309.03000000000003</ele>
   </trkpt>
   <trkpt lat="-37.86459" lon="145.32996">
    <ele>310.76000000000005</ele>
   </trkpt>
   <trkpt lat="-37.86475" lon="145.33010000000002">
    <ele>310.76000000000005</ele>
   </trkpt>
   <trkpt lat="-37.8652" lon="145.33063">
    <ele>314.06</ele>
   </trkpt>
   <trkpt lat="-37.86565" lon="145.33109000000002">
    <ele>318.0</ele>
   </trkpt>
   <trkpt lat="-37.86587" lon="145.33126000000001">
    <ele>319.33</ele>
   </trkpt>
   <trkpt lat="-37.86612" lon="145.3314">
    <ele>320.46000000000004</ele>
   </trkpt>
   <trkpt lat="-37.86627" lon="145.33148">
    <ele>321.52000000000004</ele>
   </trkpt>
   <trkpt lat="-37.86643" lon="145.33152">
    <ele>322.61</ele>
   </trkpt>
   <trkpt lat="-37.86672" lon="145.33155000000002">
    <ele>324.62</ele>
   </trkpt>
   <trkpt lat="-37.86728" lon="145.33145000000002">
    <ele>328.62</ele>
   </trkpt>
   <trkpt lat="-37.8675" lon="145.33145000000002">
    <ele>329.83</ele>
   </trkpt>
   <trkpt lat="-37.867720000000006" lon="145.33149">
    <ele>330.76000000000005</ele>
   </trkpt>
   <trkpt lat="-37.86815" lon="145.3317">
    <ele>332.5</ele>
   </trkpt>
   <trkpt lat="-37.86838" lon="145.33186">
    <ele>333.61</ele>
   </trkpt>
   <trkpt lat="-37.86858" lon="145.33205">
    <ele>335.48</ele>
   </trkpt>
   <trkpt lat="-37.86869" lon="145.33223">
    <ele>335.48</ele>
   </trkpt>
   <trkpt lat="-37.86891" lon="145.33268">
    <ele>338.93</ele>
   </trkpt>
   <trkpt lat="-37.86896" lon="145.33297000000002">
    <ele>341.61</ele>
   </trkpt>
   <trkpt lat="-37.86898" lon="145.33323000000001">
    <ele>342.54</ele>
   </trkpt>
   <trkpt lat="-37.868950000000005" lon="145.33355">
    <ele>341.40000000000003</ele>
   </trkpt>
   <trkpt lat="-37.86903" lon="145.33386000000002">
    <ele>340.85</ele>
   </trkpt>
   <trkpt lat="-37.86925" lon="145.33411">
    <ele>340.26</ele>
   </trkpt>
   <trkpt lat="-37.86959" lon="145.33418">
    <ele>339.0</ele>
   </trkpt>
   <trkpt lat="-37.86992" lon="145.3343">
    <ele>336.44</ele>
   </trkpt>
   <trkpt lat="-37.87022" lon="145.33425000000003">
    <ele>335.51000000000005</ele>
   </trkpt>
   <trkpt lat="-37.87024" lon="145.33442000000002">
    <ele>340.89000000000004</ele>
   </trkpt>
   <trkpt lat="-37.87026" lon="145.33449000000002">
    <ele>340.89000000000004</ele>
   </trkpt>
   <trkpt lat="-37.870450000000005" lon="145.33465">
    <ele>349.66</ele>
   </trkpt>
   <trkpt lat="-37.87055" lon="145.33518">
    <ele>358.78000000000003</ele>
   </trkpt>
   <trkpt lat="-37.87035" lon="145.3356">
    <ele>373.13</ele>
   </trkpt>
   <trkpt lat="-37.8701" lon="145.33595000000003">
    <ele>379.13</ele>
   </trkpt>
   <trkpt lat="-37.87019" lon="145.33630000000002">
    <ele>388.84000000000003</ele>
   </trkpt>
   <trkpt lat="-37.87019" lon="145.3368">
    <ele>401.86000000000007</ele>
   </trkpt>
   <trkpt lat="-37.87024" lon="145.33688">
    <ele>403.86000000000007</ele>
   </trkpt>
   <trkpt lat="-37.87048" lon="145.33697">
    <ele>406.36000000000007</ele>
   </trkpt>
   <trkpt lat="-37.87077" lon="145.33726000000001">
    <ele>414.34000000000003</ele>
   </trkpt>
   <trkpt lat="-37.87091" lon="145.33758">
    <ele>419.39000000000004</ele>
   </trkpt>
   <trkpt lat="-37.871100000000006" lon="145.33779">
    <ele>424.96000000000004</ele>
   </trkpt>
   <trkpt lat="-37.87116" lon="145.33796">
    <ele>427.50000000000006</ele>
   </trkpt>
   <trkpt lat="-37.87115" lon="145.33792000000003">
    <ele>427.02</ele>
   </trkpt>
   <trkpt lat="-37.87118" lon="145.33812">
    <ele>431.31</ele>
   </trkpt>
   <trkpt lat="-37.87113" lon="145.33831">
    <ele>433.74</ele>
   </trkpt>
   <trkpt lat="-37.871" lon="145.33853000000002">
    <ele>439.46000000000004</ele>
   </trkpt>
   <trkpt lat="-37.87091" lon="145.33863000000002">
    <ele>447.70000000000005</ele>
   </trkpt>
   <trkpt lat="-37.87075" lon="145.33874">
    <ele>447.70000000000005</ele>
   </trkpt>
   <trkpt lat="-37.87064" lon="145.33877">
    <ele>450.14000000000004</ele>
   </trkpt>
   <trkpt lat="-37.87035" lon="145.33879000000002">
    <ele>455.34000000000003</ele>
   </trkpt>
   <trkpt lat="-37.87026" lon="145.33888000000002">
    <ele>459.0</ele>
   </trkpt>
   <trkpt lat="-37.86974" lon="145.33889000000002">
    <ele>458.37000000000006</ele>
   </trkpt>
   <trkpt lat="-37.86954" lon="145.33893">
    <ele>457.09000000000003</ele>
   </trkpt>
   <trkpt lat="-37.86941" lon="145.33893">
    <ele>455.98</ele>
   </trkpt>
   <trkpt lat="-37.86918" lon="145.33896000000001">
    <ele>453.62</ele>
   </trkpt>
   <trkpt lat="-37.86891" lon="145.33893">
    <ele>452.57</ele>
   </trkpt>
   <trkpt lat="-37.86849" lon="145.33881000000002">
    <ele>448.96000000000004</ele>
   </trkpt>
   <trkpt lat="-37.86822" lon="145.33868">
    <ele>446.6</ele>
   </trkpt>
   <trkpt lat="-37.86786" lon="145.33862000000002">
    <ele>442.85</ele>
   </trkpt>
   <trkpt lat="-37.86771" lon="145.33857">
    <ele>441.23</ele>
   </trkpt>
   <trkpt lat="-37.86755" lon="145.33847">
    <ele>440.46000000000004</ele>
   </trkpt>
   <trkpt lat="-37.867250000000006" lon="145.33818000000002">
    <ele>442.22</ele>
   </trkpt>
   <trkpt lat="-37.86719" lon="145.33817000000002">
    <ele>442.22</ele>
   </trkpt>
   <trkpt lat="-37.86706" lon="145.33821">
    <ele>444.03000000000003</ele>
   </trkpt>
   <trkpt lat="-37.86679" lon="145.33809000000002">
    <ele>451.40000000000003</ele>
   </trkpt>
   <trkpt lat="-37.866690000000006" lon="145.33810000000003">
    <ele>452.99000000000007</ele>
   </trkpt>
   <trkpt lat="-37.86663" lon="145.33813">
    <ele>452.99000000000007</ele>
   </trkpt>
   <trkpt lat="-37.86652" lon="145.33824">
    <ele>457.33</ele>
   </trkpt>
   <trkpt lat="-37.86647" lon="145.33834000000002">
    <ele>457.33</ele>
   </trkpt>
   <trkpt lat="-37.866310000000006" lon="145.33883">
    <ele>470.0</ele>
   </trkpt>
   <trkpt lat="-37.86612" lon="145.33962000000002">
    <ele>471.86000000000007</ele>
   </trkpt>
   <trkpt lat="-37.866" lon="145.33999">
    <ele>472.25000000000006</ele>
   </trkpt>
   <trkpt lat="-37.86592" lon="145.34042000000002">
    <ele>473.25000000000006</ele>
   </trkpt>
   <trkpt lat="-37.8658" lon="145.34115">
    <ele>476.52000000000004</ele>
   </trkpt>
   <trkpt lat="-37.86571" lon="145.34146">
    <ele>477.71000000000004</ele>
   </trkpt>
   <trkpt lat="-37.86567" lon="145.3417">
    <ele>480.74000000000007</ele>
   </trkpt>
   <trkpt lat="-37.865660000000005" lon="145.34188">
    <ele>482.03000000000003</ele>
   </trkpt>
   <trkpt lat="-37.86587" lon="145.34215">
    <ele>481.71000000000004</ele>
   </trkpt>
   <trkpt lat="-37.86634" lon="145.34241">
    <ele>481.79</ele>
   </trkpt>
   <trkpt lat="-37.86663" lon="145.34261">
    <ele>481.48</ele>
   </trkpt>
   <trkpt lat="-37.86717" lon="145.34283000000002">
    <ele>484.56000000000006</ele>
   </trkpt>
   <trkpt lat="-37.86741" lon="145.34287">
    <ele>487.87</ele>
   </trkpt>
   <trkpt lat="-37.86766" lon="145.34284000000002">
    <ele>492.90000000000003</ele>
   </trkpt>
   <trkpt lat="-37.86838" lon="145.34305">
    <ele>499.50000000000006</ele>
   </trkpt>
   <trkpt lat="-37.86891" lon="145.34316">
    <ele>505.2000000000001</ele>
   </trkpt>
   <trkpt lat="-37.86914" lon="145.34323">
    <ele>506.86000000000007</ele>
   </trkpt>
   <trkpt lat="-37.86992" lon="145.34339">
    <ele>508.99000000000007</ele>
   </trkpt>
   <trkpt lat="-37.86992" lon="145.34348">
    <ele>506.82000000000005</ele>
   </trkpt>
   <trkpt lat="-37.86997" lon="145.34354000000002">
    <ele>504.44</ele>
   </trkpt>
   <trkpt lat="-37.87026" lon="145.34375">
    <ele>500.0</ele>
   </trkpt>
   <trkpt lat="-37.87037" lon="145.34387">
    <ele>499.50000000000006</ele>
   </trkpt>
   <trkpt lat="-37.87066" lon="145.34400000000002">
    <ele>500.78</ele>
   </trkpt>
   <trkpt lat="-37.87088" lon="145.34415">
    <ele>504.25000000000006</ele>
   </trkpt>
   <trkpt lat="-37.87113" lon="145.34424">
    <ele>505.04</ele>
   </trkpt>
   <trkpt lat="-37.871140000000004" lon="145.34425000000002">
    <ele>505.05</ele>
   </trkpt>
   <trkpt lat="-37.870830000000005" lon="145.34461000000002">
    <ele>506.51</ele>
   </trkpt>
   <trkpt lat="-37.870630000000006" lon="145.34474">
    <ele>508.99000000000007</ele>
   </trkpt>
   <trkpt lat="-37.87035" lon="145.34482">
    <ele>511.29</ele>
   </trkpt>
   <trkpt lat="-37.87024" lon="145.34483">
    <ele>513.05</ele>
   </trkpt>
   <trkpt lat="-37.86983" lon="145.34474">
    <ele>518.0</ele>
   </trkpt>
   <trkpt lat="-37.86956" lon="145.34455">
    <ele>513.8600000000001</ele>
   </trkpt>
   <trkpt lat="-37.86907" lon="145.34435000000002">
    <ele>504.89000000000004</ele>
   </trkpt>
   <trkpt lat="-37.86889" lon="145.34432">
    <ele>502.74000000000007</ele>
   </trkpt>
   <trkpt lat="-37.86862" lon="145.34431">
    <ele>500.2000000000001</ele>
   </trkpt>
   <trkpt lat="-37.86844" lon="145.34437">
    <ele>498.14000000000004</ele>
   </trkpt>
   <trkpt lat="-37.86792500002919" lon="145.3444400004881">
    <ele>494.08</ele>
   </trkpt>
   <trkpt lat="-37.86741" lon="145.34451">
    <ele>488.11</ele>
   </trkpt>
   <trkpt lat="-37.86697" lon="145.34459">
    <ele>482.81</ele>
   </trkpt>
   <trkpt lat="-37.86621" lon="145.34518">
    <ele>470.67</ele>
   </trkpt>
   <trkpt lat="-37.865950000000005" lon="145.34545">
    <ele>475.47</ele>
   </trkpt>
   <trkpt lat="-37.86594" lon="145.34546">
    <ele>475.58000000000004</ele>
   </trkpt>
   <trkpt lat="-37.86589" lon="145.34556">
    <ele>477.53000000000003</ele>
   </trkpt>
   <trkpt lat="-37.866" lon="145.34601">
    <ele>488.57000000000005</ele>
   </trkpt>
   <trkpt lat="-37.866" lon="145.34609">
    <ele>490.96000000000004</ele>
   </trkpt>
   <trkpt lat="-37.86598" lon="145.34626">
    <ele>493.21000000000004</ele>
   </trkpt>
   <trkpt lat="-37.86589" lon="145.34647">
    <ele>497.07000000000005</ele>
   </trkpt>
   <trkpt lat="-37.8659" lon="145.34657">
    <ele>498.70000000000005</ele>
   </trkpt>
   <trkpt lat="-37.865370000000006" lon="145.34673">
    <ele>503.33000000000004</ele>
   </trkpt>
   <trkpt lat="-37.86493" lon="145.34701">
    <ele>508.34000000000003</ele>
   </trkpt>
   <trkpt lat="-37.86482" lon="145.34718">
    <ele>509.9600000000001</ele>
   </trkpt>
   <trkpt lat="-37.864810000000006" lon="145.34757000000002">
    <ele>514.37</ele>
   </trkpt>
   <trkpt lat="-37.86484" lon="145.34797">
    <ele>518.25</ele>
   </trkpt>
   <trkpt lat="-37.86491" lon="145.34814">
    <ele>521.7400000000001</ele>
   </trkpt>
   <trkpt lat="-37.86497" lon="145.34822">
    <ele>523.47</ele>
   </trkpt>
   <trkpt lat="-37.86496" lon="145.34829000000002">
    <ele>523.34</ele>
   </trkpt>
   <trkpt lat="-37.86491" lon="145.34857000000002">
    <ele>522.05</ele>
   </trkpt>
   <trkpt lat="-37.864695001511485" lon="145.3491700017808">
    <ele>517.7900000000001</ele>
   </trkpt>
   <trkpt lat="-37.86448" lon="145.34977">
    <ele>511.11000000000007</ele>
   </trkpt>
   <trkpt lat="-37.86417" lon="145.35060000000001">
    <ele>501.21000000000004</ele>
   </trkpt>
   <trkpt lat="-37.8641" lon="145.35074">
    <ele>499.09000000000003</ele>
   </trkpt>
   <trkpt lat="-37.8641" lon="145.35089000000002">
    <ele>497.53000000000003</ele>
   </trkpt>
   <trkpt lat="-37.864050000000006" lon="145.35102">
    <ele>496.45000000000005</ele>
   </trkpt>
   <trkpt lat="-37.864140000000006" lon="145.35111">
    <ele>504.99000000000007</ele>
   </trkpt>
   <trkpt lat="-37.8645" lon="145.35187000000002">
    <ele>500.48</ele>
   </trkpt>
   <trkpt lat="-37.86466" lon="145.35215000000002">
    <ele>496.62000000000006</ele>
   </trkpt>
   <trkpt lat="-37.865230000000004" lon="145.35256">
    <ele>483.52000000000004</ele>
   </trkpt>
   <trkpt lat="-37.864900000000006" lon="145.35260000000002">
    <ele>481.55</ele>
   </trkpt>
   <trkpt lat="-37.86455" lon="145.35267000000002">
    <ele>480.22</ele>
   </trkpt>
   <trkpt lat="-37.86437" lon="145.35273">
    <ele>478.42</ele>
   </trkpt>
   <trkpt lat="-37.86412" lon="145.35284000000001">
    <ele>477.63000000000005</ele>
   </trkpt>
   <trkpt lat="-37.863690000000005" lon="145.3531">
    <ele>476.6</ele>
   </trkpt>
   <trkpt lat="-37.86294" lon="145.35363">
    <ele>478.09000000000003</ele>
   </trkpt>
  </trkseg>
 </trk>
</gpx>
