<?xml version="1.0" encoding="UTF-8"?>
<gpx creator="StravaGPX" version="1.1" xmlns="http://www.topografix.com/GPX/1/1" xmlns:xsi="http://www.w3.org/2001/XMLSchema-instance" xsi:schemaLocation="http://www.topografix.com/GPX/1/1 http://www.topografix.com/GPX/1/1/gpx.xsd">
 <metadata>
  <name>DTR 28 Feb</name>
  <author>
   <name>john csorgo</name>
  </author>
  <copyright author="OpenStreetMap contributors">
   <year>2020</year>
   <license>https://www.openstreetmap.org/copyright</license>
  </copyright>
 </metadata>
 <trk>
  <name>DTR 28 Feb</name>
  <link href=""/>
  <type>running</type>
  <trkseg>
   <trkpt lat="-37.891130000000004" lon="145.31762">
    <ele>173.42000000000002</ele>
   </trkpt>
   <trkpt lat="-37.89099" lon="145.31772">
    <ele>174.45000000000002</ele>
   </trkpt>
   <trkpt lat="-37.890530000000005" lon="145.31787">
    <ele>177.46</ele>
   </trkpt>
   <trkpt lat="-37.890460000000004" lon="145.31768000000002">
    <ele>179.87</ele>
   </trkpt>
   <trkpt lat="-37.89045" lon="145.3176">
    <ele>179.87</ele>
   </trkpt>
   <trkpt lat="-37.89043" lon="145.31754">
    <ele>179.87</ele>
   </trkpt>
   <trkpt lat="-37.89036" lon="145.31751">
    <ele>184.78000000000003</ele>
   </trkpt>
   <trkpt lat="-37.89029" lon="145.31751">
    <ele>184.78000000000003</ele>
   </trkpt>
   <trkpt lat="-37.890010000000004" lon="145.31758000000002">
    <ele>188.45</ele>
   </trkpt>
   <trkpt lat="-37.889950000000006" lon="145.31753">
    <ele>189.84</ele>
   </trkpt>
   <trkpt lat="-37.88973" lon="145.3177">
    <ele>192.46</ele>
   </trkpt>
   <trkpt lat="-37.88953" lon="145.31769">
    <ele>193.76000000000002</ele>
   </trkpt>
   <trkpt lat="-37.88933" lon="145.31781">
    <ele>197.08</ele>
   </trkpt>
   <trkpt lat="-37.88908" lon="145.31776000000002">
    <ele>199.24000000000004</ele>
   </trkpt>
   <trkpt lat="-37.88866" lon="145.31772">
    <ele>202.99</ele>
   </trkpt>
   <trkpt lat="-37.88839" lon="145.31761">
    <ele>206.36</ele>
   </trkpt>
   <trkpt lat="-37.88837" lon="145.31759000000002">
    <ele>206.36</ele>
   </trkpt>
   <trkpt lat="-37.88826" lon="145.31761">
    <ele>207.81000000000003</ele>
   </trkpt>
   <trkpt lat="-37.888020000000004" lon="145.31758000000002">
    <ele>209.77</ele>
   </trkpt>
   <trkpt lat="-37.88725" lon="145.31764">
    <ele>220.47000000000003</ele>
   </trkpt>
   <trkpt lat="-37.88712" lon="145.31762">
    <ele>220.47000000000003</ele>
   </trkpt>
   <trkpt lat="-37.886880000000005" lon="145.31755">
    <ele>223.68</ele>
   </trkpt>
   <trkpt lat="-37.88669" lon="145.31744">
    <ele>226.38000000000002</ele>
   </trkpt>
   <trkpt lat="-37.88611" lon="145.31784000000002">
    <ele>224.45000000000002</ele>
   </trkpt>
   <trkpt lat="-37.88555" lon="145.31807">
    <ele>236.67000000000002</ele>
   </trkpt>
   <trkpt lat="-37.88528" lon="145.31820000000002">
    <ele>247.66000000000003</ele>
   </trkpt>
   <trkpt lat="-37.88477" lon="145.31835">
    <ele>256.09999999999997</ele>
   </trkpt>
   <trkpt lat="-37.88429" lon="145.31839000000002">
    <ele>257.63</ele>
   </trkpt>
   <trkpt lat="-37.88396" lon="145.31833">
    <ele>257.19</ele>
   </trkpt>
   <trkpt lat="-37.88374" lon="145.31835">
    <ele>257.61</ele>
   </trkpt>
   <trkpt lat="-37.88373" lon="145.31835">
    <ele>257.63</ele>
   </trkpt>
   <trkpt lat="-37.88378" lon="145.31852">
    <ele>259.14000000000004</ele>
   </trkpt>
   <trkpt lat="-37.884" lon="145.31884000000002">
    <ele>261.94</ele>
   </trkpt>
   <trkpt lat="-37.88409" lon="145.31915">
    <ele>263.96000000000004</ele>
   </trkpt>
   <trkpt lat="-37.88416" lon="145.31972000000002">
    <ele>270.37</ele>
   </trkpt>
   <trkpt lat="-37.88416" lon="145.31998000000002">
    <ele>271.88</ele>
   </trkpt>
   <trkpt lat="-37.88425" lon="145.3202">
    <ele>273.53</ele>
   </trkpt>
   <trkpt lat="-37.88429" lon="145.32048">
    <ele>276.65</ele>
   </trkpt>
   <trkpt lat="-37.88425" lon="145.32069">
    <ele>279.19000000000005</ele>
   </trkpt>
   <trkpt lat="-37.88416" lon="145.32099000000002">
    <ele>282.06</ele>
   </trkpt>
   <trkpt lat="-37.88416" lon="145.3211">
    <ele>282.06</ele>
   </trkpt>
   <trkpt lat="-37.88423" lon="145.32127">
    <ele>285.15000000000003</ele>
   </trkpt>
   <trkpt lat="-37.88432" lon="145.32141000000001">
    <ele>285.15000000000003</ele>
   </trkpt>
   <trkpt lat="-37.88443" lon="145.32186000000002">
    <ele>291.65000000000003</ele>
   </trkpt>
   <trkpt lat="-37.88447" lon="145.32227">
    <ele>295.91</ele>
   </trkpt>
   <trkpt lat="-37.88456" lon="145.32247">
    <ele>297.77000000000004</ele>
   </trkpt>
   <trkpt lat="-37.88479" lon="145.32282">
    <ele>302.31</ele>
   </trkpt>
   <trkpt lat="-37.88488" lon="145.32315">
    <ele>305.07</ele>
   </trkpt>
   <trkpt lat="-37.8849" lon="145.32336">
    <ele>308.50000000000006</ele>
   </trkpt>
   <trkpt lat="-37.88481" lon="145.32355">
    <ele>313.03000000000003</ele>
   </trkpt>
   <trkpt lat="-37.88483" lon="145.32404000000002">
    <ele>321.61</ele>
   </trkpt>
   <trkpt lat="-37.88481" lon="145.32417">
    <ele>323.69000000000005</ele>
   </trkpt>
   <trkpt lat="-37.88481" lon="145.32436">
    <ele>327.07</ele>
   </trkpt>
   <trkpt lat="-37.8849" lon="145.32459">
    <ele>330.75000000000006</ele>
   </trkpt>
   <trkpt lat="-37.88494" lon="145.32475000000002">
    <ele>330.75000000000006</ele>
   </trkpt>
   <trkpt lat="-37.88494" lon="145.32504">
    <ele>333.8</ele>
   </trkpt>
   <trkpt lat="-37.8849" lon="145.32534">
    <ele>338.40000000000003</ele>
   </trkpt>
   <trkpt lat="-37.88483" lon="145.32566">
    <ele>341.93</ele>
   </trkpt>
   <trkpt lat="-37.88472" lon="145.32581000000002">
    <ele>344.87</ele>
   </trkpt>
   <trkpt lat="-37.88467" lon="145.32594">
    <ele>346.65000000000003</ele>
   </trkpt>
   <trkpt lat="-37.8847" lon="145.32606">
    <ele>347.6</ele>
   </trkpt>
   <trkpt lat="-37.88472" lon="145.32611">
    <ele>347.6</ele>
   </trkpt>
   <trkpt lat="-37.88481" lon="145.32615">
    <ele>349.40000000000003</ele>
   </trkpt>
   <trkpt lat="-37.88501" lon="145.32641">
    <ele>351.49</ele>
   </trkpt>
   <trkpt lat="-37.88503" lon="145.32657">
    <ele>353.81</ele>
   </trkpt>
   <trkpt lat="-37.8851" lon="145.32674">
    <ele>354.86</ele>
   </trkpt>
   <trkpt lat="-37.88517" lon="145.32679000000002">
    <ele>356.83000000000004</ele>
   </trkpt>
   <trkpt lat="-37.88532" lon="145.32677">
    <ele>359.41</ele>
   </trkpt>
   <trkpt lat="-37.88539" lon="145.32682">
    <ele>359.41</ele>
   </trkpt>
   <trkpt lat="-37.88546" lon="145.32689000000002">
    <ele>359.95000000000005</ele>
   </trkpt>
   <trkpt lat="-37.88555" lon="145.32716000000002">
    <ele>362.7</ele>
   </trkpt>
   <trkpt lat="-37.88559" lon="145.32723000000001">
    <ele>363.68</ele>
   </trkpt>
   <trkpt lat="-37.8857" lon="145.3273">
    <ele>364.61</ele>
   </trkpt>
   <trkpt lat="-37.88608" lon="145.32707000000002">
    <ele>369.07</ele>
   </trkpt>
   <trkpt lat="-37.886190000000006" lon="145.32696">
    <ele>370.81</ele>
   </trkpt>
   <trkpt lat="-37.88624" lon="145.32741000000001">
    <ele>374.53000000000003</ele>
   </trkpt>
   <trkpt lat="-37.88633" lon="145.32777000000002">
    <ele>378.46000000000004</ele>
   </trkpt>
   <trkpt lat="-37.88638" lon="145.32786000000002">
    <ele>378.46000000000004</ele>
   </trkpt>
   <trkpt lat="-37.886390000000006" lon="145.32833000000002">
    <ele>380.88000000000005</ele>
   </trkpt>
   <trkpt lat="-37.88624" lon="145.32841000000002">
    <ele>382.87000000000006</ele>
   </trkpt>
   <trkpt lat="-37.88604" lon="145.32873">
    <ele>387.92</ele>
   </trkpt>
   <trkpt lat="-37.885850000000005" lon="145.32889">
    <ele>393.65000000000003</ele>
   </trkpt>
   <trkpt lat="-37.88584" lon="145.3289">
    <ele>393.76000000000005</ele>
   </trkpt>
   <trkpt lat="-37.88555" lon="145.32899">
    <ele>399.54</ele>
   </trkpt>
   <trkpt lat="-37.88499" lon="145.32899">
    <ele>407.54</ele>
   </trkpt>
   <trkpt lat="-37.88447" lon="145.32879">
    <ele>418.42</ele>
   </trkpt>
   <trkpt lat="-37.88407" lon="145.32862">
    <ele>425.59000000000003</ele>
   </trkpt>
   <trkpt lat="-37.88378" lon="145.32857">
    <ele>430.82000000000005</ele>
   </trkpt>
   <trkpt lat="-37.88342" lon="145.32859000000002">
    <ele>432.85</ele>
   </trkpt>
   <trkpt lat="-37.88311" lon="145.32864">
    <ele>439.41</ele>
   </trkpt>
   <trkpt lat="-37.88284" lon="145.32863">
    <ele>444.90000000000003</ele>
   </trkpt>
   <trkpt lat="-37.88264" lon="145.32853">
    <ele>451.1</ele>
   </trkpt>
   <trkpt lat="-37.88241" lon="145.32832000000002">
    <ele>456.25000000000006</ele>
   </trkpt>
   <trkpt lat="-37.88223" lon="145.32806000000002">
    <ele>460.0</ele>
   </trkpt>
   <trkpt lat="-37.88201" lon="145.32736">
    <ele>465.59000000000003</ele>
   </trkpt>
   <trkpt lat="-37.88181" lon="145.32698000000002">
    <ele>467.77</ele>
   </trkpt>
   <trkpt lat="-37.88172" lon="145.32688000000002">
    <ele>468.88</ele>
   </trkpt>
   <trkpt lat="-37.88132" lon="145.32653000000002">
    <ele>473.44</ele>
   </trkpt>
   <trkpt lat="-37.88067" lon="145.32611">
    <ele>480.42</ele>
   </trkpt>
   <trkpt lat="-37.87993" lon="145.32551">
    <ele>487.80000000000007</ele>
   </trkpt>
   <trkpt lat="-37.87932" lon="145.32488">
    <ele>493.04</ele>
   </trkpt>
   <trkpt lat="-37.87892" lon="145.32431000000003">
    <ele>494.31</ele>
   </trkpt>
   <trkpt lat="-37.8787" lon="145.32406">
    <ele>493.43</ele>
   </trkpt>
   <trkpt lat="-37.8782" lon="145.32342">
    <ele>493.15000000000003</ele>
   </trkpt>
   <trkpt lat="-37.87783" lon="145.32313000000002">
    <ele>493.71000000000004</ele>
   </trkpt>
   <trkpt lat="-37.877" lon="145.32270000000003">
    <ele>493.05</ele>
   </trkpt>
   <trkpt lat="-37.87675" lon="145.32254">
    <ele>492.24000000000007</ele>
   </trkpt>
   <trkpt lat="-37.87620500007607" lon="145.32235499860795">
    <ele>494.1</ele>
   </trkpt>
   <trkpt lat="-37.87566" lon="145.32217">
    <ele>493.57000000000005</ele>
   </trkpt>
   <trkpt lat="-37.87536" lon="145.32206000000002">
    <ele>493.6</ele>
   </trkpt>
   <trkpt lat="-37.875040000000006" lon="145.32205000000002">
    <ele>494.14</ele>
   </trkpt>
   <trkpt lat="-37.87505" lon="145.32211">
    <ele>494.15000000000003</ele>
   </trkpt>
   <trkpt lat="-37.87467500274252" lon="145.32292000419275">
    <ele>499.33000000000004</ele>
   </trkpt>
   <trkpt lat="-37.874300000000005" lon="145.32373">
    <ele>498.71000000000004</ele>
   </trkpt>
   <trkpt lat="-37.873835000435996" lon="145.32405500205888">
    <ele>499.44000000000005</ele>
   </trkpt>
   <trkpt lat="-37.87337" lon="145.32438000000002">
    <ele>501.9100000000001</ele>
   </trkpt>
   <trkpt lat="-37.873360000000005" lon="145.32438000000002">
    <ele>501.99</ele>
   </trkpt>
   <trkpt lat="-37.873893338692966" lon="145.3251766551188">
    <ele>514.82</ele>
   </trkpt>
   <trkpt lat="-37.87442667201787" lon="145.32597332177272">
    <ele>524.0100000000001</ele>
   </trkpt>
   <trkpt lat="-37.87496" lon="145.32677">
    <ele>525.39</ele>
   </trkpt>
   <trkpt lat="-37.875295001541495" lon="145.32735999743906">
    <ele>518.45</ele>
   </trkpt>
   <trkpt lat="-37.87563" lon="145.32795000000002">
    <ele>513.84</ele>
   </trkpt>
   <trkpt lat="-37.87589000110721" lon="145.32844999833128">
    <ele>510.74000000000007</ele>
   </trkpt>
   <trkpt lat="-37.87615" lon="145.32895000000002">
    <ele>507.65999999999997</ele>
   </trkpt>
   <trkpt lat="-37.87657" lon="145.32968000000002">
    <ele>501.57000000000005</ele>
   </trkpt>
   <trkpt lat="-37.87715" lon="145.33028000000002">
    <ele>495.62000000000006</ele>
   </trkpt>
   <trkpt lat="-37.87722" lon="145.33067">
    <ele>496.69</ele>
   </trkpt>
   <trkpt lat="-37.8772" lon="145.33103">
    <ele>498.25</ele>
   </trkpt>
   <trkpt lat="-37.877210000000005" lon="145.33099">
    <ele>498.18000000000006</ele>
   </trkpt>
   <trkpt lat="-37.87687500342516" lon="145.33190000434772">
    <ele>500.55000000000007</ele>
   </trkpt>
   <trkpt lat="-37.876540000000006" lon="145.33281000000002">
    <ele>506.04</ele>
   </trkpt>
   <trkpt lat="-37.87624" lon="145.33317000000002">
    <ele>509.0</ele>
   </trkpt>
   <trkpt lat="-37.87563" lon="145.33376">
    <ele>508.11000000000007</ele>
   </trkpt>
   <trkpt lat="-37.87519" lon="145.33432000000002">
    <ele>505.48</ele>
   </trkpt>
   <trkpt lat="-37.87496" lon="145.33483">
    <ele>504.14000000000004</ele>
   </trkpt>
   <trkpt lat="-37.87491" lon="145.33503000000002">
    <ele>504.02000000000004</ele>
   </trkpt>
   <trkpt lat="-37.87487" lon="145.33535">
    <ele>503.85</ele>
   </trkpt>
   <trkpt lat="-37.87482" lon="145.33559000000002">
    <ele>502.87</ele>
   </trkpt>
   <trkpt lat="-37.87442" lon="145.33641">
    <ele>497.70000000000005</ele>
   </trkpt>
   <trkpt lat="-37.874010000000006" lon="145.33712">
    <ele>494.21000000000004</ele>
   </trkpt>
   <trkpt lat="-37.874030000000005" lon="145.33723">
    <ele>494.43</ele>
   </trkpt>
   <trkpt lat="-37.874" lon="145.33733">
    <ele>493.50000000000006</ele>
   </trkpt>
   <trkpt lat="-37.87397" lon="145.33744000000002">
    <ele>492.17</ele>
   </trkpt>
   <trkpt lat="-37.87382" lon="145.33763000000002">
    <ele>487.30000000000007</ele>
   </trkpt>
   <trkpt lat="-37.873720000000006" lon="145.33774000000003">
    <ele>482.75</ele>
   </trkpt>
   <trkpt lat="-37.873630000000006" lon="145.33789000000002">
    <ele>479.68000000000006</ele>
   </trkpt>
   <trkpt lat="-37.87348" lon="145.33819000000003">
    <ele>474.19000000000005</ele>
   </trkpt>
   <trkpt lat="-37.87326" lon="145.33836000000002">
    <ele>466.85</ele>
   </trkpt>
   <trkpt lat="-37.87321" lon="145.33846">
    <ele>463.68</ele>
   </trkpt>
   <trkpt lat="-37.87306" lon="145.33864">
    <ele>459.58000000000004</ele>
   </trkpt>
   <trkpt lat="-37.87297" lon="145.33867">
    <ele>457.97</ele>
   </trkpt>
   <trkpt lat="-37.87292" lon="145.33882">
    <ele>455.94</ele>
   </trkpt>
   <trkpt lat="-37.87279" lon="145.33904">
    <ele>452.02000000000004</ele>
   </trkpt>
   <trkpt lat="-37.87261" lon="145.33905000000001">
    <ele>445.61000000000007</ele>
   </trkpt>
   <trkpt lat="-37.87245" lon="145.339">
    <ele>441.83000000000004</ele>
   </trkpt>
   <trkpt lat="-37.87229" lon="145.33889000000002">
    <ele>441.09000000000003</ele>
   </trkpt>
   <trkpt lat="-37.87207" lon="145.33867">
    <ele>442.20000000000005</ele>
   </trkpt>
   <trkpt lat="-37.87194" lon="145.3386">
    <ele>442.65000000000003</ele>
   </trkpt>
   <trkpt lat="-37.87158" lon="145.33859">
    <ele>445.58000000000004</ele>
   </trkpt>
   <trkpt lat="-37.87135" lon="145.33871000000002">
    <ele>447.07</ele>
   </trkpt>
   <trkpt lat="-37.87122" lon="145.33881000000002">
    <ele>447.26000000000005</ele>
   </trkpt>
   <trkpt lat="-37.87109" lon="145.33881000000002">
    <ele>447.13</ele>
   </trkpt>
   <trkpt lat="-37.87088" lon="145.33873">
    <ele>447.49000000000007</ele>
   </trkpt>
   <trkpt lat="-37.87078" lon="145.33871000000002">
    <ele>447.70000000000005</ele>
   </trkpt>
   <trkpt lat="-37.87075" lon="145.33874">
    <ele>450.14000000000004</ele>
   </trkpt>
   <trkpt lat="-37.87064" lon="145.33877">
    <ele>450.14000000000004</ele>
   </trkpt>
   <trkpt lat="-37.87035" lon="145.33879000000002">
    <ele>458.88</ele>
   </trkpt>
   <trkpt lat="-37.87026" lon="145.33887000000001">
    <ele>458.88</ele>
   </trkpt>
   <trkpt lat="-37.87026" lon="145.33888000000002">
    <ele>459.03000000000003</ele>
   </trkpt>
   <trkpt lat="-37.87037" lon="145.33894">
    <ele>459.75000000000006</ele>
   </trkpt>
   <trkpt lat="-37.87059" lon="145.33917000000002">
    <ele>461.96000000000004</ele>
   </trkpt>
   <trkpt lat="-37.87082" lon="145.33948">
    <ele>464.97</ele>
   </trkpt>
   <trkpt lat="-37.87106" lon="145.33963">
    <ele>466.3</ele>
   </trkpt>
   <trkpt lat="-37.8712" lon="145.33964">
    <ele>467.5</ele>
   </trkpt>
   <trkpt lat="-37.871320000000004" lon="145.33969000000002">
    <ele>468.35</ele>
   </trkpt>
   <trkpt lat="-37.87185" lon="145.33998000000003">
    <ele>473.53000000000003</ele>
   </trkpt>
   <trkpt lat="-37.87214" lon="145.34024000000002">
    <ele>476.48</ele>
   </trkpt>
   <trkpt lat="-37.87263" lon="145.34076000000002">
    <ele>480.65000000000003</ele>
   </trkpt>
   <trkpt lat="-37.87272" lon="145.34083">
    <ele>481.47</ele>
   </trkpt>
   <trkpt lat="-37.87288" lon="145.3409">
    <ele>482.04</ele>
   </trkpt>
   <trkpt lat="-37.87315" lon="145.34105000000002">
    <ele>484.54</ele>
   </trkpt>
   <trkpt lat="-37.87375" lon="145.34154">
    <ele>489.87</ele>
   </trkpt>
   <trkpt lat="-37.87406" lon="145.34185000000002">
    <ele>492.61</ele>
   </trkpt>
   <trkpt lat="-37.8744" lon="145.34218">
    <ele>494.56000000000006</ele>
   </trkpt>
   <trkpt lat="-37.874755000672344" lon="145.34257999806755">
    <ele>497.86</ele>
   </trkpt>
   <trkpt lat="-37.87511000000001" lon="145.34298">
    <ele>500.48999999999995</ele>
   </trkpt>
   <trkpt lat="-37.87523" lon="145.34291000000002">
    <ele>500.65999999999997</ele>
   </trkpt>
   <trkpt lat="-37.87532" lon="145.34302000000002">
    <ele>501.26000000000005</ele>
   </trkpt>
   <trkpt lat="-37.87534" lon="145.34311000000002">
    <ele>501.6700000000001</ele>
   </trkpt>
   <trkpt lat="-37.875330000000005" lon="145.34327000000002">
    <ele>502.65999999999997</ele>
   </trkpt>
   <trkpt lat="-37.87534" lon="145.34356000000002">
    <ele>503.25000000000006</ele>
   </trkpt>
   <trkpt lat="-37.875400000000006" lon="145.34393">
    <ele>505.83</ele>
   </trkpt>
   <trkpt lat="-37.87581" lon="145.34492">
    <ele>510.05</ele>
   </trkpt>
   <trkpt lat="-37.87588" lon="145.34525000000002">
    <ele>510.62000000000006</ele>
   </trkpt>
   <trkpt lat="-37.87592500224975" lon="145.34597999949017">
    <ele>510.65999999999997</ele>
   </trkpt>
   <trkpt lat="-37.87597" lon="145.34671">
    <ele>509.38000000000005</ele>
   </trkpt>
   <trkpt lat="-37.875930000000004" lon="145.34674">
    <ele>511.93</ele>
   </trkpt>
   <trkpt lat="-37.87594" lon="145.3469">
    <ele>511.43000000000006</ele>
   </trkpt>
   <trkpt lat="-37.87601" lon="145.34713000000002">
    <ele>510.77000000000004</ele>
   </trkpt>
   <trkpt lat="-37.87612" lon="145.34731000000002">
    <ele>510.46000000000004</ele>
   </trkpt>
   <trkpt lat="-37.87632" lon="145.34753">
    <ele>510.09000000000003</ele>
   </trkpt>
   <trkpt lat="-37.87695" lon="145.34759000000003">
    <ele>507.5900000000001</ele>
   </trkpt>
   <trkpt lat="-37.87729" lon="145.34767000000002">
    <ele>506.93</ele>
   </trkpt>
   <trkpt lat="-37.87749" lon="145.34775000000002">
    <ele>505.51</ele>
   </trkpt>
   <trkpt lat="-37.87767" lon="145.34789">
    <ele>503.9</ele>
   </trkpt>
   <trkpt lat="-37.87789" lon="145.34835">
    <ele>501.51</ele>
   </trkpt>
   <trkpt lat="-37.878110001451404" lon="145.3489249984215">
    <ele>499.90000000000003</ele>
   </trkpt>
   <trkpt lat="-37.878330000000005" lon="145.3495">
    <ele>496.96000000000004</ele>
   </trkpt>
   <trkpt lat="-37.87832" lon="145.34946000000002">
    <ele>497.07000000000005</ele>
   </trkpt>
   <trkpt lat="-37.87841" lon="145.34982000000002">
    <ele>494.82000000000005</ele>
   </trkpt>
   <trkpt lat="-37.87843" lon="145.35018000000002">
    <ele>494.82000000000005</ele>
   </trkpt>
   <trkpt lat="-37.878420000000006" lon="145.35056">
    <ele>492.02</ele>
   </trkpt>
   <trkpt lat="-37.87834" lon="145.35091">
    <ele>490.8500000000001</ele>
   </trkpt>
   <trkpt lat="-37.87805" lon="145.35196000000002">
    <ele>485.17</ele>
   </trkpt>
   <trkpt lat="-37.87782" lon="145.35246">
    <ele>482.68000000000006</ele>
   </trkpt>
   <trkpt lat="-37.877485001215554" lon="145.35299000236677">
    <ele>478.27000000000004</ele>
   </trkpt>
   <trkpt lat="-37.87715" lon="145.35352">
    <ele>475.51000000000005</ele>
   </trkpt>
   <trkpt lat="-37.876665001901536" lon="145.35421000470234">
    <ele>471.06</ele>
   </trkpt>
   <trkpt lat="-37.876180000000005" lon="145.35490000000001">
    <ele>467.88</ele>
   </trkpt>
   <trkpt lat="-37.87617" lon="145.35491000000002">
    <ele>467.89000000000004</ele>
   </trkpt>
   <trkpt lat="-37.87608" lon="145.35447000000002">
    <ele>470.81000000000006</ele>
   </trkpt>
   <trkpt lat="-37.87601" lon="145.35412000000002">
    <ele>474.68000000000006</ele>
   </trkpt>
   <trkpt lat="-37.87621" lon="145.35324">
    <ele>481.1</ele>
   </trkpt>
   <trkpt lat="-37.87635" lon="145.35295000000002">
    <ele>485.36</ele>
   </trkpt>
   <trkpt lat="-37.87637" lon="145.35271">
    <ele>487.79</ele>
   </trkpt>
   <trkpt lat="-37.87621" lon="145.35214000000002">
    <ele>493.02</ele>
   </trkpt>
   <trkpt lat="-37.87621" lon="145.35187000000002">
    <ele>498.70000000000005</ele>
   </trkpt>
   <trkpt lat="-37.87617" lon="145.35166">
    <ele>500.06000000000006</ele>
   </trkpt>
   <trkpt lat="-37.87601" lon="145.35145">
    <ele>504.18000000000006</ele>
   </trkpt>
   <trkpt lat="-37.87592" lon="145.35115000000002">
    <ele>507.99000000000007</ele>
   </trkpt>
   <trkpt lat="-37.87576" lon="145.35083">
    <ele>513.38</ele>
   </trkpt>
   <trkpt lat="-37.8755" lon="145.3505">
    <ele>517.57</ele>
   </trkpt>
   <trkpt lat="-37.87518" lon="145.35024">
    <ele>519.57</ele>
   </trkpt>
   <trkpt lat="-37.8748" lon="145.34975">
    <ele>523.1</ele>
   </trkpt>
   <trkpt lat="-37.87438" lon="145.34938000000002">
    <ele>522.98</ele>
   </trkpt>
   <trkpt lat="-37.87413" lon="145.34910000000002">
    <ele>523.82</ele>
   </trkpt>
   <trkpt lat="-37.87397" lon="145.34883000000002">
    <ele>524.5300000000001</ele>
   </trkpt>
   <trkpt lat="-37.87397" lon="145.34874000000002">
    <ele>525.49</ele>
   </trkpt>
   <trkpt lat="-37.87402" lon="145.34863">
    <ele>525.71</ele>
   </trkpt>
   <trkpt lat="-37.87432000204222" lon="145.3479450026575">
    <ele>526.46</ele>
   </trkpt>
   <trkpt lat="-37.87462" lon="145.34726">
    <ele>525.3100000000001</ele>
   </trkpt>
   <trkpt lat="-37.87462" lon="145.34694000000002">
    <ele>525.5200000000001</ele>
   </trkpt>
   <trkpt lat="-37.87438500130286" lon="145.34636499793243">
    <ele>527.6899999999999</ele>
   </trkpt>
   <trkpt lat="-37.87415" lon="145.34579000000002">
    <ele>525.96</ele>
   </trkpt>
   <trkpt lat="-37.87413" lon="145.34576">
    <ele>525.96</ele>
   </trkpt>
   <trkpt lat="-37.873705000495555" lon="145.34606500168627">
    <ele>530.08</ele>
   </trkpt>
   <trkpt lat="-37.87328" lon="145.34637">
    <ele>533.9200000000001</ele>
   </trkpt>
   <trkpt lat="-37.872810000139715" lon="145.34661500162255">
    <ele>536.12</ele>
   </trkpt>
   <trkpt lat="-37.87234" lon="145.34686000000002">
    <ele>535.59</ele>
   </trkpt>
   <trkpt lat="-37.87158" lon="145.34716">
    <ele>528.98</ele>
   </trkpt>
   <trkpt lat="-37.87093" lon="145.34747000000002">
    <ele>524.8000000000001</ele>
   </trkpt>
   <trkpt lat="-37.870760000000004" lon="145.34751">
    <ele>524.47</ele>
   </trkpt>
   <trkpt lat="-37.870180000000005" lon="145.34773">
    <ele>524.6899999999999</ele>
   </trkpt>
   <trkpt lat="-37.869860000760696" lon="145.34816000189605">
    <ele>524.4000000000001</ele>
   </trkpt>
   <trkpt lat="-37.86954" lon="145.34859">
    <ele>523.24</ele>
   </trkpt>
   <trkpt lat="-37.86916" lon="145.34902000000002">
    <ele>521.4300000000001</ele>
   </trkpt>
   <trkpt lat="-37.86874" lon="145.34961">
    <ele>518.4000000000001</ele>
   </trkpt>
   <trkpt lat="-37.86867" lon="145.34974000000003">
    <ele>517.69</ele>
   </trkpt>
   <trkpt lat="-37.868370000000006" lon="145.3505">
    <ele>513.08</ele>
   </trkpt>
   <trkpt lat="-37.86831" lon="145.35071000000002">
    <ele>513.08</ele>
   </trkpt>
   <trkpt lat="-37.86833" lon="145.35094">
    <ele>511.3500000000001</ele>
   </trkpt>
   <trkpt lat="-37.86838" lon="145.35117000000002">
    <ele>509.97999999999996</ele>
   </trkpt>
   <trkpt lat="-37.86865" lon="145.35182">
    <ele>506.46000000000004</ele>
   </trkpt>
   <trkpt lat="-37.86869" lon="145.35206000000002">
    <ele>505.95</ele>
   </trkpt>
   <trkpt lat="-37.86871" lon="145.35229">
    <ele>505.39</ele>
   </trkpt>
   <trkpt lat="-37.86863" lon="145.35256">
    <ele>504.07</ele>
   </trkpt>
   <trkpt lat="-37.86853" lon="145.35273">
    <ele>502.9800000000001</ele>
   </trkpt>
   <trkpt lat="-37.868370000000006" lon="145.35287000000002">
    <ele>501.05</ele>
   </trkpt>
   <trkpt lat="-37.86807" lon="145.35296000000002">
    <ele>498.45000000000005</ele>
   </trkpt>
   <trkpt lat="-37.86782" lon="145.35301">
    <ele>496.1700000000001</ele>
   </trkpt>
   <trkpt lat="-37.86706" lon="145.35304000000002">
    <ele>491.68000000000006</ele>
   </trkpt>
   <trkpt lat="-37.86679" lon="145.35301">
    <ele>490.16</ele>
   </trkpt>
   <trkpt lat="-37.86659" lon="145.35295000000002">
    <ele>489.48</ele>
   </trkpt>
   <trkpt lat="-37.86636" lon="145.35285000000002">
    <ele>488.22</ele>
   </trkpt>
   <trkpt lat="-37.86594" lon="145.35258000000002">
    <ele>487.07000000000005</ele>
   </trkpt>
   <trkpt lat="-37.86569" lon="145.35253">
    <ele>483.94000000000005</ele>
   </trkpt>
   <trkpt lat="-37.86544000000001" lon="145.35253">
    <ele>483.94000000000005</ele>
   </trkpt>
   <trkpt lat="-37.864900000000006" lon="145.35260000000002">
    <ele>481.55</ele>
   </trkpt>
   <trkpt lat="-37.86455" lon="145.35267000000002">
    <ele>480.22</ele>
   </trkpt>
   <trkpt lat="-37.86437" lon="145.35273">
    <ele>478.86000000000007</ele>
   </trkpt>
   <trkpt lat="-37.86412" lon="145.35284000000001">
    <ele>477.63000000000005</ele>
   </trkpt>
   <trkpt lat="-37.863350000000004" lon="145.35333">
    <ele>476.67</ele>
   </trkpt>
   <trkpt lat="-37.86287" lon="145.35369">
    <ele>478.67</ele>
   </trkpt>
   <trkpt lat="-37.86285" lon="145.35369">
    <ele>478.74000000000007</ele>
   </trkpt>
   <trkpt lat="-37.86265" lon="145.35319">
    <ele>476.34000000000003</ele>
   </trkpt>
   <trkpt lat="-37.86258" lon="145.35298">
    <ele>475.07000000000005</ele>
   </trkpt>
   <trkpt lat="-37.862570000000005" lon="145.35281">
    <ele>474.23</ele>
   </trkpt>
   <trkpt lat="-37.862460000000006" lon="145.35279">
    <ele>473.03000000000003</ele>
   </trkpt>
   <trkpt lat="-37.8624" lon="145.35274">
    <ele>473.03000000000003</ele>
   </trkpt>
   <trkpt lat="-37.862190000000005" lon="145.3522">
    <ele>469.4200000000001</ele>
   </trkpt>
   <trkpt lat="-37.86218" lon="145.35177000000002">
    <ele>467.5</ele>
   </trkpt>
   <trkpt lat="-37.8622" lon="145.3514">
    <ele>462.62</ele>
   </trkpt>
   <trkpt lat="-37.86256" lon="145.35098000000002">
    <ele>457.14000000000004</ele>
   </trkpt>
   <trkpt lat="-37.86258" lon="145.35084">
    <ele>455.31000000000006</ele>
   </trkpt>
   <trkpt lat="-37.86285" lon="145.35058">
    <ele>450.56</ele>
   </trkpt>
   <trkpt lat="-37.863150000000005" lon="145.34997">
    <ele>443.32000000000005</ele>
   </trkpt>
   <trkpt lat="-37.86318" lon="145.3494">
    <ele>437.48</ele>
   </trkpt>
   <trkpt lat="-37.86316" lon="145.34895">
    <ele>430.54</ele>
   </trkpt>
   <trkpt lat="-37.86316" lon="145.34836">
    <ele>425.15000000000003</ele>
   </trkpt>
   <trkpt lat="-37.86312" lon="145.34826">
    <ele>422.91</ele>
   </trkpt>
   <trkpt lat="-37.86296" lon="145.34810000000002">
    <ele>421.06000000000006</ele>
   </trkpt>
   <trkpt lat="-37.86256" lon="145.34787">
    <ele>417.24000000000007</ele>
   </trkpt>
   <trkpt lat="-37.86245" lon="145.34777000000003">
    <ele>415.06000000000006</ele>
   </trkpt>
   <trkpt lat="-37.8622" lon="145.34749000000002">
    <ele>412.05</ele>
   </trkpt>
   <trkpt lat="-37.86206" lon="145.34726">
    <ele>412.05</ele>
   </trkpt>
   <trkpt lat="-37.86202" lon="145.34712000000002">
    <ele>402.41</ele>
   </trkpt>
   <trkpt lat="-37.86193" lon="145.34642000000002">
    <ele>397.96000000000004</ele>
   </trkpt>
   <trkpt lat="-37.86209" lon="145.34566">
    <ele>392.09000000000003</ele>
   </trkpt>
   <trkpt lat="-37.86213" lon="145.34550000000002">
    <ele>390.95</ele>
   </trkpt>
   <trkpt lat="-37.86238" lon="145.34501">
    <ele>386.46000000000004</ele>
   </trkpt>
   <trkpt lat="-37.86253" lon="145.34477">
    <ele>382.43000000000006</ele>
   </trkpt>
   <trkpt lat="-37.862840000000006" lon="145.3444">
    <ele>379.52000000000004</ele>
   </trkpt>
   <trkpt lat="-37.86305" lon="145.34406">
    <ele>376.62</ele>
   </trkpt>
   <trkpt lat="-37.86307" lon="145.34395">
    <ele>376.20000000000005</ele>
   </trkpt>
   <trkpt lat="-37.863060000000004" lon="145.34392000000003">
    <ele>376.20000000000005</ele>
   </trkpt>
   <trkpt lat="-37.86307" lon="145.34396">
    <ele>376.29</ele>
   </trkpt>
   <trkpt lat="-37.86303" lon="145.34388">
    <ele>375.98</ele>
   </trkpt>
   <trkpt lat="-37.86296" lon="145.34383000000003">
    <ele>375.63</ele>
   </trkpt>
   <trkpt lat="-37.86231" lon="145.34352">
    <ele>371.64000000000004</ele>
   </trkpt>
   <trkpt lat="-37.86168" lon="145.34332">
    <ele>367.27000000000004</ele>
   </trkpt>
   <trkpt lat="-37.861520000000006" lon="145.34317000000001">
    <ele>366.25</ele>
   </trkpt>
   <trkpt lat="-37.86139" lon="145.34300000000002">
    <ele>364.75</ele>
   </trkpt>
   <trkpt lat="-37.86128" lon="145.34276">
    <ele>363.41</ele>
   </trkpt>
   <trkpt lat="-37.86121" lon="145.34249">
    <ele>361.89000000000004</ele>
   </trkpt>
   <trkpt lat="-37.86108" lon="145.3417">
    <ele>357.62000000000006</ele>
   </trkpt>
   <trkpt lat="-37.86097" lon="145.34123000000002">
    <ele>352.28000000000003</ele>
   </trkpt>
   <trkpt lat="-37.86092" lon="145.34113000000002">
    <ele>352.28000000000003</ele>
   </trkpt>
   <trkpt lat="-37.860780000000005" lon="145.341">
    <ele>351.96000000000004</ele>
   </trkpt>
   <trkpt lat="-37.86086" lon="145.34071">
    <ele>357.37</ele>
   </trkpt>
   <trkpt lat="-37.86112" lon="145.34012">
    <ele>376.54</ele>
   </trkpt>
   <trkpt lat="-37.86117" lon="145.3399">
    <ele>385.01</ele>
   </trkpt>
   <trkpt lat="-37.86117" lon="145.33978000000002">
    <ele>388.74</ele>
   </trkpt>
   <trkpt lat="-37.86115" lon="145.33973">
    <ele>390.21000000000004</ele>
   </trkpt>
   <trkpt lat="-37.86081" lon="145.33949">
    <ele>392.95</ele>
   </trkpt>
   <trkpt lat="-37.86056" lon="145.33914000000001">
    <ele>393.17</ele>
   </trkpt>
   <trkpt lat="-37.8605" lon="145.33886">
    <ele>393.86</ele>
   </trkpt>
   <trkpt lat="-37.860510000000005" lon="145.33876">
    <ele>394.52000000000004</ele>
   </trkpt>
   <trkpt lat="-37.86075" lon="145.33882">
    <ele>388.66</ele>
   </trkpt>
   <trkpt lat="-37.86074" lon="145.33889000000002">
    <ele>388.58000000000004</ele>
   </trkpt>
   <trkpt lat="-37.86095" lon="145.33902">
    <ele>392.27</ele>
   </trkpt>
   <trkpt lat="-37.86168" lon="145.33925000000002">
    <ele>409.42</ele>
   </trkpt>
   <trkpt lat="-37.8622" lon="145.33963">
    <ele>419.26</ele>
   </trkpt>
   <trkpt lat="-37.862860000000005" lon="145.34025000000003">
    <ele>438.58000000000004</ele>
   </trkpt>
   <trkpt lat="-37.86318" lon="145.33996000000002">
    <ele>437.20000000000005</ele>
   </trkpt>
   <trkpt lat="-37.86354" lon="145.33979000000002">
    <ele>434.35</ele>
   </trkpt>
   <trkpt lat="-37.863780000000006" lon="145.33974">
    <ele>429.7300000000001</ele>
   </trkpt>
   <trkpt lat="-37.8641" lon="145.33975">
    <ele>429.1</ele>
   </trkpt>
   <trkpt lat="-37.8645" lon="145.33989000000003">
    <ele>426.43</ele>
   </trkpt>
   <trkpt lat="-37.86464" lon="145.33988000000002">
    <ele>422.99</ele>
   </trkpt>
   <trkpt lat="-37.864760000000004" lon="145.33978000000002">
    <ele>421.97</ele>
   </trkpt>
   <trkpt lat="-37.86475" lon="145.33980000000003">
    <ele>422.13000000000005</ele>
   </trkpt>
   <trkpt lat="-37.86486" lon="145.33964">
    <ele>420.8</ele>
   </trkpt>
   <trkpt lat="-37.86495" lon="145.33935000000002">
    <ele>420.07000000000005</ele>
   </trkpt>
   <trkpt lat="-37.86506" lon="145.33889000000002">
    <ele>418.09000000000003</ele>
   </trkpt>
   <trkpt lat="-37.86528500203525" lon="145.33821000183474">
    <ele>414.97</ele>
   </trkpt>
   <trkpt lat="-37.86551" lon="145.33753000000002">
    <ele>415.17</ele>
   </trkpt>
   <trkpt lat="-37.865750000000006" lon="145.33665000000002">
    <ele>415.39000000000004</ele>
   </trkpt>
   <trkpt lat="-37.86585" lon="145.33585000000002">
    <ele>417.31</ele>
   </trkpt>
   <trkpt lat="-37.865860000000005" lon="145.33549000000002">
    <ele>419.63000000000005</ele>
   </trkpt>
   <trkpt lat="-37.86581000154955" lon="145.33488499961047">
    <ele>423.23</ele>
   </trkpt>
   <trkpt lat="-37.86576" lon="145.33428">
    <ele>424.64</ele>
   </trkpt>
   <trkpt lat="-37.8656" lon="145.33411">
    <ele>421.73</ele>
   </trkpt>
   <trkpt lat="-37.86529" lon="145.33396000000002">
    <ele>413.64</ele>
   </trkpt>
   <trkpt lat="-37.86493" lon="145.33347">
    <ele>402.06</ele>
   </trkpt>
   <trkpt lat="-37.86475" lon="145.33338">
    <ele>396.65000000000003</ele>
   </trkpt>
   <trkpt lat="-37.86451" lon="145.3332">
    <ele>386.96000000000004</ele>
   </trkpt>
   <trkpt lat="-37.86464" lon="145.333">
    <ele>387.90000000000003</ele>
   </trkpt>
   <trkpt lat="-37.86475" lon="145.33290000000002">
    <ele>389.39</ele>
   </trkpt>
   <trkpt lat="-37.86473" lon="145.33291">
    <ele>389.3</ele>
   </trkpt>
   <trkpt lat="-37.86482" lon="145.33287">
    <ele>389.3</ele>
   </trkpt>
   <trkpt lat="-37.86502" lon="145.33284">
    <ele>391.15000000000003</ele>
   </trkpt>
   <trkpt lat="-37.86568000007963" lon="145.33300499851333">
    <ele>396.09000000000003</ele>
   </trkpt>
   <trkpt lat="-37.86634" lon="145.33317000000002">
    <ele>400.66</ele>
   </trkpt>
   <trkpt lat="-37.86697" lon="145.33335000000002">
    <ele>406.64000000000004</ele>
   </trkpt>
   <trkpt lat="-37.867200000000004" lon="145.33355">
    <ele>408.37</ele>
   </trkpt>
   <trkpt lat="-37.8673" lon="145.33371000000002">
    <ele>406.93</ele>
   </trkpt>
   <trkpt lat="-37.86737" lon="145.33386000000002">
    <ele>406.93</ele>
   </trkpt>
   <trkpt lat="-37.86741" lon="145.33403">
    <ele>405.86000000000007</ele>
   </trkpt>
   <trkpt lat="-37.86744" lon="145.33422000000002">
    <ele>404.49</ele>
   </trkpt>
   <trkpt lat="-37.86735" lon="145.33496000000002">
    <ele>400.16</ele>
   </trkpt>
   <trkpt lat="-37.86735" lon="145.33513000000002">
    <ele>400.16</ele>
   </trkpt>
   <trkpt lat="-37.86741" lon="145.33546">
    <ele>397.63000000000005</ele>
   </trkpt>
   <trkpt lat="-37.86748" lon="145.33566000000002">
    <ele>396.76000000000005</ele>
   </trkpt>
   <trkpt lat="-37.86762" lon="145.33587">
    <ele>395.74</ele>
   </trkpt>
   <trkpt lat="-37.867900000000006" lon="145.33622000000003">
    <ele>394.15000000000003</ele>
   </trkpt>
   <trkpt lat="-37.86807" lon="145.33656000000002">
    <ele>392.65000000000003</ele>
   </trkpt>
   <trkpt lat="-37.86813" lon="145.33664000000002">
    <ele>392.3</ele>
   </trkpt>
   <trkpt lat="-37.86831" lon="145.3368">
    <ele>391.94</ele>
   </trkpt>
   <trkpt lat="-37.8686" lon="145.33698">
    <ele>391.13000000000005</ele>
   </trkpt>
   <trkpt lat="-37.86891" lon="145.33724">
    <ele>394.53000000000003</ele>
   </trkpt>
   <trkpt lat="-37.86905" lon="145.33725">
    <ele>394.40000000000003</ele>
   </trkpt>
   <trkpt lat="-37.869060000000005" lon="145.33725">
    <ele>394.43000000000006</ele>
   </trkpt>
   <trkpt lat="-37.86914" lon="145.33722">
    <ele>394.05</ele>
   </trkpt>
   <trkpt lat="-37.86927" lon="145.33711000000002">
    <ele>392.13000000000005</ele>
   </trkpt>
   <trkpt lat="-37.86968" lon="145.33686">
    <ele>391.96000000000004</ele>
   </trkpt>
   <trkpt lat="-37.86983" lon="145.33668">
    <ele>391.32000000000005</ele>
   </trkpt>
   <trkpt lat="-37.87001" lon="145.33628000000002">
    <ele>384.6</ele>
   </trkpt>
   <trkpt lat="-37.8701" lon="145.33595000000003">
    <ele>379.13</ele>
   </trkpt>
   <trkpt lat="-37.87035" lon="145.3356">
    <ele>370.85</ele>
   </trkpt>
   <trkpt lat="-37.87055" lon="145.33518">
    <ele>358.78000000000003</ele>
   </trkpt>
   <trkpt lat="-37.870450000000005" lon="145.33465">
    <ele>349.66</ele>
   </trkpt>
   <trkpt lat="-37.87066" lon="145.33478000000002">
    <ele>350.82</ele>
   </trkpt>
   <trkpt lat="-37.87075" lon="145.33478000000002">
    <ele>350.82</ele>
   </trkpt>
   <trkpt lat="-37.870810000000006" lon="145.3347">
    <ele>352.55</ele>
   </trkpt>
   <trkpt lat="-37.870810000000006" lon="145.33446">
    <ele>353.67</ele>
   </trkpt>
   <trkpt lat="-37.87075" lon="145.33419">
    <ele>354.73</ele>
   </trkpt>
   <trkpt lat="-37.87082" lon="145.33339">
    <ele>360.32000000000005</ele>
   </trkpt>
   <trkpt lat="-37.87091" lon="145.33315000000002">
    <ele>361.48</ele>
   </trkpt>
   <trkpt lat="-37.87102" lon="145.33292">
    <ele>361.46</ele>
   </trkpt>
   <trkpt lat="-37.87113" lon="145.33284">
    <ele>361.47</ele>
   </trkpt>
   <trkpt lat="-37.871280000000006" lon="145.33282">
    <ele>361.99</ele>
   </trkpt>
   <trkpt lat="-37.87167" lon="145.33290000000002">
    <ele>365.53000000000003</ele>
   </trkpt>
   <trkpt lat="-37.87207" lon="145.33307000000002">
    <ele>370.38000000000005</ele>
   </trkpt>
   <trkpt lat="-37.87238" lon="145.33305000000001">
    <ele>375.4</ele>
   </trkpt>
   <trkpt lat="-37.87268" lon="145.33283">
    <ele>377.31</ele>
   </trkpt>
   <trkpt lat="-37.872890000000005" lon="145.3325">
    <ele>378.44000000000005</ele>
   </trkpt>
   <trkpt lat="-37.87301" lon="145.33224">
    <ele>378.70000000000005</ele>
   </trkpt>
   <trkpt lat="-37.87301" lon="145.33226000000002">
    <ele>378.68</ele>
   </trkpt>
   <trkpt lat="-37.87301" lon="145.33218000000002">
    <ele>378.91</ele>
   </trkpt>
   <trkpt lat="-37.87297" lon="145.33206">
    <ele>379.47</ele>
   </trkpt>
   <trkpt lat="-37.87279" lon="145.33183000000002">
    <ele>381.58000000000004</ele>
   </trkpt>
   <trkpt lat="-37.87263" lon="145.33171000000002">
    <ele>382.45</ele>
   </trkpt>
   <trkpt lat="-37.87236" lon="145.33138000000002">
    <ele>384.71000000000004</ele>
   </trkpt>
   <trkpt lat="-37.87225" lon="145.33113">
    <ele>385.55</ele>
   </trkpt>
   <trkpt lat="-37.87219" lon="145.33061">
    <ele>387.23</ele>
   </trkpt>
   <trkpt lat="-37.87223" lon="145.33017">
    <ele>391.99</ele>
   </trkpt>
   <trkpt lat="-37.87227" lon="145.33004000000003">
    <ele>392.94</ele>
   </trkpt>
   <trkpt lat="-37.87223" lon="145.32968000000002">
    <ele>393.19000000000005</ele>
   </trkpt>
   <trkpt lat="-37.87216" lon="145.32951">
    <ele>392.5</ele>
   </trkpt>
   <trkpt lat="-37.87196" lon="145.32921000000002">
    <ele>391.26000000000005</ele>
   </trkpt>
   <trkpt lat="-37.8718" lon="145.32905000000002">
    <ele>392.8</ele>
   </trkpt>
   <trkpt lat="-37.87171" lon="145.32889">
    <ele>395.46000000000004</ele>
   </trkpt>
   <trkpt lat="-37.87169" lon="145.32861000000003">
    <ele>399.40000000000003</ele>
   </trkpt>
   <trkpt lat="-37.87158" lon="145.32842000000002">
    <ele>405.39000000000004</ele>
   </trkpt>
   <trkpt lat="-37.8714" lon="145.32824000000002">
    <ele>409.42</ele>
   </trkpt>
   <trkpt lat="-37.87131" lon="145.32817">
    <ele>410.44</ele>
   </trkpt>
   <trkpt lat="-37.871" lon="145.32801">
    <ele>413.81</ele>
   </trkpt>
   <trkpt lat="-37.87062" lon="145.32791">
    <ele>419.2</ele>
   </trkpt>
   <trkpt lat="-37.87035" lon="145.32771000000002">
    <ele>428.02</ele>
   </trkpt>
   <trkpt lat="-37.87024" lon="145.32759000000001">
    <ele>428.02</ele>
   </trkpt>
   <trkpt lat="-37.870160000000006" lon="145.32745">
    <ele>433.20000000000005</ele>
   </trkpt>
   <trkpt lat="-37.87008" lon="145.32731">
    <ele>435.14000000000004</ele>
   </trkpt>
   <trkpt lat="-37.87003" lon="145.32711">
    <ele>437.87</ele>
   </trkpt>
   <trkpt lat="-37.87004" lon="145.32713">
    <ele>437.74</ele>
   </trkpt>
   <trkpt lat="-37.87001" lon="145.32697000000002">
    <ele>439.77000000000004</ele>
   </trkpt>
   <trkpt lat="-37.87003" lon="145.32679000000002">
    <ele>441.72</ele>
   </trkpt>
   <trkpt lat="-37.87006" lon="145.32671000000002">
    <ele>443.11000000000007</ele>
   </trkpt>
   <trkpt lat="-37.87024" lon="145.32659">
    <ele>447.8</ele>
   </trkpt>
   <trkpt lat="-37.87053" lon="145.32625000000002">
    <ele>453.26000000000005</ele>
   </trkpt>
   <trkpt lat="-37.870720000000006" lon="145.32623">
    <ele>457.97</ele>
   </trkpt>
   <trkpt lat="-37.87082" lon="145.32609000000002">
    <ele>462.0400000000001</ele>
   </trkpt>
   <trkpt lat="-37.87093" lon="145.32597">
    <ele>463.9800000000001</ele>
   </trkpt>
   <trkpt lat="-37.87104" lon="145.32594">
    <ele>463.9800000000001</ele>
   </trkpt>
   <trkpt lat="-37.87124" lon="145.32594">
    <ele>470.46000000000004</ele>
   </trkpt>
   <trkpt lat="-37.87142" lon="145.32584">
    <ele>477.2</ele>
   </trkpt>
   <trkpt lat="-37.87171" lon="145.32548">
    <ele>481.46000000000004</ele>
   </trkpt>
   <trkpt lat="-37.871750000000006" lon="145.32506">
    <ele>480.16</ele>
   </trkpt>
   <trkpt lat="-37.87184500277681" lon="145.32425000102566">
    <ele>473.09000000000003</ele>
   </trkpt>
   <trkpt lat="-37.87194" lon="145.32344">
    <ele>463.25000000000006</ele>
   </trkpt>
   <trkpt lat="-37.871880000000004" lon="145.32333">
    <ele>460.08000000000004</ele>
   </trkpt>
   <trkpt lat="-37.87185" lon="145.3232">
    <ele>457.06</ele>
   </trkpt>
   <trkpt lat="-37.87187" lon="145.32276000000002">
    <ele>457.42</ele>
   </trkpt>
   <trkpt lat="-37.871840000000006" lon="145.32255">
    <ele>459.24</ele>
   </trkpt>
   <trkpt lat="-37.87178" lon="145.32256">
    <ele>457.98</ele>
   </trkpt>
   <trkpt lat="-37.87169" lon="145.32248">
    <ele>456.85</ele>
   </trkpt>
   <trkpt lat="-37.87127" lon="145.32199">
    <ele>453.41</ele>
   </trkpt>
   <trkpt lat="-37.87086" lon="145.32168000000001">
    <ele>450.24</ele>
   </trkpt>
   <trkpt lat="-37.87046" lon="145.3213">
    <ele>446.05000000000007</ele>
   </trkpt>
   <trkpt lat="-37.87023000000001" lon="145.32102">
    <ele>442.77000000000004</ele>
   </trkpt>
   <trkpt lat="-37.87001" lon="145.32003">
    <ele>429.51000000000005</ele>
   </trkpt>
   <trkpt lat="-37.86992" lon="145.31986">
    <ele>424.73</ele>
   </trkpt>
   <trkpt lat="-37.86974" lon="145.3196">
    <ele>422.67</ele>
   </trkpt>
   <trkpt lat="-37.86965" lon="145.31935000000001">
    <ele>420.64</ele>
   </trkpt>
   <trkpt lat="-37.86945" lon="145.31861">
    <ele>415.03000000000003</ele>
   </trkpt>
   <trkpt lat="-37.86943" lon="145.31849000000003">
    <ele>414.55</ele>
   </trkpt>
   <trkpt lat="-37.869510000000005" lon="145.31796">
    <ele>411.36000000000007</ele>
   </trkpt>
   <trkpt lat="-37.869780000000006" lon="145.31726">
    <ele>404.78000000000003</ele>
   </trkpt>
   <trkpt lat="-37.87006" lon="145.31660000000002">
    <ele>395.39</ele>
   </trkpt>
   <trkpt lat="-37.87041" lon="145.31596000000002">
    <ele>394.93000000000006</ele>
   </trkpt>
   <trkpt lat="-37.8705" lon="145.31583">
    <ele>395.52000000000004</ele>
   </trkpt>
   <trkpt lat="-37.87051" lon="145.31582">
    <ele>395.52000000000004</ele>
   </trkpt>
   <trkpt lat="-37.87059" lon="145.31573">
    <ele>396.43000000000006</ele>
   </trkpt>
   <trkpt lat="-37.871" lon="145.31558">
    <ele>401.19000000000005</ele>
   </trkpt>
   <trkpt lat="-37.87124" lon="145.31546">
    <ele>402.33000000000004</ele>
   </trkpt>
   <trkpt lat="-37.87209" lon="145.31541">
    <ele>411.83000000000004</ele>
   </trkpt>
   <trkpt lat="-37.87292" lon="145.31548">
    <ele>417.78000000000003</ele>
   </trkpt>
   <trkpt lat="-37.873540000000006" lon="145.31558">
    <ele>424.54</ele>
   </trkpt>
   <trkpt lat="-37.87391" lon="145.31571000000002">
    <ele>428.38000000000005</ele>
   </trkpt>
   <trkpt lat="-37.87435" lon="145.31603">
    <ele>431.28000000000003</ele>
   </trkpt>
   <trkpt lat="-37.87465" lon="145.31616000000002">
    <ele>435.29</ele>
   </trkpt>
   <trkpt lat="-37.87478" lon="145.3162">
    <ele>437.20000000000005</ele>
   </trkpt>
   <trkpt lat="-37.87503" lon="145.31621">
    <ele>442.25</ele>
   </trkpt>
   <trkpt lat="-37.87559" lon="145.31611">
    <ele>445.86</ele>
   </trkpt>
   <trkpt lat="-37.87583" lon="145.31617">
    <ele>448.06</ele>
   </trkpt>
   <trkpt lat="-37.87635" lon="145.31637">
    <ele>452.71000000000004</ele>
   </trkpt>
   <trkpt lat="-37.8765" lon="145.31646">
    <ele>454.39</ele>
   </trkpt>
   <trkpt lat="-37.8767" lon="145.31663">
    <ele>455.90000000000003</ele>
   </trkpt>
   <trkpt lat="-37.87682" lon="145.31683">
    <ele>457.24</ele>
   </trkpt>
   <trkpt lat="-37.876830000000005" lon="145.31683">
    <ele>457.21000000000004</ele>
   </trkpt>
   <trkpt lat="-37.87693" lon="145.31661000000003">
    <ele>454.91</ele>
   </trkpt>
   <trkpt lat="-37.87735" lon="145.31589000000002">
    <ele>445.36</ele>
   </trkpt>
   <trkpt lat="-37.87744" lon="145.31578000000002">
    <ele>445.36</ele>
   </trkpt>
   <trkpt lat="-37.87753" lon="145.31569000000002">
    <ele>444.40000000000003</ele>
   </trkpt>
   <trkpt lat="-37.87778" lon="145.31557">
    <ele>440.19</ele>
   </trkpt>
   <trkpt lat="-37.87791" lon="145.31546">
    <ele>438.70000000000005</ele>
   </trkpt>
   <trkpt lat="-37.87829" lon="145.31506000000002">
    <ele>434.24</ele>
   </trkpt>
   <trkpt lat="-37.878600000000006" lon="145.31485">
    <ele>428.58</ele>
   </trkpt>
   <trkpt lat="-37.87885" lon="145.31461000000002">
    <ele>425.76</ele>
   </trkpt>
   <trkpt lat="-37.87915" lon="145.31446000000003">
    <ele>424.24000000000007</ele>
   </trkpt>
   <trkpt lat="-37.87955" lon="145.31441">
    <ele>423.34000000000003</ele>
   </trkpt>
   <trkpt lat="-37.88002000037165" lon="145.31414500164897">
    <ele>422.34000000000003</ele>
   </trkpt>
   <trkpt lat="-37.88049" lon="145.31388">
    <ele>419.40000000000003</ele>
   </trkpt>
   <trkpt lat="-37.88082" lon="145.31362000000001">
    <ele>415.40000000000003</ele>
   </trkpt>
   <trkpt lat="-37.88118" lon="145.31343">
    <ele>410.98</ele>
   </trkpt>
   <trkpt lat="-37.88152" lon="145.31319000000002">
    <ele>407.14000000000004</ele>
   </trkpt>
   <trkpt lat="-37.88199" lon="145.31279">
    <ele>404.47</ele>
   </trkpt>
   <trkpt lat="-37.8825" lon="145.31224">
    <ele>405.80000000000007</ele>
   </trkpt>
   <trkpt lat="-37.882740000000005" lon="145.31214">
    <ele>405.34000000000003</ele>
   </trkpt>
   <trkpt lat="-37.88308" lon="145.31215">
    <ele>402.65</ele>
   </trkpt>
   <trkpt lat="-37.8834" lon="145.31222000000002">
    <ele>398.34000000000003</ele>
   </trkpt>
   <trkpt lat="-37.88369" lon="145.31236">
    <ele>393.40000000000003</ele>
   </trkpt>
   <trkpt lat="-37.88414" lon="145.31267000000003">
    <ele>385.6</ele>
   </trkpt>
   <trkpt lat="-37.88429" lon="145.31272">
    <ele>382.51</ele>
   </trkpt>
   <trkpt lat="-37.88488" lon="145.3128">
    <ele>370.72</ele>
   </trkpt>
   <trkpt lat="-37.88501" lon="145.31279">
    <ele>367.00000000000006</ele>
   </trkpt>
   <trkpt lat="-37.88519" lon="145.31273000000002">
    <ele>365.19</ele>
   </trkpt>
   <trkpt lat="-37.885270000000006" lon="145.31266000000002">
    <ele>363.46</ele>
   </trkpt>
   <trkpt lat="-37.8853" lon="145.31255000000002">
    <ele>359.31</ele>
   </trkpt>
   <trkpt lat="-37.88541" lon="145.31207">
    <ele>354.69</ele>
   </trkpt>
   <trkpt lat="-37.88548" lon="145.31186000000002">
    <ele>348.61</ele>
   </trkpt>
   <trkpt lat="-37.88579500183977" lon="145.31120500274952">
    <ele>337.56</ele>
   </trkpt>
   <trkpt lat="-37.88611" lon="145.31055">
    <ele>327.06</ele>
   </trkpt>
   <trkpt lat="-37.8862" lon="145.31044">
    <ele>324.36</ele>
   </trkpt>
   <trkpt lat="-37.88629" lon="145.31038">
    <ele>322.6</ele>
   </trkpt>
   <trkpt lat="-37.8866" lon="145.3102">
    <ele>316.58000000000004</ele>
   </trkpt>
   <trkpt lat="-37.88673" lon="145.31015000000002">
    <ele>315.07</ele>
   </trkpt>
   <trkpt lat="-37.88687" lon="145.31014000000002">
    <ele>314.21999999999997</ele>
   </trkpt>
   <trkpt lat="-37.88696" lon="145.31015000000002">
    <ele>312.58000000000004</ele>
   </trkpt>
   <trkpt lat="-37.88705" lon="145.31019">
    <ele>311.72</ele>
   </trkpt>
   <trkpt lat="-37.887330000000006" lon="145.31040000000002">
    <ele>307.55</ele>
   </trkpt>
   <trkpt lat="-37.88779" lon="145.31063">
    <ele>297.92</ele>
   </trkpt>
   <trkpt lat="-37.88794" lon="145.31068000000002">
    <ele>293.79</ele>
   </trkpt>
   <trkpt lat="-37.88846" lon="145.31074">
    <ele>279.84000000000003</ele>
   </trkpt>
   <trkpt lat="-37.88859" lon="145.31071">
    <ele>278.09</ele>
   </trkpt>
   <trkpt lat="-37.88868" lon="145.31060000000002">
    <ele>277.29</ele>
   </trkpt>
   <trkpt lat="-37.88893" lon="145.31018">
    <ele>270.41</ele>
   </trkpt>
   <trkpt lat="-37.88902" lon="145.31014000000002">
    <ele>266.33</ele>
   </trkpt>
   <trkpt lat="-37.88908" lon="145.31016000000002">
    <ele>266.33</ele>
   </trkpt>
   <trkpt lat="-37.889210000000006" lon="145.31025000000002">
    <ele>263.31000000000006</ele>
   </trkpt>
   <trkpt lat="-37.88931" lon="145.31038">
    <ele>259.04</ele>
   </trkpt>
   <trkpt lat="-37.88951" lon="145.31074">
    <ele>256.04</ele>
   </trkpt>
   <trkpt lat="-37.88958" lon="145.3109">
    <ele>251.31000000000003</ele>
   </trkpt>
   <trkpt lat="-37.88958" lon="145.31101">
    <ele>251.31000000000003</ele>
   </trkpt>
   <trkpt lat="-37.88955" lon="145.31122000000002">
    <ele>248.87</ele>
   </trkpt>
   <trkpt lat="-37.88958" lon="145.31130000000002">
    <ele>245.54</ele>
   </trkpt>
   <trkpt lat="-37.8896" lon="145.31134">
    <ele>245.54</ele>
   </trkpt>
   <trkpt lat="-37.889680000000006" lon="145.31134">
    <ele>243.97000000000003</ele>
   </trkpt>
   <trkpt lat="-37.88993" lon="145.31119">
    <ele>240.77</ele>
   </trkpt>
   <trkpt lat="-37.89002" lon="145.31111">
    <ele>237.96000000000004</ele>
   </trkpt>
   <trkpt lat="-37.89016" lon="145.31092">
    <ele>236.23000000000002</ele>
   </trkpt>
   <trkpt lat="-37.89025" lon="145.31066">
    <ele>233.26000000000002</ele>
   </trkpt>
   <trkpt lat="-37.89027" lon="145.31046">
    <ele>231.37</ele>
   </trkpt>
   <trkpt lat="-37.89025" lon="145.31002">
    <ele>226.19000000000003</ele>
   </trkpt>
   <trkpt lat="-37.89027" lon="145.30997000000002">
    <ele>224.20000000000002</ele>
   </trkpt>
   <trkpt lat="-37.89031000000001" lon="145.30995000000001">
    <ele>224.20000000000002</ele>
   </trkpt>
   <trkpt lat="-37.890330000000006" lon="145.30995000000001">
    <ele>224.20000000000002</ele>
   </trkpt>
   <trkpt lat="-37.89031000000001" lon="145.30995000000001">
    <ele>224.20000000000002</ele>
   </trkpt>
   <trkpt lat="-37.89038" lon="145.30998000000002">
    <ele>222.54000000000002</ele>
   </trkpt>
   <trkpt lat="-37.89065" lon="145.31021">
    <ele>218.49</ele>
   </trkpt>
   <trkpt lat="-37.89092" lon="145.31050000000002">
    <ele>213.29</ele>
   </trkpt>
   <trkpt lat="-37.89101" lon="145.31064">
    <ele>206.97</ele>
   </trkpt>
   <trkpt lat="-37.89108" lon="145.31079000000003">
    <ele>206.97</ele>
   </trkpt>
   <trkpt lat="-37.89121" lon="145.31118">
    <ele>202.37</ele>
   </trkpt>
   <trkpt lat="-37.89123" lon="145.31130000000002">
    <ele>200.48000000000002</ele>
   </trkpt>
   <trkpt lat="-37.89123" lon="145.31159000000002">
    <ele>197.28</ele>
   </trkpt>
   <trkpt lat="-37.89121" lon="145.31195000000002">
    <ele>195.09</ele>
   </trkpt>
   <trkpt lat="-37.891180000000006" lon="145.31222000000002">
    <ele>193.11</ele>
   </trkpt>
   <trkpt lat="-37.89105" lon="145.3125">
    <ele>191.99</ele>
   </trkpt>
   <trkpt lat="-37.89081" lon="145.31275000000002">
    <ele>191.75</ele>
   </trkpt>
   <trkpt lat="-37.890800000000006" lon="145.31285000000003">
    <ele>191.60000000000002</ele>
   </trkpt>
   <trkpt lat="-37.89081" lon="145.31293000000002">
    <ele>191.43</ele>
   </trkpt>
   <trkpt lat="-37.8909" lon="145.31306">
    <ele>190.53</ele>
   </trkpt>
   <trkpt lat="-37.89132" lon="145.31339">
    <ele>185.59</ele>
   </trkpt>
   <trkpt lat="-37.8915" lon="145.31357">
    <ele>183.48</ele>
   </trkpt>
   <trkpt lat="-37.89164" lon="145.31375">
    <ele>181.89000000000001</ele>
   </trkpt>
   <trkpt lat="-37.89168" lon="145.31388">
    <ele>181.20000000000002</ele>
   </trkpt>
   <trkpt lat="-37.891740000000006" lon="145.31434000000002">
    <ele>177.77</ele>
   </trkpt>
   <trkpt lat="-37.891630000000006" lon="145.31533000000002">
    <ele>171.97</ele>
   </trkpt>
   <trkpt lat="-37.89152" lon="145.31550000000001">
    <ele>173.47</ele>
   </trkpt>
   <trkpt lat="-37.89099" lon="145.31613000000002">
    <ele>181.83</ele>
   </trkpt>
   <trkpt lat="-37.89099" lon="145.31640000000002">
    <ele>181.8</ele>
   </trkpt>
   <trkpt lat="-37.8909" lon="145.31667000000002">
    <ele>181.55</ele>
   </trkpt>
   <trkpt lat="-37.89074" lon="145.31687000000002">
    <ele>181.92000000000002</ele>
   </trkpt>
   <trkpt lat="-37.89072" lon="145.31707">
    <ele>179.42000000000002</ele>
   </trkpt>
   <trkpt lat="-37.890800000000006" lon="145.31719">
    <ele>176.03000000000003</ele>
   </trkpt>
  </trkseg>
 </trk>
</gpx>
