<?xml version="1.0" encoding="UTF-8"?>
<gpx creator="StravaGPX" version="1.1" xmlns="http://www.topografix.com/GPX/1/1" xmlns:xsi="http://www.w3.org/2001/XMLSchema-instance" xsi:schemaLocation="http://www.topografix.com/GPX/1/1 http://www.topografix.com/GPX/1/1/gpx.xsd">
 <metadata>
  <name>DTR 21 Feb</name>
  <author>
   <name>john csorgo</name>
  </author>
  <copyright author="OpenStreetMap contributors">
   <year>2020</year>
   <license>https://www.openstreetmap.org/copyright</license>
  </copyright>
 </metadata>
 <trk>
  <name>DTR 21 Feb</name>
  <link href=""/>
  <type>running</type>
  <trkseg>
   <trkpt lat="-37.862930000000006" lon="145.35333">
    <ele>477.31</ele>
   </trkpt>
   <trkpt lat="-37.863110000000006" lon="145.35333">
    <ele>475.41</ele>
   </trkpt>
   <trkpt lat="-37.86345" lon="145.35292">
    <ele>475.53000000000003</ele>
   </trkpt>
   <trkpt lat="-37.86348" lon="145.35278000000002">
    <ele>475.53000000000003</ele>
   </trkpt>
   <trkpt lat="-37.863530000000004" lon="145.35274">
    <ele>477.71000000000004</ele>
   </trkpt>
   <trkpt lat="-37.86312" lon="145.35186000000002">
    <ele>476.33000000000004</ele>
   </trkpt>
   <trkpt lat="-37.86309" lon="145.35176">
    <ele>476.08000000000004</ele>
   </trkpt>
   <trkpt lat="-37.86312" lon="145.35169000000002">
    <ele>476.06</ele>
   </trkpt>
   <trkpt lat="-37.8633" lon="145.35153000000003">
    <ele>477.30000000000007</ele>
   </trkpt>
   <trkpt lat="-37.863420000000005" lon="145.35147">
    <ele>478.02000000000004</ele>
   </trkpt>
   <trkpt lat="-37.8635" lon="145.3513">
    <ele>480.59000000000003</ele>
   </trkpt>
   <trkpt lat="-37.86359" lon="145.35126000000002">
    <ele>482.08000000000004</ele>
   </trkpt>
   <trkpt lat="-37.86368" lon="145.35119">
    <ele>483.90000000000003</ele>
   </trkpt>
   <trkpt lat="-37.86379" lon="145.35118">
    <ele>487.29</ele>
   </trkpt>
   <trkpt lat="-37.864050000000006" lon="145.35102">
    <ele>496.45000000000005</ele>
   </trkpt>
   <trkpt lat="-37.8641" lon="145.35089000000002">
    <ele>497.53000000000003</ele>
   </trkpt>
   <trkpt lat="-37.8641" lon="145.35074">
    <ele>498.51000000000005</ele>
   </trkpt>
   <trkpt lat="-37.86417" lon="145.35060000000001">
    <ele>500.44</ele>
   </trkpt>
   <trkpt lat="-37.86448" lon="145.34977">
    <ele>511.11000000000007</ele>
   </trkpt>
   <trkpt lat="-37.864695001533185" lon="145.34917000172027">
    <ele>517.7900000000001</ele>
   </trkpt>
   <trkpt lat="-37.86491" lon="145.34857000000002">
    <ele>522.05</ele>
   </trkpt>
   <trkpt lat="-37.86497" lon="145.34822">
    <ele>523.47</ele>
   </trkpt>
   <trkpt lat="-37.86491" lon="145.34814">
    <ele>521.7400000000001</ele>
   </trkpt>
   <trkpt lat="-37.86484" lon="145.34797">
    <ele>519.07</ele>
   </trkpt>
   <trkpt lat="-37.864810000000006" lon="145.34757000000002">
    <ele>514.37</ele>
   </trkpt>
   <trkpt lat="-37.86482" lon="145.34718">
    <ele>509.9600000000001</ele>
   </trkpt>
   <trkpt lat="-37.86493" lon="145.34702000000001">
    <ele>508.13000000000005</ele>
   </trkpt>
   <trkpt lat="-37.864940000000004" lon="145.347">
    <ele>508.06000000000006</ele>
   </trkpt>
   <trkpt lat="-37.865370000000006" lon="145.34673">
    <ele>503.33000000000004</ele>
   </trkpt>
   <trkpt lat="-37.8659" lon="145.34657">
    <ele>498.70000000000005</ele>
   </trkpt>
   <trkpt lat="-37.866465000146654" lon="145.34643000105766">
    <ele>498.92</ele>
   </trkpt>
   <trkpt lat="-37.86703" lon="145.34629">
    <ele>501.68</ele>
   </trkpt>
   <trkpt lat="-37.86741" lon="145.34623000000002">
    <ele>504.77000000000004</ele>
   </trkpt>
   <trkpt lat="-37.86801333447165" lon="145.34586667260356">
    <ele>506.38000000000005</ele>
   </trkpt>
   <trkpt lat="-37.86861666782683" lon="145.34550333925716">
    <ele>505.85</ele>
   </trkpt>
   <trkpt lat="-37.869220000000006" lon="145.34514000000001">
    <ele>505.72</ele>
   </trkpt>
   <trkpt lat="-37.869690000159665" lon="145.34534999864846">
    <ele>510.5200000000001</ele>
   </trkpt>
   <trkpt lat="-37.870160000000006" lon="145.34556">
    <ele>514.82</ele>
   </trkpt>
   <trkpt lat="-37.87026" lon="145.34527">
    <ele>511.57000000000005</ele>
   </trkpt>
   <trkpt lat="-37.870700001078134" lon="145.344760003071">
    <ele>506.55000000000007</ele>
   </trkpt>
   <trkpt lat="-37.871140000000004" lon="145.34425000000002">
    <ele>505.05</ele>
   </trkpt>
   <trkpt lat="-37.87145000092009" lon="145.34383500148948">
    <ele>508.19</ele>
   </trkpt>
   <trkpt lat="-37.87176" lon="145.34342">
    <ele>512.0100000000001</ele>
   </trkpt>
   <trkpt lat="-37.872115001961774" lon="145.34274500318605">
    <ele>511.82000000000005</ele>
   </trkpt>
   <trkpt lat="-37.87247" lon="145.34207">
    <ele>506.2300000000001</ele>
   </trkpt>
   <trkpt lat="-37.87272" lon="145.34221000000002">
    <ele>505.12</ele>
   </trkpt>
   <trkpt lat="-37.87288" lon="145.34221000000002">
    <ele>504.4200000000001</ele>
   </trkpt>
   <trkpt lat="-37.87326" lon="145.34212000000002">
    <ele>500.21999999999997</ele>
   </trkpt>
   <trkpt lat="-37.8735" lon="145.34204000000003">
    <ele>498.91</ele>
   </trkpt>
   <trkpt lat="-37.87375" lon="145.34193000000002">
    <ele>494.83000000000004</ele>
   </trkpt>
   <trkpt lat="-37.87406" lon="145.34185000000002">
    <ele>492.61</ele>
   </trkpt>
   <trkpt lat="-37.8744" lon="145.34218">
    <ele>494.56000000000006</ele>
   </trkpt>
   <trkpt lat="-37.87485" lon="145.34268">
    <ele>499.43</ele>
   </trkpt>
   <trkpt lat="-37.87491" lon="145.34258">
    <ele>498.59000000000003</ele>
   </trkpt>
   <trkpt lat="-37.87492" lon="145.34252">
    <ele>498.59000000000003</ele>
   </trkpt>
   <trkpt lat="-37.87491" lon="145.34258">
    <ele>498.75</ele>
   </trkpt>
   <trkpt lat="-37.87494" lon="145.34235">
    <ele>497.76000000000005</ele>
   </trkpt>
   <trkpt lat="-37.87516" lon="145.34149000000002">
    <ele>498.3</ele>
   </trkpt>
   <trkpt lat="-37.87534" lon="145.34072">
    <ele>503.11000000000007</ele>
   </trkpt>
   <trkpt lat="-37.87534" lon="145.34059000000002">
    <ele>503.4200000000001</ele>
   </trkpt>
   <trkpt lat="-37.87529" lon="145.34052">
    <ele>503.24</ele>
   </trkpt>
   <trkpt lat="-37.87509" lon="145.34034000000003">
    <ele>501.0300000000001</ele>
   </trkpt>
   <trkpt lat="-37.87496" lon="145.34018">
    <ele>499.36</ele>
   </trkpt>
   <trkpt lat="-37.87465500078249" lon="145.33972499797738">
    <ele>497.3</ele>
   </trkpt>
   <trkpt lat="-37.87435" lon="145.33927">
    <ele>493.24000000000007</ele>
   </trkpt>
   <trkpt lat="-37.87431" lon="145.33916000000002">
    <ele>492.71000000000004</ele>
   </trkpt>
   <trkpt lat="-37.874210000000005" lon="145.33901">
    <ele>491.61</ele>
   </trkpt>
   <trkpt lat="-37.8742" lon="145.33911">
    <ele>490.67</ele>
   </trkpt>
   <trkpt lat="-37.87413" lon="145.33915000000002">
    <ele>489.50000000000006</ele>
   </trkpt>
   <trkpt lat="-37.87395" lon="145.33916000000002">
    <ele>486.32</ele>
   </trkpt>
   <trkpt lat="-37.87364" lon="145.33924000000002">
    <ele>479.95000000000005</ele>
   </trkpt>
   <trkpt lat="-37.87326" lon="145.33938">
    <ele>470.36000000000007</ele>
   </trkpt>
   <trkpt lat="-37.87321" lon="145.33937">
    <ele>466.84000000000003</ele>
   </trkpt>
   <trkpt lat="-37.87315" lon="145.33931">
    <ele>465.78000000000003</ele>
   </trkpt>
   <trkpt lat="-37.873070000000006" lon="145.3391">
    <ele>462.67</ele>
   </trkpt>
   <trkpt lat="-37.87303" lon="145.33895">
    <ele>461.35</ele>
   </trkpt>
   <trkpt lat="-37.87301" lon="145.33865">
    <ele>458.91</ele>
   </trkpt>
   <trkpt lat="-37.87292" lon="145.33817000000002">
    <ele>452.01</ele>
   </trkpt>
   <trkpt lat="-37.87292" lon="145.33796">
    <ele>449.6</ele>
   </trkpt>
   <trkpt lat="-37.872690000000006" lon="145.33731">
    <ele>434.93</ele>
   </trkpt>
   <trkpt lat="-37.8725" lon="145.33711000000002">
    <ele>430.86</ele>
   </trkpt>
   <trkpt lat="-37.87223" lon="145.33666000000002">
    <ele>416.48</ele>
   </trkpt>
   <trkpt lat="-37.87210500361126" lon="145.33573499837775">
    <ele>412.64</ele>
   </trkpt>
   <trkpt lat="-37.87198" lon="145.33481">
    <ele>407.64000000000004</ele>
   </trkpt>
   <trkpt lat="-37.87198" lon="145.33462">
    <ele>405.79</ele>
   </trkpt>
   <trkpt lat="-37.871990000000004" lon="145.33460000000002">
    <ele>405.72</ele>
   </trkpt>
   <trkpt lat="-37.87207" lon="145.33435">
    <ele>403.79</ele>
   </trkpt>
   <trkpt lat="-37.87223" lon="145.33415000000002">
    <ele>401.79</ele>
   </trkpt>
   <trkpt lat="-37.87234" lon="145.33406000000002">
    <ele>400.65</ele>
   </trkpt>
   <trkpt lat="-37.87247" lon="145.33399">
    <ele>397.5400000000001</ele>
   </trkpt>
   <trkpt lat="-37.872600000000006" lon="145.33388000000002">
    <ele>395.47</ele>
   </trkpt>
   <trkpt lat="-37.8729" lon="145.33347">
    <ele>391.81000000000006</ele>
   </trkpt>
   <trkpt lat="-37.87303" lon="145.33321">
    <ele>389.76000000000005</ele>
   </trkpt>
   <trkpt lat="-37.87306" lon="145.33308000000002">
    <ele>388.29</ele>
   </trkpt>
   <trkpt lat="-37.872890000000005" lon="145.3325">
    <ele>378.44000000000005</ele>
   </trkpt>
   <trkpt lat="-37.87301" lon="145.33226000000002">
    <ele>378.67</ele>
   </trkpt>
   <trkpt lat="-37.87301" lon="145.33218000000002">
    <ele>378.91</ele>
   </trkpt>
   <trkpt lat="-37.87297" lon="145.33206">
    <ele>379.47</ele>
   </trkpt>
   <trkpt lat="-37.87279" lon="145.33183000000002">
    <ele>381.58000000000004</ele>
   </trkpt>
   <trkpt lat="-37.87263" lon="145.33171000000002">
    <ele>382.45</ele>
   </trkpt>
   <trkpt lat="-37.87236" lon="145.33138000000002">
    <ele>384.71000000000004</ele>
   </trkpt>
   <trkpt lat="-37.87225" lon="145.33113">
    <ele>385.55</ele>
   </trkpt>
   <trkpt lat="-37.87219" lon="145.33061">
    <ele>387.23</ele>
   </trkpt>
   <trkpt lat="-37.87223" lon="145.33017">
    <ele>391.47</ele>
   </trkpt>
   <trkpt lat="-37.87227" lon="145.33004000000003">
    <ele>392.94</ele>
   </trkpt>
   <trkpt lat="-37.87228" lon="145.33004000000003">
    <ele>393.08000000000004</ele>
   </trkpt>
   <trkpt lat="-37.8725" lon="145.32989">
    <ele>394.81000000000006</ele>
   </trkpt>
   <trkpt lat="-37.87292" lon="145.32993000000002">
    <ele>402.20000000000005</ele>
   </trkpt>
   <trkpt lat="-37.87341" lon="145.33013000000003">
    <ele>407.81</ele>
   </trkpt>
   <trkpt lat="-37.87384" lon="145.33040000000003">
    <ele>411.84000000000003</ele>
   </trkpt>
   <trkpt lat="-37.87397" lon="145.33055000000002">
    <ele>415.13000000000005</ele>
   </trkpt>
   <trkpt lat="-37.87415" lon="145.33067">
    <ele>417.22</ele>
   </trkpt>
   <trkpt lat="-37.87444" lon="145.33082000000002">
    <ele>422.15000000000003</ele>
   </trkpt>
   <trkpt lat="-37.87465" lon="145.33086">
    <ele>423.89000000000004</ele>
   </trkpt>
   <trkpt lat="-37.874990000000004" lon="145.33088">
    <ele>427.45000000000005</ele>
   </trkpt>
   <trkpt lat="-37.875400000000006" lon="145.33097">
    <ele>436.00000000000006</ele>
   </trkpt>
   <trkpt lat="-37.875130000000006" lon="145.33068">
    <ele>436.01</ele>
   </trkpt>
   <trkpt lat="-37.87498" lon="145.33044">
    <ele>436.1</ele>
   </trkpt>
   <trkpt lat="-37.87487" lon="145.33021000000002">
    <ele>436.27000000000004</ele>
   </trkpt>
   <trkpt lat="-37.87469" lon="145.32956000000001">
    <ele>437.4</ele>
   </trkpt>
   <trkpt lat="-37.87456" lon="145.32923000000002">
    <ele>439.36</ele>
   </trkpt>
   <trkpt lat="-37.87435" lon="145.32887000000002">
    <ele>441.77000000000004</ele>
   </trkpt>
   <trkpt lat="-37.87382" lon="145.32833000000002">
    <ele>450.17</ele>
   </trkpt>
   <trkpt lat="-37.87375" lon="145.3282">
    <ele>451.41</ele>
   </trkpt>
   <trkpt lat="-37.87368" lon="145.32803">
    <ele>453.84000000000003</ele>
   </trkpt>
   <trkpt lat="-37.87366" lon="145.32778000000002">
    <ele>459.13000000000005</ele>
   </trkpt>
   <trkpt lat="-37.87359" lon="145.32762000000002">
    <ele>461.78000000000003</ele>
   </trkpt>
   <trkpt lat="-37.87315500148315" lon="145.32701999640304">
    <ele>468.91</ele>
   </trkpt>
   <trkpt lat="-37.87272" lon="145.32642">
    <ele>477.05</ele>
   </trkpt>
   <trkpt lat="-37.87261" lon="145.32628000000003">
    <ele>478.23</ele>
   </trkpt>
   <trkpt lat="-37.87238" lon="145.32607000000002">
    <ele>479.89000000000004</ele>
   </trkpt>
   <trkpt lat="-37.87182" lon="145.3257">
    <ele>481.06000000000006</ele>
   </trkpt>
   <trkpt lat="-37.87171" lon="145.32548">
    <ele>481.46000000000004</ele>
   </trkpt>
   <trkpt lat="-37.87174" lon="145.32545000000002">
    <ele>481.55</ele>
   </trkpt>
   <trkpt lat="-37.87198" lon="145.32489">
    <ele>481.28000000000003</ele>
   </trkpt>
   <trkpt lat="-37.87245" lon="145.32441">
    <ele>483.13000000000005</ele>
   </trkpt>
   <trkpt lat="-37.87268" lon="145.32410000000002">
    <ele>481.67</ele>
   </trkpt>
   <trkpt lat="-37.87272" lon="145.32376000000002">
    <ele>477.43</ele>
   </trkpt>
   <trkpt lat="-37.87263" lon="145.32314000000002">
    <ele>471.39000000000004</ele>
   </trkpt>
   <trkpt lat="-37.87256" lon="145.32222000000002">
    <ele>475.80000000000007</ele>
   </trkpt>
   <trkpt lat="-37.87259" lon="145.32189000000002">
    <ele>481.32</ele>
   </trkpt>
   <trkpt lat="-37.87272" lon="145.32133000000002">
    <ele>491.08</ele>
   </trkpt>
   <trkpt lat="-37.87272" lon="145.32123">
    <ele>493.96000000000004</ele>
   </trkpt>
   <trkpt lat="-37.87261" lon="145.32053000000002">
    <ele>505.68</ele>
   </trkpt>
   <trkpt lat="-37.87268" lon="145.32001000000002">
    <ele>511.65000000000003</ele>
   </trkpt>
   <trkpt lat="-37.87272" lon="145.31971000000001">
    <ele>513.6500000000001</ele>
   </trkpt>
   <trkpt lat="-37.87275" lon="145.31964000000002">
    <ele>513.36</ele>
   </trkpt>
   <trkpt lat="-37.87303" lon="145.31965000000002">
    <ele>511.4700000000001</ele>
   </trkpt>
   <trkpt lat="-37.87328" lon="145.3197">
    <ele>508.83</ele>
   </trkpt>
   <trkpt lat="-37.87355" lon="145.31979">
    <ele>506.19</ele>
   </trkpt>
   <trkpt lat="-37.874" lon="145.32000000000002">
    <ele>501.33000000000004</ele>
   </trkpt>
   <trkpt lat="-37.87415" lon="145.32003">
    <ele>498.53000000000003</ele>
   </trkpt>
   <trkpt lat="-37.87442" lon="145.32003">
    <ele>495.64</ele>
   </trkpt>
   <trkpt lat="-37.87473" lon="145.32017000000002">
    <ele>492.62000000000006</ele>
   </trkpt>
   <trkpt lat="-37.874880000000005" lon="145.3202">
    <ele>491.11</ele>
   </trkpt>
   <trkpt lat="-37.87498" lon="145.32019000000003">
    <ele>490.93</ele>
   </trkpt>
   <trkpt lat="-37.87507" lon="145.32012">
    <ele>490.2900000000001</ele>
   </trkpt>
   <trkpt lat="-37.87536" lon="145.31973000000002">
    <ele>487.04</ele>
   </trkpt>
   <trkpt lat="-37.87547" lon="145.31965000000002">
    <ele>487.04</ele>
   </trkpt>
   <trkpt lat="-37.87583" lon="145.31924">
    <ele>482.13000000000005</ele>
   </trkpt>
   <trkpt lat="-37.87608" lon="145.31889">
    <ele>479.52000000000004</ele>
   </trkpt>
   <trkpt lat="-37.87641" lon="145.31827">
    <ele>473.83000000000004</ele>
   </trkpt>
   <trkpt lat="-37.87661500216882" lon="145.31754500220907">
    <ele>466.90000000000003</ele>
   </trkpt>
   <trkpt lat="-37.87682" lon="145.31682">
    <ele>457.24</ele>
   </trkpt>
   <trkpt lat="-37.87682" lon="145.31683">
    <ele>457.24</ele>
   </trkpt>
   <trkpt lat="-37.8767" lon="145.31663">
    <ele>456.24</ele>
   </trkpt>
   <trkpt lat="-37.8765" lon="145.31646">
    <ele>454.39</ele>
   </trkpt>
   <trkpt lat="-37.87635" lon="145.31637">
    <ele>452.71000000000004</ele>
   </trkpt>
   <trkpt lat="-37.87583" lon="145.31617">
    <ele>448.06</ele>
   </trkpt>
   <trkpt lat="-37.87559" lon="145.31611">
    <ele>445.86</ele>
   </trkpt>
   <trkpt lat="-37.87503" lon="145.31621">
    <ele>442.25</ele>
   </trkpt>
   <trkpt lat="-37.87478" lon="145.3162">
    <ele>437.20000000000005</ele>
   </trkpt>
   <trkpt lat="-37.87465" lon="145.31616000000002">
    <ele>435.29</ele>
   </trkpt>
   <trkpt lat="-37.87435" lon="145.31603">
    <ele>431.28000000000003</ele>
   </trkpt>
   <trkpt lat="-37.87391" lon="145.31571000000002">
    <ele>428.38000000000005</ele>
   </trkpt>
   <trkpt lat="-37.873540000000006" lon="145.31558">
    <ele>424.54</ele>
   </trkpt>
   <trkpt lat="-37.87292" lon="145.31548">
    <ele>417.78000000000003</ele>
   </trkpt>
   <trkpt lat="-37.87209" lon="145.31541">
    <ele>411.83000000000004</ele>
   </trkpt>
   <trkpt lat="-37.8712" lon="145.31547">
    <ele>402.31000000000006</ele>
   </trkpt>
   <trkpt lat="-37.871190000000006" lon="145.31547">
    <ele>402.3</ele>
   </trkpt>
   <trkpt lat="-37.871" lon="145.31480000000002">
    <ele>393.3</ele>
   </trkpt>
   <trkpt lat="-37.87064" lon="145.31427000000002">
    <ele>387.02000000000004</ele>
   </trkpt>
   <trkpt lat="-37.87055" lon="145.31419000000002">
    <ele>387.02000000000004</ele>
   </trkpt>
   <trkpt lat="-37.87091000188113" lon="145.31352500322902">
    <ele>392.81000000000006</ele>
   </trkpt>
   <trkpt lat="-37.87127" lon="145.31286">
    <ele>389.32000000000005</ele>
   </trkpt>
   <trkpt lat="-37.87106" lon="145.31255000000002">
    <ele>390.33</ele>
   </trkpt>
   <trkpt lat="-37.87046" lon="145.31199">
    <ele>394.12</ele>
   </trkpt>
   <trkpt lat="-37.8703" lon="145.31188">
    <ele>395.19000000000005</ele>
   </trkpt>
   <trkpt lat="-37.87021" lon="145.31183000000001">
    <ele>395.88</ele>
   </trkpt>
   <trkpt lat="-37.86994" lon="145.31179">
    <ele>398.83</ele>
   </trkpt>
   <trkpt lat="-37.86981" lon="145.31181">
    <ele>399.68</ele>
   </trkpt>
   <trkpt lat="-37.86963" lon="145.31187">
    <ele>401.49</ele>
   </trkpt>
   <trkpt lat="-37.8695" lon="145.31185000000002">
    <ele>402.26</ele>
   </trkpt>
   <trkpt lat="-37.86921" lon="145.31163">
    <ele>405.84000000000003</ele>
   </trkpt>
   <trkpt lat="-37.868840000000006" lon="145.31129">
    <ele>414.26</ele>
   </trkpt>
   <trkpt lat="-37.86871" lon="145.31121000000002">
    <ele>416.34000000000003</ele>
   </trkpt>
   <trkpt lat="-37.86847" lon="145.31113000000002">
    <ele>418.24000000000007</ele>
   </trkpt>
   <trkpt lat="-37.86836" lon="145.31107">
    <ele>418.23</ele>
   </trkpt>
   <trkpt lat="-37.86822" lon="145.31095000000002">
    <ele>417.59000000000003</ele>
   </trkpt>
   <trkpt lat="-37.86795" lon="145.31054">
    <ele>411.64000000000004</ele>
   </trkpt>
   <trkpt lat="-37.86771" lon="145.31022000000002">
    <ele>404.67</ele>
   </trkpt>
   <trkpt lat="-37.86748" lon="145.30970000000002">
    <ele>396.83</ele>
   </trkpt>
   <trkpt lat="-37.86719" lon="145.30918">
    <ele>385.82000000000005</ele>
   </trkpt>
   <trkpt lat="-37.86683" lon="145.30835000000002">
    <ele>365.96</ele>
   </trkpt>
   <trkpt lat="-37.86674" lon="145.30782000000002">
    <ele>355.90000000000003</ele>
   </trkpt>
   <trkpt lat="-37.866690000000006" lon="145.30759">
    <ele>353.12000000000006</ele>
   </trkpt>
   <trkpt lat="-37.8665" lon="145.30721">
    <ele>348.24000000000007</ele>
   </trkpt>
   <trkpt lat="-37.86645" lon="145.30707">
    <ele>346.0</ele>
   </trkpt>
   <trkpt lat="-37.86641" lon="145.30684000000002">
    <ele>343.39000000000004</ele>
   </trkpt>
   <trkpt lat="-37.86641" lon="145.30641">
    <ele>336.21</ele>
   </trkpt>
   <trkpt lat="-37.86623" lon="145.30582">
    <ele>320.93000000000006</ele>
   </trkpt>
   <trkpt lat="-37.86614" lon="145.30567000000002">
    <ele>317.88000000000005</ele>
   </trkpt>
   <trkpt lat="-37.86578" lon="145.30555">
    <ele>311.53000000000003</ele>
   </trkpt>
   <trkpt lat="-37.86574" lon="145.30550000000002">
    <ele>311.53000000000003</ele>
   </trkpt>
   <trkpt lat="-37.86569" lon="145.30543">
    <ele>307.53000000000003</ele>
   </trkpt>
   <trkpt lat="-37.86565" lon="145.30462">
    <ele>299.89000000000004</ele>
   </trkpt>
   <trkpt lat="-37.8656" lon="145.30425000000002">
    <ele>294.44000000000005</ele>
   </trkpt>
   <trkpt lat="-37.86556" lon="145.30403">
    <ele>291.8</ele>
   </trkpt>
   <trkpt lat="-37.86547" lon="145.30376">
    <ele>285.51000000000005</ele>
   </trkpt>
   <trkpt lat="-37.86538" lon="145.30363">
    <ele>279.96999999999997</ele>
   </trkpt>
   <trkpt lat="-37.86518" lon="145.30342000000002">
    <ele>274.78000000000003</ele>
   </trkpt>
   <trkpt lat="-37.86475" lon="145.30300000000003">
    <ele>265.32</ele>
   </trkpt>
   <trkpt lat="-37.86442" lon="145.3026">
    <ele>256.56</ele>
   </trkpt>
   <trkpt lat="-37.86433" lon="145.30257">
    <ele>254.34</ele>
   </trkpt>
   <trkpt lat="-37.864340000000006" lon="145.30257">
    <ele>254.52</ele>
   </trkpt>
   <trkpt lat="-37.86421" lon="145.30257">
    <ele>252.53000000000003</ele>
   </trkpt>
   <trkpt lat="-37.86412" lon="145.30261000000002">
    <ele>249.19000000000003</ele>
   </trkpt>
   <trkpt lat="-37.86392" lon="145.30277">
    <ele>246.05</ele>
   </trkpt>
   <trkpt lat="-37.86374" lon="145.30294">
    <ele>242.29000000000002</ele>
   </trkpt>
   <trkpt lat="-37.863710000000005" lon="145.30311">
    <ele>240.86</ele>
   </trkpt>
   <trkpt lat="-37.86379" lon="145.30353000000002">
    <ele>244.87000000000003</ele>
   </trkpt>
   <trkpt lat="-37.863870000000006" lon="145.30377000000001">
    <ele>246.76</ele>
   </trkpt>
   <trkpt lat="-37.86403" lon="145.30415000000002">
    <ele>249.96</ele>
   </trkpt>
   <trkpt lat="-37.8645" lon="145.30495000000002">
    <ele>260.32</ele>
   </trkpt>
   <trkpt lat="-37.86457" lon="145.30517">
    <ele>262.75000000000006</ele>
   </trkpt>
   <trkpt lat="-37.86462" lon="145.30539000000002">
    <ele>266.24</ele>
   </trkpt>
   <trkpt lat="-37.86462" lon="145.30557000000002">
    <ele>267.38</ele>
   </trkpt>
   <trkpt lat="-37.86455" lon="145.30585000000002">
    <ele>266.05</ele>
   </trkpt>
   <trkpt lat="-37.86437" lon="145.30624">
    <ele>260.22</ele>
   </trkpt>
   <trkpt lat="-37.8643" lon="145.30647000000002">
    <ele>259.27</ele>
   </trkpt>
   <trkpt lat="-37.86415" lon="145.30717">
    <ele>259.79</ele>
   </trkpt>
   <trkpt lat="-37.86417" lon="145.30737000000002">
    <ele>262.25000000000006</ele>
   </trkpt>
   <trkpt lat="-37.86435" lon="145.30793">
    <ele>269.87</ele>
   </trkpt>
   <trkpt lat="-37.86428" lon="145.30827000000002">
    <ele>269.66</ele>
   </trkpt>
   <trkpt lat="-37.86435" lon="145.30909000000003">
    <ele>269.48</ele>
   </trkpt>
   <trkpt lat="-37.86439" lon="145.30924000000002">
    <ele>271.41</ele>
   </trkpt>
   <trkpt lat="-37.86471" lon="145.30987000000002">
    <ele>285.67</ele>
   </trkpt>
   <trkpt lat="-37.865" lon="145.31022000000002">
    <ele>294.26</ele>
   </trkpt>
   <trkpt lat="-37.86509" lon="145.31053">
    <ele>297.39000000000004</ele>
   </trkpt>
   <trkpt lat="-37.86522" lon="145.31083">
    <ele>299.1</ele>
   </trkpt>
   <trkpt lat="-37.86533" lon="145.31125">
    <ele>299.68</ele>
   </trkpt>
   <trkpt lat="-37.86533" lon="145.31178">
    <ele>299.95000000000005</ele>
   </trkpt>
   <trkpt lat="-37.865370000000006" lon="145.31208">
    <ele>303.00000000000006</ele>
   </trkpt>
   <trkpt lat="-37.86547" lon="145.31276000000003">
    <ele>311.51</ele>
   </trkpt>
   <trkpt lat="-37.86571" lon="145.31354000000002">
    <ele>323.39</ele>
   </trkpt>
   <trkpt lat="-37.86571" lon="145.31355000000002">
    <ele>327.93</ele>
   </trkpt>
   <trkpt lat="-37.86587" lon="145.31389000000001">
    <ele>331.07000000000005</ele>
   </trkpt>
   <trkpt lat="-37.86636" lon="145.31382000000002">
    <ele>340.97</ele>
   </trkpt>
   <trkpt lat="-37.86645" lon="145.3136">
    <ele>342.05</ele>
   </trkpt>
   <trkpt lat="-37.86654" lon="145.31367">
    <ele>343.23</ele>
   </trkpt>
   <trkpt lat="-37.86686" lon="145.31375">
    <ele>346.03</ele>
   </trkpt>
   <trkpt lat="-37.86731499988619" lon="145.3138049996451">
    <ele>348.72</ele>
   </trkpt>
   <trkpt lat="-37.86777" lon="145.31386">
    <ele>353.73</ele>
   </trkpt>
   <trkpt lat="-37.86833" lon="145.31385">
    <ele>354.15000000000003</ele>
   </trkpt>
   <trkpt lat="-37.86856" lon="145.31388">
    <ele>355.91</ele>
   </trkpt>
   <trkpt lat="-37.86878" lon="145.31396">
    <ele>358.51000000000005</ele>
   </trkpt>
   <trkpt lat="-37.869020000000006" lon="145.31414">
    <ele>360.47</ele>
   </trkpt>
   <trkpt lat="-37.868970000000004" lon="145.31477">
    <ele>354.85</ele>
   </trkpt>
   <trkpt lat="-37.869" lon="145.31507000000002">
    <ele>352.01000000000005</ele>
   </trkpt>
   <trkpt lat="-37.869" lon="145.31504">
    <ele>352.1</ele>
   </trkpt>
   <trkpt lat="-37.86896" lon="145.31523">
    <ele>350.57000000000005</ele>
   </trkpt>
   <trkpt lat="-37.86889" lon="145.31538">
    <ele>348.98</ele>
   </trkpt>
   <trkpt lat="-37.86871" lon="145.31564">
    <ele>347.69000000000005</ele>
   </trkpt>
   <trkpt lat="-37.86842" lon="145.31596000000002">
    <ele>346.27000000000004</ele>
   </trkpt>
   <trkpt lat="-37.86811" lon="145.31645">
    <ele>344.96000000000004</ele>
   </trkpt>
   <trkpt lat="-37.86785000209512" lon="145.31716000260528">
    <ele>340.66</ele>
   </trkpt>
   <trkpt lat="-37.86759" lon="145.31787">
    <ele>337.93</ele>
   </trkpt>
   <trkpt lat="-37.86741" lon="145.31875000000002">
    <ele>335.36</ele>
   </trkpt>
   <trkpt lat="-37.86744" lon="145.31893000000002">
    <ele>333.63000000000005</ele>
   </trkpt>
   <trkpt lat="-37.86762" lon="145.31942">
    <ele>331.24</ele>
   </trkpt>
   <trkpt lat="-37.86782" lon="145.31976">
    <ele>327.61</ele>
   </trkpt>
   <trkpt lat="-37.86786" lon="145.31989000000002">
    <ele>327.23</ele>
   </trkpt>
   <trkpt lat="-37.86786" lon="145.31999000000002">
    <ele>327.05</ele>
   </trkpt>
   <trkpt lat="-37.867720000000006" lon="145.32028000000003">
    <ele>327.14000000000004</ele>
   </trkpt>
   <trkpt lat="-37.86737" lon="145.32079000000002">
    <ele>328.58000000000004</ele>
   </trkpt>
   <trkpt lat="-37.86712" lon="145.32127">
    <ele>328.59000000000003</ele>
   </trkpt>
   <trkpt lat="-37.867090000000005" lon="145.32139">
    <ele>328.06</ele>
   </trkpt>
   <trkpt lat="-37.86706" lon="145.32158">
    <ele>326.13000000000005</ele>
   </trkpt>
   <trkpt lat="-37.86715" lon="145.32185">
    <ele>324.85</ele>
   </trkpt>
   <trkpt lat="-37.86741" lon="145.32231000000002">
    <ele>319.83</ele>
   </trkpt>
   <trkpt lat="-37.867805001486104" lon="145.32290999672855">
    <ele>315.02000000000004</ele>
   </trkpt>
   <trkpt lat="-37.8682" lon="145.32351">
    <ele>312.71000000000004</ele>
   </trkpt>
   <trkpt lat="-37.868280000000006" lon="145.32366000000002">
    <ele>311.51</ele>
   </trkpt>
   <trkpt lat="-37.86827" lon="145.32377000000002">
    <ele>310.95</ele>
   </trkpt>
   <trkpt lat="-37.868190000000006" lon="145.32392000000002">
    <ele>309.94000000000005</ele>
   </trkpt>
   <trkpt lat="-37.86772500170464" lon="145.32454000380716">
    <ele>305.36</ele>
   </trkpt>
   <trkpt lat="-37.86726" lon="145.32516">
    <ele>301.05</ele>
   </trkpt>
   <trkpt lat="-37.866920001763475" lon="145.32582500327686">
    <ele>294.97</ele>
   </trkpt>
   <trkpt lat="-37.866580000000006" lon="145.32649">
    <ele>291.08</ele>
   </trkpt>
   <trkpt lat="-37.86652" lon="145.32690000000002">
    <ele>292.08</ele>
   </trkpt>
   <trkpt lat="-37.866510000000005" lon="145.32751000000002">
    <ele>295.99</ele>
   </trkpt>
   <trkpt lat="-37.866510000000005" lon="145.32752000000002">
    <ele>296.03000000000003</ele>
   </trkpt>
   <trkpt lat="-37.86641" lon="145.32750000000001">
    <ele>294.61</ele>
   </trkpt>
   <trkpt lat="-37.86634" lon="145.32726000000002">
    <ele>288.56000000000006</ele>
   </trkpt>
   <trkpt lat="-37.8663" lon="145.32718">
    <ele>287.5</ele>
   </trkpt>
   <trkpt lat="-37.86623" lon="145.32717000000002">
    <ele>286.40000000000003</ele>
   </trkpt>
   <trkpt lat="-37.86616" lon="145.32719">
    <ele>284.08</ele>
   </trkpt>
   <trkpt lat="-37.86596" lon="145.3273">
    <ele>275.59</ele>
   </trkpt>
   <trkpt lat="-37.86589" lon="145.3273">
    <ele>275.59</ele>
   </trkpt>
   <trkpt lat="-37.865610000000004" lon="145.3274">
    <ele>268.99</ele>
   </trkpt>
   <trkpt lat="-37.865" lon="145.32741000000001">
    <ele>257.3</ele>
   </trkpt>
   <trkpt lat="-37.86491" lon="145.32743000000002">
    <ele>256.18</ele>
   </trkpt>
   <trkpt lat="-37.86484" lon="145.32752000000002">
    <ele>258.92</ele>
   </trkpt>
   <trkpt lat="-37.86471" lon="145.32788000000002">
    <ele>260.82</ele>
   </trkpt>
   <trkpt lat="-37.86462" lon="145.3279">
    <ele>261.82</ele>
   </trkpt>
   <trkpt lat="-37.86453" lon="145.3279">
    <ele>263.68</ele>
   </trkpt>
   <trkpt lat="-37.86446" lon="145.32787000000002">
    <ele>265.13000000000005</ele>
   </trkpt>
   <trkpt lat="-37.8643" lon="145.32765">
    <ele>264.45</ele>
   </trkpt>
   <trkpt lat="-37.86419" lon="145.32758">
    <ele>262.85</ele>
   </trkpt>
   <trkpt lat="-37.86401" lon="145.32756">
    <ele>260.8</ele>
   </trkpt>
   <trkpt lat="-37.86321" lon="145.32762000000002">
    <ele>256.93000000000006</ele>
   </trkpt>
   <trkpt lat="-37.86267" lon="145.32777000000002">
    <ele>255.42000000000004</ele>
   </trkpt>
   <trkpt lat="-37.86222" lon="145.32782">
    <ele>250.23</ele>
   </trkpt>
   <trkpt lat="-37.86202" lon="145.32789000000002">
    <ele>247.00000000000003</ele>
   </trkpt>
   <trkpt lat="-37.86164" lon="145.32839">
    <ele>248.82000000000002</ele>
   </trkpt>
   <trkpt lat="-37.861560000000004" lon="145.32856">
    <ele>249.37</ele>
   </trkpt>
   <trkpt lat="-37.86155" lon="145.32858000000002">
    <ele>249.4</ele>
   </trkpt>
   <trkpt lat="-37.86146" lon="145.32933">
    <ele>252.99000000000004</ele>
   </trkpt>
   <trkpt lat="-37.86159" lon="145.32950000000002">
    <ele>255.32999999999998</ele>
   </trkpt>
   <trkpt lat="-37.86168" lon="145.32967000000002">
    <ele>258.8</ele>
   </trkpt>
   <trkpt lat="-37.86186" lon="145.33018">
    <ele>265.81000000000006</ele>
   </trkpt>
   <trkpt lat="-37.86193" lon="145.33024">
    <ele>267.07000000000005</ele>
   </trkpt>
   <trkpt lat="-37.86209" lon="145.33053">
    <ele>271.42</ele>
   </trkpt>
   <trkpt lat="-37.86215" lon="145.33071">
    <ele>274.82</ele>
   </trkpt>
   <trkpt lat="-37.86222" lon="145.33086">
    <ele>277.56</ele>
   </trkpt>
   <trkpt lat="-37.86229" lon="145.33091000000002">
    <ele>277.56</ele>
   </trkpt>
   <trkpt lat="-37.86249" lon="145.33115">
    <ele>285.69</ele>
   </trkpt>
   <trkpt lat="-37.86251" lon="145.33124">
    <ele>286.54</ele>
   </trkpt>
   <trkpt lat="-37.86247" lon="145.33136000000002">
    <ele>288.12000000000006</ele>
   </trkpt>
   <trkpt lat="-37.86249" lon="145.33165000000002">
    <ele>292.24</ele>
   </trkpt>
   <trkpt lat="-37.86247" lon="145.33194">
    <ele>298.75</ele>
   </trkpt>
   <trkpt lat="-37.862480000000005" lon="145.33209000000002">
    <ele>301.97</ele>
   </trkpt>
   <trkpt lat="-37.86236" lon="145.33227000000002">
    <ele>301.75</ele>
   </trkpt>
   <trkpt lat="-37.86227" lon="145.33246000000003">
    <ele>301.67</ele>
   </trkpt>
   <trkpt lat="-37.86224" lon="145.33262000000002">
    <ele>301.67</ele>
   </trkpt>
   <trkpt lat="-37.86224" lon="145.33325000000002">
    <ele>301.36</ele>
   </trkpt>
   <trkpt lat="-37.86227" lon="145.33360000000002">
    <ele>301.78000000000003</ele>
   </trkpt>
   <trkpt lat="-37.86242" lon="145.33416000000003">
    <ele>302.29</ele>
   </trkpt>
   <trkpt lat="-37.8628" lon="145.33489">
    <ele>302.73</ele>
   </trkpt>
   <trkpt lat="-37.86309" lon="145.33556000000002">
    <ele>302.91</ele>
   </trkpt>
   <trkpt lat="-37.86314" lon="145.3357">
    <ele>303.17</ele>
   </trkpt>
   <trkpt lat="-37.86309" lon="145.33587">
    <ele>303.69</ele>
   </trkpt>
   <trkpt lat="-37.8631" lon="145.33586000000003">
    <ele>303.69</ele>
   </trkpt>
   <trkpt lat="-37.86303" lon="145.33592000000002">
    <ele>304.09000000000003</ele>
   </trkpt>
   <trkpt lat="-37.86292" lon="145.33596">
    <ele>304.35</ele>
   </trkpt>
   <trkpt lat="-37.86231" lon="145.33606">
    <ele>302.62</ele>
   </trkpt>
   <trkpt lat="-37.86204" lon="145.33606">
    <ele>301.00000000000006</ele>
   </trkpt>
   <trkpt lat="-37.86164" lon="145.33602000000002">
    <ele>298.25</ele>
   </trkpt>
   <trkpt lat="-37.8609" lon="145.33604000000003">
    <ele>299.03000000000003</ele>
   </trkpt>
   <trkpt lat="-37.86065" lon="145.33601000000002">
    <ele>298.69</ele>
   </trkpt>
   <trkpt lat="-37.85996" lon="145.33583000000002">
    <ele>291.42</ele>
   </trkpt>
   <trkpt lat="-37.85965" lon="145.33569">
    <ele>287.49</ele>
   </trkpt>
   <trkpt lat="-37.85931" lon="145.33543">
    <ele>282.45000000000005</ele>
   </trkpt>
   <trkpt lat="-37.85887500127963" lon="145.33486999663535">
    <ele>277.49</ele>
   </trkpt>
   <trkpt lat="-37.85844" lon="145.33431000000002">
    <ele>273.43</ele>
   </trkpt>
   <trkpt lat="-37.85833" lon="145.33419">
    <ele>272.68</ele>
   </trkpt>
   <trkpt lat="-37.85821" lon="145.33414000000002">
    <ele>271.08000000000004</ele>
   </trkpt>
   <trkpt lat="-37.85797" lon="145.33415000000002">
    <ele>268.94</ele>
   </trkpt>
   <trkpt lat="-37.857960000000006" lon="145.33415000000002">
    <ele>268.93</ele>
   </trkpt>
   <trkpt lat="-37.857980000000005" lon="145.33416000000003">
    <ele>269.0</ele>
   </trkpt>
   <trkpt lat="-37.8581" lon="145.33454">
    <ele>274.12</ele>
   </trkpt>
   <trkpt lat="-37.8581" lon="145.33530000000002">
    <ele>281.73</ele>
   </trkpt>
   <trkpt lat="-37.85808" lon="145.33543">
    <ele>281.73</ele>
   </trkpt>
   <trkpt lat="-37.85799" lon="145.3357">
    <ele>284.2</ele>
   </trkpt>
   <trkpt lat="-37.85777" lon="145.33627">
    <ele>290.00000000000006</ele>
   </trkpt>
   <trkpt lat="-37.85768" lon="145.33674000000002">
    <ele>295.64</ele>
   </trkpt>
   <trkpt lat="-37.85768" lon="145.33698">
    <ele>295.64</ele>
   </trkpt>
   <trkpt lat="-37.85772" lon="145.33722">
    <ele>299.27000000000004</ele>
   </trkpt>
   <trkpt lat="-37.85788" lon="145.33765000000002">
    <ele>304.47</ele>
   </trkpt>
   <trkpt lat="-37.85801" lon="145.33812">
    <ele>308.21000000000004</ele>
   </trkpt>
   <trkpt lat="-37.858345002981416" lon="145.33895499628792">
    <ele>316.52000000000004</ele>
   </trkpt>
   <trkpt lat="-37.85868" lon="145.33979000000002">
    <ele>325.51</ele>
   </trkpt>
   <trkpt lat="-37.85902" lon="145.34036">
    <ele>331.54</ele>
   </trkpt>
   <trkpt lat="-37.85913" lon="145.34049000000002">
    <ele>333.1</ele>
   </trkpt>
   <trkpt lat="-37.85927" lon="145.34058000000002">
    <ele>335.24</ele>
   </trkpt>
   <trkpt lat="-37.859460000000006" lon="145.34061">
    <ele>336.26</ele>
   </trkpt>
   <trkpt lat="-37.86012" lon="145.34056">
    <ele>345.22</ele>
   </trkpt>
   <trkpt lat="-37.8603" lon="145.34063">
    <ele>347.17</ele>
   </trkpt>
   <trkpt lat="-37.86092" lon="145.34113000000002">
    <ele>352.28000000000003</ele>
   </trkpt>
   <trkpt lat="-37.86097" lon="145.34123000000002">
    <ele>352.28000000000003</ele>
   </trkpt>
   <trkpt lat="-37.86108" lon="145.3417">
    <ele>357.62000000000006</ele>
   </trkpt>
   <trkpt lat="-37.86121" lon="145.34249">
    <ele>362.42</ele>
   </trkpt>
   <trkpt lat="-37.86128" lon="145.34276">
    <ele>363.41</ele>
   </trkpt>
   <trkpt lat="-37.86139" lon="145.34300000000002">
    <ele>364.75</ele>
   </trkpt>
   <trkpt lat="-37.861520000000006" lon="145.34317000000001">
    <ele>366.25</ele>
   </trkpt>
   <trkpt lat="-37.86168" lon="145.34332">
    <ele>367.27000000000004</ele>
   </trkpt>
   <trkpt lat="-37.86231" lon="145.34352">
    <ele>371.64000000000004</ele>
   </trkpt>
   <trkpt lat="-37.86296" lon="145.34383000000003">
    <ele>375.63</ele>
   </trkpt>
   <trkpt lat="-37.86303" lon="145.34388">
    <ele>375.98</ele>
   </trkpt>
   <trkpt lat="-37.86307" lon="145.34395">
    <ele>376.35</ele>
   </trkpt>
   <trkpt lat="-37.86305" lon="145.34406">
    <ele>376.95</ele>
   </trkpt>
   <trkpt lat="-37.862840000000006" lon="145.3444">
    <ele>379.52000000000004</ele>
   </trkpt>
   <trkpt lat="-37.86253" lon="145.34477">
    <ele>386.46000000000004</ele>
   </trkpt>
   <trkpt lat="-37.86238" lon="145.34501">
    <ele>387.3</ele>
   </trkpt>
   <trkpt lat="-37.86213" lon="145.34550000000002">
    <ele>390.95</ele>
   </trkpt>
   <trkpt lat="-37.86209" lon="145.34566">
    <ele>392.09000000000003</ele>
   </trkpt>
   <trkpt lat="-37.86193" lon="145.34642000000002">
    <ele>397.96000000000004</ele>
   </trkpt>
   <trkpt lat="-37.86186" lon="145.34658000000002">
    <ele>398.59000000000003</ele>
   </trkpt>
   <trkpt lat="-37.861790000000006" lon="145.34698">
    <ele>400.12</ele>
   </trkpt>
   <trkpt lat="-37.86186" lon="145.34747000000002">
    <ele>400.68</ele>
   </trkpt>
   <trkpt lat="-37.862115001274674" lon="145.34800999821977">
    <ele>400.19000000000005</ele>
   </trkpt>
   <trkpt lat="-37.862370000000006" lon="145.34855000000002">
    <ele>403.86000000000007</ele>
   </trkpt>
   <trkpt lat="-37.86238" lon="145.34883000000002">
    <ele>407.52000000000004</ele>
   </trkpt>
   <trkpt lat="-37.862350000000006" lon="145.34894">
    <ele>407.94</ele>
   </trkpt>
   <trkpt lat="-37.86236" lon="145.34892000000002">
    <ele>407.83000000000004</ele>
   </trkpt>
   <trkpt lat="-37.86224" lon="145.34912">
    <ele>410.06</ele>
   </trkpt>
   <trkpt lat="-37.86182" lon="145.34959">
    <ele>420.68000000000006</ele>
   </trkpt>
   <trkpt lat="-37.86166" lon="145.34982000000002">
    <ele>422.61</ele>
   </trkpt>
   <trkpt lat="-37.86135" lon="145.35045000000002">
    <ele>430.20000000000005</ele>
   </trkpt>
   <trkpt lat="-37.86115" lon="145.3511">
    <ele>438.92</ele>
   </trkpt>
   <trkpt lat="-37.86104" lon="145.35133000000002">
    <ele>441.77000000000004</ele>
   </trkpt>
   <trkpt lat="-37.860960000000006" lon="145.35146">
    <ele>443.91</ele>
   </trkpt>
   <trkpt lat="-37.860490000000006" lon="145.35181">
    <ele>454.07</ele>
   </trkpt>
   <trkpt lat="-37.86023" lon="145.35196000000002">
    <ele>457.5</ele>
   </trkpt>
   <trkpt lat="-37.85994" lon="145.35221">
    <ele>462.43000000000006</ele>
   </trkpt>
   <trkpt lat="-37.8596" lon="145.35241000000002">
    <ele>467.40000000000003</ele>
   </trkpt>
   <trkpt lat="-37.85945" lon="145.35244">
    <ele>469.23</ele>
   </trkpt>
   <trkpt lat="-37.8592" lon="145.35248">
    <ele>472.84000000000003</ele>
   </trkpt>
   <trkpt lat="-37.85851" lon="145.35268000000002">
    <ele>483.69000000000005</ele>
   </trkpt>
   <trkpt lat="-37.85815" lon="145.35273">
    <ele>488.29</ele>
   </trkpt>
   <trkpt lat="-37.857635000010575" lon="145.35270499982573">
    <ele>493.6</ele>
   </trkpt>
   <trkpt lat="-37.85712" lon="145.35268000000002">
    <ele>500.68</ele>
   </trkpt>
   <trkpt lat="-37.85701" lon="145.35266000000001">
    <ele>502.18000000000006</ele>
   </trkpt>
   <trkpt lat="-37.85683" lon="145.35260000000002">
    <ele>503.53000000000003</ele>
   </trkpt>
   <trkpt lat="-37.85636" lon="145.35252">
    <ele>505.41</ele>
   </trkpt>
   <trkpt lat="-37.85622" lon="145.35247">
    <ele>504.69000000000005</ele>
   </trkpt>
   <trkpt lat="-37.85614" lon="145.35240000000002">
    <ele>503.7900000000001</ele>
   </trkpt>
   <trkpt lat="-37.85580500091417" lon="145.35193999793628">
    <ele>495.2300000000001</ele>
   </trkpt>
   <trkpt lat="-37.855470000000004" lon="145.35148">
    <ele>487.50000000000006</ele>
   </trkpt>
   <trkpt lat="-37.85528" lon="145.35168000000002">
    <ele>484.93</ele>
   </trkpt>
   <trkpt lat="-37.85526" lon="145.35179000000002">
    <ele>483.74000000000007</ele>
   </trkpt>
   <trkpt lat="-37.85521" lon="145.35193">
    <ele>482.05</ele>
   </trkpt>
   <trkpt lat="-37.855140000000006" lon="145.35198000000003">
    <ele>480.45000000000005</ele>
   </trkpt>
   <trkpt lat="-37.85486" lon="145.3523">
    <ele>472.03000000000003</ele>
   </trkpt>
   <trkpt lat="-37.85472" lon="145.3527">
    <ele>466.93</ele>
   </trkpt>
   <trkpt lat="-37.85466" lon="145.35276000000002">
    <ele>466.93</ele>
   </trkpt>
   <trkpt lat="-37.85461" lon="145.35294000000002">
    <ele>463.08000000000004</ele>
   </trkpt>
   <trkpt lat="-37.85461" lon="145.35309">
    <ele>461.74</ele>
   </trkpt>
   <trkpt lat="-37.854580000000006" lon="145.35319">
    <ele>459.87000000000006</ele>
   </trkpt>
   <trkpt lat="-37.85452" lon="145.35320000000002">
    <ele>459.22</ele>
   </trkpt>
   <trkpt lat="-37.85439" lon="145.35299">
    <ele>455.81000000000006</ele>
   </trkpt>
   <trkpt lat="-37.854350000000004" lon="145.35299">
    <ele>455.81000000000006</ele>
   </trkpt>
   <trkpt lat="-37.854110000000006" lon="145.35328">
    <ele>453.03000000000003</ele>
   </trkpt>
   <trkpt lat="-37.85396" lon="145.35339000000002">
    <ele>449.71000000000004</ele>
   </trkpt>
   <trkpt lat="-37.85342" lon="145.35415">
    <ele>442.63</ele>
   </trkpt>
   <trkpt lat="-37.85331" lon="145.35443">
    <ele>439.42</ele>
   </trkpt>
   <trkpt lat="-37.853" lon="145.35505">
    <ele>438.13</ele>
   </trkpt>
   <trkpt lat="-37.85298" lon="145.3556">
    <ele>440.66</ele>
   </trkpt>
   <trkpt lat="-37.85289" lon="145.35602">
    <ele>441.22</ele>
   </trkpt>
   <trkpt lat="-37.852850000000004" lon="145.3561">
    <ele>441.12</ele>
   </trkpt>
   <trkpt lat="-37.85284" lon="145.3561">
    <ele>441.1</ele>
   </trkpt>
   <trkpt lat="-37.8526" lon="145.35617000000002">
    <ele>436.51</ele>
   </trkpt>
   <trkpt lat="-37.85195" lon="145.35605">
    <ele>418.62000000000006</ele>
   </trkpt>
   <trkpt lat="-37.85147999996115" lon="145.35608500022641">
    <ele>413.61</ele>
   </trkpt>
   <trkpt lat="-37.85101" lon="145.35612">
    <ele>413.55</ele>
   </trkpt>
   <trkpt lat="-37.85083" lon="145.35617000000002">
    <ele>414.42</ele>
   </trkpt>
   <trkpt lat="-37.85054" lon="145.35639">
    <ele>414.26</ele>
   </trkpt>
   <trkpt lat="-37.85009" lon="145.35676">
    <ele>410.74000000000007</ele>
   </trkpt>
   <trkpt lat="-37.84998" lon="145.35682">
    <ele>411.41</ele>
   </trkpt>
   <trkpt lat="-37.849700000000006" lon="145.35709">
    <ele>417.83000000000004</ele>
   </trkpt>
   <trkpt lat="-37.84951" lon="145.35711">
    <ele>421.32</ele>
   </trkpt>
   <trkpt lat="-37.84895" lon="145.35702">
    <ele>431.42</ele>
   </trkpt>
   <trkpt lat="-37.84888" lon="145.35699000000002">
    <ele>433.58</ele>
   </trkpt>
   <trkpt lat="-37.84886" lon="145.35698000000002">
    <ele>433.77000000000004</ele>
   </trkpt>
   <trkpt lat="-37.84877" lon="145.35692">
    <ele>435.63</ele>
   </trkpt>
   <trkpt lat="-37.84872" lon="145.35680000000002">
    <ele>436.68</ele>
   </trkpt>
   <trkpt lat="-37.8487" lon="145.35663000000002">
    <ele>437.71000000000004</ele>
   </trkpt>
   <trkpt lat="-37.84866" lon="145.35649">
    <ele>438.36</ele>
   </trkpt>
   <trkpt lat="-37.84859" lon="145.35638">
    <ele>438.77000000000004</ele>
   </trkpt>
   <trkpt lat="-37.84821" lon="145.35601">
    <ele>441.76000000000005</ele>
   </trkpt>
   <trkpt lat="-37.84814" lon="145.35590000000002">
    <ele>441.20000000000005</ele>
   </trkpt>
   <trkpt lat="-37.84812" lon="145.35582000000002">
    <ele>440.48</ele>
   </trkpt>
   <trkpt lat="-37.84814" lon="145.3557">
    <ele>440.00000000000006</ele>
   </trkpt>
   <trkpt lat="-37.84839" lon="145.35525">
    <ele>441.93000000000006</ele>
   </trkpt>
   <trkpt lat="-37.84852" lon="145.35456000000002">
    <ele>447.26000000000005</ele>
   </trkpt>
   <trkpt lat="-37.84863" lon="145.35433">
    <ele>446.84000000000003</ele>
   </trkpt>
   <trkpt lat="-37.84881" lon="145.35385000000002">
    <ele>442.05000000000007</ele>
   </trkpt>
   <trkpt lat="-37.84884" lon="145.35374000000002">
    <ele>441.51</ele>
   </trkpt>
   <trkpt lat="-37.848780000000005" lon="145.35316">
    <ele>438.13</ele>
   </trkpt>
   <trkpt lat="-37.848800000000004" lon="145.35342">
    <ele>439.52000000000004</ele>
   </trkpt>
   <trkpt lat="-37.84868" lon="145.35357000000002">
    <ele>446.99000000000007</ele>
   </trkpt>
   <trkpt lat="-37.84857" lon="145.35368000000003">
    <ele>452.87000000000006</ele>
   </trkpt>
   <trkpt lat="-37.84828" lon="145.35382">
    <ele>466.23</ele>
   </trkpt>
   <trkpt lat="-37.84798" lon="145.35389">
    <ele>476.81</ele>
   </trkpt>
   <trkpt lat="-37.84781" lon="145.35397">
    <ele>482.04</ele>
   </trkpt>
   <trkpt lat="-37.84734" lon="145.35397">
    <ele>495.36</ele>
   </trkpt>
   <trkpt lat="-37.84698" lon="145.35392000000002">
    <ele>503.0800000000001</ele>
   </trkpt>
   <trkpt lat="-37.846810000000005" lon="145.35467">
    <ele>505.92</ele>
   </trkpt>
   <trkpt lat="-37.84673" lon="145.35492000000002">
    <ele>504.99000000000007</ele>
   </trkpt>
   <trkpt lat="-37.84662" lon="145.35509000000002">
    <ele>505.24</ele>
   </trkpt>
   <trkpt lat="-37.84631" lon="145.3554">
    <ele>507.55000000000007</ele>
   </trkpt>
   <trkpt lat="-37.846270000000004" lon="145.35546000000002">
    <ele>507.73</ele>
   </trkpt>
   <trkpt lat="-37.846250000000005" lon="145.35552">
    <ele>507.81000000000006</ele>
   </trkpt>
   <trkpt lat="-37.84626" lon="145.35571000000002">
    <ele>507.76</ele>
   </trkpt>
   <trkpt lat="-37.84651" lon="145.3563">
    <ele>502.92999999999995</ele>
   </trkpt>
   <trkpt lat="-37.84682" lon="145.35668">
    <ele>499.1700000000001</ele>
   </trkpt>
   <trkpt lat="-37.84713" lon="145.35719">
    <ele>502.41</ele>
   </trkpt>
   <trkpt lat="-37.84754" lon="145.35752000000002">
    <ele>503.02000000000004</ele>
   </trkpt>
   <trkpt lat="-37.84772" lon="145.35770000000002">
    <ele>501.96000000000004</ele>
   </trkpt>
   <trkpt lat="-37.84792" lon="145.35783">
    <ele>499.05</ele>
   </trkpt>
   <trkpt lat="-37.84836" lon="145.35825">
    <ele>498.81</ele>
   </trkpt>
   <trkpt lat="-37.84874500087952" lon="145.35868999777225">
    <ele>503.15</ele>
   </trkpt>
   <trkpt lat="-37.84913" lon="145.35913000000002">
    <ele>504.2000000000001</ele>
   </trkpt>
   <trkpt lat="-37.84942" lon="145.35956000000002">
    <ele>500.88</ele>
   </trkpt>
   <trkpt lat="-37.84978" lon="145.35994000000002">
    <ele>496.70000000000005</ele>
   </trkpt>
   <trkpt lat="-37.84996" lon="145.35998">
    <ele>493.1</ele>
   </trkpt>
   <trkpt lat="-37.85" lon="145.35998">
    <ele>492.57000000000005</ele>
   </trkpt>
   <trkpt lat="-37.85013" lon="145.35996">
    <ele>488.75</ele>
   </trkpt>
   <trkpt lat="-37.85051" lon="145.35993000000002">
    <ele>481.71000000000004</ele>
   </trkpt>
   <trkpt lat="-37.850640000000006" lon="145.35994000000002">
    <ele>479.23</ele>
   </trkpt>
   <trkpt lat="-37.850730000000006" lon="145.35992000000002">
    <ele>478.57000000000005</ele>
   </trkpt>
   <trkpt lat="-37.85085" lon="145.35979">
    <ele>475.14000000000004</ele>
   </trkpt>
   <trkpt lat="-37.85092" lon="145.35967000000002">
    <ele>473.12</ele>
   </trkpt>
   <trkpt lat="-37.851110000000006" lon="145.35914000000002">
    <ele>469.49</ele>
   </trkpt>
   <trkpt lat="-37.85121" lon="145.35867000000002">
    <ele>472.72</ele>
   </trkpt>
   <trkpt lat="-37.85132" lon="145.35802">
    <ele>469.85</ele>
   </trkpt>
   <trkpt lat="-37.8515" lon="145.35757">
    <ele>466.0</ele>
   </trkpt>
   <trkpt lat="-37.85157" lon="145.35757">
    <ele>468.40000000000003</ele>
   </trkpt>
   <trkpt lat="-37.85177" lon="145.35780000000003">
    <ele>476.36000000000007</ele>
   </trkpt>
   <trkpt lat="-37.851910000000004" lon="145.35784">
    <ele>479.99</ele>
   </trkpt>
   <trkpt lat="-37.85195" lon="145.3579">
    <ele>480.69000000000005</ele>
   </trkpt>
   <trkpt lat="-37.852050000000006" lon="145.35793">
    <ele>481.78000000000003</ele>
   </trkpt>
   <trkpt lat="-37.852140000000006" lon="145.35791">
    <ele>482.17</ele>
   </trkpt>
   <trkpt lat="-37.85262" lon="145.35772">
    <ele>478.48</ele>
   </trkpt>
   <trkpt lat="-37.8528" lon="145.35759000000002">
    <ele>475.82</ele>
   </trkpt>
   <trkpt lat="-37.85295" lon="145.35742000000002">
    <ele>473.54</ele>
   </trkpt>
   <trkpt lat="-37.85302" lon="145.35724000000002">
    <ele>470.14000000000004</ele>
   </trkpt>
   <trkpt lat="-37.85311" lon="145.35713">
    <ele>468.74</ele>
   </trkpt>
   <trkpt lat="-37.85351" lon="145.35703">
    <ele>473.22</ele>
   </trkpt>
   <trkpt lat="-37.85374" lon="145.35714000000002">
    <ele>474.71000000000004</ele>
   </trkpt>
   <trkpt lat="-37.85374" lon="145.35713">
    <ele>474.70000000000005</ele>
   </trkpt>
   <trkpt lat="-37.85338" lon="145.35768000000002">
    <ele>477.94</ele>
   </trkpt>
   <trkpt lat="-37.85271" lon="145.35832000000002">
    <ele>483.55</ele>
   </trkpt>
   <trkpt lat="-37.85246" lon="145.35859000000002">
    <ele>484.99</ele>
   </trkpt>
   <trkpt lat="-37.85314" lon="145.35923000000003">
    <ele>516.97</ele>
   </trkpt>
   <trkpt lat="-37.85349500053548" lon="145.35960499813183">
    <ele>527.2800000000001</ele>
   </trkpt>
   <trkpt lat="-37.85385" lon="145.35998">
    <ele>542.3</ele>
   </trkpt>
   <trkpt lat="-37.853860000000005" lon="145.35997">
    <ele>542.33</ele>
   </trkpt>
   <trkpt lat="-37.85394" lon="145.35982">
    <ele>541.6</ele>
   </trkpt>
   <trkpt lat="-37.854020000000006" lon="145.35943">
    <ele>538.9000000000001</ele>
   </trkpt>
   <trkpt lat="-37.85403" lon="145.35922000000002">
    <ele>537.3800000000001</ele>
   </trkpt>
   <trkpt lat="-37.85405" lon="145.35908">
    <ele>536.1400000000001</ele>
   </trkpt>
   <trkpt lat="-37.85421" lon="145.35869000000002">
    <ele>529.5500000000001</ele>
   </trkpt>
   <trkpt lat="-37.85423" lon="145.35841000000002">
    <ele>524.75</ele>
   </trkpt>
   <trkpt lat="-37.85432" lon="145.3581">
    <ele>522.02</ele>
   </trkpt>
   <trkpt lat="-37.8545" lon="145.35797000000002">
    <ele>524.1300000000001</ele>
   </trkpt>
   <trkpt lat="-37.85461" lon="145.35797000000002">
    <ele>527.58</ele>
   </trkpt>
   <trkpt lat="-37.85492" lon="145.35791">
    <ele>533.42</ele>
   </trkpt>
   <trkpt lat="-37.85513" lon="145.358">
    <ele>540.0200000000001</ele>
   </trkpt>
   <trkpt lat="-37.8553" lon="145.35817">
    <ele>545.86</ele>
   </trkpt>
   <trkpt lat="-37.85553" lon="145.35828">
    <ele>552.46</ele>
   </trkpt>
   <trkpt lat="-37.85571" lon="145.35829">
    <ele>554.9000000000001</ele>
   </trkpt>
   <trkpt lat="-37.85618" lon="145.35822000000002">
    <ele>559.9300000000001</ele>
   </trkpt>
   <trkpt lat="-37.85633" lon="145.35812">
    <ele>560.22</ele>
   </trkpt>
   <trkpt lat="-37.85647" lon="145.35798">
    <ele>560.0200000000001</ele>
   </trkpt>
   <trkpt lat="-37.85658" lon="145.35783">
    <ele>559.6300000000001</ele>
   </trkpt>
   <trkpt lat="-37.85665" lon="145.35757">
    <ele>560.2600000000001</ele>
   </trkpt>
   <trkpt lat="-37.85671" lon="145.35743000000002">
    <ele>562.1</ele>
   </trkpt>
   <trkpt lat="-37.85698" lon="145.35725000000002">
    <ele>566.45</ele>
   </trkpt>
   <trkpt lat="-37.85703" lon="145.35715000000002">
    <ele>566.89</ele>
   </trkpt>
   <trkpt lat="-37.85705" lon="145.35702">
    <ele>567.3000000000001</ele>
   </trkpt>
   <trkpt lat="-37.85718" lon="145.35671000000002">
    <ele>569.2</ele>
   </trkpt>
   <trkpt lat="-37.85727" lon="145.35627000000002">
    <ele>573.47</ele>
   </trkpt>
   <trkpt lat="-37.85725" lon="145.35584">
    <ele>574.2700000000001</ele>
   </trkpt>
   <trkpt lat="-37.85727" lon="145.35574000000003">
    <ele>574.22</ele>
   </trkpt>
   <trkpt lat="-37.857330000000005" lon="145.35569">
    <ele>574.04</ele>
   </trkpt>
   <trkpt lat="-37.85745" lon="145.35567">
    <ele>575.64</ele>
   </trkpt>
   <trkpt lat="-37.85756000000001" lon="145.35572000000002">
    <ele>576.88</ele>
   </trkpt>
   <trkpt lat="-37.85765" lon="145.35573000000002">
    <ele>576.26</ele>
   </trkpt>
   <trkpt lat="-37.85774" lon="145.3557">
    <ele>575.35</ele>
   </trkpt>
   <trkpt lat="-37.85792" lon="145.35547000000003">
    <ele>570.7800000000001</ele>
   </trkpt>
   <trkpt lat="-37.85826" lon="145.35524">
    <ele>561.5400000000001</ele>
   </trkpt>
   <trkpt lat="-37.85846" lon="145.35508000000002">
    <ele>558.18</ele>
   </trkpt>
   <trkpt lat="-37.85866" lon="145.35498">
    <ele>547.83</ele>
   </trkpt>
   <trkpt lat="-37.85877" lon="145.35487">
    <ele>545.4499999999999</ele>
   </trkpt>
   <trkpt lat="-37.85889" lon="145.35466000000002">
    <ele>541.6700000000001</ele>
   </trkpt>
   <trkpt lat="-37.85915" lon="145.35439000000002">
    <ele>529.63</ele>
   </trkpt>
   <trkpt lat="-37.85942" lon="145.35421000000002">
    <ele>521.6500000000001</ele>
   </trkpt>
   <trkpt lat="-37.85956" lon="145.35415">
    <ele>517.0600000000001</ele>
   </trkpt>
   <trkpt lat="-37.85967" lon="145.35417">
    <ele>514.6800000000001</ele>
   </trkpt>
   <trkpt lat="-37.85978" lon="145.35421000000002">
    <ele>513.1800000000001</ele>
   </trkpt>
   <trkpt lat="-37.860060000000004" lon="145.35438000000002">
    <ele>512.19</ele>
   </trkpt>
   <trkpt lat="-37.860325000891734" lon="145.35484499828854">
    <ele>514.95</ele>
   </trkpt>
   <trkpt lat="-37.86059" lon="145.35531">
    <ele>512.0300000000001</ele>
   </trkpt>
   <trkpt lat="-37.860600000000005" lon="145.35539">
    <ele>512.0300000000001</ele>
   </trkpt>
   <trkpt lat="-37.86093" lon="145.35551">
    <ele>490.89000000000004</ele>
   </trkpt>
   <trkpt lat="-37.86108" lon="145.35531">
    <ele>490.11</ele>
   </trkpt>
   <trkpt lat="-37.86153" lon="145.35481000000001">
    <ele>486.72</ele>
   </trkpt>
   <trkpt lat="-37.86198" lon="145.35437000000002">
    <ele>482.05</ele>
   </trkpt>
   <trkpt lat="-37.86229" lon="145.35409">
    <ele>480.37</ele>
   </trkpt>
   <trkpt lat="-37.86305" lon="145.35354">
    <ele>477.30000000000007</ele>
   </trkpt>
   <trkpt lat="-37.86298" lon="145.35341000000003">
    <ele>477.45000000000005</ele>
   </trkpt>
   <trkpt lat="-37.86298" lon="145.35321000000002">
    <ele>473.17</ele>
   </trkpt>
  </trkseg>
 </trk>
</gpx>
