<?xml version="1.0" encoding="UTF-8"?>
<gpx creator="StravaGPX" version="1.1" xmlns="http://www.topografix.com/GPX/1/1" xmlns:xsi="http://www.w3.org/2001/XMLSchema-instance" xsi:schemaLocation="http://www.topografix.com/GPX/1/1 http://www.topografix.com/GPX/1/1/gpx.xsd">
 <metadata>
  <name>DTR 1 August 2021</name>
  <author>
   <name>john csorgo</name>
  </author>
  <copyright author="OpenStreetMap contributors">
   <year>2020</year>
   <license>https://www.openstreetmap.org/copyright</license>
  </copyright>
 </metadata>
 <trk>
  <name>DTR 1 August 2021</name>
  <link href=""/>
  <type>running</type>
  <trkseg>
   <trkpt lat="-37.87261" lon="145.31905">
    <ele>510.15</ele>
   </trkpt>
   <trkpt lat="-37.87247" lon="145.31936000000002">
    <ele>512.21</ele>
   </trkpt>
   <trkpt lat="-37.872440000000005" lon="145.31953000000001">
    <ele>512.58</ele>
   </trkpt>
   <trkpt lat="-37.872600000000006" lon="145.31964000000002">
    <ele>513.33</ele>
   </trkpt>
   <trkpt lat="-37.87254" lon="145.31967">
    <ele>513.47</ele>
   </trkpt>
   <trkpt lat="-37.87232" lon="145.31989000000002">
    <ele>511.73</ele>
   </trkpt>
   <trkpt lat="-37.87223" lon="145.32034000000002">
    <ele>505.65000000000003</ele>
   </trkpt>
   <trkpt lat="-37.87203" lon="145.32099000000002">
    <ele>487.48</ele>
   </trkpt>
   <trkpt lat="-37.872" lon="145.32119">
    <ele>485.22</ele>
   </trkpt>
   <trkpt lat="-37.872" lon="145.32135000000002">
    <ele>482.21000000000004</ele>
   </trkpt>
   <trkpt lat="-37.87207" lon="145.32187000000002">
    <ele>474.66</ele>
   </trkpt>
   <trkpt lat="-37.87203" lon="145.32209">
    <ele>470.61</ele>
   </trkpt>
   <trkpt lat="-37.87191" lon="145.32233000000002">
    <ele>462.84000000000003</ele>
   </trkpt>
   <trkpt lat="-37.871840000000006" lon="145.32255">
    <ele>459.24</ele>
   </trkpt>
   <trkpt lat="-37.87187" lon="145.32276000000002">
    <ele>457.42</ele>
   </trkpt>
   <trkpt lat="-37.87185" lon="145.3232">
    <ele>457.06</ele>
   </trkpt>
   <trkpt lat="-37.871880000000004" lon="145.32333">
    <ele>460.08000000000004</ele>
   </trkpt>
   <trkpt lat="-37.87194" lon="145.32344">
    <ele>463.25000000000006</ele>
   </trkpt>
   <trkpt lat="-37.87184500277241" lon="145.32425000106326">
    <ele>473.09000000000003</ele>
   </trkpt>
   <trkpt lat="-37.871750000000006" lon="145.32506">
    <ele>480.16</ele>
   </trkpt>
   <trkpt lat="-37.87171" lon="145.32548">
    <ele>481.46000000000004</ele>
   </trkpt>
   <trkpt lat="-37.87182" lon="145.3257">
    <ele>481.02000000000004</ele>
   </trkpt>
   <trkpt lat="-37.87238" lon="145.32607000000002">
    <ele>479.89000000000004</ele>
   </trkpt>
   <trkpt lat="-37.87261" lon="145.32628000000003">
    <ele>478.23</ele>
   </trkpt>
   <trkpt lat="-37.87272" lon="145.32642">
    <ele>476.55</ele>
   </trkpt>
   <trkpt lat="-37.87315500156173" lon="145.32701999651144">
    <ele>468.91</ele>
   </trkpt>
   <trkpt lat="-37.87359" lon="145.32762000000002">
    <ele>461.78000000000003</ele>
   </trkpt>
   <trkpt lat="-37.87366" lon="145.32778000000002">
    <ele>459.13000000000005</ele>
   </trkpt>
   <trkpt lat="-37.87368" lon="145.32803">
    <ele>453.84000000000003</ele>
   </trkpt>
   <trkpt lat="-37.873760000000004" lon="145.32821">
    <ele>451.13</ele>
   </trkpt>
   <trkpt lat="-37.87375" lon="145.32819">
    <ele>451.22</ele>
   </trkpt>
   <trkpt lat="-37.87382" lon="145.32833000000002">
    <ele>449.13</ele>
   </trkpt>
   <trkpt lat="-37.87435" lon="145.32887000000002">
    <ele>441.77000000000004</ele>
   </trkpt>
   <trkpt lat="-37.87456" lon="145.32923000000002">
    <ele>439.36</ele>
   </trkpt>
   <trkpt lat="-37.87469" lon="145.32956000000001">
    <ele>437.4</ele>
   </trkpt>
   <trkpt lat="-37.87487" lon="145.33021000000002">
    <ele>436.27000000000004</ele>
   </trkpt>
   <trkpt lat="-37.87498" lon="145.33044">
    <ele>436.1</ele>
   </trkpt>
   <trkpt lat="-37.875130000000006" lon="145.33068">
    <ele>436.01</ele>
   </trkpt>
   <trkpt lat="-37.875400000000006" lon="145.33097">
    <ele>436.00000000000006</ele>
   </trkpt>
   <trkpt lat="-37.87543" lon="145.33104">
    <ele>436.29</ele>
   </trkpt>
   <trkpt lat="-37.87545" lon="145.33118000000002">
    <ele>436.62</ele>
   </trkpt>
   <trkpt lat="-37.87543" lon="145.33131">
    <ele>437.29</ele>
   </trkpt>
   <trkpt lat="-37.87534" lon="145.33156000000002">
    <ele>439.49000000000007</ele>
   </trkpt>
   <trkpt lat="-37.87489" lon="145.33247">
    <ele>451.67</ele>
   </trkpt>
   <trkpt lat="-37.87463" lon="145.33308000000002">
    <ele>458.66</ele>
   </trkpt>
   <trkpt lat="-37.874430000000004" lon="145.33377000000002">
    <ele>465.65000000000003</ele>
   </trkpt>
   <trkpt lat="-37.87442" lon="145.33378000000002">
    <ele>465.6</ele>
   </trkpt>
   <trkpt lat="-37.87422" lon="145.33445">
    <ele>470.03000000000003</ele>
   </trkpt>
   <trkpt lat="-37.87414000139368" lon="145.33503000083988">
    <ele>474.86000000000007</ele>
   </trkpt>
   <trkpt lat="-37.87406" lon="145.33561">
    <ele>479.77000000000004</ele>
   </trkpt>
   <trkpt lat="-37.87393" lon="145.33620000000002">
    <ele>485.00000000000006</ele>
   </trkpt>
   <trkpt lat="-37.87391" lon="145.33668">
    <ele>488.50000000000006</ele>
   </trkpt>
   <trkpt lat="-37.87395" lon="145.33692000000002">
    <ele>490.84000000000003</ele>
   </trkpt>
   <trkpt lat="-37.8742" lon="145.33787">
    <ele>496.66</ele>
   </trkpt>
   <trkpt lat="-37.87422" lon="145.33863000000002">
    <ele>492.71000000000004</ele>
   </trkpt>
   <trkpt lat="-37.874210000000005" lon="145.33901">
    <ele>491.61</ele>
   </trkpt>
   <trkpt lat="-37.87431" lon="145.33916000000002">
    <ele>492.71000000000004</ele>
   </trkpt>
   <trkpt lat="-37.87435" lon="145.33927">
    <ele>493.24000000000007</ele>
   </trkpt>
   <trkpt lat="-37.87465500096856" lon="145.33972499825498">
    <ele>497.3</ele>
   </trkpt>
   <trkpt lat="-37.87496" lon="145.34018">
    <ele>499.36</ele>
   </trkpt>
   <trkpt lat="-37.87509" lon="145.34034000000003">
    <ele>501.0300000000001</ele>
   </trkpt>
   <trkpt lat="-37.87529" lon="145.34052">
    <ele>503.24</ele>
   </trkpt>
   <trkpt lat="-37.87534" lon="145.34059000000002">
    <ele>503.4200000000001</ele>
   </trkpt>
   <trkpt lat="-37.87534" lon="145.34072">
    <ele>503.11000000000007</ele>
   </trkpt>
   <trkpt lat="-37.87527" lon="145.34105000000002">
    <ele>500.77000000000004</ele>
   </trkpt>
   <trkpt lat="-37.87527" lon="145.34102000000001">
    <ele>500.84000000000003</ele>
   </trkpt>
   <trkpt lat="-37.8751050019143" lon="145.3416850013118">
    <ele>497.2900000000001</ele>
   </trkpt>
   <trkpt lat="-37.87494" lon="145.34235">
    <ele>497.76000000000005</ele>
   </trkpt>
   <trkpt lat="-37.87491" lon="145.34258">
    <ele>499.43</ele>
   </trkpt>
   <trkpt lat="-37.87485" lon="145.34268">
    <ele>499.43</ele>
   </trkpt>
   <trkpt lat="-37.87511000000001" lon="145.34298">
    <ele>500.48999999999995</ele>
   </trkpt>
   <trkpt lat="-37.87523" lon="145.34291000000002">
    <ele>500.65999999999997</ele>
   </trkpt>
   <trkpt lat="-37.87541" lon="145.34295">
    <ele>501.12</ele>
   </trkpt>
   <trkpt lat="-37.875510000000006" lon="145.34301000000002">
    <ele>501.43</ele>
   </trkpt>
   <trkpt lat="-37.87574" lon="145.34297">
    <ele>520.99</ele>
   </trkpt>
   <trkpt lat="-37.87585" lon="145.34284000000002">
    <ele>520.83</ele>
   </trkpt>
   <trkpt lat="-37.87599" lon="145.34278">
    <ele>520.81</ele>
   </trkpt>
   <trkpt lat="-37.8763" lon="145.34273000000002">
    <ele>520.8000000000001</ele>
   </trkpt>
   <trkpt lat="-37.87688" lon="145.3428">
    <ele>519.97</ele>
   </trkpt>
   <trkpt lat="-37.87722" lon="145.34272">
    <ele>521.6</ele>
   </trkpt>
   <trkpt lat="-37.87778" lon="145.34271">
    <ele>521.7700000000001</ele>
   </trkpt>
   <trkpt lat="-37.87791" lon="145.34269">
    <ele>521.66</ele>
   </trkpt>
   <trkpt lat="-37.87807" lon="145.34255000000002">
    <ele>522.58</ele>
   </trkpt>
   <trkpt lat="-37.87832" lon="145.34217">
    <ele>524.93</ele>
   </trkpt>
   <trkpt lat="-37.87847" lon="145.34209">
    <ele>523.66</ele>
   </trkpt>
   <trkpt lat="-37.87856" lon="145.34212000000002">
    <ele>522.21</ele>
   </trkpt>
   <trkpt lat="-37.8787" lon="145.34225">
    <ele>516.61</ele>
   </trkpt>
   <trkpt lat="-37.87874" lon="145.34236">
    <ele>516.61</ele>
   </trkpt>
   <trkpt lat="-37.878690000000006" lon="145.34248000000002">
    <ele>514.78</ele>
   </trkpt>
   <trkpt lat="-37.87865" lon="145.34264000000002">
    <ele>513.09</ele>
   </trkpt>
   <trkpt lat="-37.87865" lon="145.34273000000002">
    <ele>512.8900000000001</ele>
   </trkpt>
   <trkpt lat="-37.87877" lon="145.34292000000002">
    <ele>514.11</ele>
   </trkpt>
   <trkpt lat="-37.87892" lon="145.34343">
    <ele>516.83</ele>
   </trkpt>
   <trkpt lat="-37.879070000000006" lon="145.34405">
    <ele>517.58</ele>
   </trkpt>
   <trkpt lat="-37.87919" lon="145.34452000000002">
    <ele>516.98</ele>
   </trkpt>
   <trkpt lat="-37.87944" lon="145.34486">
    <ele>519.42</ele>
   </trkpt>
   <trkpt lat="-37.87973" lon="145.34534000000002">
    <ele>518.97</ele>
   </trkpt>
   <trkpt lat="-37.88007500116351" lon="145.34583999781185">
    <ele>517.0</ele>
   </trkpt>
   <trkpt lat="-37.88042" lon="145.34634">
    <ele>514.7</ele>
   </trkpt>
   <trkpt lat="-37.88067" lon="145.34663">
    <ele>514.0600000000001</ele>
   </trkpt>
   <trkpt lat="-37.880860000000006" lon="145.34682">
    <ele>513.76</ele>
   </trkpt>
   <trkpt lat="-37.88105" lon="145.34695000000002">
    <ele>513.49</ele>
   </trkpt>
   <trkpt lat="-37.88154" lon="145.34723000000002">
    <ele>511.83</ele>
   </trkpt>
   <trkpt lat="-37.88167" lon="145.34744">
    <ele>510.87000000000006</ele>
   </trkpt>
   <trkpt lat="-37.88201" lon="145.34819000000002">
    <ele>506.77000000000004</ele>
   </trkpt>
   <trkpt lat="-37.88226" lon="145.34839000000002">
    <ele>505.8</ele>
   </trkpt>
   <trkpt lat="-37.88255" lon="145.34856000000002">
    <ele>505.53999999999996</ele>
   </trkpt>
   <trkpt lat="-37.88302" lon="145.3487">
    <ele>506.31</ele>
   </trkpt>
   <trkpt lat="-37.88311" lon="145.34876">
    <ele>506.43000000000006</ele>
   </trkpt>
   <trkpt lat="-37.8836" lon="145.34926000000002">
    <ele>506.33000000000004</ele>
   </trkpt>
   <trkpt lat="-37.88405" lon="145.34945000000002">
    <ele>506.29</ele>
   </trkpt>
   <trkpt lat="-37.88436" lon="145.34969">
    <ele>506.11000000000007</ele>
   </trkpt>
   <trkpt lat="-37.88438" lon="145.34971000000002">
    <ele>506.11000000000007</ele>
   </trkpt>
   <trkpt lat="-37.884370000000004" lon="145.3497">
    <ele>506.11000000000007</ele>
   </trkpt>
   <trkpt lat="-37.88456" lon="145.35004">
    <ele>504.71</ele>
   </trkpt>
   <trkpt lat="-37.88461" lon="145.35017000000002">
    <ele>503.4700000000001</ele>
   </trkpt>
   <trkpt lat="-37.884640000000005" lon="145.35035000000002">
    <ele>502.88</ele>
   </trkpt>
   <trkpt lat="-37.88461" lon="145.35046">
    <ele>502.6</ele>
   </trkpt>
   <trkpt lat="-37.88461" lon="145.35066">
    <ele>501.70000000000005</ele>
   </trkpt>
   <trkpt lat="-37.884730000000005" lon="145.35098000000002">
    <ele>501.01000000000005</ele>
   </trkpt>
   <trkpt lat="-37.88456" lon="145.35107000000002">
    <ele>501.01000000000005</ele>
   </trkpt>
   <trkpt lat="-37.88443" lon="145.35108000000002">
    <ele>484.27000000000004</ele>
   </trkpt>
   <trkpt lat="-37.88418" lon="145.35115000000002">
    <ele>479.82</ele>
   </trkpt>
   <trkpt lat="-37.88385" lon="145.3513">
    <ele>469.59000000000003</ele>
   </trkpt>
   <trkpt lat="-37.88369" lon="145.35151000000002">
    <ele>471.30000000000007</ele>
   </trkpt>
   <trkpt lat="-37.88353" lon="145.35180000000003">
    <ele>474.55</ele>
   </trkpt>
   <trkpt lat="-37.88342" lon="145.35195000000002">
    <ele>476.07000000000005</ele>
   </trkpt>
   <trkpt lat="-37.88311" lon="145.35219">
    <ele>477.76</ele>
   </trkpt>
   <trkpt lat="-37.883" lon="145.35234">
    <ele>478.6</ele>
   </trkpt>
   <trkpt lat="-37.882850000000005" lon="145.35267000000002">
    <ele>481.68000000000006</ele>
   </trkpt>
   <trkpt lat="-37.88284" lon="145.3527">
    <ele>481.62000000000006</ele>
   </trkpt>
   <trkpt lat="-37.88266" lon="145.3531">
    <ele>485.30000000000007</ele>
   </trkpt>
   <trkpt lat="-37.88266" lon="145.35319">
    <ele>485.86</ele>
   </trkpt>
   <trkpt lat="-37.88282" lon="145.35356000000002">
    <ele>490.28000000000003</ele>
   </trkpt>
   <trkpt lat="-37.88291" lon="145.35394000000002">
    <ele>492.81</ele>
   </trkpt>
   <trkpt lat="-37.88293" lon="145.35439000000002">
    <ele>496.97</ele>
   </trkpt>
   <trkpt lat="-37.88315" lon="145.35522">
    <ele>503.05</ele>
   </trkpt>
   <trkpt lat="-37.88318" lon="145.3554">
    <ele>505.36999999999995</ele>
   </trkpt>
   <trkpt lat="-37.88302" lon="145.35574000000003">
    <ele>506.18000000000006</ele>
   </trkpt>
   <trkpt lat="-37.88288" lon="145.35593">
    <ele>506.45000000000005</ele>
   </trkpt>
   <trkpt lat="-37.88266" lon="145.35619">
    <ele>506.21999999999997</ele>
   </trkpt>
   <trkpt lat="-37.88244" lon="145.35639">
    <ele>504.70000000000005</ele>
   </trkpt>
   <trkpt lat="-37.88226" lon="145.35667">
    <ele>503.16</ele>
   </trkpt>
   <trkpt lat="-37.88212" lon="145.35702">
    <ele>502.4200000000001</ele>
   </trkpt>
   <trkpt lat="-37.88183" lon="145.35763">
    <ele>500.68</ele>
   </trkpt>
   <trkpt lat="-37.88161" lon="145.35798">
    <ele>495.72</ele>
   </trkpt>
   <trkpt lat="-37.8815" lon="145.35811">
    <ele>495.72</ele>
   </trkpt>
   <trkpt lat="-37.88138" lon="145.35829">
    <ele>492.91</ele>
   </trkpt>
   <trkpt lat="-37.881310000000006" lon="145.35844">
    <ele>492.17</ele>
   </trkpt>
   <trkpt lat="-37.881310000000006" lon="145.35843">
    <ele>492.2</ele>
   </trkpt>
   <trkpt lat="-37.88123" lon="145.35861">
    <ele>491.33000000000004</ele>
   </trkpt>
   <trkpt lat="-37.881190000000004" lon="145.35876000000002">
    <ele>491.08</ele>
   </trkpt>
   <trkpt lat="-37.88103" lon="145.35904000000002">
    <ele>493.27000000000004</ele>
   </trkpt>
   <trkpt lat="-37.88094" lon="145.35907">
    <ele>493.89000000000004</ele>
   </trkpt>
   <trkpt lat="-37.8808" lon="145.35903000000002">
    <ele>494.98</ele>
   </trkpt>
   <trkpt lat="-37.88051" lon="145.35909">
    <ele>492.89000000000004</ele>
   </trkpt>
   <trkpt lat="-37.88033" lon="145.3591">
    <ele>491.61</ele>
   </trkpt>
   <trkpt lat="-37.8802" lon="145.35908">
    <ele>490.65000000000003</ele>
   </trkpt>
   <trkpt lat="-37.88006" lon="145.35903000000002">
    <ele>489.54</ele>
   </trkpt>
   <trkpt lat="-37.87991" lon="145.35891">
    <ele>487.49</ele>
   </trkpt>
   <trkpt lat="-37.87975" lon="145.35876000000002">
    <ele>486.30000000000007</ele>
   </trkpt>
   <trkpt lat="-37.87919" lon="145.35846">
    <ele>483.94000000000005</ele>
   </trkpt>
   <trkpt lat="-37.87876" lon="145.35842000000002">
    <ele>482.9700000000001</ele>
   </trkpt>
   <trkpt lat="-37.87856" lon="145.35833000000002">
    <ele>481.51000000000005</ele>
   </trkpt>
   <trkpt lat="-37.87834" lon="145.35811">
    <ele>479.40000000000003</ele>
   </trkpt>
   <trkpt lat="-37.87818" lon="145.35801">
    <ele>476.08000000000004</ele>
   </trkpt>
   <trkpt lat="-37.87798" lon="145.35797000000002">
    <ele>474.29</ele>
   </trkpt>
   <trkpt lat="-37.8778" lon="145.35791">
    <ele>473.36000000000007</ele>
   </trkpt>
   <trkpt lat="-37.8776" lon="145.35774">
    <ele>469.33000000000004</ele>
   </trkpt>
   <trkpt lat="-37.87733" lon="145.35716000000002">
    <ele>464.28000000000003</ele>
   </trkpt>
   <trkpt lat="-37.877130001267915" lon="145.356624998701">
    <ele>459.85</ele>
   </trkpt>
   <trkpt lat="-37.87693" lon="145.35609000000002">
    <ele>457.84000000000003</ele>
   </trkpt>
   <trkpt lat="-37.87666" lon="145.35527000000002">
    <ele>461.03000000000003</ele>
   </trkpt>
   <trkpt lat="-37.87666" lon="145.35511000000002">
    <ele>463.34000000000003</ele>
   </trkpt>
   <trkpt lat="-37.8767" lon="145.35494">
    <ele>465.40000000000003</ele>
   </trkpt>
   <trkpt lat="-37.87684" lon="145.35466000000002">
    <ele>468.1</ele>
   </trkpt>
   <trkpt lat="-37.87702" lon="145.35441">
    <ele>470.17</ele>
   </trkpt>
   <trkpt lat="-37.87731" lon="145.35406">
    <ele>472.66</ele>
   </trkpt>
   <trkpt lat="-37.8776" lon="145.35354">
    <ele>475.08000000000004</ele>
   </trkpt>
   <trkpt lat="-37.87773" lon="145.35335">
    <ele>476.44</ele>
   </trkpt>
   <trkpt lat="-37.87782" lon="145.35314000000002">
    <ele>477.87</ele>
   </trkpt>
   <trkpt lat="-37.87816" lon="145.35258000000002">
    <ele>480.15000000000003</ele>
   </trkpt>
   <trkpt lat="-37.87827" lon="145.35227">
    <ele>482.09000000000003</ele>
   </trkpt>
   <trkpt lat="-37.87832" lon="145.35207000000003">
    <ele>482.09000000000003</ele>
   </trkpt>
   <trkpt lat="-37.87841" lon="145.3519">
    <ele>482.76</ele>
   </trkpt>
   <trkpt lat="-37.878600000000006" lon="145.35126000000002">
    <ele>485.17</ele>
   </trkpt>
   <trkpt lat="-37.87859" lon="145.35128">
    <ele>485.22</ele>
   </trkpt>
   <trkpt lat="-37.87876" lon="145.35029">
    <ele>489.34000000000003</ele>
   </trkpt>
   <trkpt lat="-37.87872" lon="145.34991000000002">
    <ele>490.81</ele>
   </trkpt>
   <trkpt lat="-37.87847" lon="145.34895">
    <ele>493.12000000000006</ele>
   </trkpt>
   <trkpt lat="-37.87825" lon="145.34847000000002">
    <ele>496.66</ele>
   </trkpt>
   <trkpt lat="-37.878040000000006" lon="145.34804000000003">
    <ele>499.44000000000005</ele>
   </trkpt>
   <trkpt lat="-37.87794" lon="145.34774000000002">
    <ele>501.6</ele>
   </trkpt>
   <trkpt lat="-37.87776" lon="145.34745">
    <ele>503.69000000000005</ele>
   </trkpt>
   <trkpt lat="-37.87758" lon="145.34729000000002">
    <ele>504.62000000000006</ele>
   </trkpt>
   <trkpt lat="-37.87726" lon="145.34721000000002">
    <ele>505.2000000000001</ele>
   </trkpt>
   <trkpt lat="-37.876760000000004" lon="145.34722000000002">
    <ele>505.5200000000001</ele>
   </trkpt>
   <trkpt lat="-37.877030000000005" lon="145.34687000000002">
    <ele>504.89000000000004</ele>
   </trkpt>
   <trkpt lat="-37.87704" lon="145.34686000000002">
    <ele>504.88</ele>
   </trkpt>
   <trkpt lat="-37.87677" lon="145.34722000000002">
    <ele>525.0</ele>
   </trkpt>
   <trkpt lat="-37.87688" lon="145.34705000000002">
    <ele>505.33000000000004</ele>
   </trkpt>
   <trkpt lat="-37.87702" lon="145.34689">
    <ele>504.87</ele>
   </trkpt>
   <trkpt lat="-37.87726" lon="145.34634">
    <ele>506.36</ele>
   </trkpt>
   <trkpt lat="-37.877570000000006" lon="145.34542000000002">
    <ele>510.72</ele>
   </trkpt>
   <trkpt lat="-37.87767" lon="145.34526000000002">
    <ele>511.71</ele>
   </trkpt>
   <trkpt lat="-37.87794" lon="145.34497000000002">
    <ele>513.88</ele>
   </trkpt>
   <trkpt lat="-37.878" lon="145.34487000000001">
    <ele>513.95</ele>
   </trkpt>
   <trkpt lat="-37.878040000000006" lon="145.34474">
    <ele>513.7900000000001</ele>
   </trkpt>
   <trkpt lat="-37.87805" lon="145.34458">
    <ele>513.54</ele>
   </trkpt>
   <trkpt lat="-37.87807" lon="145.34451">
    <ele>513.49</ele>
   </trkpt>
   <trkpt lat="-37.87814" lon="145.34448">
    <ele>513.49</ele>
   </trkpt>
   <trkpt lat="-37.87827" lon="145.34451">
    <ele>513.73</ele>
   </trkpt>
   <trkpt lat="-37.87836" lon="145.34455">
    <ele>514.21</ele>
   </trkpt>
   <trkpt lat="-37.87843" lon="145.34463000000002">
    <ele>514.59</ele>
   </trkpt>
   <trkpt lat="-37.878420000000006" lon="145.34463000000002">
    <ele>514.59</ele>
   </trkpt>
   <trkpt lat="-37.87861" lon="145.34490000000002">
    <ele>517.12</ele>
   </trkpt>
   <trkpt lat="-37.87876" lon="145.34495">
    <ele>516.99</ele>
   </trkpt>
   <trkpt lat="-37.87888" lon="145.34482">
    <ele>515.94</ele>
   </trkpt>
   <trkpt lat="-37.8789" lon="145.34474">
    <ele>516.12</ele>
   </trkpt>
   <trkpt lat="-37.87914" lon="145.34452000000002">
    <ele>516.98</ele>
   </trkpt>
   <trkpt lat="-37.87919" lon="145.34452000000002">
    <ele>516.98</ele>
   </trkpt>
   <trkpt lat="-37.879070000000006" lon="145.34405">
    <ele>517.58</ele>
   </trkpt>
   <trkpt lat="-37.87892" lon="145.34343">
    <ele>516.54</ele>
   </trkpt>
   <trkpt lat="-37.87877" lon="145.34292000000002">
    <ele>514.12</ele>
   </trkpt>
   <trkpt lat="-37.87865" lon="145.34273000000002">
    <ele>513.09</ele>
   </trkpt>
   <trkpt lat="-37.87865" lon="145.34264000000002">
    <ele>513.45</ele>
   </trkpt>
   <trkpt lat="-37.878690000000006" lon="145.34248000000002">
    <ele>514.78</ele>
   </trkpt>
   <trkpt lat="-37.87874" lon="145.34236">
    <ele>516.61</ele>
   </trkpt>
   <trkpt lat="-37.8787" lon="145.34225">
    <ele>521.34</ele>
   </trkpt>
   <trkpt lat="-37.87856" lon="145.34212000000002">
    <ele>522.99</ele>
   </trkpt>
   <trkpt lat="-37.87847" lon="145.34209">
    <ele>524.19</ele>
   </trkpt>
   <trkpt lat="-37.87832" lon="145.34217">
    <ele>524.8900000000001</ele>
   </trkpt>
   <trkpt lat="-37.87807" lon="145.34255000000002">
    <ele>522.24</ele>
   </trkpt>
   <trkpt lat="-37.87791" lon="145.34269">
    <ele>521.69</ele>
   </trkpt>
   <trkpt lat="-37.87778" lon="145.34271">
    <ele>522.09</ele>
   </trkpt>
   <trkpt lat="-37.87722" lon="145.34272">
    <ele>521.5000000000001</ele>
   </trkpt>
   <trkpt lat="-37.87688" lon="145.3428">
    <ele>519.82</ele>
   </trkpt>
   <trkpt lat="-37.8763" lon="145.34273000000002">
    <ele>520.8000000000001</ele>
   </trkpt>
   <trkpt lat="-37.87599" lon="145.34278">
    <ele>520.8000000000001</ele>
   </trkpt>
   <trkpt lat="-37.87585" lon="145.34284000000002">
    <ele>520.83</ele>
   </trkpt>
   <trkpt lat="-37.87574" lon="145.34297">
    <ele>520.99</ele>
   </trkpt>
   <trkpt lat="-37.875510000000006" lon="145.34301000000002">
    <ele>501.43</ele>
   </trkpt>
   <trkpt lat="-37.87541" lon="145.34295">
    <ele>501.12</ele>
   </trkpt>
   <trkpt lat="-37.87523" lon="145.34291000000002">
    <ele>500.65999999999997</ele>
   </trkpt>
   <trkpt lat="-37.87511000000001" lon="145.34298">
    <ele>500.48</ele>
   </trkpt>
   <trkpt lat="-37.874500000000005" lon="145.34228000000002">
    <ele>495.37</ele>
   </trkpt>
   <trkpt lat="-37.8744" lon="145.34218">
    <ele>494.56000000000006</ele>
   </trkpt>
   <trkpt lat="-37.87406" lon="145.34185000000002">
    <ele>492.61</ele>
   </trkpt>
   <trkpt lat="-37.87375" lon="145.34193000000002">
    <ele>494.83000000000004</ele>
   </trkpt>
   <trkpt lat="-37.8735" lon="145.34204000000003">
    <ele>498.91</ele>
   </trkpt>
   <trkpt lat="-37.87326" lon="145.34212000000002">
    <ele>500.21999999999997</ele>
   </trkpt>
   <trkpt lat="-37.87288" lon="145.34221000000002">
    <ele>504.13000000000005</ele>
   </trkpt>
   <trkpt lat="-37.87274" lon="145.34221000000002">
    <ele>505.0300000000001</ele>
   </trkpt>
   <trkpt lat="-37.872730000000004" lon="145.34221000000002">
    <ele>505.0300000000001</ele>
   </trkpt>
   <trkpt lat="-37.87247" lon="145.34207">
    <ele>506.2300000000001</ele>
   </trkpt>
   <trkpt lat="-37.872115001891856" lon="145.342745003319">
    <ele>511.6</ele>
   </trkpt>
   <trkpt lat="-37.87176" lon="145.34342">
    <ele>512.0100000000001</ele>
   </trkpt>
   <trkpt lat="-37.871460000000006" lon="145.34382000000002">
    <ele>508.34000000000003</ele>
   </trkpt>
   <trkpt lat="-37.87147" lon="145.34382000000002">
    <ele>508.39</ele>
   </trkpt>
   <trkpt lat="-37.871140000000004" lon="145.34425000000002">
    <ele>505.05</ele>
   </trkpt>
   <trkpt lat="-37.870830000000005" lon="145.34461000000002">
    <ele>506.51</ele>
   </trkpt>
   <trkpt lat="-37.870630000000006" lon="145.34474">
    <ele>508.99000000000007</ele>
   </trkpt>
   <trkpt lat="-37.87035" lon="145.34482">
    <ele>511.29</ele>
   </trkpt>
   <trkpt lat="-37.87024" lon="145.34483">
    <ele>513.05</ele>
   </trkpt>
   <trkpt lat="-37.86983" lon="145.34474">
    <ele>518.0</ele>
   </trkpt>
   <trkpt lat="-37.86956" lon="145.34455">
    <ele>512.34</ele>
   </trkpt>
   <trkpt lat="-37.86907" lon="145.34435000000002">
    <ele>504.27</ele>
   </trkpt>
   <trkpt lat="-37.86889" lon="145.34432">
    <ele>502.74000000000007</ele>
   </trkpt>
   <trkpt lat="-37.86862" lon="145.34431">
    <ele>499.8</ele>
   </trkpt>
   <trkpt lat="-37.86844" lon="145.34437">
    <ele>498.14000000000004</ele>
   </trkpt>
   <trkpt lat="-37.868080000000006" lon="145.34441">
    <ele>495.53000000000003</ele>
   </trkpt>
   <trkpt lat="-37.86741" lon="145.34451">
    <ele>488.11</ele>
   </trkpt>
   <trkpt lat="-37.86697" lon="145.34459">
    <ele>482.81</ele>
   </trkpt>
   <trkpt lat="-37.86621" lon="145.34518">
    <ele>470.67</ele>
   </trkpt>
   <trkpt lat="-37.86594" lon="145.34547">
    <ele>475.32</ele>
   </trkpt>
   <trkpt lat="-37.86589" lon="145.34556">
    <ele>477.53000000000003</ele>
   </trkpt>
   <trkpt lat="-37.866" lon="145.34601">
    <ele>488.57000000000005</ele>
   </trkpt>
   <trkpt lat="-37.86598" lon="145.34626">
    <ele>493.33000000000004</ele>
   </trkpt>
   <trkpt lat="-37.86589" lon="145.34647">
    <ele>497.07000000000005</ele>
   </trkpt>
   <trkpt lat="-37.8659" lon="145.34657">
    <ele>498.70000000000005</ele>
   </trkpt>
   <trkpt lat="-37.865370000000006" lon="145.34673">
    <ele>503.33000000000004</ele>
   </trkpt>
   <trkpt lat="-37.86493" lon="145.34701">
    <ele>508.34000000000003</ele>
   </trkpt>
   <trkpt lat="-37.86482" lon="145.34718">
    <ele>509.9600000000001</ele>
   </trkpt>
   <trkpt lat="-37.864810000000006" lon="145.34757000000002">
    <ele>514.37</ele>
   </trkpt>
   <trkpt lat="-37.86484" lon="145.34797">
    <ele>518.25</ele>
   </trkpt>
   <trkpt lat="-37.86491" lon="145.34814">
    <ele>521.7400000000001</ele>
   </trkpt>
   <trkpt lat="-37.86497" lon="145.34822">
    <ele>523.47</ele>
   </trkpt>
   <trkpt lat="-37.86491" lon="145.34857000000002">
    <ele>522.05</ele>
   </trkpt>
   <trkpt lat="-37.864590003317254" lon="145.34945500382844">
    <ele>515.08</ele>
   </trkpt>
   <trkpt lat="-37.864270000000005" lon="145.35034000000002">
    <ele>504.9800000000001</ele>
   </trkpt>
   <trkpt lat="-37.86428" lon="145.35033">
    <ele>505.09999999999997</ele>
   </trkpt>
   <trkpt lat="-37.86417" lon="145.35060000000001">
    <ele>500.44</ele>
   </trkpt>
   <trkpt lat="-37.8641" lon="145.35074">
    <ele>498.51000000000005</ele>
   </trkpt>
   <trkpt lat="-37.8641" lon="145.35089000000002">
    <ele>497.53000000000003</ele>
   </trkpt>
   <trkpt lat="-37.864050000000006" lon="145.35102">
    <ele>496.45000000000005</ele>
   </trkpt>
   <trkpt lat="-37.86379" lon="145.35118">
    <ele>487.29</ele>
   </trkpt>
   <trkpt lat="-37.86368" lon="145.35119">
    <ele>483.90000000000003</ele>
   </trkpt>
   <trkpt lat="-37.86359" lon="145.35126000000002">
    <ele>482.08000000000004</ele>
   </trkpt>
   <trkpt lat="-37.8635" lon="145.3513">
    <ele>480.59000000000003</ele>
   </trkpt>
   <trkpt lat="-37.863420000000005" lon="145.35147">
    <ele>478.02000000000004</ele>
   </trkpt>
   <trkpt lat="-37.8633" lon="145.35153000000003">
    <ele>477.30000000000007</ele>
   </trkpt>
   <trkpt lat="-37.863200000000006" lon="145.35161000000002">
    <ele>476.25000000000006</ele>
   </trkpt>
   <trkpt lat="-37.86312" lon="145.35169000000002">
    <ele>476.06</ele>
   </trkpt>
   <trkpt lat="-37.86309" lon="145.35176">
    <ele>476.17</ele>
   </trkpt>
   <trkpt lat="-37.86312" lon="145.35186000000002">
    <ele>476.33000000000004</ele>
   </trkpt>
   <trkpt lat="-37.86340500158147" lon="145.3524799975066">
    <ele>478.32</ele>
   </trkpt>
   <trkpt lat="-37.863690000000005" lon="145.3531">
    <ele>476.6</ele>
   </trkpt>
   <trkpt lat="-37.863280000265625" lon="145.35339500171483">
    <ele>476.77000000000004</ele>
   </trkpt>
   <trkpt lat="-37.86287" lon="145.35369">
    <ele>478.67</ele>
   </trkpt>
   <trkpt lat="-37.86285" lon="145.35369">
    <ele>478.74000000000007</ele>
   </trkpt>
   <trkpt lat="-37.86265" lon="145.35319">
    <ele>476.34000000000003</ele>
   </trkpt>
   <trkpt lat="-37.86258" lon="145.35298">
    <ele>475.07000000000005</ele>
   </trkpt>
   <trkpt lat="-37.862570000000005" lon="145.35281">
    <ele>474.23</ele>
   </trkpt>
   <trkpt lat="-37.862460000000006" lon="145.35279">
    <ele>473.03000000000003</ele>
   </trkpt>
   <trkpt lat="-37.8624" lon="145.35274">
    <ele>473.03000000000003</ele>
   </trkpt>
   <trkpt lat="-37.862190000000005" lon="145.3522">
    <ele>469.4200000000001</ele>
   </trkpt>
   <trkpt lat="-37.86218" lon="145.35177000000002">
    <ele>467.5</ele>
   </trkpt>
   <trkpt lat="-37.8622" lon="145.3514">
    <ele>462.62</ele>
   </trkpt>
   <trkpt lat="-37.86256" lon="145.35098000000002">
    <ele>457.14000000000004</ele>
   </trkpt>
   <trkpt lat="-37.86258" lon="145.35084">
    <ele>455.31000000000006</ele>
   </trkpt>
   <trkpt lat="-37.86285" lon="145.35058">
    <ele>450.56</ele>
   </trkpt>
   <trkpt lat="-37.863150000000005" lon="145.34997">
    <ele>443.32000000000005</ele>
   </trkpt>
   <trkpt lat="-37.86318" lon="145.3494">
    <ele>437.48</ele>
   </trkpt>
   <trkpt lat="-37.86316" lon="145.34895">
    <ele>430.54</ele>
   </trkpt>
   <trkpt lat="-37.86316" lon="145.34836">
    <ele>425.15000000000003</ele>
   </trkpt>
   <trkpt lat="-37.86312" lon="145.34826">
    <ele>422.91</ele>
   </trkpt>
   <trkpt lat="-37.86296" lon="145.34810000000002">
    <ele>421.06000000000006</ele>
   </trkpt>
   <trkpt lat="-37.8626" lon="145.34789">
    <ele>417.7</ele>
   </trkpt>
   <trkpt lat="-37.862610000000004" lon="145.34789">
    <ele>417.7</ele>
   </trkpt>
   <trkpt lat="-37.86245" lon="145.34777000000003">
    <ele>415.06000000000006</ele>
   </trkpt>
   <trkpt lat="-37.8622" lon="145.34749000000002">
    <ele>412.05</ele>
   </trkpt>
   <trkpt lat="-37.86206" lon="145.34726">
    <ele>412.05</ele>
   </trkpt>
   <trkpt lat="-37.86202" lon="145.34712000000002">
    <ele>402.41</ele>
   </trkpt>
   <trkpt lat="-37.86193" lon="145.34642000000002">
    <ele>397.96000000000004</ele>
   </trkpt>
   <trkpt lat="-37.86209" lon="145.34566">
    <ele>392.09000000000003</ele>
   </trkpt>
   <trkpt lat="-37.86213" lon="145.34550000000002">
    <ele>390.95</ele>
   </trkpt>
   <trkpt lat="-37.86238" lon="145.34501">
    <ele>386.46000000000004</ele>
   </trkpt>
   <trkpt lat="-37.86253" lon="145.34477">
    <ele>382.43000000000006</ele>
   </trkpt>
   <trkpt lat="-37.862840000000006" lon="145.3444">
    <ele>379.52000000000004</ele>
   </trkpt>
   <trkpt lat="-37.86305" lon="145.34406">
    <ele>376.62</ele>
   </trkpt>
   <trkpt lat="-37.86307" lon="145.34395">
    <ele>376.14000000000004</ele>
   </trkpt>
   <trkpt lat="-37.86303" lon="145.34388">
    <ele>375.98</ele>
   </trkpt>
   <trkpt lat="-37.86296" lon="145.34383000000003">
    <ele>375.63</ele>
   </trkpt>
   <trkpt lat="-37.86231" lon="145.34352">
    <ele>371.64000000000004</ele>
   </trkpt>
   <trkpt lat="-37.86184" lon="145.34336000000002">
    <ele>368.66</ele>
   </trkpt>
   <trkpt lat="-37.86168" lon="145.34332">
    <ele>367.27000000000004</ele>
   </trkpt>
   <trkpt lat="-37.861520000000006" lon="145.34317000000001">
    <ele>366.25</ele>
   </trkpt>
   <trkpt lat="-37.86139" lon="145.34300000000002">
    <ele>364.75</ele>
   </trkpt>
   <trkpt lat="-37.86128" lon="145.34276">
    <ele>363.41</ele>
   </trkpt>
   <trkpt lat="-37.86121" lon="145.34249">
    <ele>362.42</ele>
   </trkpt>
   <trkpt lat="-37.86108" lon="145.3417">
    <ele>357.62000000000006</ele>
   </trkpt>
   <trkpt lat="-37.86097" lon="145.34123000000002">
    <ele>352.28000000000003</ele>
   </trkpt>
   <trkpt lat="-37.86092" lon="145.34113000000002">
    <ele>352.28000000000003</ele>
   </trkpt>
   <trkpt lat="-37.8603" lon="145.34063">
    <ele>347.17</ele>
   </trkpt>
   <trkpt lat="-37.86012" lon="145.34056">
    <ele>345.22</ele>
   </trkpt>
   <trkpt lat="-37.859460000000006" lon="145.34061">
    <ele>336.26</ele>
   </trkpt>
   <trkpt lat="-37.85927" lon="145.34058000000002">
    <ele>335.24</ele>
   </trkpt>
   <trkpt lat="-37.85913" lon="145.34049000000002">
    <ele>333.1</ele>
   </trkpt>
   <trkpt lat="-37.85902" lon="145.34036">
    <ele>331.54</ele>
   </trkpt>
   <trkpt lat="-37.85868" lon="145.33979000000002">
    <ele>325.51</ele>
   </trkpt>
   <trkpt lat="-37.85858" lon="145.33952000000002">
    <ele>322.52000000000004</ele>
   </trkpt>
   <trkpt lat="-37.85857" lon="145.33950000000002">
    <ele>322.52000000000004</ele>
   </trkpt>
   <trkpt lat="-37.85829000198364" lon="145.33880999730616">
    <ele>316.52000000000004</ele>
   </trkpt>
   <trkpt lat="-37.85801" lon="145.33812">
    <ele>308.21000000000004</ele>
   </trkpt>
   <trkpt lat="-37.85788" lon="145.33765000000002">
    <ele>304.47</ele>
   </trkpt>
   <trkpt lat="-37.85772" lon="145.33722">
    <ele>299.27000000000004</ele>
   </trkpt>
   <trkpt lat="-37.85768" lon="145.33698">
    <ele>295.64</ele>
   </trkpt>
   <trkpt lat="-37.85768" lon="145.33674000000002">
    <ele>295.64</ele>
   </trkpt>
   <trkpt lat="-37.85777" lon="145.33627">
    <ele>290.00000000000006</ele>
   </trkpt>
   <trkpt lat="-37.85808" lon="145.33543">
    <ele>281.73</ele>
   </trkpt>
   <trkpt lat="-37.8581" lon="145.33530000000002">
    <ele>281.73</ele>
   </trkpt>
   <trkpt lat="-37.8581" lon="145.33489">
    <ele>277.18</ele>
   </trkpt>
   <trkpt lat="-37.8581" lon="145.33487000000002">
    <ele>277.18</ele>
   </trkpt>
   <trkpt lat="-37.8581" lon="145.33454">
    <ele>274.12</ele>
   </trkpt>
   <trkpt lat="-37.857980000000005" lon="145.33416000000003">
    <ele>269.0</ele>
   </trkpt>
   <trkpt lat="-37.857960000000006" lon="145.33415000000002">
    <ele>268.94</ele>
   </trkpt>
   <trkpt lat="-37.85821" lon="145.33414000000002">
    <ele>271.08000000000004</ele>
   </trkpt>
   <trkpt lat="-37.85833" lon="145.33419">
    <ele>272.68</ele>
   </trkpt>
   <trkpt lat="-37.85844" lon="145.33431000000002">
    <ele>273.43</ele>
   </trkpt>
   <trkpt lat="-37.85887500137247" lon="145.3348699967549">
    <ele>277.49</ele>
   </trkpt>
   <trkpt lat="-37.85931" lon="145.33543">
    <ele>285.72</ele>
   </trkpt>
   <trkpt lat="-37.85965" lon="145.33569">
    <ele>287.49</ele>
   </trkpt>
   <trkpt lat="-37.85996" lon="145.33583000000002">
    <ele>291.42</ele>
   </trkpt>
   <trkpt lat="-37.860260000000004" lon="145.3359">
    <ele>295.14</ele>
   </trkpt>
   <trkpt lat="-37.86025" lon="145.3359">
    <ele>295.14</ele>
   </trkpt>
   <trkpt lat="-37.86065" lon="145.33601000000002">
    <ele>298.69</ele>
   </trkpt>
   <trkpt lat="-37.8609" lon="145.33604000000003">
    <ele>298.97</ele>
   </trkpt>
   <trkpt lat="-37.86164" lon="145.33602000000002">
    <ele>298.25</ele>
   </trkpt>
   <trkpt lat="-37.86204" lon="145.33606">
    <ele>301.00000000000006</ele>
   </trkpt>
   <trkpt lat="-37.86231" lon="145.33606">
    <ele>302.62</ele>
   </trkpt>
   <trkpt lat="-37.86292" lon="145.33596">
    <ele>304.35</ele>
   </trkpt>
   <trkpt lat="-37.86303" lon="145.33592000000002">
    <ele>304.09000000000003</ele>
   </trkpt>
   <trkpt lat="-37.86309" lon="145.33587">
    <ele>303.49</ele>
   </trkpt>
   <trkpt lat="-37.86314" lon="145.3357">
    <ele>303.17</ele>
   </trkpt>
   <trkpt lat="-37.86309" lon="145.33556000000002">
    <ele>302.91</ele>
   </trkpt>
   <trkpt lat="-37.8628" lon="145.33489">
    <ele>302.73</ele>
   </trkpt>
   <trkpt lat="-37.86242" lon="145.33416000000003">
    <ele>302.29</ele>
   </trkpt>
   <trkpt lat="-37.86236" lon="145.33393">
    <ele>302.08</ele>
   </trkpt>
   <trkpt lat="-37.86227" lon="145.33360000000002">
    <ele>301.56000000000006</ele>
   </trkpt>
   <trkpt lat="-37.86224" lon="145.33325000000002">
    <ele>301.36</ele>
   </trkpt>
   <trkpt lat="-37.86224" lon="145.33262000000002">
    <ele>301.67</ele>
   </trkpt>
   <trkpt lat="-37.86227" lon="145.33246000000003">
    <ele>301.67</ele>
   </trkpt>
   <trkpt lat="-37.86236" lon="145.33227000000002">
    <ele>301.75</ele>
   </trkpt>
   <trkpt lat="-37.862480000000005" lon="145.33209000000002">
    <ele>301.97</ele>
   </trkpt>
   <trkpt lat="-37.8628" lon="145.33177">
    <ele>302.74</ele>
   </trkpt>
   <trkpt lat="-37.86294" lon="145.33152">
    <ele>303.07</ele>
   </trkpt>
   <trkpt lat="-37.86303" lon="145.33113">
    <ele>303.69</ele>
   </trkpt>
   <trkpt lat="-37.86316" lon="145.33042">
    <ele>303.74</ele>
   </trkpt>
   <trkpt lat="-37.86332" lon="145.33006">
    <ele>303.98</ele>
   </trkpt>
   <trkpt lat="-37.86341" lon="145.32991">
    <ele>304.74</ele>
   </trkpt>
   <trkpt lat="-37.86352" lon="145.3298">
    <ele>304.74</ele>
   </trkpt>
   <trkpt lat="-37.86361" lon="145.32976000000002">
    <ele>304.99</ele>
   </trkpt>
   <trkpt lat="-37.86403" lon="145.32975000000002">
    <ele>307.44000000000005</ele>
   </trkpt>
   <trkpt lat="-37.86424" lon="145.32978">
    <ele>308.56</ele>
   </trkpt>
   <trkpt lat="-37.86446" lon="145.32988">
    <ele>309.03000000000003</ele>
   </trkpt>
   <trkpt lat="-37.86459" lon="145.32996">
    <ele>310.76000000000005</ele>
   </trkpt>
   <trkpt lat="-37.86475" lon="145.33010000000002">
    <ele>310.76000000000005</ele>
   </trkpt>
   <trkpt lat="-37.8652" lon="145.33063">
    <ele>314.06</ele>
   </trkpt>
   <trkpt lat="-37.86565" lon="145.33109000000002">
    <ele>318.0</ele>
   </trkpt>
   <trkpt lat="-37.86587" lon="145.33126000000001">
    <ele>319.33</ele>
   </trkpt>
   <trkpt lat="-37.86612" lon="145.3314">
    <ele>321.52000000000004</ele>
   </trkpt>
   <trkpt lat="-37.86627" lon="145.33148">
    <ele>321.52000000000004</ele>
   </trkpt>
   <trkpt lat="-37.86639" lon="145.3315">
    <ele>322.57</ele>
   </trkpt>
   <trkpt lat="-37.86638000000001" lon="145.3315">
    <ele>322.57</ele>
   </trkpt>
   <trkpt lat="-37.86672" lon="145.33155000000002">
    <ele>324.62</ele>
   </trkpt>
   <trkpt lat="-37.86728" lon="145.33145000000002">
    <ele>328.62</ele>
   </trkpt>
   <trkpt lat="-37.8675" lon="145.33145000000002">
    <ele>329.83</ele>
   </trkpt>
   <trkpt lat="-37.867720000000006" lon="145.33149">
    <ele>330.76000000000005</ele>
   </trkpt>
   <trkpt lat="-37.86815" lon="145.3317">
    <ele>332.5</ele>
   </trkpt>
   <trkpt lat="-37.86838" lon="145.33186">
    <ele>333.61</ele>
   </trkpt>
   <trkpt lat="-37.86858" lon="145.33205">
    <ele>334.90000000000003</ele>
   </trkpt>
   <trkpt lat="-37.86869" lon="145.33223">
    <ele>335.48</ele>
   </trkpt>
   <trkpt lat="-37.86891" lon="145.33268">
    <ele>338.93</ele>
   </trkpt>
   <trkpt lat="-37.86896" lon="145.33297000000002">
    <ele>341.61</ele>
   </trkpt>
   <trkpt lat="-37.86898" lon="145.33323000000001">
    <ele>342.54</ele>
   </trkpt>
   <trkpt lat="-37.868950000000005" lon="145.33354">
    <ele>341.42</ele>
   </trkpt>
   <trkpt lat="-37.868950000000005" lon="145.33355">
    <ele>341.40000000000003</ele>
   </trkpt>
   <trkpt lat="-37.86903" lon="145.33386000000002">
    <ele>340.85</ele>
   </trkpt>
   <trkpt lat="-37.86925" lon="145.33411">
    <ele>340.26</ele>
   </trkpt>
   <trkpt lat="-37.86959" lon="145.33418">
    <ele>339.0</ele>
   </trkpt>
   <trkpt lat="-37.86992" lon="145.3343">
    <ele>336.44</ele>
   </trkpt>
   <trkpt lat="-37.87022" lon="145.33425000000003">
    <ele>335.51000000000005</ele>
   </trkpt>
   <trkpt lat="-37.87024" lon="145.33442000000002">
    <ele>340.89000000000004</ele>
   </trkpt>
   <trkpt lat="-37.87026" lon="145.33449000000002">
    <ele>340.89000000000004</ele>
   </trkpt>
   <trkpt lat="-37.870450000000005" lon="145.33465">
    <ele>349.66</ele>
   </trkpt>
   <trkpt lat="-37.87055" lon="145.33518">
    <ele>358.78000000000003</ele>
   </trkpt>
   <trkpt lat="-37.870340000000006" lon="145.33562">
    <ele>371.79</ele>
   </trkpt>
   <trkpt lat="-37.87035" lon="145.3356">
    <ele>371.63</ele>
   </trkpt>
   <trkpt lat="-37.8701" lon="145.33595000000003">
    <ele>379.13</ele>
   </trkpt>
   <trkpt lat="-37.87019" lon="145.33630000000002">
    <ele>388.84000000000003</ele>
   </trkpt>
   <trkpt lat="-37.87019" lon="145.3368">
    <ele>401.86000000000007</ele>
   </trkpt>
   <trkpt lat="-37.87024" lon="145.33688">
    <ele>402.91</ele>
   </trkpt>
   <trkpt lat="-37.87048" lon="145.33697">
    <ele>406.36000000000007</ele>
   </trkpt>
   <trkpt lat="-37.87077" lon="145.33726000000001">
    <ele>414.34000000000003</ele>
   </trkpt>
   <trkpt lat="-37.87091" lon="145.33758">
    <ele>419.39000000000004</ele>
   </trkpt>
   <trkpt lat="-37.871100000000006" lon="145.33779">
    <ele>423.78000000000003</ele>
   </trkpt>
   <trkpt lat="-37.87115" lon="145.33794">
    <ele>426.2</ele>
   </trkpt>
   <trkpt lat="-37.87118" lon="145.33812">
    <ele>431.31</ele>
   </trkpt>
   <trkpt lat="-37.87113" lon="145.33831">
    <ele>433.74</ele>
   </trkpt>
   <trkpt lat="-37.871" lon="145.33853000000002">
    <ele>439.46000000000004</ele>
   </trkpt>
   <trkpt lat="-37.87091" lon="145.33863000000002">
    <ele>447.59000000000003</ele>
   </trkpt>
   <trkpt lat="-37.87079000000001" lon="145.33871000000002">
    <ele>447.59000000000003</ele>
   </trkpt>
   <trkpt lat="-37.87078" lon="145.33871000000002">
    <ele>447.68</ele>
   </trkpt>
   <trkpt lat="-37.87088" lon="145.33873">
    <ele>447.32000000000005</ele>
   </trkpt>
   <trkpt lat="-37.87109" lon="145.33881000000002">
    <ele>447.26000000000005</ele>
   </trkpt>
   <trkpt lat="-37.87122" lon="145.33881000000002">
    <ele>447.25</ele>
   </trkpt>
   <trkpt lat="-37.87135" lon="145.33871000000002">
    <ele>446.64000000000004</ele>
   </trkpt>
   <trkpt lat="-37.87158" lon="145.33859">
    <ele>444.74</ele>
   </trkpt>
   <trkpt lat="-37.87194" lon="145.3386">
    <ele>442.20000000000005</ele>
   </trkpt>
   <trkpt lat="-37.87207" lon="145.33867">
    <ele>441.66</ele>
   </trkpt>
   <trkpt lat="-37.87229" lon="145.33889000000002">
    <ele>441.12</ele>
   </trkpt>
   <trkpt lat="-37.87245" lon="145.339">
    <ele>442.38000000000005</ele>
   </trkpt>
   <trkpt lat="-37.87261" lon="145.33905000000001">
    <ele>447.17</ele>
   </trkpt>
   <trkpt lat="-37.87279" lon="145.33904">
    <ele>453.32000000000005</ele>
   </trkpt>
   <trkpt lat="-37.87292" lon="145.33882">
    <ele>457.26000000000005</ele>
   </trkpt>
   <trkpt lat="-37.87297" lon="145.33867">
    <ele>459.58000000000004</ele>
   </trkpt>
   <trkpt lat="-37.87301" lon="145.33865">
    <ele>458.91</ele>
   </trkpt>
   <trkpt lat="-37.872980000000005" lon="145.33846">
    <ele>456.83</ele>
   </trkpt>
   <trkpt lat="-37.87297" lon="145.33844000000002">
    <ele>456.79</ele>
   </trkpt>
   <trkpt lat="-37.87292" lon="145.33817000000002">
    <ele>452.01</ele>
   </trkpt>
   <trkpt lat="-37.87292" lon="145.33796">
    <ele>450.25000000000006</ele>
   </trkpt>
   <trkpt lat="-37.872690000000006" lon="145.33731">
    <ele>437.47</ele>
   </trkpt>
   <trkpt lat="-37.8725" lon="145.33711000000002">
    <ele>430.86</ele>
   </trkpt>
   <trkpt lat="-37.87223" lon="145.33666000000002">
    <ele>417.15000000000003</ele>
   </trkpt>
   <trkpt lat="-37.87210500361126" lon="145.33573499837775">
    <ele>412.94</ele>
   </trkpt>
   <trkpt lat="-37.87198" lon="145.33481">
    <ele>407.64000000000004</ele>
   </trkpt>
   <trkpt lat="-37.87198" lon="145.33461">
    <ele>404.20000000000005</ele>
   </trkpt>
   <trkpt lat="-37.87207" lon="145.33435">
    <ele>403.79</ele>
   </trkpt>
   <trkpt lat="-37.87223" lon="145.33415000000002">
    <ele>401.79</ele>
   </trkpt>
   <trkpt lat="-37.87234" lon="145.33406000000002">
    <ele>400.65</ele>
   </trkpt>
   <trkpt lat="-37.87247" lon="145.33399">
    <ele>397.5400000000001</ele>
   </trkpt>
   <trkpt lat="-37.872600000000006" lon="145.33388000000002">
    <ele>395.47</ele>
   </trkpt>
   <trkpt lat="-37.8729" lon="145.33347">
    <ele>391.81000000000006</ele>
   </trkpt>
   <trkpt lat="-37.87303" lon="145.33321">
    <ele>389.76000000000005</ele>
   </trkpt>
   <trkpt lat="-37.873050000000006" lon="145.33307000000002">
    <ele>387.96000000000004</ele>
   </trkpt>
   <trkpt lat="-37.873050000000006" lon="145.33306000000002">
    <ele>387.96000000000004</ele>
   </trkpt>
   <trkpt lat="-37.872890000000005" lon="145.3325">
    <ele>378.44000000000005</ele>
   </trkpt>
   <trkpt lat="-37.87301" lon="145.33226000000002">
    <ele>378.67</ele>
   </trkpt>
   <trkpt lat="-37.87301" lon="145.33218000000002">
    <ele>378.76000000000005</ele>
   </trkpt>
   <trkpt lat="-37.87297" lon="145.33206">
    <ele>379.47</ele>
   </trkpt>
   <trkpt lat="-37.87279" lon="145.33183000000002">
    <ele>381.58000000000004</ele>
   </trkpt>
   <trkpt lat="-37.87263" lon="145.33171000000002">
    <ele>382.45</ele>
   </trkpt>
   <trkpt lat="-37.87236" lon="145.33138000000002">
    <ele>384.71000000000004</ele>
   </trkpt>
   <trkpt lat="-37.87225" lon="145.33113">
    <ele>385.55</ele>
   </trkpt>
   <trkpt lat="-37.87219" lon="145.33061">
    <ele>387.23</ele>
   </trkpt>
   <trkpt lat="-37.87223" lon="145.33017">
    <ele>391.47</ele>
   </trkpt>
   <trkpt lat="-37.87227" lon="145.33004000000003">
    <ele>392.94</ele>
   </trkpt>
   <trkpt lat="-37.87223" lon="145.32968000000002">
    <ele>393.41</ele>
   </trkpt>
   <trkpt lat="-37.87221" lon="145.32961">
    <ele>392.94</ele>
   </trkpt>
   <trkpt lat="-37.87223" lon="145.32968000000002">
    <ele>393.41</ele>
   </trkpt>
   <trkpt lat="-37.87227" lon="145.33004000000003">
    <ele>408.39000000000004</ele>
   </trkpt>
   <trkpt lat="-37.87223" lon="145.32968000000002">
    <ele>393.19000000000005</ele>
   </trkpt>
   <trkpt lat="-37.87216" lon="145.32951">
    <ele>392.5</ele>
   </trkpt>
   <trkpt lat="-37.87196" lon="145.32921000000002">
    <ele>391.26000000000005</ele>
   </trkpt>
   <trkpt lat="-37.8718" lon="145.32905000000002">
    <ele>392.8</ele>
   </trkpt>
   <trkpt lat="-37.87171" lon="145.32889">
    <ele>395.46000000000004</ele>
   </trkpt>
   <trkpt lat="-37.87169" lon="145.32861000000003">
    <ele>399.40000000000003</ele>
   </trkpt>
   <trkpt lat="-37.87158" lon="145.32842000000002">
    <ele>405.39000000000004</ele>
   </trkpt>
   <trkpt lat="-37.8714" lon="145.32824000000002">
    <ele>409.42</ele>
   </trkpt>
   <trkpt lat="-37.87131" lon="145.32817">
    <ele>410.44</ele>
   </trkpt>
   <trkpt lat="-37.871" lon="145.32801">
    <ele>413.81</ele>
   </trkpt>
   <trkpt lat="-37.87062" lon="145.32791">
    <ele>419.2</ele>
   </trkpt>
   <trkpt lat="-37.87035" lon="145.32771000000002">
    <ele>428.02</ele>
   </trkpt>
   <trkpt lat="-37.87024" lon="145.32759000000001">
    <ele>428.02</ele>
   </trkpt>
   <trkpt lat="-37.870160000000006" lon="145.32745">
    <ele>433.20000000000005</ele>
   </trkpt>
   <trkpt lat="-37.87008" lon="145.32731">
    <ele>435.14000000000004</ele>
   </trkpt>
   <trkpt lat="-37.87003" lon="145.32713">
    <ele>437.66</ele>
   </trkpt>
   <trkpt lat="-37.87001" lon="145.32697000000002">
    <ele>439.77000000000004</ele>
   </trkpt>
   <trkpt lat="-37.87003" lon="145.32679000000002">
    <ele>441.72</ele>
   </trkpt>
   <trkpt lat="-37.87006" lon="145.32671000000002">
    <ele>443.11000000000007</ele>
   </trkpt>
   <trkpt lat="-37.87024" lon="145.32659">
    <ele>447.8</ele>
   </trkpt>
   <trkpt lat="-37.87053" lon="145.32625000000002">
    <ele>453.26000000000005</ele>
   </trkpt>
   <trkpt lat="-37.870720000000006" lon="145.32623">
    <ele>457.97</ele>
   </trkpt>
   <trkpt lat="-37.87082" lon="145.32609000000002">
    <ele>462.0400000000001</ele>
   </trkpt>
   <trkpt lat="-37.87093" lon="145.32597">
    <ele>463.9800000000001</ele>
   </trkpt>
   <trkpt lat="-37.87104" lon="145.32594">
    <ele>463.9800000000001</ele>
   </trkpt>
   <trkpt lat="-37.87124" lon="145.32594">
    <ele>470.46000000000004</ele>
   </trkpt>
   <trkpt lat="-37.871320000000004" lon="145.32590000000002">
    <ele>471.79</ele>
   </trkpt>
   <trkpt lat="-37.87131" lon="145.32591000000002">
    <ele>471.79</ele>
   </trkpt>
   <trkpt lat="-37.87142" lon="145.32584">
    <ele>471.79</ele>
   </trkpt>
   <trkpt lat="-37.87171" lon="145.32548">
    <ele>481.46000000000004</ele>
   </trkpt>
   <trkpt lat="-37.871750000000006" lon="145.32506">
    <ele>480.16</ele>
   </trkpt>
   <trkpt lat="-37.87184500277681" lon="145.32425000102566">
    <ele>473.09000000000003</ele>
   </trkpt>
   <trkpt lat="-37.87194" lon="145.32344">
    <ele>463.25000000000006</ele>
   </trkpt>
   <trkpt lat="-37.871880000000004" lon="145.32333">
    <ele>460.08000000000004</ele>
   </trkpt>
   <trkpt lat="-37.87185" lon="145.3232">
    <ele>457.06</ele>
   </trkpt>
   <trkpt lat="-37.87187" lon="145.32276000000002">
    <ele>457.42</ele>
   </trkpt>
   <trkpt lat="-37.871840000000006" lon="145.32255">
    <ele>459.24</ele>
   </trkpt>
   <trkpt lat="-37.87178" lon="145.32256">
    <ele>457.98</ele>
   </trkpt>
   <trkpt lat="-37.87169" lon="145.32248">
    <ele>456.85</ele>
   </trkpt>
   <trkpt lat="-37.87127" lon="145.32199">
    <ele>453.41</ele>
   </trkpt>
   <trkpt lat="-37.87102" lon="145.32180000000002">
    <ele>451.54</ele>
   </trkpt>
   <trkpt lat="-37.87086" lon="145.32168000000001">
    <ele>450.91</ele>
   </trkpt>
   <trkpt lat="-37.87046" lon="145.3213">
    <ele>446.05000000000007</ele>
   </trkpt>
   <trkpt lat="-37.87023000000001" lon="145.32102">
    <ele>442.77000000000004</ele>
   </trkpt>
   <trkpt lat="-37.87001" lon="145.32003">
    <ele>429.51000000000005</ele>
   </trkpt>
   <trkpt lat="-37.86992" lon="145.31986">
    <ele>429.51000000000005</ele>
   </trkpt>
   <trkpt lat="-37.86974" lon="145.3196">
    <ele>422.67</ele>
   </trkpt>
   <trkpt lat="-37.86965" lon="145.31935000000001">
    <ele>420.64</ele>
   </trkpt>
   <trkpt lat="-37.86947" lon="145.31873000000002">
    <ele>415.03000000000003</ele>
   </trkpt>
   <trkpt lat="-37.86943" lon="145.31849000000003">
    <ele>414.55</ele>
   </trkpt>
   <trkpt lat="-37.869510000000005" lon="145.31796">
    <ele>412.65000000000003</ele>
   </trkpt>
   <trkpt lat="-37.8697" lon="145.31744">
    <ele>408.2</ele>
   </trkpt>
   <trkpt lat="-37.869710000000005" lon="145.31743">
    <ele>408.13000000000005</ele>
   </trkpt>
   <trkpt lat="-37.87006" lon="145.31660000000002">
    <ele>395.39</ele>
   </trkpt>
   <trkpt lat="-37.87041" lon="145.31596000000002">
    <ele>394.93000000000006</ele>
   </trkpt>
   <trkpt lat="-37.8705" lon="145.31583">
    <ele>395.49</ele>
   </trkpt>
   <trkpt lat="-37.87059" lon="145.31573">
    <ele>396.43000000000006</ele>
   </trkpt>
   <trkpt lat="-37.871" lon="145.31558">
    <ele>401.19000000000005</ele>
   </trkpt>
   <trkpt lat="-37.871190000000006" lon="145.31547">
    <ele>402.31000000000006</ele>
   </trkpt>
   <trkpt lat="-37.871" lon="145.31480000000002">
    <ele>393.3</ele>
   </trkpt>
   <trkpt lat="-37.87064" lon="145.31427000000002">
    <ele>387.06</ele>
   </trkpt>
   <trkpt lat="-37.87055" lon="145.31419000000002">
    <ele>387.06</ele>
   </trkpt>
   <trkpt lat="-37.87055" lon="145.31418000000002">
    <ele>387.09000000000003</ele>
   </trkpt>
   <trkpt lat="-37.8708850015987" lon="145.31355500294111">
    <ele>392.67</ele>
   </trkpt>
   <trkpt lat="-37.87122" lon="145.31293000000002">
    <ele>390.24</ele>
   </trkpt>
   <trkpt lat="-37.87133" lon="145.3128">
    <ele>386.42</ele>
   </trkpt>
   <trkpt lat="-37.87165" lon="145.31262">
    <ele>378.38000000000005</ele>
   </trkpt>
   <trkpt lat="-37.87174" lon="145.31253">
    <ele>373.70000000000005</ele>
   </trkpt>
   <trkpt lat="-37.87182" lon="145.31231000000002">
    <ele>369.91</ele>
   </trkpt>
   <trkpt lat="-37.87187" lon="145.31222000000002">
    <ele>367.83000000000004</ele>
   </trkpt>
   <trkpt lat="-37.871880000000004" lon="145.31222000000002">
    <ele>367.63</ele>
   </trkpt>
   <trkpt lat="-37.87201" lon="145.31204000000002">
    <ele>361.59000000000003</ele>
   </trkpt>
   <trkpt lat="-37.87227" lon="145.31188">
    <ele>352.77000000000004</ele>
   </trkpt>
   <trkpt lat="-37.87236" lon="145.31185000000002">
    <ele>350.67</ele>
   </trkpt>
   <trkpt lat="-37.87245" lon="145.31188">
    <ele>349.14</ele>
   </trkpt>
   <trkpt lat="-37.87254" lon="145.31198">
    <ele>347.76</ele>
   </trkpt>
   <trkpt lat="-37.87259" lon="145.31212000000002">
    <ele>347.88</ele>
   </trkpt>
   <trkpt lat="-37.87254" lon="145.31233">
    <ele>348.96000000000004</ele>
   </trkpt>
   <trkpt lat="-37.87229" lon="145.31288">
    <ele>355.29</ele>
   </trkpt>
   <trkpt lat="-37.87227" lon="145.31307">
    <ele>357.44000000000005</ele>
   </trkpt>
   <trkpt lat="-37.87229" lon="145.31326">
    <ele>359.41</ele>
   </trkpt>
   <trkpt lat="-37.87241" lon="145.3135">
    <ele>361.62000000000006</ele>
   </trkpt>
   <trkpt lat="-37.872600000000006" lon="145.31367">
    <ele>363.12000000000006</ele>
   </trkpt>
   <trkpt lat="-37.87288" lon="145.31377">
    <ele>366.79</ele>
   </trkpt>
   <trkpt lat="-37.873020000000004" lon="145.31377">
    <ele>367.68</ele>
   </trkpt>
   <trkpt lat="-37.87303" lon="145.31378">
    <ele>367.68</ele>
   </trkpt>
   <trkpt lat="-37.87344" lon="145.31381000000002">
    <ele>369.00000000000006</ele>
   </trkpt>
   <trkpt lat="-37.87366" lon="145.31386">
    <ele>369.33000000000004</ele>
   </trkpt>
   <trkpt lat="-37.8742" lon="145.31409000000002">
    <ele>370.81</ele>
   </trkpt>
   <trkpt lat="-37.87447" lon="145.31404">
    <ele>372.51</ele>
   </trkpt>
   <trkpt lat="-37.87489" lon="145.31387">
    <ele>376.79</ele>
   </trkpt>
   <trkpt lat="-37.87532" lon="145.31391000000002">
    <ele>379.8</ele>
   </trkpt>
   <trkpt lat="-37.8757" lon="145.31402">
    <ele>381.73</ele>
   </trkpt>
   <trkpt lat="-37.87585" lon="145.31401000000002">
    <ele>385.18</ele>
   </trkpt>
   <trkpt lat="-37.87635" lon="145.31387">
    <ele>388.8</ele>
   </trkpt>
   <trkpt lat="-37.87684" lon="145.31383000000002">
    <ele>395.39</ele>
   </trkpt>
   <trkpt lat="-37.87729" lon="145.31387">
    <ele>402.66</ele>
   </trkpt>
   <trkpt lat="-37.87753" lon="145.31387">
    <ele>404.39000000000004</ele>
   </trkpt>
   <trkpt lat="-37.87776" lon="145.31391000000002">
    <ele>408.22</ele>
   </trkpt>
   <trkpt lat="-37.877770000000005" lon="145.31392000000002">
    <ele>408.22</ele>
   </trkpt>
   <trkpt lat="-37.87796" lon="145.31396">
    <ele>409.89000000000004</ele>
   </trkpt>
   <trkpt lat="-37.87838" lon="145.31409000000002">
    <ele>414.5</ele>
   </trkpt>
   <trkpt lat="-37.87883000008877" lon="145.31413999970323">
    <ele>419.74000000000007</ele>
   </trkpt>
   <trkpt lat="-37.87928" lon="145.31419000000002">
    <ele>422.34000000000003</ele>
   </trkpt>
   <trkpt lat="-37.87948" lon="145.31417000000002">
    <ele>424.45000000000005</ele>
   </trkpt>
   <trkpt lat="-37.87946" lon="145.31428000000002">
    <ele>424.27000000000004</ele>
   </trkpt>
   <trkpt lat="-37.87939" lon="145.31436000000002">
    <ele>424.21000000000004</ele>
   </trkpt>
   <trkpt lat="-37.87915" lon="145.31446000000003">
    <ele>424.24000000000007</ele>
   </trkpt>
   <trkpt lat="-37.87926" lon="145.31445000000002">
    <ele>423.82</ele>
   </trkpt>
   <trkpt lat="-37.87915" lon="145.31446000000003">
    <ele>424.24000000000007</ele>
   </trkpt>
   <trkpt lat="-37.87885" lon="145.31461000000002">
    <ele>425.76</ele>
   </trkpt>
   <trkpt lat="-37.878600000000006" lon="145.31485">
    <ele>428.58</ele>
   </trkpt>
   <trkpt lat="-37.87829" lon="145.31506000000002">
    <ele>434.24</ele>
   </trkpt>
   <trkpt lat="-37.87791" lon="145.31546">
    <ele>440.19</ele>
   </trkpt>
   <trkpt lat="-37.87778" lon="145.31557">
    <ele>440.19</ele>
   </trkpt>
   <trkpt lat="-37.87753" lon="145.31569000000002">
    <ele>444.40000000000003</ele>
   </trkpt>
   <trkpt lat="-37.87735" lon="145.31589000000002">
    <ele>445.36</ele>
   </trkpt>
   <trkpt lat="-37.87693" lon="145.31661000000003">
    <ele>454.91</ele>
   </trkpt>
   <trkpt lat="-37.87682" lon="145.31683">
    <ele>456.05</ele>
   </trkpt>
   <trkpt lat="-37.87668" lon="145.31728">
    <ele>463.16</ele>
   </trkpt>
   <trkpt lat="-37.8765" lon="145.31794000000002">
    <ele>469.75000000000006</ele>
   </trkpt>
   <trkpt lat="-37.87651" lon="145.31792000000002">
    <ele>469.62</ele>
   </trkpt>
   <trkpt lat="-37.87641" lon="145.31827">
    <ele>473.83000000000004</ele>
   </trkpt>
   <trkpt lat="-37.87608" lon="145.31889">
    <ele>479.52000000000004</ele>
   </trkpt>
   <trkpt lat="-37.87583" lon="145.31924">
    <ele>482.78000000000003</ele>
   </trkpt>
   <trkpt lat="-37.87547" lon="145.31965000000002">
    <ele>487.04</ele>
   </trkpt>
   <trkpt lat="-37.87536" lon="145.31973000000002">
    <ele>487.7</ele>
   </trkpt>
   <trkpt lat="-37.87507" lon="145.32012">
    <ele>490.2900000000001</ele>
   </trkpt>
   <trkpt lat="-37.87498" lon="145.32019000000003">
    <ele>490.93</ele>
   </trkpt>
   <trkpt lat="-37.87489" lon="145.3202">
    <ele>491.33000000000004</ele>
   </trkpt>
   <trkpt lat="-37.874880000000005" lon="145.3202">
    <ele>491.40000000000003</ele>
   </trkpt>
   <trkpt lat="-37.87473" lon="145.32017000000002">
    <ele>493.1</ele>
   </trkpt>
   <trkpt lat="-37.87442" lon="145.32003">
    <ele>495.64</ele>
   </trkpt>
   <trkpt lat="-37.87415" lon="145.32003">
    <ele>498.53000000000003</ele>
   </trkpt>
   <trkpt lat="-37.874" lon="145.32000000000002">
    <ele>501.33000000000004</ele>
   </trkpt>
   <trkpt lat="-37.87355" lon="145.31979">
    <ele>506.19</ele>
   </trkpt>
   <trkpt lat="-37.87328" lon="145.3197">
    <ele>510.61</ele>
   </trkpt>
   <trkpt lat="-37.87303" lon="145.31965000000002">
    <ele>511.85</ele>
   </trkpt>
   <trkpt lat="-37.87275" lon="145.31964000000002">
    <ele>513.36</ele>
   </trkpt>
  </trkseg>
 </trk>
</gpx>
