<?xml version="1.0" encoding="UTF-8"?>
<gpx creator="StravaGPX" version="1.1" xmlns="http://www.topografix.com/GPX/1/1" xmlns:xsi="http://www.w3.org/2001/XMLSchema-instance" xsi:schemaLocation="http://www.topografix.com/GPX/1/1 http://www.topografix.com/GPX/1/1/gpx.xsd">
 <metadata>
  <name>DTR 7 Feb Extra 10k</name>
  <author>
   <name>john csorgo</name>
  </author>
  <copyright author="OpenStreetMap contributors">
   <year>2020</year>
   <license>https://www.openstreetmap.org/copyright</license>
  </copyright>
 </metadata>
 <trk>
  <name>DTR 7 Feb Extra 10k</name>
  <link href=""/>
  <type>running</type>
  <trkseg>
   <trkpt lat="-37.86281" lon="145.35359000000003">
    <ele>478.30000000000007</ele>
   </trkpt>
   <trkpt lat="-37.86265" lon="145.35319">
    <ele>476.34000000000003</ele>
   </trkpt>
   <trkpt lat="-37.86258" lon="145.35298">
    <ele>475.07000000000005</ele>
   </trkpt>
   <trkpt lat="-37.862570000000005" lon="145.35281">
    <ele>474.23</ele>
   </trkpt>
   <trkpt lat="-37.862460000000006" lon="145.35279">
    <ele>473.03000000000003</ele>
   </trkpt>
   <trkpt lat="-37.8624" lon="145.35274">
    <ele>473.03000000000003</ele>
   </trkpt>
   <trkpt lat="-37.862190000000005" lon="145.3522">
    <ele>469.4200000000001</ele>
   </trkpt>
   <trkpt lat="-37.86218" lon="145.35177000000002">
    <ele>467.5</ele>
   </trkpt>
   <trkpt lat="-37.8622" lon="145.3514">
    <ele>462.62</ele>
   </trkpt>
   <trkpt lat="-37.86256" lon="145.35098000000002">
    <ele>458.92</ele>
   </trkpt>
   <trkpt lat="-37.86258" lon="145.35084">
    <ele>454.27000000000004</ele>
   </trkpt>
   <trkpt lat="-37.862660000000005" lon="145.35077">
    <ele>454.27000000000004</ele>
   </trkpt>
   <trkpt lat="-37.862660000000005" lon="145.35076">
    <ele>454.17</ele>
   </trkpt>
   <trkpt lat="-37.86285" lon="145.35058">
    <ele>450.56</ele>
   </trkpt>
   <trkpt lat="-37.863150000000005" lon="145.34997">
    <ele>443.32000000000005</ele>
   </trkpt>
   <trkpt lat="-37.86318" lon="145.3494">
    <ele>437.48</ele>
   </trkpt>
   <trkpt lat="-37.86316" lon="145.34895">
    <ele>430.54</ele>
   </trkpt>
   <trkpt lat="-37.86316" lon="145.34836">
    <ele>425.15000000000003</ele>
   </trkpt>
   <trkpt lat="-37.86312" lon="145.34826">
    <ele>422.91</ele>
   </trkpt>
   <trkpt lat="-37.86296" lon="145.34810000000002">
    <ele>421.06000000000006</ele>
   </trkpt>
   <trkpt lat="-37.86256" lon="145.34787">
    <ele>417.24000000000007</ele>
   </trkpt>
   <trkpt lat="-37.86245" lon="145.34777000000003">
    <ele>415.53000000000003</ele>
   </trkpt>
   <trkpt lat="-37.8622" lon="145.34749000000002">
    <ele>412.05</ele>
   </trkpt>
   <trkpt lat="-37.86206" lon="145.34726">
    <ele>412.05</ele>
   </trkpt>
   <trkpt lat="-37.86202" lon="145.34712000000002">
    <ele>402.41</ele>
   </trkpt>
   <trkpt lat="-37.86193" lon="145.34642000000002">
    <ele>397.96000000000004</ele>
   </trkpt>
   <trkpt lat="-37.86209" lon="145.34566">
    <ele>392.09000000000003</ele>
   </trkpt>
   <trkpt lat="-37.86213" lon="145.34550000000002">
    <ele>390.95</ele>
   </trkpt>
   <trkpt lat="-37.86238" lon="145.34501">
    <ele>386.46000000000004</ele>
   </trkpt>
   <trkpt lat="-37.86253" lon="145.34477">
    <ele>382.43000000000006</ele>
   </trkpt>
   <trkpt lat="-37.862840000000006" lon="145.3444">
    <ele>379.52000000000004</ele>
   </trkpt>
   <trkpt lat="-37.86305" lon="145.34406">
    <ele>376.62</ele>
   </trkpt>
   <trkpt lat="-37.86307" lon="145.34395">
    <ele>376.14000000000004</ele>
   </trkpt>
   <trkpt lat="-37.86303" lon="145.34388">
    <ele>375.98</ele>
   </trkpt>
   <trkpt lat="-37.86296" lon="145.34383000000003">
    <ele>375.63</ele>
   </trkpt>
   <trkpt lat="-37.86231" lon="145.34352">
    <ele>371.64000000000004</ele>
   </trkpt>
   <trkpt lat="-37.86168" lon="145.34332">
    <ele>367.32000000000005</ele>
   </trkpt>
   <trkpt lat="-37.86166" lon="145.34329000000002">
    <ele>367.32000000000005</ele>
   </trkpt>
   <trkpt lat="-37.861520000000006" lon="145.34317000000001">
    <ele>366.25</ele>
   </trkpt>
   <trkpt lat="-37.86139" lon="145.34300000000002">
    <ele>364.75</ele>
   </trkpt>
   <trkpt lat="-37.86128" lon="145.34276">
    <ele>363.41</ele>
   </trkpt>
   <trkpt lat="-37.86121" lon="145.34249">
    <ele>362.42</ele>
   </trkpt>
   <trkpt lat="-37.86108" lon="145.3417">
    <ele>357.62000000000006</ele>
   </trkpt>
   <trkpt lat="-37.86097" lon="145.34123000000002">
    <ele>352.28000000000003</ele>
   </trkpt>
   <trkpt lat="-37.86092" lon="145.34113000000002">
    <ele>352.28000000000003</ele>
   </trkpt>
   <trkpt lat="-37.860780000000005" lon="145.341">
    <ele>351.96000000000004</ele>
   </trkpt>
   <trkpt lat="-37.86086" lon="145.34071">
    <ele>356.39000000000004</ele>
   </trkpt>
   <trkpt lat="-37.86112" lon="145.34012">
    <ele>376.54</ele>
   </trkpt>
   <trkpt lat="-37.86117" lon="145.3399">
    <ele>385.01</ele>
   </trkpt>
   <trkpt lat="-37.86117" lon="145.33978000000002">
    <ele>388.74</ele>
   </trkpt>
   <trkpt lat="-37.86115" lon="145.33973">
    <ele>390.21000000000004</ele>
   </trkpt>
   <trkpt lat="-37.86081" lon="145.33949">
    <ele>392.95</ele>
   </trkpt>
   <trkpt lat="-37.86056" lon="145.33914000000001">
    <ele>393.17</ele>
   </trkpt>
   <trkpt lat="-37.86054" lon="145.33901">
    <ele>393.35</ele>
   </trkpt>
   <trkpt lat="-37.86054" lon="145.339">
    <ele>393.35</ele>
   </trkpt>
   <trkpt lat="-37.8605" lon="145.33886">
    <ele>393.86</ele>
   </trkpt>
   <trkpt lat="-37.860510000000005" lon="145.33876">
    <ele>394.52000000000004</ele>
   </trkpt>
   <trkpt lat="-37.86075" lon="145.33882">
    <ele>388.66</ele>
   </trkpt>
   <trkpt lat="-37.86074" lon="145.33889000000002">
    <ele>388.58000000000004</ele>
   </trkpt>
   <trkpt lat="-37.86095" lon="145.33902">
    <ele>392.27</ele>
   </trkpt>
   <trkpt lat="-37.86106" lon="145.33905000000001">
    <ele>396.39</ele>
   </trkpt>
   <trkpt lat="-37.86095" lon="145.33902">
    <ele>392.27</ele>
   </trkpt>
   <trkpt lat="-37.86074" lon="145.33889000000002">
    <ele>397.70000000000005</ele>
   </trkpt>
   <trkpt lat="-37.86095" lon="145.33902">
    <ele>395.71</ele>
   </trkpt>
   <trkpt lat="-37.86168" lon="145.33925000000002">
    <ele>410.28000000000003</ele>
   </trkpt>
   <trkpt lat="-37.8622" lon="145.33963">
    <ele>420.94000000000005</ele>
   </trkpt>
   <trkpt lat="-37.8624" lon="145.33981">
    <ele>424.74000000000007</ele>
   </trkpt>
   <trkpt lat="-37.862860000000005" lon="145.34025000000003">
    <ele>438.58000000000004</ele>
   </trkpt>
   <trkpt lat="-37.86318" lon="145.33996000000002">
    <ele>437.20000000000005</ele>
   </trkpt>
   <trkpt lat="-37.86354" lon="145.33979000000002">
    <ele>434.35</ele>
   </trkpt>
   <trkpt lat="-37.86375" lon="145.33974">
    <ele>432.18</ele>
   </trkpt>
   <trkpt lat="-37.863760000000006" lon="145.33974">
    <ele>432.1</ele>
   </trkpt>
   <trkpt lat="-37.8641" lon="145.33975">
    <ele>429.7300000000001</ele>
   </trkpt>
   <trkpt lat="-37.8645" lon="145.33989000000003">
    <ele>426.43</ele>
   </trkpt>
   <trkpt lat="-37.86464" lon="145.33988000000002">
    <ele>425.19</ele>
   </trkpt>
   <trkpt lat="-37.86475" lon="145.33980000000003">
    <ele>422.33000000000004</ele>
   </trkpt>
   <trkpt lat="-37.86486" lon="145.33964">
    <ele>420.8</ele>
   </trkpt>
   <trkpt lat="-37.86495" lon="145.33935000000002">
    <ele>420.21000000000004</ele>
   </trkpt>
   <trkpt lat="-37.86506" lon="145.33889000000002">
    <ele>418.09000000000003</ele>
   </trkpt>
   <trkpt lat="-37.86528500203525" lon="145.33821000183474">
    <ele>414.97</ele>
   </trkpt>
   <trkpt lat="-37.86551" lon="145.33753000000002">
    <ele>415.17</ele>
   </trkpt>
   <trkpt lat="-37.86567" lon="145.33691000000002">
    <ele>415.25</ele>
   </trkpt>
   <trkpt lat="-37.865680000000005" lon="145.33691000000002">
    <ele>415.25</ele>
   </trkpt>
   <trkpt lat="-37.865750000000006" lon="145.33665000000002">
    <ele>415.39000000000004</ele>
   </trkpt>
   <trkpt lat="-37.86585" lon="145.33585000000002">
    <ele>417.31</ele>
   </trkpt>
   <trkpt lat="-37.865860000000005" lon="145.33549000000002">
    <ele>419.63000000000005</ele>
   </trkpt>
   <trkpt lat="-37.86598" lon="145.33557000000002">
    <ele>421.48</ele>
   </trkpt>
   <trkpt lat="-37.86607" lon="145.33568000000002">
    <ele>423.2</ele>
   </trkpt>
   <trkpt lat="-37.866310000000006" lon="145.33621000000002">
    <ele>427.26000000000005</ele>
   </trkpt>
   <trkpt lat="-37.86647" lon="145.33633">
    <ele>428.24</ele>
   </trkpt>
   <trkpt lat="-37.86652" lon="145.33634">
    <ele>426.87</ele>
   </trkpt>
   <trkpt lat="-37.866640000000004" lon="145.33576000000002">
    <ele>423.28000000000003</ele>
   </trkpt>
   <trkpt lat="-37.866640000000004" lon="145.33577000000002">
    <ele>423.22</ele>
   </trkpt>
   <trkpt lat="-37.86688" lon="145.33481">
    <ele>417.45000000000005</ele>
   </trkpt>
   <trkpt lat="-37.86721" lon="145.33406000000002">
    <ele>411.32</ele>
   </trkpt>
   <trkpt lat="-37.867250000000006" lon="145.33384">
    <ele>409.39000000000004</ele>
   </trkpt>
   <trkpt lat="-37.86724" lon="145.33364">
    <ele>408.37</ele>
   </trkpt>
   <trkpt lat="-37.867200000000004" lon="145.33355">
    <ele>408.37</ele>
   </trkpt>
   <trkpt lat="-37.8673" lon="145.33371000000002">
    <ele>406.93</ele>
   </trkpt>
   <trkpt lat="-37.86737" lon="145.33386000000002">
    <ele>405.86000000000007</ele>
   </trkpt>
   <trkpt lat="-37.86741" lon="145.33403">
    <ele>405.86000000000007</ele>
   </trkpt>
   <trkpt lat="-37.86744" lon="145.33422000000002">
    <ele>404.49</ele>
   </trkpt>
   <trkpt lat="-37.86735" lon="145.33496000000002">
    <ele>400.16</ele>
   </trkpt>
   <trkpt lat="-37.86735" lon="145.33516">
    <ele>399.54</ele>
   </trkpt>
   <trkpt lat="-37.86735" lon="145.33517">
    <ele>399.54</ele>
   </trkpt>
   <trkpt lat="-37.86741" lon="145.33546">
    <ele>397.63000000000005</ele>
   </trkpt>
   <trkpt lat="-37.86748" lon="145.33566000000002">
    <ele>396.76000000000005</ele>
   </trkpt>
   <trkpt lat="-37.86762" lon="145.33587">
    <ele>395.74</ele>
   </trkpt>
   <trkpt lat="-37.867900000000006" lon="145.33622000000003">
    <ele>394.15000000000003</ele>
   </trkpt>
   <trkpt lat="-37.86807" lon="145.33656000000002">
    <ele>392.65000000000003</ele>
   </trkpt>
   <trkpt lat="-37.86831" lon="145.3368">
    <ele>391.94</ele>
   </trkpt>
   <trkpt lat="-37.8686" lon="145.33698">
    <ele>391.1</ele>
   </trkpt>
   <trkpt lat="-37.86891" lon="145.33724">
    <ele>394.53000000000003</ele>
   </trkpt>
   <trkpt lat="-37.86905" lon="145.33726000000001">
    <ele>394.43000000000006</ele>
   </trkpt>
   <trkpt lat="-37.86914" lon="145.33722">
    <ele>394.05</ele>
   </trkpt>
   <trkpt lat="-37.86927" lon="145.33711000000002">
    <ele>391.77</ele>
   </trkpt>
   <trkpt lat="-37.86968" lon="145.33686">
    <ele>391.96000000000004</ele>
   </trkpt>
   <trkpt lat="-37.86983" lon="145.33668">
    <ele>390.79</ele>
   </trkpt>
   <trkpt lat="-37.87001" lon="145.33628000000002">
    <ele>384.6</ele>
   </trkpt>
   <trkpt lat="-37.8701" lon="145.33595000000003">
    <ele>379.13</ele>
   </trkpt>
   <trkpt lat="-37.87019" lon="145.33630000000002">
    <ele>388.84000000000003</ele>
   </trkpt>
   <trkpt lat="-37.87019" lon="145.3368">
    <ele>400.67</ele>
   </trkpt>
   <trkpt lat="-37.87024" lon="145.33688">
    <ele>402.91</ele>
   </trkpt>
   <trkpt lat="-37.87048" lon="145.33697">
    <ele>406.36000000000007</ele>
   </trkpt>
   <trkpt lat="-37.87077" lon="145.33726000000001">
    <ele>415.30000000000007</ele>
   </trkpt>
   <trkpt lat="-37.870810000000006" lon="145.33733">
    <ele>415.30000000000007</ele>
   </trkpt>
   <trkpt lat="-37.8708" lon="145.33732">
    <ele>415.30000000000007</ele>
   </trkpt>
   <trkpt lat="-37.87091" lon="145.33758">
    <ele>419.39000000000004</ele>
   </trkpt>
   <trkpt lat="-37.871100000000006" lon="145.33779">
    <ele>423.78000000000003</ele>
   </trkpt>
   <trkpt lat="-37.87115" lon="145.33794">
    <ele>426.2</ele>
   </trkpt>
   <trkpt lat="-37.87118" lon="145.33812">
    <ele>431.31</ele>
   </trkpt>
   <trkpt lat="-37.87113" lon="145.33831">
    <ele>433.74</ele>
   </trkpt>
   <trkpt lat="-37.871" lon="145.33853000000002">
    <ele>439.46000000000004</ele>
   </trkpt>
   <trkpt lat="-37.87091" lon="145.33863000000002">
    <ele>447.70000000000005</ele>
   </trkpt>
   <trkpt lat="-37.87078" lon="145.33871000000002">
    <ele>447.70000000000005</ele>
   </trkpt>
   <trkpt lat="-37.87088" lon="145.33873">
    <ele>447.21000000000004</ele>
   </trkpt>
   <trkpt lat="-37.87109" lon="145.33881000000002">
    <ele>447.26000000000005</ele>
   </trkpt>
   <trkpt lat="-37.87122" lon="145.33881000000002">
    <ele>447.25</ele>
   </trkpt>
   <trkpt lat="-37.87135" lon="145.33871000000002">
    <ele>446.64000000000004</ele>
   </trkpt>
   <trkpt lat="-37.87158" lon="145.33859">
    <ele>444.74</ele>
   </trkpt>
   <trkpt lat="-37.87171" lon="145.33859">
    <ele>443.8</ele>
   </trkpt>
   <trkpt lat="-37.871700000000004" lon="145.33859">
    <ele>443.8</ele>
   </trkpt>
   <trkpt lat="-37.87194" lon="145.3386">
    <ele>442.20000000000005</ele>
   </trkpt>
   <trkpt lat="-37.87207" lon="145.33867">
    <ele>441.66</ele>
   </trkpt>
   <trkpt lat="-37.87229" lon="145.33889000000002">
    <ele>441.12</ele>
   </trkpt>
   <trkpt lat="-37.87245" lon="145.339">
    <ele>442.38000000000005</ele>
   </trkpt>
   <trkpt lat="-37.87261" lon="145.33905000000001">
    <ele>447.17</ele>
   </trkpt>
   <trkpt lat="-37.87279" lon="145.33904">
    <ele>453.32000000000005</ele>
   </trkpt>
   <trkpt lat="-37.87292" lon="145.33882">
    <ele>457.26000000000005</ele>
   </trkpt>
   <trkpt lat="-37.87297" lon="145.33867">
    <ele>458.75000000000006</ele>
   </trkpt>
   <trkpt lat="-37.87306" lon="145.33864">
    <ele>459.58000000000004</ele>
   </trkpt>
   <trkpt lat="-37.873160000000006" lon="145.33851">
    <ele>463.81000000000006</ele>
   </trkpt>
   <trkpt lat="-37.87321" lon="145.33846">
    <ele>466.85</ele>
   </trkpt>
   <trkpt lat="-37.87326" lon="145.33836000000002">
    <ele>467.9800000000001</ele>
   </trkpt>
   <trkpt lat="-37.87348" lon="145.33819000000003">
    <ele>475.28000000000003</ele>
   </trkpt>
   <trkpt lat="-37.873630000000006" lon="145.33789000000002">
    <ele>480.62000000000006</ele>
   </trkpt>
   <trkpt lat="-37.873720000000006" lon="145.33774000000003">
    <ele>482.75</ele>
   </trkpt>
   <trkpt lat="-37.87382" lon="145.33763000000002">
    <ele>487.30000000000007</ele>
   </trkpt>
   <trkpt lat="-37.87398" lon="145.33742">
    <ele>492.48</ele>
   </trkpt>
   <trkpt lat="-37.87409" lon="145.33746000000002">
    <ele>496.11</ele>
   </trkpt>
   <trkpt lat="-37.8742" lon="145.33787">
    <ele>496.66</ele>
   </trkpt>
   <trkpt lat="-37.87422" lon="145.33863000000002">
    <ele>492.71000000000004</ele>
   </trkpt>
   <trkpt lat="-37.874210000000005" lon="145.33901">
    <ele>491.61</ele>
   </trkpt>
   <trkpt lat="-37.87431" lon="145.33916000000002">
    <ele>492.71000000000004</ele>
   </trkpt>
   <trkpt lat="-37.87436" lon="145.33927">
    <ele>493.93</ele>
   </trkpt>
   <trkpt lat="-37.87435" lon="145.33925000000002">
    <ele>493.93</ele>
   </trkpt>
   <trkpt lat="-37.87465500096647" lon="145.33971499815414">
    <ele>497.3</ele>
   </trkpt>
   <trkpt lat="-37.87496" lon="145.34018">
    <ele>500.72</ele>
   </trkpt>
   <trkpt lat="-37.87509" lon="145.34034000000003">
    <ele>501.38000000000005</ele>
   </trkpt>
   <trkpt lat="-37.87529" lon="145.34052">
    <ele>503.24</ele>
   </trkpt>
   <trkpt lat="-37.87534" lon="145.34059000000002">
    <ele>503.4700000000001</ele>
   </trkpt>
   <trkpt lat="-37.87534" lon="145.34072">
    <ele>503.11000000000007</ele>
   </trkpt>
   <trkpt lat="-37.875200001413106" lon="145.34130500125468">
    <ele>498.87</ele>
   </trkpt>
   <trkpt lat="-37.875060000000005" lon="145.34189">
    <ele>497.08</ele>
   </trkpt>
   <trkpt lat="-37.87507" lon="145.34185000000002">
    <ele>497.08</ele>
   </trkpt>
   <trkpt lat="-37.87494" lon="145.34235">
    <ele>497.76000000000005</ele>
   </trkpt>
   <trkpt lat="-37.87491" lon="145.34258">
    <ele>499.43</ele>
   </trkpt>
   <trkpt lat="-37.87485" lon="145.34268">
    <ele>499.43</ele>
   </trkpt>
   <trkpt lat="-37.87511000000001" lon="145.34298">
    <ele>500.48999999999995</ele>
   </trkpt>
   <trkpt lat="-37.87523" lon="145.34291000000002">
    <ele>500.65999999999997</ele>
   </trkpt>
   <trkpt lat="-37.87541" lon="145.34295">
    <ele>501.12</ele>
   </trkpt>
   <trkpt lat="-37.875510000000006" lon="145.34301000000002">
    <ele>501.43</ele>
   </trkpt>
   <trkpt lat="-37.87552" lon="145.34341">
    <ele>502.39</ele>
   </trkpt>
   <trkpt lat="-37.87545" lon="145.3436">
    <ele>503.82000000000005</ele>
   </trkpt>
   <trkpt lat="-37.875510000000006" lon="145.34384">
    <ele>504.83</ele>
   </trkpt>
   <trkpt lat="-37.87556" lon="145.34399000000002">
    <ele>505.36</ele>
   </trkpt>
   <trkpt lat="-37.875690000000006" lon="145.34416000000002">
    <ele>506.75</ele>
   </trkpt>
   <trkpt lat="-37.875960000000006" lon="145.34482">
    <ele>508.87000000000006</ele>
   </trkpt>
   <trkpt lat="-37.875960000000006" lon="145.34483">
    <ele>508.87000000000006</ele>
   </trkpt>
   <trkpt lat="-37.87599" lon="145.34493">
    <ele>508.87000000000006</ele>
   </trkpt>
   <trkpt lat="-37.87599" lon="145.3454">
    <ele>510.45000000000005</ele>
   </trkpt>
   <trkpt lat="-37.87603" lon="145.34573">
    <ele>510.94000000000005</ele>
   </trkpt>
   <trkpt lat="-37.87603" lon="145.34592">
    <ele>510.97999999999996</ele>
   </trkpt>
   <trkpt lat="-37.87615" lon="145.34678000000002">
    <ele>508.68</ele>
   </trkpt>
   <trkpt lat="-37.87621" lon="145.34698">
    <ele>507.05</ele>
   </trkpt>
   <trkpt lat="-37.8763" lon="145.34708">
    <ele>506.37</ele>
   </trkpt>
   <trkpt lat="-37.87648" lon="145.34716">
    <ele>505.8</ele>
   </trkpt>
   <trkpt lat="-37.876760000000004" lon="145.34722000000002">
    <ele>505.5200000000001</ele>
   </trkpt>
   <trkpt lat="-37.87704" lon="145.34686000000002">
    <ele>504.88</ele>
   </trkpt>
   <trkpt lat="-37.87726" lon="145.34634">
    <ele>506.06000000000006</ele>
   </trkpt>
   <trkpt lat="-37.877570000000006" lon="145.34542000000002">
    <ele>510.72</ele>
   </trkpt>
   <trkpt lat="-37.87767" lon="145.34526000000002">
    <ele>511.71</ele>
   </trkpt>
   <trkpt lat="-37.87794" lon="145.34497000000002">
    <ele>513.88</ele>
   </trkpt>
   <trkpt lat="-37.878" lon="145.34487000000001">
    <ele>513.95</ele>
   </trkpt>
   <trkpt lat="-37.878040000000006" lon="145.34474">
    <ele>513.7900000000001</ele>
   </trkpt>
   <trkpt lat="-37.87805" lon="145.34458">
    <ele>513.54</ele>
   </trkpt>
   <trkpt lat="-37.87807" lon="145.34451">
    <ele>513.49</ele>
   </trkpt>
   <trkpt lat="-37.87814" lon="145.34448">
    <ele>513.49</ele>
   </trkpt>
   <trkpt lat="-37.87827" lon="145.34451">
    <ele>513.73</ele>
   </trkpt>
   <trkpt lat="-37.87836" lon="145.34455">
    <ele>514.02</ele>
   </trkpt>
   <trkpt lat="-37.87861" lon="145.34490000000002">
    <ele>517.12</ele>
   </trkpt>
   <trkpt lat="-37.87876" lon="145.34495">
    <ele>516.99</ele>
   </trkpt>
   <trkpt lat="-37.878750000000004" lon="145.34495">
    <ele>516.99</ele>
   </trkpt>
   <trkpt lat="-37.87888" lon="145.34482">
    <ele>515.94</ele>
   </trkpt>
   <trkpt lat="-37.8789" lon="145.34474">
    <ele>516.12</ele>
   </trkpt>
   <trkpt lat="-37.87914" lon="145.34452000000002">
    <ele>516.94</ele>
   </trkpt>
   <trkpt lat="-37.87919" lon="145.34452000000002">
    <ele>516.98</ele>
   </trkpt>
   <trkpt lat="-37.879070000000006" lon="145.34405">
    <ele>517.58</ele>
   </trkpt>
   <trkpt lat="-37.87892" lon="145.34343">
    <ele>516.83</ele>
   </trkpt>
   <trkpt lat="-37.87877" lon="145.34292000000002">
    <ele>514.12</ele>
   </trkpt>
   <trkpt lat="-37.87865" lon="145.34273000000002">
    <ele>512.8900000000001</ele>
   </trkpt>
   <trkpt lat="-37.87865" lon="145.34264000000002">
    <ele>513.45</ele>
   </trkpt>
   <trkpt lat="-37.8787" lon="145.34245">
    <ele>514.87</ele>
   </trkpt>
   <trkpt lat="-37.878690000000006" lon="145.34247000000002">
    <ele>514.87</ele>
   </trkpt>
   <trkpt lat="-37.87874" lon="145.34236">
    <ele>516.61</ele>
   </trkpt>
   <trkpt lat="-37.8787" lon="145.34225">
    <ele>521.34</ele>
   </trkpt>
   <trkpt lat="-37.87856" lon="145.34212000000002">
    <ele>522.21</ele>
   </trkpt>
   <trkpt lat="-37.87847" lon="145.34209">
    <ele>523.66</ele>
   </trkpt>
   <trkpt lat="-37.87832" lon="145.34217">
    <ele>524.93</ele>
   </trkpt>
   <trkpt lat="-37.87807" lon="145.34255000000002">
    <ele>522.24</ele>
   </trkpt>
   <trkpt lat="-37.87791" lon="145.34269">
    <ele>521.66</ele>
   </trkpt>
   <trkpt lat="-37.87778" lon="145.34271">
    <ele>521.7700000000001</ele>
   </trkpt>
   <trkpt lat="-37.87722" lon="145.34272">
    <ele>521.5000000000001</ele>
   </trkpt>
   <trkpt lat="-37.87688" lon="145.3428">
    <ele>519.82</ele>
   </trkpt>
   <trkpt lat="-37.8763" lon="145.34273000000002">
    <ele>520.8000000000001</ele>
   </trkpt>
   <trkpt lat="-37.87612" lon="145.34275000000002">
    <ele>520.9200000000001</ele>
   </trkpt>
   <trkpt lat="-37.876160000000006" lon="145.34275000000002">
    <ele>520.93</ele>
   </trkpt>
   <trkpt lat="-37.87599" lon="145.34278">
    <ele>520.8000000000001</ele>
   </trkpt>
   <trkpt lat="-37.87585" lon="145.34284000000002">
    <ele>520.83</ele>
   </trkpt>
   <trkpt lat="-37.87574" lon="145.34297">
    <ele>520.99</ele>
   </trkpt>
   <trkpt lat="-37.875510000000006" lon="145.34301000000002">
    <ele>501.43</ele>
   </trkpt>
   <trkpt lat="-37.87541" lon="145.34295">
    <ele>501.12</ele>
   </trkpt>
   <trkpt lat="-37.87523" lon="145.34291000000002">
    <ele>500.65999999999997</ele>
   </trkpt>
   <trkpt lat="-37.87511000000001" lon="145.34298">
    <ele>500.48</ele>
   </trkpt>
   <trkpt lat="-37.874755000680956" lon="145.34257999807727">
    <ele>497.86</ele>
   </trkpt>
   <trkpt lat="-37.8744" lon="145.34218">
    <ele>494.56000000000006</ele>
   </trkpt>
   <trkpt lat="-37.87406" lon="145.34185000000002">
    <ele>492.61</ele>
   </trkpt>
   <trkpt lat="-37.87375" lon="145.34154">
    <ele>489.21000000000004</ele>
   </trkpt>
   <trkpt lat="-37.87315" lon="145.34105000000002">
    <ele>484.54</ele>
   </trkpt>
   <trkpt lat="-37.872870000000006" lon="145.34089">
    <ele>482.12000000000006</ele>
   </trkpt>
   <trkpt lat="-37.87288" lon="145.34089">
    <ele>482.12000000000006</ele>
   </trkpt>
   <trkpt lat="-37.87272" lon="145.34083">
    <ele>481.47</ele>
   </trkpt>
   <trkpt lat="-37.87263" lon="145.34076000000002">
    <ele>480.65000000000003</ele>
   </trkpt>
   <trkpt lat="-37.87214" lon="145.34024000000002">
    <ele>476.48</ele>
   </trkpt>
   <trkpt lat="-37.87185" lon="145.33998000000003">
    <ele>473.53000000000003</ele>
   </trkpt>
   <trkpt lat="-37.871320000000004" lon="145.33969000000002">
    <ele>468.35</ele>
   </trkpt>
   <trkpt lat="-37.8712" lon="145.33964">
    <ele>466.68</ele>
   </trkpt>
   <trkpt lat="-37.87106" lon="145.33963">
    <ele>465.6</ele>
   </trkpt>
   <trkpt lat="-37.87082" lon="145.33948">
    <ele>464.97</ele>
   </trkpt>
   <trkpt lat="-37.87059" lon="145.33917000000002">
    <ele>461.96000000000004</ele>
   </trkpt>
   <trkpt lat="-37.87037" lon="145.33894">
    <ele>459.75000000000006</ele>
   </trkpt>
   <trkpt lat="-37.87026" lon="145.33888000000002">
    <ele>459.0</ele>
   </trkpt>
   <trkpt lat="-37.86974" lon="145.33889000000002">
    <ele>458.37000000000006</ele>
   </trkpt>
   <trkpt lat="-37.86954" lon="145.33893">
    <ele>457.09000000000003</ele>
   </trkpt>
   <trkpt lat="-37.86941" lon="145.33893">
    <ele>455.98</ele>
   </trkpt>
   <trkpt lat="-37.86918" lon="145.33896000000001">
    <ele>453.62</ele>
   </trkpt>
   <trkpt lat="-37.86891" lon="145.33893">
    <ele>452.57</ele>
   </trkpt>
   <trkpt lat="-37.868590000000005" lon="145.33883">
    <ele>449.75000000000006</ele>
   </trkpt>
   <trkpt lat="-37.86858" lon="145.33883">
    <ele>449.75000000000006</ele>
   </trkpt>
   <trkpt lat="-37.86849" lon="145.33881000000002">
    <ele>448.96000000000004</ele>
   </trkpt>
   <trkpt lat="-37.86822" lon="145.33868">
    <ele>446.97</ele>
   </trkpt>
   <trkpt lat="-37.86786" lon="145.33862000000002">
    <ele>444.03000000000003</ele>
   </trkpt>
   <trkpt lat="-37.86771" lon="145.33857">
    <ele>442.85</ele>
   </trkpt>
   <trkpt lat="-37.86755" lon="145.33847">
    <ele>440.46000000000004</ele>
   </trkpt>
   <trkpt lat="-37.86739" lon="145.33831">
    <ele>438.3</ele>
   </trkpt>
   <trkpt lat="-37.86717" lon="145.33795">
    <ele>435.37</ele>
   </trkpt>
   <trkpt lat="-37.86688" lon="145.33713">
    <ele>432.22</ele>
   </trkpt>
   <trkpt lat="-37.866640000000004" lon="145.33657000000002">
    <ele>428.06000000000006</ele>
   </trkpt>
   <trkpt lat="-37.86652" lon="145.33634">
    <ele>426.87</ele>
   </trkpt>
   <trkpt lat="-37.86647" lon="145.33633">
    <ele>428.24</ele>
   </trkpt>
   <trkpt lat="-37.866310000000006" lon="145.33621000000002">
    <ele>427.26000000000005</ele>
   </trkpt>
   <trkpt lat="-37.86607" lon="145.33568000000002">
    <ele>423.2</ele>
   </trkpt>
   <trkpt lat="-37.86598" lon="145.33557000000002">
    <ele>421.48</ele>
   </trkpt>
   <trkpt lat="-37.865860000000005" lon="145.33549000000002">
    <ele>419.63000000000005</ele>
   </trkpt>
   <trkpt lat="-37.86585" lon="145.33585000000002">
    <ele>417.31</ele>
   </trkpt>
   <trkpt lat="-37.865750000000006" lon="145.33665000000002">
    <ele>415.39000000000004</ele>
   </trkpt>
   <trkpt lat="-37.86551" lon="145.33753000000002">
    <ele>415.17</ele>
   </trkpt>
   <trkpt lat="-37.865285001875456" lon="145.33821000231774">
    <ele>414.97</ele>
   </trkpt>
   <trkpt lat="-37.86506" lon="145.33889000000002">
    <ele>418.09000000000003</ele>
   </trkpt>
   <trkpt lat="-37.864920000000005" lon="145.33945">
    <ele>420.35</ele>
   </trkpt>
   <trkpt lat="-37.864920000000005" lon="145.33944000000002">
    <ele>420.34000000000003</ele>
   </trkpt>
   <trkpt lat="-37.86486" lon="145.33964">
    <ele>420.8</ele>
   </trkpt>
   <trkpt lat="-37.86475" lon="145.33980000000003">
    <ele>422.33000000000004</ele>
   </trkpt>
   <trkpt lat="-37.86464" lon="145.33988000000002">
    <ele>425.19</ele>
   </trkpt>
   <trkpt lat="-37.8645" lon="145.33989000000003">
    <ele>426.43</ele>
   </trkpt>
   <trkpt lat="-37.8641" lon="145.33975">
    <ele>429.7300000000001</ele>
   </trkpt>
   <trkpt lat="-37.863780000000006" lon="145.33974">
    <ele>429.7300000000001</ele>
   </trkpt>
   <trkpt lat="-37.86354" lon="145.33979000000002">
    <ele>434.35</ele>
   </trkpt>
   <trkpt lat="-37.86318" lon="145.33996000000002">
    <ele>437.20000000000005</ele>
   </trkpt>
   <trkpt lat="-37.862860000000005" lon="145.34025000000003">
    <ele>438.58000000000004</ele>
   </trkpt>
   <trkpt lat="-37.86263" lon="145.34003">
    <ele>431.57</ele>
   </trkpt>
   <trkpt lat="-37.8622" lon="145.33963">
    <ele>419.26</ele>
   </trkpt>
   <trkpt lat="-37.86168" lon="145.33925000000002">
    <ele>409.42</ele>
   </trkpt>
   <trkpt lat="-37.86095" lon="145.33902">
    <ele>392.27</ele>
   </trkpt>
   <trkpt lat="-37.86074" lon="145.33889000000002">
    <ele>388.58000000000004</ele>
   </trkpt>
   <trkpt lat="-37.86075" lon="145.33882">
    <ele>388.66</ele>
   </trkpt>
   <trkpt lat="-37.860510000000005" lon="145.33876">
    <ele>394.52000000000004</ele>
   </trkpt>
   <trkpt lat="-37.8605" lon="145.33886">
    <ele>393.86</ele>
   </trkpt>
   <trkpt lat="-37.86056" lon="145.33914000000001">
    <ele>393.17</ele>
   </trkpt>
   <trkpt lat="-37.86081" lon="145.33949">
    <ele>392.95</ele>
   </trkpt>
   <trkpt lat="-37.86115" lon="145.33973">
    <ele>390.21000000000004</ele>
   </trkpt>
   <trkpt lat="-37.86117" lon="145.33978000000002">
    <ele>388.74</ele>
   </trkpt>
   <trkpt lat="-37.86117" lon="145.3399">
    <ele>385.01</ele>
   </trkpt>
   <trkpt lat="-37.86112" lon="145.34012">
    <ele>376.54</ele>
   </trkpt>
   <trkpt lat="-37.86086" lon="145.34071">
    <ele>357.37</ele>
   </trkpt>
   <trkpt lat="-37.860780000000005" lon="145.341">
    <ele>351.96000000000004</ele>
   </trkpt>
   <trkpt lat="-37.86092" lon="145.34113000000002">
    <ele>352.28000000000003</ele>
   </trkpt>
   <trkpt lat="-37.86097" lon="145.34123000000002">
    <ele>352.28000000000003</ele>
   </trkpt>
   <trkpt lat="-37.86108" lon="145.3417">
    <ele>357.62000000000006</ele>
   </trkpt>
   <trkpt lat="-37.86121" lon="145.34249">
    <ele>361.89000000000004</ele>
   </trkpt>
   <trkpt lat="-37.86128" lon="145.34276">
    <ele>363.41</ele>
   </trkpt>
   <trkpt lat="-37.86139" lon="145.34300000000002">
    <ele>364.75</ele>
   </trkpt>
   <trkpt lat="-37.861520000000006" lon="145.34317000000001">
    <ele>366.25</ele>
   </trkpt>
   <trkpt lat="-37.86168" lon="145.34332">
    <ele>367.27000000000004</ele>
   </trkpt>
   <trkpt lat="-37.86231" lon="145.34352">
    <ele>371.64000000000004</ele>
   </trkpt>
   <trkpt lat="-37.86296" lon="145.34383000000003">
    <ele>375.63</ele>
   </trkpt>
   <trkpt lat="-37.86303" lon="145.34388">
    <ele>375.98</ele>
   </trkpt>
   <trkpt lat="-37.86307" lon="145.34395">
    <ele>376.35</ele>
   </trkpt>
   <trkpt lat="-37.86305" lon="145.34406">
    <ele>376.95</ele>
   </trkpt>
   <trkpt lat="-37.862840000000006" lon="145.3444">
    <ele>379.52000000000004</ele>
   </trkpt>
   <trkpt lat="-37.86253" lon="145.34477">
    <ele>386.46000000000004</ele>
   </trkpt>
   <trkpt lat="-37.86238" lon="145.34501">
    <ele>387.3</ele>
   </trkpt>
   <trkpt lat="-37.86213" lon="145.34550000000002">
    <ele>390.95</ele>
   </trkpt>
   <trkpt lat="-37.86209" lon="145.34566">
    <ele>392.09000000000003</ele>
   </trkpt>
   <trkpt lat="-37.86193" lon="145.34642000000002">
    <ele>397.96000000000004</ele>
   </trkpt>
   <trkpt lat="-37.86204" lon="145.34717">
    <ele>406.64000000000004</ele>
   </trkpt>
   <trkpt lat="-37.86206" lon="145.34726">
    <ele>406.64000000000004</ele>
   </trkpt>
   <trkpt lat="-37.8622" lon="145.34749000000002">
    <ele>412.05</ele>
   </trkpt>
   <trkpt lat="-37.86245" lon="145.34777000000003">
    <ele>415.06000000000006</ele>
   </trkpt>
   <trkpt lat="-37.86256" lon="145.34787">
    <ele>417.24000000000007</ele>
   </trkpt>
   <trkpt lat="-37.86296" lon="145.34810000000002">
    <ele>421.06000000000006</ele>
   </trkpt>
   <trkpt lat="-37.86312" lon="145.34826">
    <ele>422.91</ele>
   </trkpt>
   <trkpt lat="-37.86316" lon="145.34836">
    <ele>425.15000000000003</ele>
   </trkpt>
   <trkpt lat="-37.86316" lon="145.34895">
    <ele>430.54</ele>
   </trkpt>
   <trkpt lat="-37.86318" lon="145.3494">
    <ele>437.48</ele>
   </trkpt>
   <trkpt lat="-37.863150000000005" lon="145.34997">
    <ele>443.32000000000005</ele>
   </trkpt>
   <trkpt lat="-37.86285" lon="145.35058">
    <ele>450.56</ele>
   </trkpt>
   <trkpt lat="-37.86258" lon="145.35084">
    <ele>455.31000000000006</ele>
   </trkpt>
   <trkpt lat="-37.86256" lon="145.35098000000002">
    <ele>457.14000000000004</ele>
   </trkpt>
   <trkpt lat="-37.8622" lon="145.3514">
    <ele>463.5400000000001</ele>
   </trkpt>
   <trkpt lat="-37.86218" lon="145.35177000000002">
    <ele>467.6</ele>
   </trkpt>
   <trkpt lat="-37.86218" lon="145.35199">
    <ele>467.6</ele>
   </trkpt>
   <trkpt lat="-37.86218" lon="145.35198000000003">
    <ele>467.6</ele>
   </trkpt>
   <trkpt lat="-37.862190000000005" lon="145.3522">
    <ele>469.4200000000001</ele>
   </trkpt>
   <trkpt lat="-37.8624" lon="145.35274">
    <ele>473.03000000000003</ele>
   </trkpt>
   <trkpt lat="-37.862460000000006" lon="145.35279">
    <ele>473.03000000000003</ele>
   </trkpt>
   <trkpt lat="-37.862570000000005" lon="145.35281">
    <ele>474.23</ele>
   </trkpt>
   <trkpt lat="-37.86258" lon="145.35298">
    <ele>475.07000000000005</ele>
   </trkpt>
   <trkpt lat="-37.86263" lon="145.35314000000002">
    <ele>476.02000000000004</ele>
   </trkpt>
  </trkseg>
 </trk>
</gpx>
