<?xml version="1.0" encoding="UTF-8"?>
<gpx creator="StravaGPX" version="1.1" xmlns="http://www.topografix.com/GPX/1/1" xmlns:xsi="http://www.w3.org/2001/XMLSchema-instance" xsi:schemaLocation="http://www.topografix.com/GPX/1/1 http://www.topografix.com/GPX/1/1/gpx.xsd">
 <metadata>
  <name>Sunday 30 Jan 2022</name>
  <author>
   <name>john csorgo</name>
  </author>
  <copyright author="OpenStreetMap contributors">
   <year>2020</year>
   <license>https://www.openstreetmap.org/copyright</license>
  </copyright>
 </metadata>
 <trk>
  <name>Sunday 30 Jan 2022</name>
  <link href=""/>
  <type>running</type>
  <trkseg>
   <trkpt lat="-37.862730000000006" lon="145.35379">
    <ele>478.54</ele>
   </trkpt>
   <trkpt lat="-37.86229" lon="145.35409">
    <ele>480.01000000000005</ele>
   </trkpt>
   <trkpt lat="-37.86198" lon="145.35437000000002">
    <ele>481.85</ele>
   </trkpt>
   <trkpt lat="-37.86153" lon="145.35481000000001">
    <ele>486.28000000000003</ele>
   </trkpt>
   <trkpt lat="-37.86108" lon="145.35531">
    <ele>489.06000000000006</ele>
   </trkpt>
   <trkpt lat="-37.86086" lon="145.35562000000002">
    <ele>490.47</ele>
   </trkpt>
   <trkpt lat="-37.86079" lon="145.35580000000002">
    <ele>490.90000000000003</ele>
   </trkpt>
   <trkpt lat="-37.86079" lon="145.35600000000002">
    <ele>491.18000000000006</ele>
   </trkpt>
   <trkpt lat="-37.86084" lon="145.3562">
    <ele>491.54</ele>
   </trkpt>
   <trkpt lat="-37.86074" lon="145.3561">
    <ele>493.36</ele>
   </trkpt>
   <trkpt lat="-37.86063" lon="145.35594">
    <ele>498.62000000000006</ele>
   </trkpt>
   <trkpt lat="-37.86061" lon="145.35545000000002">
    <ele>511.09000000000003</ele>
   </trkpt>
   <trkpt lat="-37.86048" lon="145.35551">
    <ele>512.33</ele>
   </trkpt>
   <trkpt lat="-37.86001500054853" lon="145.35586500222772">
    <ele>515.84</ele>
   </trkpt>
   <trkpt lat="-37.859550000000006" lon="145.35622">
    <ele>521.17</ele>
   </trkpt>
   <trkpt lat="-37.85965" lon="145.35584">
    <ele>524.88</ele>
   </trkpt>
   <trkpt lat="-37.85954" lon="145.35532">
    <ele>526.96</ele>
   </trkpt>
   <trkpt lat="-37.85952" lon="145.3553">
    <ele>526.96</ele>
   </trkpt>
   <trkpt lat="-37.85951" lon="145.35529000000002">
    <ele>527.0</ele>
   </trkpt>
   <trkpt lat="-37.859140000000004" lon="145.35490000000001">
    <ele>528.0</ele>
   </trkpt>
   <trkpt lat="-37.85895" lon="145.35486">
    <ele>533.5600000000001</ele>
   </trkpt>
   <trkpt lat="-37.85846" lon="145.35508000000002">
    <ele>559.49</ele>
   </trkpt>
   <trkpt lat="-37.85826" lon="145.35524">
    <ele>561.7</ele>
   </trkpt>
   <trkpt lat="-37.85792" lon="145.35547000000003">
    <ele>570.9399999999999</ele>
   </trkpt>
   <trkpt lat="-37.85774" lon="145.3557">
    <ele>575.5600000000001</ele>
   </trkpt>
   <trkpt lat="-37.85765" lon="145.35573000000002">
    <ele>576.46</ele>
   </trkpt>
   <trkpt lat="-37.85756000000001" lon="145.35572000000002">
    <ele>577.07</ele>
   </trkpt>
   <trkpt lat="-37.85745" lon="145.35598000000002">
    <ele>572.9399999999999</ele>
   </trkpt>
   <trkpt lat="-37.85752" lon="145.35645000000002">
    <ele>573.72</ele>
   </trkpt>
   <trkpt lat="-37.85748" lon="145.35684">
    <ele>573.83</ele>
   </trkpt>
   <trkpt lat="-37.85721" lon="145.35766">
    <ele>574.2400000000001</ele>
   </trkpt>
   <trkpt lat="-37.85711500265833" lon="145.35845500114274">
    <ele>581.6600000000001</ele>
   </trkpt>
   <trkpt lat="-37.857020000000006" lon="145.35925">
    <ele>590.5600000000001</ele>
   </trkpt>
   <trkpt lat="-37.856880000000004" lon="145.35975000000002">
    <ele>597.45</ele>
   </trkpt>
   <trkpt lat="-37.85667" lon="145.36065000000002">
    <ele>599.32</ele>
   </trkpt>
   <trkpt lat="-37.85663" lon="145.36112">
    <ele>595.13</ele>
   </trkpt>
   <trkpt lat="-37.856455002169064" lon="145.3618400018036">
    <ele>585.83</ele>
   </trkpt>
   <trkpt lat="-37.856280000000005" lon="145.36256">
    <ele>579.11</ele>
   </trkpt>
   <trkpt lat="-37.85622" lon="145.36302">
    <ele>577.0500000000001</ele>
   </trkpt>
   <trkpt lat="-37.85604" lon="145.36396000000002">
    <ele>571.72</ele>
   </trkpt>
   <trkpt lat="-37.856030000000004" lon="145.36413000000002">
    <ele>571.3000000000001</ele>
   </trkpt>
   <trkpt lat="-37.856" lon="145.36419">
    <ele>571.3000000000001</ele>
   </trkpt>
   <trkpt lat="-37.855940000000004" lon="145.36425">
    <ele>568.96</ele>
   </trkpt>
   <trkpt lat="-37.85595" lon="145.36441000000002">
    <ele>568.99</ele>
   </trkpt>
   <trkpt lat="-37.85589" lon="145.36474">
    <ele>568.21</ele>
   </trkpt>
   <trkpt lat="-37.85589" lon="145.36499">
    <ele>567.83</ele>
   </trkpt>
   <trkpt lat="-37.85582" lon="145.36509">
    <ele>567.83</ele>
   </trkpt>
   <trkpt lat="-37.85578" lon="145.36528">
    <ele>568.62</ele>
   </trkpt>
   <trkpt lat="-37.85562000626479" lon="145.36614000367823">
    <ele>568.12</ele>
   </trkpt>
   <trkpt lat="-37.855460006274996" lon="145.36700000362333">
    <ele>568.33</ele>
   </trkpt>
   <trkpt lat="-37.8553" lon="145.36786">
    <ele>568.7500000000001</ele>
   </trkpt>
   <trkpt lat="-37.85515" lon="145.3683">
    <ele>568.15</ele>
   </trkpt>
   <trkpt lat="-37.85506" lon="145.36844000000002">
    <ele>567.8000000000001</ele>
   </trkpt>
   <trkpt lat="-37.85483" lon="145.36873">
    <ele>567.64</ele>
   </trkpt>
   <trkpt lat="-37.854820000000004" lon="145.36874">
    <ele>567.6300000000001</ele>
   </trkpt>
   <trkpt lat="-37.854490000000006" lon="145.36918">
    <ele>567.85</ele>
   </trkpt>
   <trkpt lat="-37.85412" lon="145.36883">
    <ele>574.21</ele>
   </trkpt>
   <trkpt lat="-37.853660000000005" lon="145.36857">
    <ele>576.22</ele>
   </trkpt>
   <trkpt lat="-37.85314" lon="145.36833000000001">
    <ele>574.72</ele>
   </trkpt>
   <trkpt lat="-37.85295" lon="145.36822">
    <ele>573.6600000000001</ele>
   </trkpt>
   <trkpt lat="-37.85264" lon="145.36819">
    <ele>570.67</ele>
   </trkpt>
   <trkpt lat="-37.85228" lon="145.36824000000001">
    <ele>567.49</ele>
   </trkpt>
   <trkpt lat="-37.85208" lon="145.36833000000001">
    <ele>565.33</ele>
   </trkpt>
   <trkpt lat="-37.851760000000006" lon="145.36859">
    <ele>562.08</ele>
   </trkpt>
   <trkpt lat="-37.85141500078801" lon="145.36905500234604">
    <ele>559.52</ele>
   </trkpt>
   <trkpt lat="-37.85107" lon="145.36952000000002">
    <ele>554.58</ele>
   </trkpt>
   <trkpt lat="-37.85083" lon="145.3698">
    <ele>550.24</ele>
   </trkpt>
   <trkpt lat="-37.850640000000006" lon="145.36993">
    <ele>549.3</ele>
   </trkpt>
   <trkpt lat="-37.85038" lon="145.37003">
    <ele>545.34</ele>
   </trkpt>
   <trkpt lat="-37.85004" lon="145.37006000000002">
    <ele>542.62</ele>
   </trkpt>
   <trkpt lat="-37.84984" lon="145.37028">
    <ele>540.2</ele>
   </trkpt>
   <trkpt lat="-37.84971" lon="145.37062">
    <ele>538.72</ele>
   </trkpt>
   <trkpt lat="-37.84943000134118" lon="145.37117500203067">
    <ele>537.81</ele>
   </trkpt>
   <trkpt lat="-37.84915" lon="145.37173">
    <ele>537.09</ele>
   </trkpt>
   <trkpt lat="-37.84904" lon="145.37187">
    <ele>536.15</ele>
   </trkpt>
   <trkpt lat="-37.84892" lon="145.37192000000002">
    <ele>534.4100000000001</ele>
   </trkpt>
   <trkpt lat="-37.84825666674647" lon="145.37181666480592">
    <ele>527.36</ele>
   </trkpt>
   <trkpt lat="-37.84759333340267" lon="145.37171333147097">
    <ele>523.1</ele>
   </trkpt>
   <trkpt lat="-37.84693" lon="145.37161">
    <ele>520.6700000000001</ele>
   </trkpt>
   <trkpt lat="-37.84641499982581" lon="145.37149999918367">
    <ele>519.9</ele>
   </trkpt>
   <trkpt lat="-37.8459" lon="145.37139000000002">
    <ele>519.1600000000001</ele>
   </trkpt>
   <trkpt lat="-37.84543999997834" lon="145.37127999929643">
    <ele>518.71</ele>
   </trkpt>
   <trkpt lat="-37.84498" lon="145.37117">
    <ele>518.29</ele>
   </trkpt>
   <trkpt lat="-37.84447" lon="145.37102000000002">
    <ele>517.97</ele>
   </trkpt>
   <trkpt lat="-37.84427" lon="145.37091">
    <ele>517.4300000000001</ele>
   </trkpt>
   <trkpt lat="-37.84378" lon="145.37019">
    <ele>513.3000000000001</ele>
   </trkpt>
   <trkpt lat="-37.84357" lon="145.36972">
    <ele>507.7900000000001</ele>
   </trkpt>
   <trkpt lat="-37.84297000142408" lon="145.36910999488578">
    <ele>498.37</ele>
   </trkpt>
   <trkpt lat="-37.84237" lon="145.3685">
    <ele>490.49</ele>
   </trkpt>
   <trkpt lat="-37.84172" lon="145.36824000000001">
    <ele>479.63000000000005</ele>
   </trkpt>
   <trkpt lat="-37.84091" lon="145.36816000000002">
    <ele>471.94</ele>
   </trkpt>
   <trkpt lat="-37.84093" lon="145.36841">
    <ele>471.68</ele>
   </trkpt>
   <trkpt lat="-37.84087" lon="145.36892">
    <ele>471.08000000000004</ele>
   </trkpt>
   <trkpt lat="-37.84057" lon="145.36894">
    <ele>467.23</ele>
   </trkpt>
   <trkpt lat="-37.84022" lon="145.36902">
    <ele>463.20000000000005</ele>
   </trkpt>
   <trkpt lat="-37.83999" lon="145.36903">
    <ele>460.44</ele>
   </trkpt>
   <trkpt lat="-37.839940000000006" lon="145.36906000000002">
    <ele>460.44</ele>
   </trkpt>
   <trkpt lat="-37.83975" lon="145.36926000000003">
    <ele>455.98</ele>
   </trkpt>
   <trkpt lat="-37.839560000000006" lon="145.36941000000002">
    <ele>451.48</ele>
   </trkpt>
   <trkpt lat="-37.8391" lon="145.36968000000002">
    <ele>444.93000000000006</ele>
   </trkpt>
   <trkpt lat="-37.83888" lon="145.36978000000002">
    <ele>442.62</ele>
   </trkpt>
   <trkpt lat="-37.83887" lon="145.36979000000002">
    <ele>442.62</ele>
   </trkpt>
   <trkpt lat="-37.83869" lon="145.36991">
    <ele>440.53000000000003</ele>
   </trkpt>
   <trkpt lat="-37.83849" lon="145.36997000000002">
    <ele>436.98</ele>
   </trkpt>
   <trkpt lat="-37.83798" lon="145.37023000000002">
    <ele>429.95000000000005</ele>
   </trkpt>
   <trkpt lat="-37.83769" lon="145.37040000000002">
    <ele>429.05</ele>
   </trkpt>
   <trkpt lat="-37.83737" lon="145.37053">
    <ele>431.68</ele>
   </trkpt>
   <trkpt lat="-37.83701000000001" lon="145.37063">
    <ele>434.16</ele>
   </trkpt>
   <trkpt lat="-37.837030000000006" lon="145.37094000000002">
    <ele>432.32000000000005</ele>
   </trkpt>
   <trkpt lat="-37.83699" lon="145.37133">
    <ele>429.72</ele>
   </trkpt>
   <trkpt lat="-37.837030000000006" lon="145.3719">
    <ele>427.00000000000006</ele>
   </trkpt>
   <trkpt lat="-37.83699" lon="145.37235">
    <ele>423.7</ele>
   </trkpt>
   <trkpt lat="-37.83708" lon="145.37331">
    <ele>413.67</ele>
   </trkpt>
   <trkpt lat="-37.83719" lon="145.37388">
    <ele>409.85</ele>
   </trkpt>
   <trkpt lat="-37.83719" lon="145.37407000000002">
    <ele>409.14000000000004</ele>
   </trkpt>
   <trkpt lat="-37.83738" lon="145.37475">
    <ele>407.97</ele>
   </trkpt>
   <trkpt lat="-37.83731" lon="145.37496000000002">
    <ele>407.88</ele>
   </trkpt>
   <trkpt lat="-37.83728" lon="145.37513">
    <ele>408.07000000000005</ele>
   </trkpt>
   <trkpt lat="-37.83724" lon="145.37557">
    <ele>410.19000000000005</ele>
   </trkpt>
   <trkpt lat="-37.83724" lon="145.3762">
    <ele>415.47</ele>
   </trkpt>
   <trkpt lat="-37.83722" lon="145.37645">
    <ele>417.37</ele>
   </trkpt>
   <trkpt lat="-37.83731" lon="145.37681">
    <ele>420.59000000000003</ele>
   </trkpt>
   <trkpt lat="-37.83731" lon="145.37695000000002">
    <ele>422.37</ele>
   </trkpt>
   <trkpt lat="-37.83722" lon="145.37716">
    <ele>425.11</ele>
   </trkpt>
   <trkpt lat="-37.83713" lon="145.37725">
    <ele>426.97</ele>
   </trkpt>
   <trkpt lat="-37.836720000409166" lon="145.3775850019153">
    <ele>431.44000000000005</ele>
   </trkpt>
   <trkpt lat="-37.836310000000005" lon="145.37792000000002">
    <ele>437.46</ele>
   </trkpt>
   <trkpt lat="-37.8359" lon="145.37852">
    <ele>437.39000000000004</ele>
   </trkpt>
   <trkpt lat="-37.83581" lon="145.37869">
    <ele>436.07</ele>
   </trkpt>
   <trkpt lat="-37.83576" lon="145.37886">
    <ele>434.8</ele>
   </trkpt>
   <trkpt lat="-37.83572" lon="145.37914">
    <ele>431.61</ele>
   </trkpt>
   <trkpt lat="-37.83572" lon="145.37938000000003">
    <ele>430.04</ele>
   </trkpt>
   <trkpt lat="-37.8359" lon="145.38023">
    <ele>423.31</ele>
   </trkpt>
   <trkpt lat="-37.83605" lon="145.38061000000002">
    <ele>417.05</ele>
   </trkpt>
   <trkpt lat="-37.83605" lon="145.38073">
    <ele>414.16</ele>
   </trkpt>
   <trkpt lat="-37.83599" lon="145.38093">
    <ele>411.97</ele>
   </trkpt>
   <trkpt lat="-37.83578" lon="145.38116000000002">
    <ele>406.27000000000004</ele>
   </trkpt>
   <trkpt lat="-37.83529" lon="145.38157">
    <ele>387.75000000000006</ele>
   </trkpt>
   <trkpt lat="-37.83498" lon="145.38171">
    <ele>381.16</ele>
   </trkpt>
   <trkpt lat="-37.83475" lon="145.38187000000002">
    <ele>376.34</ele>
   </trkpt>
   <trkpt lat="-37.8346" lon="145.38209">
    <ele>367.89000000000004</ele>
   </trkpt>
   <trkpt lat="-37.83428" lon="145.38267000000002">
    <ele>354.90999999999997</ele>
   </trkpt>
   <trkpt lat="-37.83419" lon="145.38279">
    <ele>352.92</ele>
   </trkpt>
   <trkpt lat="-37.8339" lon="145.38292">
    <ele>346.71000000000004</ele>
   </trkpt>
   <trkpt lat="-37.83357" lon="145.383">
    <ele>338.25000000000006</ele>
   </trkpt>
   <trkpt lat="-37.83346" lon="145.38306">
    <ele>338.25000000000006</ele>
   </trkpt>
   <trkpt lat="-37.8333" lon="145.38317">
    <ele>335.33</ele>
   </trkpt>
   <trkpt lat="-37.833000000000006" lon="145.38347000000002">
    <ele>322.18</ele>
   </trkpt>
   <trkpt lat="-37.8324" lon="145.3838">
    <ele>311.18</ele>
   </trkpt>
   <trkpt lat="-37.83231" lon="145.38392000000002">
    <ele>309.67</ele>
   </trkpt>
   <trkpt lat="-37.83211" lon="145.38427000000001">
    <ele>305.16</ele>
   </trkpt>
   <trkpt lat="-37.83198" lon="145.38464000000002">
    <ele>302.76000000000005</ele>
   </trkpt>
   <trkpt lat="-37.83196" lon="145.38479">
    <ele>301.72</ele>
   </trkpt>
   <trkpt lat="-37.8318" lon="145.38498">
    <ele>300.65000000000003</ele>
   </trkpt>
   <trkpt lat="-37.83173" lon="145.38513">
    <ele>299.94000000000005</ele>
   </trkpt>
   <trkpt lat="-37.83155" lon="145.38576">
    <ele>297.39000000000004</ele>
   </trkpt>
   <trkpt lat="-37.83153" lon="145.38604">
    <ele>296.41</ele>
   </trkpt>
   <trkpt lat="-37.83162" lon="145.38670000000002">
    <ele>293.49</ele>
   </trkpt>
   <trkpt lat="-37.83162" lon="145.38725000000002">
    <ele>288.94</ele>
   </trkpt>
   <trkpt lat="-37.83149" lon="145.38801">
    <ele>283.05</ele>
   </trkpt>
   <trkpt lat="-37.83135" lon="145.38858000000002">
    <ele>278.74</ele>
   </trkpt>
   <trkpt lat="-37.83131" lon="145.38892">
    <ele>277.74</ele>
   </trkpt>
   <trkpt lat="-37.83124" lon="145.38937">
    <ele>274.72</ele>
   </trkpt>
   <trkpt lat="-37.83122" lon="145.39006">
    <ele>270.21</ele>
   </trkpt>
   <trkpt lat="-37.83104" lon="145.3908">
    <ele>266.12</ele>
   </trkpt>
   <trkpt lat="-37.83043" lon="145.39088">
    <ele>262.39</ele>
   </trkpt>
   <trkpt lat="-37.82994" lon="145.39091000000002">
    <ele>260.32</ele>
   </trkpt>
   <trkpt lat="-37.82972" lon="145.39087">
    <ele>259.64000000000004</ele>
   </trkpt>
   <trkpt lat="-37.82952" lon="145.39076">
    <ele>259.05</ele>
   </trkpt>
   <trkpt lat="-37.82936" lon="145.39064000000002">
    <ele>258.51</ele>
   </trkpt>
   <trkpt lat="-37.829350000000005" lon="145.39053">
    <ele>258.79</ele>
   </trkpt>
   <trkpt lat="-37.82927" lon="145.39053">
    <ele>258.49</ele>
   </trkpt>
   <trkpt lat="-37.8292" lon="145.39066000000003">
    <ele>258.23</ele>
   </trkpt>
   <trkpt lat="-37.82909" lon="145.39100000000002">
    <ele>258.09999999999997</ele>
   </trkpt>
   <trkpt lat="-37.82902" lon="145.39116">
    <ele>258.11</ele>
   </trkpt>
   <trkpt lat="-37.82869" lon="145.39164000000002">
    <ele>258.59999999999997</ele>
   </trkpt>
   <trkpt lat="-37.8286" lon="145.39170000000001">
    <ele>258.59999999999997</ele>
   </trkpt>
   <trkpt lat="-37.82846" lon="145.39174">
    <ele>258.28000000000003</ele>
   </trkpt>
   <trkpt lat="-37.8282" lon="145.39166">
    <ele>257.53000000000003</ele>
   </trkpt>
   <trkpt lat="-37.828160000000004" lon="145.39166">
    <ele>257.53000000000003</ele>
   </trkpt>
   <trkpt lat="-37.82782" lon="145.39147">
    <ele>254.47000000000003</ele>
   </trkpt>
   <trkpt lat="-37.82728" lon="145.39110000000002">
    <ele>250.48000000000002</ele>
   </trkpt>
   <trkpt lat="-37.82701" lon="145.39096">
    <ele>248.87</ele>
   </trkpt>
   <trkpt lat="-37.82674" lon="145.39086">
    <ele>245.12000000000003</ele>
   </trkpt>
   <trkpt lat="-37.82661" lon="145.39093000000003">
    <ele>244.38</ele>
   </trkpt>
   <trkpt lat="-37.82647" lon="145.39103">
    <ele>242.89000000000001</ele>
   </trkpt>
   <trkpt lat="-37.82636" lon="145.3912">
    <ele>242.25000000000003</ele>
   </trkpt>
   <trkpt lat="-37.82611" lon="145.39178">
    <ele>240.50000000000003</ele>
   </trkpt>
   <trkpt lat="-37.82587" lon="145.39213">
    <ele>240.51000000000002</ele>
   </trkpt>
   <trkpt lat="-37.82558" lon="145.39251000000002">
    <ele>241.97000000000003</ele>
   </trkpt>
   <trkpt lat="-37.82549" lon="145.39275">
    <ele>244.24</ele>
   </trkpt>
   <trkpt lat="-37.82528000000001" lon="145.39302">
    <ele>247.47000000000003</ele>
   </trkpt>
   <trkpt lat="-37.82515" lon="145.39312">
    <ele>249.52</ele>
   </trkpt>
   <trkpt lat="-37.82486" lon="145.39357">
    <ele>258.57</ele>
   </trkpt>
   <trkpt lat="-37.824740000000006" lon="145.39372">
    <ele>261.19000000000005</ele>
   </trkpt>
   <trkpt lat="-37.82417" lon="145.39417">
    <ele>274.71</ele>
   </trkpt>
   <trkpt lat="-37.823890000000006" lon="145.39452">
    <ele>281.83000000000004</ele>
   </trkpt>
   <trkpt lat="-37.82374" lon="145.39478000000003">
    <ele>283.48</ele>
   </trkpt>
   <trkpt lat="-37.82354" lon="145.39499">
    <ele>287.58</ele>
   </trkpt>
   <trkpt lat="-37.823240000000006" lon="145.39521000000002">
    <ele>290.67</ele>
   </trkpt>
   <trkpt lat="-37.82267" lon="145.39543">
    <ele>295.51000000000005</ele>
   </trkpt>
   <trkpt lat="-37.822590000000005" lon="145.39541">
    <ele>295.51000000000005</ele>
   </trkpt>
   <trkpt lat="-37.82235" lon="145.39530000000002">
    <ele>298.31</ele>
   </trkpt>
   <trkpt lat="-37.82222" lon="145.39527">
    <ele>300.31</ele>
   </trkpt>
   <trkpt lat="-37.82193" lon="145.39532">
    <ele>303.58</ele>
   </trkpt>
   <trkpt lat="-37.821450000000006" lon="145.39530000000002">
    <ele>307.86</ele>
   </trkpt>
   <trkpt lat="-37.82121" lon="145.39530000000002">
    <ele>311.37</ele>
   </trkpt>
   <trkpt lat="-37.82099" lon="145.39538000000002">
    <ele>316.01</ele>
   </trkpt>
   <trkpt lat="-37.8207" lon="145.39543">
    <ele>322.34000000000003</ele>
   </trkpt>
   <trkpt lat="-37.81998" lon="145.39567000000002">
    <ele>339.09</ele>
   </trkpt>
   <trkpt lat="-37.81976" lon="145.39572">
    <ele>343.43</ele>
   </trkpt>
   <trkpt lat="-37.81947" lon="145.39585000000002">
    <ele>347.83000000000004</ele>
   </trkpt>
   <trkpt lat="-37.81929" lon="145.39589">
    <ele>350.39000000000004</ele>
   </trkpt>
   <trkpt lat="-37.81897" lon="145.39602000000002">
    <ele>354.31</ele>
   </trkpt>
   <trkpt lat="-37.81864" lon="145.39611000000002">
    <ele>356.95000000000005</ele>
   </trkpt>
   <trkpt lat="-37.81855" lon="145.39604">
    <ele>358.43</ele>
   </trkpt>
   <trkpt lat="-37.81853" lon="145.39600000000002">
    <ele>358.43</ele>
   </trkpt>
   <trkpt lat="-37.818490000000004" lon="145.39585000000002">
    <ele>359.49</ele>
   </trkpt>
   <trkpt lat="-37.81848" lon="145.39561">
    <ele>361.90000000000003</ele>
   </trkpt>
   <trkpt lat="-37.81821" lon="145.3957">
    <ele>359.97</ele>
   </trkpt>
   <trkpt lat="-37.8181" lon="145.39571">
    <ele>359.97</ele>
   </trkpt>
   <trkpt lat="-37.81801" lon="145.39569">
    <ele>358.16</ele>
   </trkpt>
   <trkpt lat="-37.8179" lon="145.39562">
    <ele>356.87</ele>
   </trkpt>
   <trkpt lat="-37.81785" lon="145.39561">
    <ele>356.87</ele>
   </trkpt>
   <trkpt lat="-37.81776" lon="145.39566000000002">
    <ele>355.48</ele>
   </trkpt>
   <trkpt lat="-37.81772" lon="145.39582000000001">
    <ele>353.22</ele>
   </trkpt>
   <trkpt lat="-37.81765" lon="145.3959">
    <ele>352.7</ele>
   </trkpt>
   <trkpt lat="-37.81761" lon="145.39591000000001">
    <ele>352.25</ele>
   </trkpt>
   <trkpt lat="-37.81745" lon="145.39589">
    <ele>351.37</ele>
   </trkpt>
   <trkpt lat="-37.81732" lon="145.39592000000002">
    <ele>350.81</ele>
   </trkpt>
   <trkpt lat="-37.81707" lon="145.39607">
    <ele>350.37</ele>
   </trkpt>
   <trkpt lat="-37.81662" lon="145.39625">
    <ele>348.69000000000005</ele>
   </trkpt>
   <trkpt lat="-37.81658" lon="145.39624">
    <ele>348.26</ele>
   </trkpt>
   <trkpt lat="-37.81644" lon="145.39613">
    <ele>347.36</ele>
   </trkpt>
   <trkpt lat="-37.81642" lon="145.39603000000002">
    <ele>346.40000000000003</ele>
   </trkpt>
   <trkpt lat="-37.81638" lon="145.39595">
    <ele>345.76</ele>
   </trkpt>
   <trkpt lat="-37.8162" lon="145.3959">
    <ele>342.08000000000004</ele>
   </trkpt>
   <trkpt lat="-37.81611" lon="145.3959">
    <ele>340.39000000000004</ele>
   </trkpt>
   <trkpt lat="-37.81597" lon="145.39600000000002">
    <ele>338.16</ele>
   </trkpt>
   <trkpt lat="-37.81577" lon="145.39624">
    <ele>334.90000000000003</ele>
   </trkpt>
   <trkpt lat="-37.8157" lon="145.39626">
    <ele>334.90000000000003</ele>
   </trkpt>
   <trkpt lat="-37.81568" lon="145.39619000000002">
    <ele>334.90000000000003</ele>
   </trkpt>
   <trkpt lat="-37.81564" lon="145.39619000000002">
    <ele>330.26000000000005</ele>
   </trkpt>
   <trkpt lat="-37.81555" lon="145.39626">
    <ele>330.26000000000005</ele>
   </trkpt>
   <trkpt lat="-37.81553" lon="145.39625">
    <ele>330.26000000000005</ele>
   </trkpt>
   <trkpt lat="-37.81548" lon="145.39618000000002">
    <ele>328.77</ele>
   </trkpt>
   <trkpt lat="-37.81564" lon="145.39594000000002">
    <ele>325.42</ele>
   </trkpt>
   <trkpt lat="-37.815810000000006" lon="145.3955">
    <ele>323.64000000000004</ele>
   </trkpt>
   <trkpt lat="-37.815850000000005" lon="145.39543">
    <ele>323.42</ele>
   </trkpt>
   <trkpt lat="-37.81595" lon="145.39520000000002">
    <ele>321.65000000000003</ele>
   </trkpt>
   <trkpt lat="-37.81579" lon="145.39526">
    <ele>318.86</ele>
   </trkpt>
   <trkpt lat="-37.81564" lon="145.39538000000002">
    <ele>316.41</ele>
   </trkpt>
   <trkpt lat="-37.81553" lon="145.39559">
    <ele>314.5</ele>
   </trkpt>
   <trkpt lat="-37.81541" lon="145.39571">
    <ele>314.04</ele>
   </trkpt>
   <trkpt lat="-37.815160000000006" lon="145.39585000000002">
    <ele>313.27000000000004</ele>
   </trkpt>
   <trkpt lat="-37.81501" lon="145.39595">
    <ele>313.14000000000004</ele>
   </trkpt>
   <trkpt lat="-37.81488" lon="145.39609000000002">
    <ele>312.76000000000005</ele>
   </trkpt>
   <trkpt lat="-37.81485" lon="145.39616">
    <ele>312.5</ele>
   </trkpt>
   <trkpt lat="-37.81481" lon="145.39607">
    <ele>311.76000000000005</ele>
   </trkpt>
   <trkpt lat="-37.81479" lon="145.39596">
    <ele>310.91</ele>
   </trkpt>
   <trkpt lat="-37.81481" lon="145.39588">
    <ele>310.51</ele>
   </trkpt>
   <trkpt lat="-37.81488" lon="145.39579">
    <ele>309.54</ele>
   </trkpt>
   <trkpt lat="-37.81526" lon="145.39556000000002">
    <ele>307.21000000000004</ele>
   </trkpt>
   <trkpt lat="-37.815540000000006" lon="145.39511000000002">
    <ele>306.03000000000003</ele>
   </trkpt>
   <trkpt lat="-37.81555" lon="145.39502000000002">
    <ele>305.21000000000004</ele>
   </trkpt>
   <trkpt lat="-37.81548" lon="145.39493000000002">
    <ele>303.82000000000005</ele>
   </trkpt>
   <trkpt lat="-37.81535" lon="145.39498">
    <ele>301.18</ele>
   </trkpt>
   <trkpt lat="-37.81508" lon="145.39530000000002">
    <ele>298.03000000000003</ele>
   </trkpt>
   <trkpt lat="-37.81488" lon="145.39536">
    <ele>297.51</ele>
   </trkpt>
   <trkpt lat="-37.81467" lon="145.39551">
    <ele>297.9</ele>
   </trkpt>
   <trkpt lat="-37.81461" lon="145.3956">
    <ele>298.04</ele>
   </trkpt>
   <trkpt lat="-37.81452" lon="145.39582000000001">
    <ele>299.23</ele>
   </trkpt>
   <trkpt lat="-37.81434" lon="145.39602000000002">
    <ele>298.43</ele>
   </trkpt>
   <trkpt lat="-37.81425" lon="145.39624">
    <ele>295.77000000000004</ele>
   </trkpt>
   <trkpt lat="-37.81427" lon="145.39647000000002">
    <ele>294.64</ele>
   </trkpt>
   <trkpt lat="-37.81432" lon="145.39667">
    <ele>293.21000000000004</ele>
   </trkpt>
   <trkpt lat="-37.81425" lon="145.39671">
    <ele>291.97</ele>
   </trkpt>
   <trkpt lat="-37.81414" lon="145.39663000000002">
    <ele>288.6</ele>
   </trkpt>
   <trkpt lat="-37.81405" lon="145.39655000000002">
    <ele>287.79</ele>
   </trkpt>
   <trkpt lat="-37.81387" lon="145.39618000000002">
    <ele>283.42</ele>
   </trkpt>
   <trkpt lat="-37.81391" lon="145.39592000000002">
    <ele>282.15000000000003</ele>
   </trkpt>
   <trkpt lat="-37.81398" lon="145.39566000000002">
    <ele>280.54</ele>
   </trkpt>
   <trkpt lat="-37.81407" lon="145.39546">
    <ele>279.72</ele>
   </trkpt>
   <trkpt lat="-37.81407" lon="145.39542">
    <ele>279.72</ele>
   </trkpt>
   <trkpt lat="-37.814" lon="145.39542">
    <ele>279.0</ele>
   </trkpt>
   <trkpt lat="-37.81385" lon="145.39562">
    <ele>275.28000000000003</ele>
   </trkpt>
   <trkpt lat="-37.81367" lon="145.39581">
    <ele>272.68</ele>
   </trkpt>
   <trkpt lat="-37.81358" lon="145.39583000000002">
    <ele>271.11</ele>
   </trkpt>
   <trkpt lat="-37.813570000000006" lon="145.3956">
    <ele>269.14000000000004</ele>
   </trkpt>
   <trkpt lat="-37.81349" lon="145.39532">
    <ele>261.26000000000005</ele>
   </trkpt>
   <trkpt lat="-37.81344" lon="145.39523">
    <ele>257.61</ele>
   </trkpt>
   <trkpt lat="-37.81326" lon="145.39535">
    <ele>253.5</ele>
   </trkpt>
   <trkpt lat="-37.81315" lon="145.39547000000002">
    <ele>250.4</ele>
   </trkpt>
   <trkpt lat="-37.813100000000006" lon="145.39549000000002">
    <ele>250.4</ele>
   </trkpt>
   <trkpt lat="-37.81293" lon="145.39548000000002">
    <ele>245.78000000000003</ele>
   </trkpt>
   <trkpt lat="-37.81279" lon="145.39551">
    <ele>243.70000000000002</ele>
   </trkpt>
   <trkpt lat="-37.81259" lon="145.3956">
    <ele>237.28</ele>
   </trkpt>
   <trkpt lat="-37.81237" lon="145.3956">
    <ele>232.58</ele>
   </trkpt>
   <trkpt lat="-37.81221" lon="145.39567000000002">
    <ele>230.89000000000001</ele>
   </trkpt>
   <trkpt lat="-37.81197" lon="145.39574000000002">
    <ele>226.47000000000003</ele>
   </trkpt>
   <trkpt lat="-37.8119" lon="145.39583000000002">
    <ele>224.76000000000002</ele>
   </trkpt>
   <trkpt lat="-37.81185" lon="145.39614">
    <ele>222.67000000000002</ele>
   </trkpt>
   <trkpt lat="-37.81186" lon="145.39612000000002">
    <ele>222.73000000000002</ele>
   </trkpt>
   <trkpt lat="-37.81166" lon="145.3968">
    <ele>217.84</ele>
   </trkpt>
   <trkpt lat="-37.81156" lon="145.39692000000002">
    <ele>215.82</ele>
   </trkpt>
   <trkpt lat="-37.81141" lon="145.39698">
    <ele>214.3</ele>
   </trkpt>
   <trkpt lat="-37.81125" lon="145.39697">
    <ele>213.58</ele>
   </trkpt>
   <trkpt lat="-37.811170000000004" lon="145.39678">
    <ele>213.4</ele>
   </trkpt>
   <trkpt lat="-37.81114" lon="145.39649">
    <ele>214.00000000000003</ele>
   </trkpt>
   <trkpt lat="-37.81089" lon="145.39578">
    <ele>211.1</ele>
   </trkpt>
   <trkpt lat="-37.81067" lon="145.39538000000002">
    <ele>211.05</ele>
   </trkpt>
   <trkpt lat="-37.81038" lon="145.39503000000002">
    <ele>216.68</ele>
   </trkpt>
   <trkpt lat="-37.810280000000006" lon="145.39497">
    <ele>217.72000000000003</ele>
   </trkpt>
   <trkpt lat="-37.81" lon="145.39474">
    <ele>217.31000000000003</ele>
   </trkpt>
   <trkpt lat="-37.80978" lon="145.39460000000003">
    <ele>216.56000000000003</ele>
   </trkpt>
   <trkpt lat="-37.80991" lon="145.39425">
    <ele>220.02</ele>
   </trkpt>
   <trkpt lat="-37.81002" lon="145.39404000000002">
    <ele>223.77</ele>
   </trkpt>
   <trkpt lat="-37.81015" lon="145.39394000000001">
    <ele>226.56</ele>
   </trkpt>
   <trkpt lat="-37.81053" lon="145.39382">
    <ele>231.87</ele>
   </trkpt>
   <trkpt lat="-37.81087" lon="145.39360000000002">
    <ele>240.29000000000002</ele>
   </trkpt>
   <trkpt lat="-37.81116" lon="145.39332000000002">
    <ele>248.39000000000001</ele>
   </trkpt>
   <trkpt lat="-37.8117" lon="145.39260000000002">
    <ele>265.48</ele>
   </trkpt>
   <trkpt lat="-37.81202000088855" lon="145.3921650017647">
    <ele>280.02000000000004</ele>
   </trkpt>
   <trkpt lat="-37.812340000000006" lon="145.39173000000002">
    <ele>294.77000000000004</ele>
   </trkpt>
   <trkpt lat="-37.81214000394492" lon="145.390764997429">
    <ele>317.02000000000004</ele>
   </trkpt>
   <trkpt lat="-37.81194" lon="145.3898">
    <ele>337.13000000000005</ele>
   </trkpt>
   <trkpt lat="-37.81195" lon="145.38979">
    <ele>337.23</ele>
   </trkpt>
   <trkpt lat="-37.81203" lon="145.38975000000002">
    <ele>339.56</ele>
   </trkpt>
   <trkpt lat="-37.8123" lon="145.38979">
    <ele>342.51000000000005</ele>
   </trkpt>
   <trkpt lat="-37.81239" lon="145.38978">
    <ele>345.27000000000004</ele>
   </trkpt>
   <trkpt lat="-37.8125" lon="145.3896">
    <ele>347.65000000000003</ele>
   </trkpt>
   <trkpt lat="-37.81257" lon="145.38959">
    <ele>348.92</ele>
   </trkpt>
   <trkpt lat="-37.812580000000004" lon="145.38959">
    <ele>348.92</ele>
   </trkpt>
   <trkpt lat="-37.812630000000006" lon="145.3896">
    <ele>348.92</ele>
   </trkpt>
   <trkpt lat="-37.81273" lon="145.38967000000002">
    <ele>351.72</ele>
   </trkpt>
   <trkpt lat="-37.81286" lon="145.38968">
    <ele>352.93</ele>
   </trkpt>
   <trkpt lat="-37.81304" lon="145.38957000000002">
    <ele>356.22</ele>
   </trkpt>
   <trkpt lat="-37.81313" lon="145.38956000000002">
    <ele>357.51000000000005</ele>
   </trkpt>
   <trkpt lat="-37.81335" lon="145.38966000000002">
    <ele>360.57000000000005</ele>
   </trkpt>
   <trkpt lat="-37.81362" lon="145.38951">
    <ele>364.87</ele>
   </trkpt>
   <trkpt lat="-37.81369" lon="145.38944">
    <ele>367.45000000000005</ele>
   </trkpt>
   <trkpt lat="-37.81385" lon="145.38940000000002">
    <ele>370.33000000000004</ele>
   </trkpt>
   <trkpt lat="-37.81405" lon="145.38946">
    <ele>375.44000000000005</ele>
   </trkpt>
   <trkpt lat="-37.81423" lon="145.38957000000002">
    <ele>378.76000000000005</ele>
   </trkpt>
   <trkpt lat="-37.81445" lon="145.38987">
    <ele>382.21999999999997</ele>
   </trkpt>
   <trkpt lat="-37.81452" lon="145.38992000000002">
    <ele>383.52000000000004</ele>
   </trkpt>
   <trkpt lat="-37.814890000000005" lon="145.39005">
    <ele>390.90000000000003</ele>
   </trkpt>
   <trkpt lat="-37.81492" lon="145.39007">
    <ele>391.26000000000005</ele>
   </trkpt>
   <trkpt lat="-37.81501" lon="145.39004">
    <ele>392.59000000000003</ele>
   </trkpt>
   <trkpt lat="-37.81503" lon="145.39001000000002">
    <ele>393.17</ele>
   </trkpt>
   <trkpt lat="-37.81503" lon="145.38986">
    <ele>392.93000000000006</ele>
   </trkpt>
   <trkpt lat="-37.81476" lon="145.38943">
    <ele>387.73</ele>
   </trkpt>
   <trkpt lat="-37.81472" lon="145.38927">
    <ele>384.68</ele>
   </trkpt>
   <trkpt lat="-37.81472" lon="145.38914000000003">
    <ele>383.39</ele>
   </trkpt>
   <trkpt lat="-37.81476" lon="145.38897">
    <ele>382.11</ele>
   </trkpt>
   <trkpt lat="-37.8149" lon="145.38855">
    <ele>379.23</ele>
   </trkpt>
   <trkpt lat="-37.81499" lon="145.38819">
    <ele>372.6</ele>
   </trkpt>
   <trkpt lat="-37.81501" lon="145.38777000000002">
    <ele>367.25</ele>
   </trkpt>
   <trkpt lat="-37.81499" lon="145.38769000000002">
    <ele>366.55</ele>
   </trkpt>
   <trkpt lat="-37.814910000000005" lon="145.38760000000002">
    <ele>365.25</ele>
   </trkpt>
   <trkpt lat="-37.81559" lon="145.38736">
    <ele>361.82000000000005</ele>
   </trkpt>
   <trkpt lat="-37.81568" lon="145.38728">
    <ele>361.00000000000006</ele>
   </trkpt>
   <trkpt lat="-37.8157" lon="145.38694">
    <ele>360.86</ele>
   </trkpt>
   <trkpt lat="-37.81566" lon="145.38664">
    <ele>361.86</ele>
   </trkpt>
   <trkpt lat="-37.81564" lon="145.38616000000002">
    <ele>364.06000000000006</ele>
   </trkpt>
   <trkpt lat="-37.81559" lon="145.38597000000001">
    <ele>364.56000000000006</ele>
   </trkpt>
   <trkpt lat="-37.81548" lon="145.38594">
    <ele>364.69</ele>
   </trkpt>
   <trkpt lat="-37.8153" lon="145.3853">
    <ele>366.41</ele>
   </trkpt>
   <trkpt lat="-37.81517" lon="145.38471">
    <ele>371.58000000000004</ele>
   </trkpt>
   <trkpt lat="-37.81562" lon="145.38453">
    <ele>379.93000000000006</ele>
   </trkpt>
   <trkpt lat="-37.81564" lon="145.38443">
    <ele>380.54</ele>
   </trkpt>
   <trkpt lat="-37.81564" lon="145.38433">
    <ele>381.86</ele>
   </trkpt>
   <trkpt lat="-37.81544000139864" lon="145.38374999836125">
    <ele>389.87000000000006</ele>
   </trkpt>
   <trkpt lat="-37.81524" lon="145.38317">
    <ele>395.08000000000004</ele>
   </trkpt>
   <trkpt lat="-37.8149" lon="145.38214000000002">
    <ele>398.14000000000004</ele>
   </trkpt>
   <trkpt lat="-37.814800000000005" lon="145.3813">
    <ele>400.17</ele>
   </trkpt>
   <trkpt lat="-37.81481" lon="145.38123000000002">
    <ele>400.40000000000003</ele>
   </trkpt>
   <trkpt lat="-37.81479" lon="145.38067">
    <ele>404.58000000000004</ele>
   </trkpt>
   <trkpt lat="-37.81503500216213" lon="145.37995000247477">
    <ele>409.79</ele>
   </trkpt>
   <trkpt lat="-37.81528" lon="145.37923">
    <ele>415.63000000000005</ele>
   </trkpt>
   <trkpt lat="-37.815290000000005" lon="145.37902000000003">
    <ele>416.96000000000004</ele>
   </trkpt>
   <trkpt lat="-37.815290000000005" lon="145.37898">
    <ele>417.2</ele>
   </trkpt>
   <trkpt lat="-37.8153" lon="145.37861">
    <ele>419.13000000000005</ele>
   </trkpt>
   <trkpt lat="-37.814980000000006" lon="145.37811000000002">
    <ele>424.95000000000005</ele>
   </trkpt>
   <trkpt lat="-37.814515001477275" lon="145.37752499635408">
    <ele>431.32000000000005</ele>
   </trkpt>
   <trkpt lat="-37.81405" lon="145.37694000000002">
    <ele>436.82000000000005</ele>
   </trkpt>
   <trkpt lat="-37.813950001576174" lon="145.37632499902864">
    <ele>441.72</ele>
   </trkpt>
   <trkpt lat="-37.81385" lon="145.37571">
    <ele>444.93000000000006</ele>
   </trkpt>
   <trkpt lat="-37.81367000265798" lon="145.37491499800237">
    <ele>453.98</ele>
   </trkpt>
   <trkpt lat="-37.81349" lon="145.37412">
    <ele>458.38000000000005</ele>
   </trkpt>
   <trkpt lat="-37.81331" lon="145.37307">
    <ele>459.37000000000006</ele>
   </trkpt>
   <trkpt lat="-37.81358" lon="145.37265000000002">
    <ele>460.69000000000005</ele>
   </trkpt>
   <trkpt lat="-37.81396" lon="145.37239000000002">
    <ele>463.45000000000005</ele>
   </trkpt>
   <trkpt lat="-37.81441" lon="145.37232">
    <ele>464.93000000000006</ele>
   </trkpt>
   <trkpt lat="-37.81459" lon="145.37207">
    <ele>466.82</ele>
   </trkpt>
   <trkpt lat="-37.81459" lon="145.37206">
    <ele>466.88</ele>
   </trkpt>
   <trkpt lat="-37.81461" lon="145.37204">
    <ele>466.88</ele>
   </trkpt>
   <trkpt lat="-37.81479" lon="145.37143">
    <ele>471.95000000000005</ele>
   </trkpt>
   <trkpt lat="-37.81481" lon="145.37055">
    <ele>475.23</ele>
   </trkpt>
   <trkpt lat="-37.81467" lon="145.36967">
    <ele>467.59000000000003</ele>
   </trkpt>
   <trkpt lat="-37.81459" lon="145.36878000000002">
    <ele>458.78000000000003</ele>
   </trkpt>
   <trkpt lat="-37.81459" lon="145.36827000000002">
    <ele>454.77000000000004</ele>
   </trkpt>
   <trkpt lat="-37.8147" lon="145.36782000000002">
    <ele>450.6</ele>
   </trkpt>
   <trkpt lat="-37.81488" lon="145.36741">
    <ele>446.91</ele>
   </trkpt>
   <trkpt lat="-37.81508" lon="145.36724">
    <ele>445.01</ele>
   </trkpt>
   <trkpt lat="-37.81537" lon="145.36716">
    <ele>444.63</ele>
   </trkpt>
   <trkpt lat="-37.8155" lon="145.36708000000002">
    <ele>445.72</ele>
   </trkpt>
   <trkpt lat="-37.81573" lon="145.36681000000002">
    <ele>448.11000000000007</ele>
   </trkpt>
   <trkpt lat="-37.81615" lon="145.36669">
    <ele>453.11</ele>
   </trkpt>
   <trkpt lat="-37.81683000009892" lon="145.36669999990934">
    <ele>460.92</ele>
   </trkpt>
   <trkpt lat="-37.817510000000006" lon="145.36671">
    <ele>469.03000000000003</ele>
   </trkpt>
   <trkpt lat="-37.81765" lon="145.36620000000002">
    <ele>472.83000000000004</ele>
   </trkpt>
   <trkpt lat="-37.81774" lon="145.36595">
    <ele>472.49</ele>
   </trkpt>
   <trkpt lat="-37.81774" lon="145.36581">
    <ele>471.08000000000004</ele>
   </trkpt>
   <trkpt lat="-37.8177" lon="145.36568000000003">
    <ele>470.73</ele>
   </trkpt>
   <trkpt lat="-37.817600000000006" lon="145.36507">
    <ele>466.68</ele>
   </trkpt>
   <trkpt lat="-37.817600000000006" lon="145.36438">
    <ele>464.97</ele>
   </trkpt>
   <trkpt lat="-37.81765" lon="145.36397000000002">
    <ele>463.52000000000004</ele>
   </trkpt>
   <trkpt lat="-37.81779" lon="145.36370000000002">
    <ele>463.33</ele>
   </trkpt>
   <trkpt lat="-37.817980000000006" lon="145.36344000000003">
    <ele>462.59000000000003</ele>
   </trkpt>
   <trkpt lat="-37.8183" lon="145.36328">
    <ele>462.57000000000005</ele>
   </trkpt>
   <trkpt lat="-37.81877" lon="145.36299000000002">
    <ele>469.07000000000005</ele>
   </trkpt>
   <trkpt lat="-37.81917" lon="145.36299000000002">
    <ele>480.05</ele>
   </trkpt>
   <trkpt lat="-37.81931" lon="145.36299000000002">
    <ele>484.53000000000003</ele>
   </trkpt>
   <trkpt lat="-37.81949" lon="145.36302">
    <ele>496.34000000000003</ele>
   </trkpt>
   <trkpt lat="-37.81958" lon="145.36325000000002">
    <ele>502.07</ele>
   </trkpt>
   <trkpt lat="-37.81969" lon="145.36317000000003">
    <ele>503.45000000000005</ele>
   </trkpt>
   <trkpt lat="-37.81976" lon="145.36298000000002">
    <ele>503.4200000000001</ele>
   </trkpt>
   <trkpt lat="-37.81996" lon="145.36259">
    <ele>505.97</ele>
   </trkpt>
   <trkpt lat="-37.82016" lon="145.36235000000002">
    <ele>511.19</ele>
   </trkpt>
   <trkpt lat="-37.82092" lon="145.36214">
    <ele>536.76</ele>
   </trkpt>
   <trkpt lat="-37.82114" lon="145.36204">
    <ele>544.12</ele>
   </trkpt>
   <trkpt lat="-37.82168" lon="145.36193">
    <ele>551.5600000000001</ele>
   </trkpt>
   <trkpt lat="-37.82186" lon="145.36196">
    <ele>552.46</ele>
   </trkpt>
   <trkpt lat="-37.82222" lon="145.36195">
    <ele>552.07</ele>
   </trkpt>
   <trkpt lat="-37.822390000000006" lon="145.36191000000002">
    <ele>551.9900000000001</ele>
   </trkpt>
   <trkpt lat="-37.82251" lon="145.36179">
    <ele>551.8100000000001</ele>
   </trkpt>
   <trkpt lat="-37.82278" lon="145.36161">
    <ele>550.94</ele>
   </trkpt>
   <trkpt lat="-37.82285" lon="145.36151">
    <ele>550.8100000000001</ele>
   </trkpt>
   <trkpt lat="-37.82287" lon="145.36139">
    <ele>550.44</ele>
   </trkpt>
   <trkpt lat="-37.82251" lon="145.36086">
    <ele>540.2800000000001</ele>
   </trkpt>
   <trkpt lat="-37.82247" lon="145.36068">
    <ele>538.5699999999999</ele>
   </trkpt>
   <trkpt lat="-37.82251" lon="145.36048000000002">
    <ele>537.2800000000001</ele>
   </trkpt>
   <trkpt lat="-37.822860000000006" lon="145.35979">
    <ele>540.48</ele>
   </trkpt>
   <trkpt lat="-37.82287" lon="145.35977000000003">
    <ele>540.48</ele>
   </trkpt>
   <trkpt lat="-37.82314" lon="145.35915">
    <ele>541.45</ele>
   </trkpt>
   <trkpt lat="-37.82334" lon="145.3588">
    <ele>546.8700000000001</ele>
   </trkpt>
   <trkpt lat="-37.8237" lon="145.35811">
    <ele>547.7200000000001</ele>
   </trkpt>
   <trkpt lat="-37.82405" lon="145.35753000000003">
    <ele>545.24</ele>
   </trkpt>
   <trkpt lat="-37.82419" lon="145.35738">
    <ele>545.51</ele>
   </trkpt>
   <trkpt lat="-37.82493" lon="145.35696000000002">
    <ele>557.62</ele>
   </trkpt>
   <trkpt lat="-37.82504" lon="145.35681000000002">
    <ele>558.2900000000001</ele>
   </trkpt>
   <trkpt lat="-37.825320000000005" lon="145.35658">
    <ele>564.4200000000001</ele>
   </trkpt>
   <trkpt lat="-37.82526" lon="145.35688000000002">
    <ele>562.59</ele>
   </trkpt>
   <trkpt lat="-37.82524" lon="145.35717000000002">
    <ele>560.23</ele>
   </trkpt>
   <trkpt lat="-37.825250000000004" lon="145.35765">
    <ele>555.25</ele>
   </trkpt>
   <trkpt lat="-37.82531" lon="145.35758">
    <ele>551.64</ele>
   </trkpt>
   <trkpt lat="-37.825250000000004" lon="145.35765">
    <ele>555.25</ele>
   </trkpt>
   <trkpt lat="-37.82524" lon="145.35717000000002">
    <ele>560.23</ele>
   </trkpt>
   <trkpt lat="-37.82526" lon="145.35688000000002">
    <ele>562.59</ele>
   </trkpt>
   <trkpt lat="-37.82536" lon="145.35629">
    <ele>566.88</ele>
   </trkpt>
   <trkpt lat="-37.82529" lon="145.35569">
    <ele>570.6</ele>
   </trkpt>
   <trkpt lat="-37.82529" lon="145.35529000000002">
    <ele>571.22</ele>
   </trkpt>
   <trkpt lat="-37.82531" lon="145.35505">
    <ele>571.72</ele>
   </trkpt>
   <trkpt lat="-37.82535" lon="145.35486">
    <ele>572.73</ele>
   </trkpt>
   <trkpt lat="-37.82544" lon="145.35431">
    <ele>577.64</ele>
   </trkpt>
   <trkpt lat="-37.82555" lon="145.35337">
    <ele>584.49</ele>
   </trkpt>
   <trkpt lat="-37.82553" lon="145.35331000000002">
    <ele>584.49</ele>
   </trkpt>
   <trkpt lat="-37.82547" lon="145.35287000000002">
    <ele>584.4200000000001</ele>
   </trkpt>
   <trkpt lat="-37.82551" lon="145.35260000000002">
    <ele>583.9700000000001</ele>
   </trkpt>
   <trkpt lat="-37.82558" lon="145.35231000000002">
    <ele>583.21</ele>
   </trkpt>
   <trkpt lat="-37.82596" lon="145.35162000000003">
    <ele>579.95</ele>
   </trkpt>
   <trkpt lat="-37.82625" lon="145.35123000000002">
    <ele>577.5100000000001</ele>
   </trkpt>
   <trkpt lat="-37.82658" lon="145.35101">
    <ele>575.47</ele>
   </trkpt>
   <trkpt lat="-37.82701" lon="145.35084">
    <ele>575.98</ele>
   </trkpt>
   <trkpt lat="-37.82758000007891" lon="145.35072500088367">
    <ele>573.3900000000001</ele>
   </trkpt>
   <trkpt lat="-37.82815" lon="145.35061000000002">
    <ele>574.1700000000001</ele>
   </trkpt>
   <trkpt lat="-37.8286300000965" lon="145.35060500003155">
    <ele>576.01</ele>
   </trkpt>
   <trkpt lat="-37.82911" lon="145.35060000000001">
    <ele>573.16</ele>
   </trkpt>
   <trkpt lat="-37.82943" lon="145.35047">
    <ele>567.22</ele>
   </trkpt>
   <trkpt lat="-37.82963" lon="145.35047">
    <ele>565.2600000000001</ele>
   </trkpt>
   <trkpt lat="-37.82999" lon="145.35055">
    <ele>562.84</ele>
   </trkpt>
   <trkpt lat="-37.83032" lon="145.35069000000001">
    <ele>559.47</ele>
   </trkpt>
   <trkpt lat="-37.83066" lon="145.35092">
    <ele>557.62</ele>
   </trkpt>
   <trkpt lat="-37.83093" lon="145.35097000000002">
    <ele>555.34</ele>
   </trkpt>
   <trkpt lat="-37.83122" lon="145.35091">
    <ele>555.84</ele>
   </trkpt>
   <trkpt lat="-37.83162" lon="145.35071000000002">
    <ele>562.45</ele>
   </trkpt>
   <trkpt lat="-37.831810000000004" lon="145.35057">
    <ele>566.4100000000001</ele>
   </trkpt>
   <trkpt lat="-37.83182" lon="145.35057">
    <ele>566.4100000000001</ele>
   </trkpt>
   <trkpt lat="-37.83196" lon="145.35046">
    <ele>569.8000000000001</ele>
   </trkpt>
   <trkpt lat="-37.83231" lon="145.35010000000003">
    <ele>576.71</ele>
   </trkpt>
   <trkpt lat="-37.83267" lon="145.34969">
    <ele>585.0000000000001</ele>
   </trkpt>
   <trkpt lat="-37.83274" lon="145.34954000000002">
    <ele>585.5600000000001</ele>
   </trkpt>
   <trkpt lat="-37.83287" lon="145.34947000000003">
    <ele>586.37</ele>
   </trkpt>
   <trkpt lat="-37.83296" lon="145.34934">
    <ele>587.34</ele>
   </trkpt>
   <trkpt lat="-37.83323" lon="145.34911000000002">
    <ele>590.86</ele>
   </trkpt>
   <trkpt lat="-37.833330000000004" lon="145.3484">
    <ele>595.25</ele>
   </trkpt>
   <trkpt lat="-37.83346" lon="145.34808">
    <ele>594.62</ele>
   </trkpt>
   <trkpt lat="-37.83379500052499" lon="145.34767500204265">
    <ele>596.7900000000001</ele>
   </trkpt>
   <trkpt lat="-37.83413" lon="145.34727">
    <ele>596.4200000000001</ele>
   </trkpt>
   <trkpt lat="-37.8344" lon="145.34703000000002">
    <ele>596.4200000000001</ele>
   </trkpt>
   <trkpt lat="-37.83487" lon="145.34681">
    <ele>596.33</ele>
   </trkpt>
   <trkpt lat="-37.835060000000006" lon="145.34677000000002">
    <ele>596.7</ele>
   </trkpt>
   <trkpt lat="-37.83574" lon="145.34658000000002">
    <ele>600.4200000000001</ele>
   </trkpt>
   <trkpt lat="-37.83601" lon="145.34655">
    <ele>602.89</ele>
   </trkpt>
   <trkpt lat="-37.8363" lon="145.34654">
    <ele>605.87</ele>
   </trkpt>
   <trkpt lat="-37.83668" lon="145.34659000000002">
    <ele>610.58</ele>
   </trkpt>
   <trkpt lat="-37.83681" lon="145.34658000000002">
    <ele>610.36</ele>
   </trkpt>
   <trkpt lat="-37.83699" lon="145.34654">
    <ele>608.14</ele>
   </trkpt>
   <trkpt lat="-37.83706" lon="145.34649000000002">
    <ele>606.34</ele>
   </trkpt>
   <trkpt lat="-37.83726" lon="145.34629">
    <ele>601.11</ele>
   </trkpt>
   <trkpt lat="-37.83733" lon="145.34626">
    <ele>599.07</ele>
   </trkpt>
   <trkpt lat="-37.8376" lon="145.34623000000002">
    <ele>593.48</ele>
   </trkpt>
   <trkpt lat="-37.83771" lon="145.34619">
    <ele>590.1800000000001</ele>
   </trkpt>
   <trkpt lat="-37.83791" lon="145.34608">
    <ele>585.1800000000001</ele>
   </trkpt>
   <trkpt lat="-37.83813" lon="145.34605000000002">
    <ele>579.32</ele>
   </trkpt>
   <trkpt lat="-37.83834" lon="145.34596000000002">
    <ele>571.28</ele>
   </trkpt>
   <trkpt lat="-37.83843" lon="145.34587000000002">
    <ele>568.72</ele>
   </trkpt>
   <trkpt lat="-37.83856" lon="145.34584">
    <ele>565.73</ele>
   </trkpt>
   <trkpt lat="-37.83872" lon="145.34589000000003">
    <ele>564.24</ele>
   </trkpt>
   <trkpt lat="-37.83896" lon="145.34608">
    <ele>564.3900000000001</ele>
   </trkpt>
   <trkpt lat="-37.83894" lon="145.3462">
    <ele>566.3900000000001</ele>
   </trkpt>
   <trkpt lat="-37.8391" lon="145.34649000000002">
    <ele>571.38</ele>
   </trkpt>
   <trkpt lat="-37.83914" lon="145.34669000000002">
    <ele>572.98</ele>
   </trkpt>
   <trkpt lat="-37.83908" lon="145.34678000000002">
    <ele>575.5300000000001</ele>
   </trkpt>
   <trkpt lat="-37.83896" lon="145.34687000000002">
    <ele>578.33</ele>
   </trkpt>
   <trkpt lat="-37.83885" lon="145.34699">
    <ele>580.85</ele>
   </trkpt>
   <trkpt lat="-37.83858" lon="145.34734">
    <ele>584.6800000000001</ele>
   </trkpt>
   <trkpt lat="-37.8382" lon="145.34754">
    <ele>589.71</ele>
   </trkpt>
   <trkpt lat="-37.83822" lon="145.34768000000003">
    <ele>587.47</ele>
   </trkpt>
   <trkpt lat="-37.83831" lon="145.34782">
    <ele>582.87</ele>
   </trkpt>
   <trkpt lat="-37.83825" lon="145.34805">
    <ele>579.61</ele>
   </trkpt>
   <trkpt lat="-37.83811" lon="145.34829000000002">
    <ele>576.07</ele>
   </trkpt>
   <trkpt lat="-37.83793" lon="145.34877">
    <ele>572.08</ele>
   </trkpt>
   <trkpt lat="-37.83789" lon="145.34899000000001">
    <ele>570.47</ele>
   </trkpt>
   <trkpt lat="-37.83782" lon="145.34913">
    <ele>569.7500000000001</ele>
   </trkpt>
   <trkpt lat="-37.8378" lon="145.34934">
    <ele>568.5400000000001</ele>
   </trkpt>
   <trkpt lat="-37.83773" lon="145.34956000000003">
    <ele>567.4800000000001</ele>
   </trkpt>
   <trkpt lat="-37.83773" lon="145.34973000000002">
    <ele>566.99</ele>
   </trkpt>
   <trkpt lat="-37.83813" lon="145.35073">
    <ele>562.7</ele>
   </trkpt>
   <trkpt lat="-37.83836" lon="145.3512">
    <ele>560.7</ele>
   </trkpt>
   <trkpt lat="-37.838750000000005" lon="145.35182">
    <ele>558.0</ele>
   </trkpt>
   <trkpt lat="-37.83881" lon="145.35162000000003">
    <ele>554.5500000000001</ele>
   </trkpt>
   <trkpt lat="-37.83939" lon="145.35106000000002">
    <ele>538.88</ele>
   </trkpt>
   <trkpt lat="-37.8395" lon="145.35102">
    <ele>538.88</ele>
   </trkpt>
   <trkpt lat="-37.8397" lon="145.35112">
    <ele>537.47</ele>
   </trkpt>
   <trkpt lat="-37.839760000000005" lon="145.35119">
    <ele>537.1700000000001</ele>
   </trkpt>
   <trkpt lat="-37.83988" lon="145.35101">
    <ele>531.03</ele>
   </trkpt>
   <trkpt lat="-37.8399" lon="145.35085">
    <ele>528.86</ele>
   </trkpt>
   <trkpt lat="-37.83988" lon="145.35062000000002">
    <ele>528.46</ele>
   </trkpt>
   <trkpt lat="-37.83982" lon="145.35049">
    <ele>529.02</ele>
   </trkpt>
   <trkpt lat="-37.839760000000005" lon="145.35031">
    <ele>529.0</ele>
   </trkpt>
   <trkpt lat="-37.839740000000006" lon="145.35017000000002">
    <ele>529.0</ele>
   </trkpt>
   <trkpt lat="-37.83977" lon="145.35002">
    <ele>524.17</ele>
   </trkpt>
   <trkpt lat="-37.83986" lon="145.34988">
    <ele>517.34</ele>
   </trkpt>
   <trkpt lat="-37.84035" lon="145.34986">
    <ele>499.32000000000005</ele>
   </trkpt>
   <trkpt lat="-37.84055" lon="145.34979">
    <ele>490.59000000000003</ele>
   </trkpt>
   <trkpt lat="-37.84066" lon="145.34979">
    <ele>487.69</ele>
   </trkpt>
   <trkpt lat="-37.84073" lon="145.34983000000003">
    <ele>485.74000000000007</ele>
   </trkpt>
   <trkpt lat="-37.84087" lon="145.35003">
    <ele>482.95000000000005</ele>
   </trkpt>
   <trkpt lat="-37.84096" lon="145.35014">
    <ele>481.83000000000004</ele>
   </trkpt>
   <trkpt lat="-37.84107" lon="145.34996">
    <ele>473.06</ele>
   </trkpt>
   <trkpt lat="-37.84118" lon="145.34988">
    <ele>473.06</ele>
   </trkpt>
   <trkpt lat="-37.84152" lon="145.34975">
    <ele>455.49000000000007</ele>
   </trkpt>
   <trkpt lat="-37.84179" lon="145.34944000000002">
    <ele>446.57</ele>
   </trkpt>
   <trkpt lat="-37.84196" lon="145.34958">
    <ele>445.19</ele>
   </trkpt>
   <trkpt lat="-37.84219" lon="145.34969">
    <ele>443.78000000000003</ele>
   </trkpt>
   <trkpt lat="-37.84262500025573" lon="145.34986999898746">
    <ele>439.25</ele>
   </trkpt>
   <trkpt lat="-37.84306" lon="145.35005">
    <ele>436.32000000000005</ele>
   </trkpt>
   <trkpt lat="-37.84355" lon="145.35018000000002">
    <ele>433.96</ele>
   </trkpt>
   <trkpt lat="-37.84409" lon="145.35022">
    <ele>430.87</ele>
   </trkpt>
   <trkpt lat="-37.844440000000006" lon="145.35021">
    <ele>427.59000000000003</ele>
   </trkpt>
   <trkpt lat="-37.84493500020032" lon="145.35014000044447">
    <ele>423.51000000000005</ele>
   </trkpt>
   <trkpt lat="-37.84543" lon="145.35007000000002">
    <ele>419.52000000000004</ele>
   </trkpt>
   <trkpt lat="-37.846230000000006" lon="145.35004">
    <ele>415.51000000000005</ele>
   </trkpt>
   <trkpt lat="-37.84653" lon="145.35004">
    <ele>412.62000000000006</ele>
   </trkpt>
   <trkpt lat="-37.84678" lon="145.35007000000002">
    <ele>411.46000000000004</ele>
   </trkpt>
   <trkpt lat="-37.84695" lon="145.35014">
    <ele>411.61</ele>
   </trkpt>
   <trkpt lat="-37.8472" lon="145.35029">
    <ele>413.16</ele>
   </trkpt>
   <trkpt lat="-37.84767" lon="145.35063000000002">
    <ele>416.91</ele>
   </trkpt>
   <trkpt lat="-37.84792" lon="145.35087000000001">
    <ele>417.65000000000003</ele>
   </trkpt>
   <trkpt lat="-37.84819" lon="145.35123000000002">
    <ele>420.91</ele>
   </trkpt>
   <trkpt lat="-37.8485" lon="145.35187000000002">
    <ele>426.44000000000005</ele>
   </trkpt>
   <trkpt lat="-37.848670000000006" lon="145.35243">
    <ele>432.84000000000003</ele>
   </trkpt>
   <trkpt lat="-37.84877" lon="145.35304000000002">
    <ele>437.07</ele>
   </trkpt>
   <trkpt lat="-37.84884" lon="145.35374000000002">
    <ele>440.72</ele>
   </trkpt>
   <trkpt lat="-37.84881" lon="145.35385000000002">
    <ele>441.74</ele>
   </trkpt>
   <trkpt lat="-37.84863" lon="145.35433">
    <ele>446.20000000000005</ele>
   </trkpt>
   <trkpt lat="-37.84852" lon="145.35456000000002">
    <ele>446.49000000000007</ele>
   </trkpt>
   <trkpt lat="-37.84839" lon="145.35525">
    <ele>442.79</ele>
   </trkpt>
   <trkpt lat="-37.84814" lon="145.3557">
    <ele>439.1700000000001</ele>
   </trkpt>
   <trkpt lat="-37.84812" lon="145.35582000000002">
    <ele>439.55000000000007</ele>
   </trkpt>
   <trkpt lat="-37.84814" lon="145.35590000000002">
    <ele>439.89000000000004</ele>
   </trkpt>
   <trkpt lat="-37.84821" lon="145.35601">
    <ele>440.89000000000004</ele>
   </trkpt>
   <trkpt lat="-37.84859" lon="145.35638">
    <ele>439.20000000000005</ele>
   </trkpt>
   <trkpt lat="-37.84866" lon="145.35649">
    <ele>437.94000000000005</ele>
   </trkpt>
   <trkpt lat="-37.8487" lon="145.35663000000002">
    <ele>436.9</ele>
   </trkpt>
   <trkpt lat="-37.84872" lon="145.35680000000002">
    <ele>436.14000000000004</ele>
   </trkpt>
   <trkpt lat="-37.84877" lon="145.35692">
    <ele>435.28000000000003</ele>
   </trkpt>
   <trkpt lat="-37.84886" lon="145.35699000000002">
    <ele>432.93</ele>
   </trkpt>
   <trkpt lat="-37.84895" lon="145.35702">
    <ele>431.03000000000003</ele>
   </trkpt>
   <trkpt lat="-37.84951" lon="145.35711">
    <ele>420.46000000000004</ele>
   </trkpt>
   <trkpt lat="-37.849700000000006" lon="145.35709">
    <ele>413.53</ele>
   </trkpt>
   <trkpt lat="-37.84998" lon="145.35682">
    <ele>410.38</ele>
   </trkpt>
   <trkpt lat="-37.85009" lon="145.35676">
    <ele>410.0</ele>
   </trkpt>
   <trkpt lat="-37.85054" lon="145.35639">
    <ele>413.38</ele>
   </trkpt>
   <trkpt lat="-37.85083" lon="145.35617000000002">
    <ele>413.45000000000005</ele>
   </trkpt>
   <trkpt lat="-37.85101" lon="145.35612">
    <ele>413.31</ele>
   </trkpt>
   <trkpt lat="-37.851480000049214" lon="145.35608500021982">
    <ele>413.01000000000005</ele>
   </trkpt>
   <trkpt lat="-37.85195" lon="145.35605">
    <ele>418.53000000000003</ele>
   </trkpt>
   <trkpt lat="-37.8526" lon="145.35617000000002">
    <ele>436.75</ele>
   </trkpt>
   <trkpt lat="-37.85284" lon="145.3561">
    <ele>440.39000000000004</ele>
   </trkpt>
   <trkpt lat="-37.85289" lon="145.35602">
    <ele>440.44000000000005</ele>
   </trkpt>
   <trkpt lat="-37.85298" lon="145.3556">
    <ele>439.42</ele>
   </trkpt>
   <trkpt lat="-37.853" lon="145.35505">
    <ele>437.04</ele>
   </trkpt>
   <trkpt lat="-37.85331" lon="145.35443">
    <ele>438.6700000000001</ele>
   </trkpt>
   <trkpt lat="-37.85342" lon="145.35415">
    <ele>441.98</ele>
   </trkpt>
   <trkpt lat="-37.85396" lon="145.35339000000002">
    <ele>448.98</ele>
   </trkpt>
   <trkpt lat="-37.854110000000006" lon="145.35328">
    <ele>452.31000000000006</ele>
   </trkpt>
   <trkpt lat="-37.854350000000004" lon="145.35299">
    <ele>454.89</ele>
   </trkpt>
   <trkpt lat="-37.85439" lon="145.35299">
    <ele>456.29</ele>
   </trkpt>
   <trkpt lat="-37.85452" lon="145.35320000000002">
    <ele>459.79</ele>
   </trkpt>
   <trkpt lat="-37.854580000000006" lon="145.35319">
    <ele>459.79</ele>
   </trkpt>
   <trkpt lat="-37.85461" lon="145.35309">
    <ele>460.9800000000001</ele>
   </trkpt>
   <trkpt lat="-37.85461" lon="145.35294000000002">
    <ele>462.97</ele>
   </trkpt>
   <trkpt lat="-37.85466" lon="145.35276000000002">
    <ele>466.05</ele>
   </trkpt>
   <trkpt lat="-37.85472" lon="145.3527">
    <ele>466.79</ele>
   </trkpt>
   <trkpt lat="-37.85486" lon="145.3523">
    <ele>472.59000000000003</ele>
   </trkpt>
   <trkpt lat="-37.855140000000006" lon="145.35198000000003">
    <ele>480.26</ele>
   </trkpt>
   <trkpt lat="-37.85521" lon="145.35193">
    <ele>481.72</ele>
   </trkpt>
   <trkpt lat="-37.85526" lon="145.35179000000002">
    <ele>482.77000000000004</ele>
   </trkpt>
   <trkpt lat="-37.85528" lon="145.35168000000002">
    <ele>484.02000000000004</ele>
   </trkpt>
   <trkpt lat="-37.855470000000004" lon="145.35148">
    <ele>486.69000000000005</ele>
   </trkpt>
   <trkpt lat="-37.85580500087528" lon="145.35193999788288">
    <ele>494.28000000000003</ele>
   </trkpt>
   <trkpt lat="-37.85614" lon="145.35240000000002">
    <ele>503.84000000000003</ele>
   </trkpt>
   <trkpt lat="-37.85622" lon="145.35247">
    <ele>504.7900000000001</ele>
   </trkpt>
   <trkpt lat="-37.85636" lon="145.35252">
    <ele>505.78</ele>
   </trkpt>
   <trkpt lat="-37.85683" lon="145.35260000000002">
    <ele>504.05</ele>
   </trkpt>
   <trkpt lat="-37.85701" lon="145.35266000000001">
    <ele>502.36</ele>
   </trkpt>
   <trkpt lat="-37.85712" lon="145.35268000000002">
    <ele>500.48999999999995</ele>
   </trkpt>
   <trkpt lat="-37.85763499999471" lon="145.35270499982497">
    <ele>494.98</ele>
   </trkpt>
   <trkpt lat="-37.85815" lon="145.35273">
    <ele>490.46000000000004</ele>
   </trkpt>
   <trkpt lat="-37.85851" lon="145.35268000000002">
    <ele>483.7</ele>
   </trkpt>
   <trkpt lat="-37.8592" lon="145.35248">
    <ele>472.52000000000004</ele>
   </trkpt>
   <trkpt lat="-37.85945" lon="145.35244">
    <ele>470.1</ele>
   </trkpt>
   <trkpt lat="-37.8596" lon="145.35241000000002">
    <ele>468.31000000000006</ele>
   </trkpt>
   <trkpt lat="-37.85994" lon="145.35221">
    <ele>464.0400000000001</ele>
   </trkpt>
   <trkpt lat="-37.86023" lon="145.35196000000002">
    <ele>458.40000000000003</ele>
   </trkpt>
   <trkpt lat="-37.860490000000006" lon="145.35180000000003">
    <ele>454.26000000000005</ele>
   </trkpt>
   <trkpt lat="-37.86048" lon="145.35181">
    <ele>454.26000000000005</ele>
   </trkpt>
   <trkpt lat="-37.860960000000006" lon="145.35146">
    <ele>444.27000000000004</ele>
   </trkpt>
   <trkpt lat="-37.86104" lon="145.35133000000002">
    <ele>442.91</ele>
   </trkpt>
   <trkpt lat="-37.86144" lon="145.35096000000001">
    <ele>443.55000000000007</ele>
   </trkpt>
   <trkpt lat="-37.86157" lon="145.35075">
    <ele>444.34000000000003</ele>
   </trkpt>
   <trkpt lat="-37.86175" lon="145.35062000000002">
    <ele>443.82000000000005</ele>
   </trkpt>
   <trkpt lat="-37.86218" lon="145.35036000000002">
    <ele>441.64000000000004</ele>
   </trkpt>
   <trkpt lat="-37.86233" lon="145.35036000000002">
    <ele>442.46000000000004</ele>
   </trkpt>
   <trkpt lat="-37.862730000000006" lon="145.35069000000001">
    <ele>453.07</ele>
   </trkpt>
   <trkpt lat="-37.86258" lon="145.35084">
    <ele>454.74</ele>
   </trkpt>
   <trkpt lat="-37.86256" lon="145.35098000000002">
    <ele>457.71000000000004</ele>
   </trkpt>
   <trkpt lat="-37.8622" lon="145.3514">
    <ele>462.49</ele>
   </trkpt>
   <trkpt lat="-37.86218" lon="145.35177000000002">
    <ele>465.22</ele>
   </trkpt>
   <trkpt lat="-37.862190000000005" lon="145.3522">
    <ele>469.1</ele>
   </trkpt>
   <trkpt lat="-37.8624" lon="145.35274">
    <ele>471.87</ele>
   </trkpt>
   <trkpt lat="-37.862460000000006" lon="145.35279">
    <ele>473.58000000000004</ele>
   </trkpt>
   <trkpt lat="-37.862570000000005" lon="145.35281">
    <ele>473.58000000000004</ele>
   </trkpt>
   <trkpt lat="-37.86258" lon="145.35298">
    <ele>474.26</ele>
   </trkpt>
   <trkpt lat="-37.86265" lon="145.35319">
    <ele>476.1</ele>
   </trkpt>
   <trkpt lat="-37.86271" lon="145.35334">
    <ele>476.89000000000004</ele>
   </trkpt>
  </trkseg>
 </trk>
</gpx>
