<?xml version="1.0" encoding="UTF-8"?>
<gpx creator="StravaGPX" version="1.1" xmlns="http://www.topografix.com/GPX/1/1" xmlns:xsi="http://www.w3.org/2001/XMLSchema-instance" xsi:schemaLocation="http://www.topografix.com/GPX/1/1 http://www.topografix.com/GPX/1/1/gpx.xsd">
 <metadata>
  <name>TRS - Silvan Long Course - jc</name>
  <author>
   <name>john csorgo</name>
  </author>
  <copyright author="OpenStreetMap contributors">
   <year>2020</year>
   <license>https://www.openstreetmap.org/copyright</license>
  </copyright>
 </metadata>
 <wpt lat="-37.8294" lon="145.39067">
  <name>water pt 1</name>
  <desc></desc>
  <sym>Water Source</sym>
  <type>Water Source</type>
 </wpt>
 <wpt lat="-37.84942" lon="145.38578">
  <name>water pt 2</name>
  <desc></desc>
  <sym>Water Source</sym>
  <type>Water Source</type>
 </wpt>
 <trk>
  <name>TRS - Silvan Long Course - jc</name>
  <link href=""/>
  <type>trail_running</type>
  <trkseg>
   <trkpt lat="-37.82473" lon="145.40423">
    <ele>238.29000000000002</ele>
   </trkpt>
   <trkpt lat="-37.82443" lon="145.40384">
    <ele>238.42000000000002</ele>
   </trkpt>
   <trkpt lat="-37.8241" lon="145.40353000000002">
    <ele>237.64000000000001</ele>
   </trkpt>
   <trkpt lat="-37.82388" lon="145.40334000000001">
    <ele>238.09000000000003</ele>
   </trkpt>
   <trkpt lat="-37.823640000000005" lon="145.40310000000002">
    <ele>238.16</ele>
   </trkpt>
   <trkpt lat="-37.823600000000006" lon="145.40313">
    <ele>233.86</ele>
   </trkpt>
   <trkpt lat="-37.823600000000006" lon="145.40344000000002">
    <ele>233.86</ele>
   </trkpt>
   <trkpt lat="-37.823710000000005" lon="145.4042">
    <ele>234.91</ele>
   </trkpt>
   <trkpt lat="-37.8239150017224" lon="145.40483499829162">
    <ele>237.56</ele>
   </trkpt>
   <trkpt lat="-37.82412" lon="145.40547">
    <ele>242.26000000000002</ele>
   </trkpt>
   <trkpt lat="-37.82401" lon="145.40554">
    <ele>244.42000000000002</ele>
   </trkpt>
   <trkpt lat="-37.8239" lon="145.40568000000002">
    <ele>245.14000000000001</ele>
   </trkpt>
   <trkpt lat="-37.823690000000006" lon="145.40583">
    <ele>245.86</ele>
   </trkpt>
   <trkpt lat="-37.82376" lon="145.40592">
    <ele>245.99</ele>
   </trkpt>
   <trkpt lat="-37.823890000000006" lon="145.40598">
    <ele>246.29</ele>
   </trkpt>
   <trkpt lat="-37.82408" lon="145.40624000000003">
    <ele>248.28000000000003</ele>
   </trkpt>
   <trkpt lat="-37.82421" lon="145.40658000000002">
    <ele>252.03000000000003</ele>
   </trkpt>
   <trkpt lat="-37.82423" lon="145.40674">
    <ele>252.48000000000005</ele>
   </trkpt>
   <trkpt lat="-37.82435" lon="145.40693000000002">
    <ele>254.20000000000005</ele>
   </trkpt>
   <trkpt lat="-37.82442" lon="145.40718">
    <ele>256.47</ele>
   </trkpt>
   <trkpt lat="-37.824310000000004" lon="145.40731000000002">
    <ele>256.65000000000003</ele>
   </trkpt>
   <trkpt lat="-37.82428" lon="145.40757000000002">
    <ele>257.40000000000003</ele>
   </trkpt>
   <trkpt lat="-37.824160000000006" lon="145.40783000000002">
    <ele>258.89</ele>
   </trkpt>
   <trkpt lat="-37.82419" lon="145.40795">
    <ele>259.85</ele>
   </trkpt>
   <trkpt lat="-37.82426" lon="145.40805">
    <ele>261.08000000000004</ele>
   </trkpt>
   <trkpt lat="-37.824740000000006" lon="145.40806">
    <ele>265.11</ele>
   </trkpt>
   <trkpt lat="-37.82477" lon="145.40818000000002">
    <ele>265.11</ele>
   </trkpt>
   <trkpt lat="-37.824760000000005" lon="145.40849">
    <ele>267.69000000000005</ele>
   </trkpt>
   <trkpt lat="-37.8247" lon="145.40894">
    <ele>271.53000000000003</ele>
   </trkpt>
   <trkpt lat="-37.8247" lon="145.40948">
    <ele>274.53</ele>
   </trkpt>
   <trkpt lat="-37.82462500157711" lon="145.4100900005859">
    <ele>280.55</ele>
   </trkpt>
   <trkpt lat="-37.82455" lon="145.41070000000002">
    <ele>284.42</ele>
   </trkpt>
   <trkpt lat="-37.82438000264836" lon="145.41149500194032">
    <ele>291.15000000000003</ele>
   </trkpt>
   <trkpt lat="-37.82421" lon="145.41229">
    <ele>294.81</ele>
   </trkpt>
   <trkpt lat="-37.82417" lon="145.4127">
    <ele>297.94000000000005</ele>
   </trkpt>
   <trkpt lat="-37.82399" lon="145.41322000000002">
    <ele>299.96</ele>
   </trkpt>
   <trkpt lat="-37.82361" lon="145.41368">
    <ele>302.04</ele>
   </trkpt>
   <trkpt lat="-37.82349" lon="145.4137">
    <ele>302.39000000000004</ele>
   </trkpt>
   <trkpt lat="-37.82312" lon="145.4137">
    <ele>302.4</ele>
   </trkpt>
   <trkpt lat="-37.82267" lon="145.41331000000002">
    <ele>300.72</ele>
   </trkpt>
   <trkpt lat="-37.822155001200485" lon="145.41278499637278">
    <ele>298.14</ele>
   </trkpt>
   <trkpt lat="-37.82164" lon="145.41226">
    <ele>297.00000000000006</ele>
   </trkpt>
   <trkpt lat="-37.821270000553085" lon="145.4119249983919">
    <ele>296.44000000000005</ele>
   </trkpt>
   <trkpt lat="-37.8209" lon="145.41159000000002">
    <ele>294.57</ele>
   </trkpt>
   <trkpt lat="-37.820440000000005" lon="145.41076">
    <ele>293.25</ele>
   </trkpt>
   <trkpt lat="-37.81998" lon="145.41002">
    <ele>295.14</ele>
   </trkpt>
   <trkpt lat="-37.81978" lon="145.40955000000002">
    <ele>295.58</ele>
   </trkpt>
   <trkpt lat="-37.81958" lon="145.4092">
    <ele>296.52</ele>
   </trkpt>
   <trkpt lat="-37.819270002078" lon="145.4084999970755">
    <ele>296.73</ele>
   </trkpt>
   <trkpt lat="-37.818960000000004" lon="145.4078">
    <ele>294.28000000000003</ele>
   </trkpt>
   <trkpt lat="-37.81915" lon="145.40728000000001">
    <ele>287.74000000000007</ele>
   </trkpt>
   <trkpt lat="-37.81951" lon="145.40719">
    <ele>286.26</ele>
   </trkpt>
   <trkpt lat="-37.82029" lon="145.40719">
    <ele>283.86</ele>
   </trkpt>
   <trkpt lat="-37.82056" lon="145.40724">
    <ele>282.19</ele>
   </trkpt>
   <trkpt lat="-37.82061" lon="145.40714">
    <ele>281.66</ele>
   </trkpt>
   <trkpt lat="-37.82056" lon="145.40698">
    <ele>280.66</ele>
   </trkpt>
   <trkpt lat="-37.82016" lon="145.40665">
    <ele>278.08000000000004</ele>
   </trkpt>
   <trkpt lat="-37.82005" lon="145.40635">
    <ele>275.76</ele>
   </trkpt>
   <trkpt lat="-37.82018" lon="145.40637">
    <ele>274.32</ele>
   </trkpt>
   <trkpt lat="-37.82043" lon="145.40630000000002">
    <ele>273.35</ele>
   </trkpt>
   <trkpt lat="-37.82072" lon="145.40632000000002">
    <ele>272.69000000000005</ele>
   </trkpt>
   <trkpt lat="-37.820980000000006" lon="145.40644">
    <ele>272.06</ele>
   </trkpt>
   <trkpt lat="-37.82108" lon="145.40652">
    <ele>271.86</ele>
   </trkpt>
   <trkpt lat="-37.82137" lon="145.40698">
    <ele>271.52000000000004</ele>
   </trkpt>
   <trkpt lat="-37.82141" lon="145.4071">
    <ele>271.11</ele>
   </trkpt>
   <trkpt lat="-37.821470000000005" lon="145.40718">
    <ele>270.59</ele>
   </trkpt>
   <trkpt lat="-37.82168" lon="145.40716">
    <ele>265.76</ele>
   </trkpt>
   <trkpt lat="-37.82193" lon="145.40720000000002">
    <ele>261.42</ele>
   </trkpt>
   <trkpt lat="-37.82199" lon="145.40723">
    <ele>260.24</ele>
   </trkpt>
   <trkpt lat="-37.822050000000004" lon="145.40736">
    <ele>257.27</ele>
   </trkpt>
   <trkpt lat="-37.822280000000006" lon="145.40721000000002">
    <ele>254.28</ele>
   </trkpt>
   <trkpt lat="-37.82224000254471" lon="145.4064349996924">
    <ele>254.28</ele>
   </trkpt>
   <trkpt lat="-37.8222" lon="145.40566">
    <ele>249.92000000000002</ele>
   </trkpt>
   <trkpt lat="-37.822250000000004" lon="145.40525000000002">
    <ele>250.26000000000002</ele>
   </trkpt>
   <trkpt lat="-37.821795000450884" lon="145.4049699983474">
    <ele>257.37000000000006</ele>
   </trkpt>
   <trkpt lat="-37.821340000000006" lon="145.40469000000002">
    <ele>257.37000000000006</ele>
   </trkpt>
   <trkpt lat="-37.82078499995005" lon="145.40465499973337">
    <ele>258.59000000000003</ele>
   </trkpt>
   <trkpt lat="-37.82023" lon="145.40462000000002">
    <ele>258.59000000000003</ele>
   </trkpt>
   <trkpt lat="-37.820080000000004" lon="145.4044">
    <ele>257.39</ele>
   </trkpt>
   <trkpt lat="-37.819320000000005" lon="145.40413">
    <ele>256.05</ele>
   </trkpt>
   <trkpt lat="-37.81860000000495" lon="145.40410499975627">
    <ele>247.37</ele>
   </trkpt>
   <trkpt lat="-37.81788" lon="145.40408000000002">
    <ele>247.37</ele>
   </trkpt>
   <trkpt lat="-37.81788" lon="145.40376">
    <ele>242.52</ele>
   </trkpt>
   <trkpt lat="-37.81763" lon="145.40376">
    <ele>235.11</ele>
   </trkpt>
   <trkpt lat="-37.81757" lon="145.40371000000002">
    <ele>235.11</ele>
   </trkpt>
   <trkpt lat="-37.81776" lon="145.40315">
    <ele>226.74</ele>
   </trkpt>
   <trkpt lat="-37.817800000000005" lon="145.40310000000002">
    <ele>226.74</ele>
   </trkpt>
   <trkpt lat="-37.81783" lon="145.40296">
    <ele>224.45000000000002</ele>
   </trkpt>
   <trkpt lat="-37.81792" lon="145.40289">
    <ele>220.86</ele>
   </trkpt>
   <trkpt lat="-37.81799" lon="145.40279">
    <ele>218.92000000000002</ele>
   </trkpt>
   <trkpt lat="-37.818070000000006" lon="145.40258">
    <ele>217.92000000000002</ele>
   </trkpt>
   <trkpt lat="-37.81803" lon="145.40245000000002">
    <ele>218.72000000000003</ele>
   </trkpt>
   <trkpt lat="-37.81814" lon="145.40233">
    <ele>220.57000000000002</ele>
   </trkpt>
   <trkpt lat="-37.81817" lon="145.40216">
    <ele>223.20000000000002</ele>
   </trkpt>
   <trkpt lat="-37.818000000000005" lon="145.4019">
    <ele>225.35000000000002</ele>
   </trkpt>
   <trkpt lat="-37.81743" lon="145.40201000000002">
    <ele>222.79000000000002</ele>
   </trkpt>
   <trkpt lat="-37.81664" lon="145.40208">
    <ele>224.06</ele>
   </trkpt>
   <trkpt lat="-37.81597" lon="145.40206">
    <ele>222.69000000000003</ele>
   </trkpt>
   <trkpt lat="-37.815960000000004" lon="145.40206">
    <ele>226.85000000000002</ele>
   </trkpt>
   <trkpt lat="-37.81595" lon="145.40194000000002">
    <ele>228.68</ele>
   </trkpt>
   <trkpt lat="-37.81593" lon="145.40191000000002">
    <ele>231.0</ele>
   </trkpt>
   <trkpt lat="-37.81588" lon="145.40189">
    <ele>231.74000000000004</ele>
   </trkpt>
   <trkpt lat="-37.81584" lon="145.40192000000002">
    <ele>231.74000000000004</ele>
   </trkpt>
   <trkpt lat="-37.81577" lon="145.4019">
    <ele>232.91</ele>
   </trkpt>
   <trkpt lat="-37.8157" lon="145.40184000000002">
    <ele>233.64000000000001</ele>
   </trkpt>
   <trkpt lat="-37.815630000000006" lon="145.4018">
    <ele>233.97</ele>
   </trkpt>
   <trkpt lat="-37.81555" lon="145.40186">
    <ele>234.5</ele>
   </trkpt>
   <trkpt lat="-37.81528" lon="145.4018">
    <ele>235.62000000000003</ele>
   </trkpt>
   <trkpt lat="-37.81526" lon="145.40182000000001">
    <ele>235.62000000000003</ele>
   </trkpt>
   <trkpt lat="-37.81523" lon="145.40181">
    <ele>235.62000000000003</ele>
   </trkpt>
   <trkpt lat="-37.81517" lon="145.40183000000002">
    <ele>235.92000000000002</ele>
   </trkpt>
   <trkpt lat="-37.814930000000004" lon="145.40173000000001">
    <ele>237.02</ele>
   </trkpt>
   <trkpt lat="-37.8147" lon="145.40173000000001">
    <ele>238.0</ele>
   </trkpt>
   <trkpt lat="-37.81454" lon="145.40166000000002">
    <ele>239.34000000000003</ele>
   </trkpt>
   <trkpt lat="-37.81443" lon="145.40163">
    <ele>239.74</ele>
   </trkpt>
   <trkpt lat="-37.81438" lon="145.40169">
    <ele>240.06000000000003</ele>
   </trkpt>
   <trkpt lat="-37.81429" lon="145.40168">
    <ele>240.3</ele>
   </trkpt>
   <trkpt lat="-37.81414" lon="145.40158000000002">
    <ele>240.82</ele>
   </trkpt>
   <trkpt lat="-37.81387" lon="145.4016">
    <ele>241.04000000000002</ele>
   </trkpt>
   <trkpt lat="-37.8138" lon="145.40155000000001">
    <ele>241.01000000000002</ele>
   </trkpt>
   <trkpt lat="-37.81367" lon="145.40153">
    <ele>240.89000000000001</ele>
   </trkpt>
   <trkpt lat="-37.81356" lon="145.40154">
    <ele>240.86</ele>
   </trkpt>
   <trkpt lat="-37.81344" lon="145.40152">
    <ele>240.89000000000001</ele>
   </trkpt>
   <trkpt lat="-37.81322" lon="145.40153">
    <ele>241.39000000000001</ele>
   </trkpt>
   <trkpt lat="-37.813100000000006" lon="145.40139000000002">
    <ele>242.23000000000002</ele>
   </trkpt>
   <trkpt lat="-37.81302" lon="145.40144">
    <ele>242.61</ele>
   </trkpt>
   <trkpt lat="-37.81295" lon="145.40145">
    <ele>242.76000000000002</ele>
   </trkpt>
   <trkpt lat="-37.81291" lon="145.40144">
    <ele>242.88</ele>
   </trkpt>
   <trkpt lat="-37.81286" lon="145.40141">
    <ele>242.88</ele>
   </trkpt>
   <trkpt lat="-37.81279" lon="145.40141">
    <ele>243.25000000000003</ele>
   </trkpt>
   <trkpt lat="-37.81273" lon="145.40137000000001">
    <ele>243.25000000000003</ele>
   </trkpt>
   <trkpt lat="-37.81237" lon="145.40127">
    <ele>245.12000000000003</ele>
   </trkpt>
   <trkpt lat="-37.81226" lon="145.40118">
    <ele>245.9</ele>
   </trkpt>
   <trkpt lat="-37.81212" lon="145.40116">
    <ele>246.52</ele>
   </trkpt>
   <trkpt lat="-37.81206" lon="145.40113000000002">
    <ele>246.56000000000003</ele>
   </trkpt>
   <trkpt lat="-37.812020000000004" lon="145.40111000000002">
    <ele>246.55</ele>
   </trkpt>
   <trkpt lat="-37.81199" lon="145.40104000000002">
    <ele>246.50000000000003</ele>
   </trkpt>
   <trkpt lat="-37.8119" lon="145.40095000000002">
    <ele>246.28000000000003</ele>
   </trkpt>
   <trkpt lat="-37.8119" lon="145.40085000000002">
    <ele>245.95000000000002</ele>
   </trkpt>
   <trkpt lat="-37.81183" lon="145.40064">
    <ele>245.19000000000003</ele>
   </trkpt>
   <trkpt lat="-37.81185" lon="145.40056">
    <ele>244.74</ele>
   </trkpt>
   <trkpt lat="-37.81194" lon="145.40054">
    <ele>243.99</ele>
   </trkpt>
   <trkpt lat="-37.81201" lon="145.40033000000003">
    <ele>247.86</ele>
   </trkpt>
   <trkpt lat="-37.81213" lon="145.4002">
    <ele>251.36</ele>
   </trkpt>
   <trkpt lat="-37.81179" lon="145.39933000000002">
    <ele>241.48000000000002</ele>
   </trkpt>
   <trkpt lat="-37.81157500440392" lon="145.39830999706055">
    <ele>227.56</ele>
   </trkpt>
   <trkpt lat="-37.81136" lon="145.39729">
    <ele>213.79</ele>
   </trkpt>
   <trkpt lat="-37.81125" lon="145.39697">
    <ele>213.65</ele>
   </trkpt>
   <trkpt lat="-37.81141" lon="145.39698">
    <ele>214.34000000000003</ele>
   </trkpt>
   <trkpt lat="-37.81156" lon="145.39692000000002">
    <ele>215.4</ele>
   </trkpt>
   <trkpt lat="-37.81166" lon="145.3968">
    <ele>217.14000000000001</ele>
   </trkpt>
   <trkpt lat="-37.81179" lon="145.39685">
    <ele>218.88000000000002</ele>
   </trkpt>
   <trkpt lat="-37.81185" lon="145.39689">
    <ele>218.88000000000002</ele>
   </trkpt>
   <trkpt lat="-37.81192" lon="145.39700000000002">
    <ele>219.23</ele>
   </trkpt>
   <trkpt lat="-37.81194" lon="145.39717000000002">
    <ele>219.26000000000002</ele>
   </trkpt>
   <trkpt lat="-37.81194" lon="145.39747">
    <ele>218.7</ele>
   </trkpt>
   <trkpt lat="-37.81192" lon="145.39756">
    <ele>218.23</ele>
   </trkpt>
   <trkpt lat="-37.81179" lon="145.39765">
    <ele>218.06000000000003</ele>
   </trkpt>
   <trkpt lat="-37.8117" lon="145.39777">
    <ele>218.42000000000002</ele>
   </trkpt>
   <trkpt lat="-37.8117" lon="145.39781000000002">
    <ele>218.76000000000002</ele>
   </trkpt>
   <trkpt lat="-37.81188" lon="145.39794">
    <ele>220.28000000000003</ele>
   </trkpt>
   <trkpt lat="-37.8119" lon="145.39797000000002">
    <ele>222.15</ele>
   </trkpt>
   <trkpt lat="-37.81188" lon="145.39799000000002">
    <ele>222.15</ele>
   </trkpt>
   <trkpt lat="-37.81176" lon="145.39802">
    <ele>223.15</ele>
   </trkpt>
   <trkpt lat="-37.81172" lon="145.39807000000002">
    <ele>223.81</ele>
   </trkpt>
   <trkpt lat="-37.81176" lon="145.39809000000002">
    <ele>223.81</ele>
   </trkpt>
   <trkpt lat="-37.81188" lon="145.39808000000002">
    <ele>224.65</ele>
   </trkpt>
   <trkpt lat="-37.81192" lon="145.39812">
    <ele>224.65</ele>
   </trkpt>
   <trkpt lat="-37.81183" lon="145.39814">
    <ele>225.46</ele>
   </trkpt>
   <trkpt lat="-37.81172" lon="145.3982">
    <ele>227.34</ele>
   </trkpt>
   <trkpt lat="-37.8117" lon="145.39823">
    <ele>227.34</ele>
   </trkpt>
   <trkpt lat="-37.81188" lon="145.39825000000002">
    <ele>228.09</ele>
   </trkpt>
   <trkpt lat="-37.81235" lon="145.39849">
    <ele>232.09</ele>
   </trkpt>
   <trkpt lat="-37.81237" lon="145.39852000000002">
    <ele>232.09</ele>
   </trkpt>
   <trkpt lat="-37.81237" lon="145.39855">
    <ele>233.05</ele>
   </trkpt>
   <trkpt lat="-37.81235" lon="145.39857">
    <ele>233.05</ele>
   </trkpt>
   <trkpt lat="-37.8123" lon="145.39854000000003">
    <ele>233.05</ele>
   </trkpt>
   <trkpt lat="-37.81208" lon="145.3985">
    <ele>234.55</ele>
   </trkpt>
   <trkpt lat="-37.81199" lon="145.39853000000002">
    <ele>235.22</ele>
   </trkpt>
   <trkpt lat="-37.8119" lon="145.39859">
    <ele>235.79000000000002</ele>
   </trkpt>
   <trkpt lat="-37.8119" lon="145.39861000000002">
    <ele>235.79000000000002</ele>
   </trkpt>
   <trkpt lat="-37.81215" lon="145.39863000000003">
    <ele>236.57000000000002</ele>
   </trkpt>
   <trkpt lat="-37.81248" lon="145.39877">
    <ele>239.03</ele>
   </trkpt>
   <trkpt lat="-37.81248" lon="145.39881000000003">
    <ele>239.56000000000003</ele>
   </trkpt>
   <trkpt lat="-37.81221" lon="145.39877">
    <ele>241.54000000000002</ele>
   </trkpt>
   <trkpt lat="-37.81217" lon="145.39878000000002">
    <ele>242.02</ele>
   </trkpt>
   <trkpt lat="-37.812160000000006" lon="145.39882">
    <ele>242.55</ele>
   </trkpt>
   <trkpt lat="-37.81217" lon="145.39886">
    <ele>243.13</ele>
   </trkpt>
   <trkpt lat="-37.81235" lon="145.399">
    <ele>248.13000000000002</ele>
   </trkpt>
   <trkpt lat="-37.81239" lon="145.39907000000002">
    <ele>248.13000000000002</ele>
   </trkpt>
   <trkpt lat="-37.81264" lon="145.3992">
    <ele>249.74</ele>
   </trkpt>
   <trkpt lat="-37.81277" lon="145.3993">
    <ele>250.57000000000002</ele>
   </trkpt>
   <trkpt lat="-37.81297" lon="145.39937">
    <ele>252.08</ele>
   </trkpt>
   <trkpt lat="-37.81313" lon="145.39938">
    <ele>252.62</ele>
   </trkpt>
   <trkpt lat="-37.81318" lon="145.39942000000002">
    <ele>252.86</ele>
   </trkpt>
   <trkpt lat="-37.81309" lon="145.39947">
    <ele>253.60999999999999</ele>
   </trkpt>
   <trkpt lat="-37.81302" lon="145.39953">
    <ele>254.66</ele>
   </trkpt>
   <trkpt lat="-37.81309" lon="145.39958000000001">
    <ele>256.09000000000003</ele>
   </trkpt>
   <trkpt lat="-37.813300000000005" lon="145.39968000000002">
    <ele>259.25000000000006</ele>
   </trkpt>
   <trkpt lat="-37.8132" lon="145.39979000000002">
    <ele>261.70000000000005</ele>
   </trkpt>
   <trkpt lat="-37.81313" lon="145.39977000000002">
    <ele>262.06</ele>
   </trkpt>
   <trkpt lat="-37.81302" lon="145.39981">
    <ele>262.42</ele>
   </trkpt>
   <trkpt lat="-37.81291" lon="145.39969000000002">
    <ele>262.19000000000005</ele>
   </trkpt>
   <trkpt lat="-37.81275" lon="145.39962">
    <ele>262.07</ele>
   </trkpt>
   <trkpt lat="-37.81248" lon="145.39984">
    <ele>263.42</ele>
   </trkpt>
   <trkpt lat="-37.8125" lon="145.39992">
    <ele>263.83</ele>
   </trkpt>
   <trkpt lat="-37.81246" lon="145.40004000000002">
    <ele>264.1</ele>
   </trkpt>
   <trkpt lat="-37.81246" lon="145.40013000000002">
    <ele>264.28000000000003</ele>
   </trkpt>
   <trkpt lat="-37.812540000000006" lon="145.40019">
    <ele>264.55</ele>
   </trkpt>
   <trkpt lat="-37.81259" lon="145.40013000000002">
    <ele>264.77</ele>
   </trkpt>
   <trkpt lat="-37.812670000000004" lon="145.40011">
    <ele>265.72</ele>
   </trkpt>
   <trkpt lat="-37.81284" lon="145.40022000000002">
    <ele>266.1</ele>
   </trkpt>
   <trkpt lat="-37.813" lon="145.40036">
    <ele>265.42</ele>
   </trkpt>
   <trkpt lat="-37.81313" lon="145.40044">
    <ele>264.82</ele>
   </trkpt>
   <trkpt lat="-37.81351" lon="145.40048000000002">
    <ele>263.29</ele>
   </trkpt>
   <trkpt lat="-37.8138" lon="145.40032000000002">
    <ele>265.97</ele>
   </trkpt>
   <trkpt lat="-37.81405" lon="145.40049000000002">
    <ele>264.84000000000003</ele>
   </trkpt>
   <trkpt lat="-37.81445" lon="145.40053">
    <ele>265.01</ele>
   </trkpt>
   <trkpt lat="-37.8149" lon="145.40079">
    <ele>258.13</ele>
   </trkpt>
   <trkpt lat="-37.81515" lon="145.40083">
    <ele>255.85000000000002</ele>
   </trkpt>
   <trkpt lat="-37.81523" lon="145.40083">
    <ele>255.5</ele>
   </trkpt>
   <trkpt lat="-37.81577" lon="145.40074">
    <ele>249.8</ele>
   </trkpt>
   <trkpt lat="-37.81588" lon="145.40059000000002">
    <ele>248.04</ele>
   </trkpt>
   <trkpt lat="-37.815920000000006" lon="145.40062">
    <ele>248.04</ele>
   </trkpt>
   <trkpt lat="-37.81593" lon="145.40079">
    <ele>244.87000000000003</ele>
   </trkpt>
   <trkpt lat="-37.81597" lon="145.40084000000002">
    <ele>244.22000000000003</ele>
   </trkpt>
   <trkpt lat="-37.81622" lon="145.40104000000002">
    <ele>242.53000000000003</ele>
   </trkpt>
   <trkpt lat="-37.81629" lon="145.40104000000002">
    <ele>242.45000000000002</ele>
   </trkpt>
   <trkpt lat="-37.81635" lon="145.40101">
    <ele>242.3</ele>
   </trkpt>
   <trkpt lat="-37.81662" lon="145.40107">
    <ele>241.19</ele>
   </trkpt>
   <trkpt lat="-37.81692" lon="145.40107">
    <ele>241.63</ele>
   </trkpt>
   <trkpt lat="-37.81707" lon="145.40113000000002">
    <ele>240.36</ele>
   </trkpt>
   <trkpt lat="-37.81723" lon="145.40116">
    <ele>239.59000000000003</ele>
   </trkpt>
   <trkpt lat="-37.81745" lon="145.40114">
    <ele>239.72</ele>
   </trkpt>
   <trkpt lat="-37.81765" lon="145.40104000000002">
    <ele>240.54000000000002</ele>
   </trkpt>
   <trkpt lat="-37.81774" lon="145.40104000000002">
    <ele>240.45000000000002</ele>
   </trkpt>
   <trkpt lat="-37.81785" lon="145.40109">
    <ele>240.21</ele>
   </trkpt>
   <trkpt lat="-37.81803" lon="145.4011">
    <ele>240.25</ele>
   </trkpt>
   <trkpt lat="-37.81859" lon="145.40104000000002">
    <ele>241.71</ele>
   </trkpt>
   <trkpt lat="-37.81875" lon="145.40097">
    <ele>243.25000000000003</ele>
   </trkpt>
   <trkpt lat="-37.81879" lon="145.40092">
    <ele>243.81000000000003</ele>
   </trkpt>
   <trkpt lat="-37.81879" lon="145.40085000000002">
    <ele>245.11</ele>
   </trkpt>
   <trkpt lat="-37.81875" lon="145.40081">
    <ele>245.11</ele>
   </trkpt>
   <trkpt lat="-37.81879" lon="145.40069000000003">
    <ele>247.16000000000003</ele>
   </trkpt>
   <trkpt lat="-37.81884" lon="145.40065">
    <ele>247.76</ele>
   </trkpt>
   <trkpt lat="-37.81904" lon="145.40062">
    <ele>249.03000000000003</ele>
   </trkpt>
   <trkpt lat="-37.81942" lon="145.40064">
    <ele>249.02</ele>
   </trkpt>
   <trkpt lat="-37.819680000000005" lon="145.40077000000002">
    <ele>246.83</ele>
   </trkpt>
   <trkpt lat="-37.82" lon="145.40089">
    <ele>246.19000000000003</ele>
   </trkpt>
   <trkpt lat="-37.82038" lon="145.40094000000002">
    <ele>245.76000000000002</ele>
   </trkpt>
   <trkpt lat="-37.82054" lon="145.40106">
    <ele>244.62000000000003</ele>
   </trkpt>
   <trkpt lat="-37.8207" lon="145.4011">
    <ele>244.29</ele>
   </trkpt>
   <trkpt lat="-37.82081" lon="145.40109">
    <ele>245.04</ele>
   </trkpt>
   <trkpt lat="-37.82099" lon="145.40101">
    <ele>247.12000000000003</ele>
   </trkpt>
   <trkpt lat="-37.82112" lon="145.40099">
    <ele>248.25000000000003</ele>
   </trkpt>
   <trkpt lat="-37.8213" lon="145.40107">
    <ele>247.83</ele>
   </trkpt>
   <trkpt lat="-37.82146" lon="145.40112000000002">
    <ele>247.31000000000003</ele>
   </trkpt>
   <trkpt lat="-37.82166" lon="145.40113000000002">
    <ele>245.89000000000001</ele>
   </trkpt>
   <trkpt lat="-37.82197" lon="145.4011">
    <ele>245.88000000000002</ele>
   </trkpt>
   <trkpt lat="-37.82222" lon="145.40119">
    <ele>246.08</ele>
   </trkpt>
   <trkpt lat="-37.82231" lon="145.40120000000002">
    <ele>246.11</ele>
   </trkpt>
   <trkpt lat="-37.8226" lon="145.40105">
    <ele>244.17000000000002</ele>
   </trkpt>
   <trkpt lat="-37.82273" lon="145.40104000000002">
    <ele>243.43</ele>
   </trkpt>
   <trkpt lat="-37.82289" lon="145.40107">
    <ele>243.02</ele>
   </trkpt>
   <trkpt lat="-37.82298" lon="145.40107">
    <ele>239.73000000000002</ele>
   </trkpt>
   <trkpt lat="-37.82311" lon="145.40113000000002">
    <ele>239.73000000000002</ele>
   </trkpt>
   <trkpt lat="-37.823100000000004" lon="145.40124">
    <ele>233.84</ele>
   </trkpt>
   <trkpt lat="-37.82381" lon="145.40116">
    <ele>230.77000000000004</ele>
   </trkpt>
   <trkpt lat="-37.824310000000004" lon="145.40124">
    <ele>227.01000000000002</ele>
   </trkpt>
   <trkpt lat="-37.82448" lon="145.40115">
    <ele>226.70000000000002</ele>
   </trkpt>
   <trkpt lat="-37.824490000000004" lon="145.40114">
    <ele>226.70000000000002</ele>
   </trkpt>
   <trkpt lat="-37.82479" lon="145.4009">
    <ele>227.21</ele>
   </trkpt>
   <trkpt lat="-37.825185000200094" lon="145.4006250015552">
    <ele>228.79000000000002</ele>
   </trkpt>
   <trkpt lat="-37.82558" lon="145.40035">
    <ele>229.75</ele>
   </trkpt>
   <trkpt lat="-37.82636" lon="145.39988000000002">
    <ele>232.12</ele>
   </trkpt>
   <trkpt lat="-37.82665" lon="145.39974">
    <ele>232.61</ele>
   </trkpt>
   <trkpt lat="-37.82721" lon="145.39939">
    <ele>234.26000000000002</ele>
   </trkpt>
   <trkpt lat="-37.82786" lon="145.39904">
    <ele>235.92000000000002</ele>
   </trkpt>
   <trkpt lat="-37.828" lon="145.39888000000002">
    <ele>236.15000000000003</ele>
   </trkpt>
   <trkpt lat="-37.82806" lon="145.39877">
    <ele>236.32000000000002</ele>
   </trkpt>
   <trkpt lat="-37.828070000000004" lon="145.39876">
    <ele>236.32000000000002</ele>
   </trkpt>
   <trkpt lat="-37.82808" lon="145.39864">
    <ele>236.66</ele>
   </trkpt>
   <trkpt lat="-37.82802" lon="145.39844000000002">
    <ele>237.01000000000002</ele>
   </trkpt>
   <trkpt lat="-37.82797" lon="145.39835000000002">
    <ele>237.01000000000002</ele>
   </trkpt>
   <trkpt lat="-37.82786" lon="145.39827000000002">
    <ele>237.76000000000002</ele>
   </trkpt>
   <trkpt lat="-37.8277" lon="145.39822">
    <ele>237.97</ele>
   </trkpt>
   <trkpt lat="-37.82717" lon="145.39794">
    <ele>238.95000000000002</ele>
   </trkpt>
   <trkpt lat="-37.82687" lon="145.3976">
    <ele>239.39000000000001</ele>
   </trkpt>
   <trkpt lat="-37.826710000000006" lon="145.39722">
    <ele>240.12000000000003</ele>
   </trkpt>
   <trkpt lat="-37.82674" lon="145.39683000000002">
    <ele>240.07000000000002</ele>
   </trkpt>
   <trkpt lat="-37.82708" lon="145.39584000000002">
    <ele>242.95000000000002</ele>
   </trkpt>
   <trkpt lat="-37.8271" lon="145.39566000000002">
    <ele>242.95000000000002</ele>
   </trkpt>
   <trkpt lat="-37.82699" lon="145.39524">
    <ele>243.42000000000002</ele>
   </trkpt>
   <trkpt lat="-37.82683" lon="145.3949">
    <ele>243.53000000000003</ele>
   </trkpt>
   <trkpt lat="-37.82658" lon="145.39459000000002">
    <ele>242.63</ele>
   </trkpt>
   <trkpt lat="-37.82596" lon="145.39401">
    <ele>243.65000000000003</ele>
   </trkpt>
   <trkpt lat="-37.82535" lon="145.39318">
    <ele>247.59000000000003</ele>
   </trkpt>
   <trkpt lat="-37.82528000000001" lon="145.39302">
    <ele>248.01</ele>
   </trkpt>
   <trkpt lat="-37.82549" lon="145.39275">
    <ele>243.82</ele>
   </trkpt>
   <trkpt lat="-37.82558" lon="145.39251000000002">
    <ele>241.89000000000001</ele>
   </trkpt>
   <trkpt lat="-37.82587" lon="145.39213">
    <ele>240.63</ele>
   </trkpt>
   <trkpt lat="-37.82614" lon="145.39172000000002">
    <ele>240.99</ele>
   </trkpt>
   <trkpt lat="-37.82636" lon="145.3912">
    <ele>242.32</ele>
   </trkpt>
   <trkpt lat="-37.826480000000004" lon="145.39102000000003">
    <ele>243.31000000000003</ele>
   </trkpt>
   <trkpt lat="-37.82647" lon="145.39103">
    <ele>243.3</ele>
   </trkpt>
   <trkpt lat="-37.82661" lon="145.39093000000003">
    <ele>244.03000000000003</ele>
   </trkpt>
   <trkpt lat="-37.82674" lon="145.39086">
    <ele>245.3</ele>
   </trkpt>
   <trkpt lat="-37.82701" lon="145.39096">
    <ele>246.78000000000003</ele>
   </trkpt>
   <trkpt lat="-37.82728" lon="145.39110000000002">
    <ele>250.35000000000002</ele>
   </trkpt>
   <trkpt lat="-37.82782" lon="145.39147">
    <ele>254.22</ele>
   </trkpt>
   <trkpt lat="-37.828160000000004" lon="145.39166">
    <ele>256.87000000000006</ele>
   </trkpt>
   <trkpt lat="-37.8282" lon="145.39166">
    <ele>256.89</ele>
   </trkpt>
   <trkpt lat="-37.82846" lon="145.39174">
    <ele>257.82</ele>
   </trkpt>
   <trkpt lat="-37.8286" lon="145.39170000000001">
    <ele>258.04</ele>
   </trkpt>
   <trkpt lat="-37.82869" lon="145.39164000000002">
    <ele>258.06</ele>
   </trkpt>
   <trkpt lat="-37.82902" lon="145.39116">
    <ele>257.87000000000006</ele>
   </trkpt>
   <trkpt lat="-37.82909" lon="145.39100000000002">
    <ele>257.87000000000006</ele>
   </trkpt>
   <trkpt lat="-37.8292" lon="145.39066000000003">
    <ele>258.18</ele>
   </trkpt>
   <trkpt lat="-37.82927" lon="145.39053">
    <ele>258.42</ele>
   </trkpt>
   <trkpt lat="-37.829350000000005" lon="145.39053">
    <ele>260.83</ele>
   </trkpt>
   <trkpt lat="-37.8294" lon="145.39067">
    <ele>260.41</ele>
   </trkpt>
   <trkpt lat="-37.82952" lon="145.39076">
    <ele>259.54</ele>
   </trkpt>
   <trkpt lat="-37.82972" lon="145.39087">
    <ele>260.48</ele>
   </trkpt>
   <trkpt lat="-37.82994" lon="145.39091000000002">
    <ele>260.90000000000003</ele>
   </trkpt>
   <trkpt lat="-37.83043" lon="145.39088">
    <ele>262.68</ele>
   </trkpt>
   <trkpt lat="-37.83104" lon="145.3908">
    <ele>266.11</ele>
   </trkpt>
   <trkpt lat="-37.83144" lon="145.39083000000002">
    <ele>266.89</ele>
   </trkpt>
   <trkpt lat="-37.83198" lon="145.39096">
    <ele>266.86</ele>
   </trkpt>
   <trkpt lat="-37.83207" lon="145.39095">
    <ele>266.86</ele>
   </trkpt>
   <trkpt lat="-37.83254" lon="145.39079">
    <ele>266.12</ele>
   </trkpt>
   <trkpt lat="-37.83281" lon="145.39064000000002">
    <ele>265.21</ele>
   </trkpt>
   <trkpt lat="-37.83325" lon="145.39020000000002">
    <ele>263.43</ele>
   </trkpt>
   <trkpt lat="-37.83352" lon="145.38988">
    <ele>262.94</ele>
   </trkpt>
   <trkpt lat="-37.83399" lon="145.3891">
    <ele>260.36</ele>
   </trkpt>
   <trkpt lat="-37.83419" lon="145.38856">
    <ele>259.56</ele>
   </trkpt>
   <trkpt lat="-37.83435" lon="145.38838">
    <ele>260.09999999999997</ele>
   </trkpt>
   <trkpt lat="-37.83442" lon="145.38834">
    <ele>260.09999999999997</ele>
   </trkpt>
   <trkpt lat="-37.83455" lon="145.38832000000002">
    <ele>261.0</ele>
   </trkpt>
   <trkpt lat="-37.83498" lon="145.38831000000002">
    <ele>263.8</ele>
   </trkpt>
   <trkpt lat="-37.83531" lon="145.38819">
    <ele>267.36</ele>
   </trkpt>
   <trkpt lat="-37.83547" lon="145.38808">
    <ele>269.66</ele>
   </trkpt>
   <trkpt lat="-37.83576" lon="145.38764">
    <ele>276.42</ele>
   </trkpt>
   <trkpt lat="-37.83614" lon="145.3872">
    <ele>282.03</ele>
   </trkpt>
   <trkpt lat="-37.8363" lon="145.38699000000003">
    <ele>283.90000000000003</ele>
   </trkpt>
   <trkpt lat="-37.83637" lon="145.38684">
    <ele>284.67</ele>
   </trkpt>
   <trkpt lat="-37.8365" lon="145.38641">
    <ele>287.75</ele>
   </trkpt>
   <trkpt lat="-37.83675" lon="145.38602">
    <ele>289.34000000000003</ele>
   </trkpt>
   <trkpt lat="-37.83681" lon="145.38593">
    <ele>290.02</ele>
   </trkpt>
   <trkpt lat="-37.83711" lon="145.38571000000002">
    <ele>292.91</ele>
   </trkpt>
   <trkpt lat="-37.83722" lon="145.38565">
    <ele>293.12000000000006</ele>
   </trkpt>
   <trkpt lat="-37.83805" lon="145.38537000000002">
    <ele>293.41</ele>
   </trkpt>
   <trkpt lat="-37.83885" lon="145.38514">
    <ele>299.04</ele>
   </trkpt>
   <trkpt lat="-37.8395" lon="145.38522">
    <ele>296.11</ele>
   </trkpt>
   <trkpt lat="-37.83975" lon="145.38520000000003">
    <ele>295.25</ele>
   </trkpt>
   <trkpt lat="-37.83997" lon="145.38510000000002">
    <ele>295.32</ele>
   </trkpt>
   <trkpt lat="-37.84022" lon="145.38496">
    <ele>296.24</ele>
   </trkpt>
   <trkpt lat="-37.84073" lon="145.38456000000002">
    <ele>297.96</ele>
   </trkpt>
   <trkpt lat="-37.84089" lon="145.38447000000002">
    <ele>297.67</ele>
   </trkpt>
   <trkpt lat="-37.841" lon="145.38444">
    <ele>297.15000000000003</ele>
   </trkpt>
   <trkpt lat="-37.84129" lon="145.38446000000002">
    <ele>294.16</ele>
   </trkpt>
   <trkpt lat="-37.841440000000006" lon="145.38451">
    <ele>292.42</ele>
   </trkpt>
   <trkpt lat="-37.84154" lon="145.38462">
    <ele>291.74</ele>
   </trkpt>
   <trkpt lat="-37.84196" lon="145.38561">
    <ele>276.28000000000003</ele>
   </trkpt>
   <trkpt lat="-37.84205" lon="145.38577">
    <ele>275.2</ele>
   </trkpt>
   <trkpt lat="-37.84221" lon="145.38598000000002">
    <ele>275.02000000000004</ele>
   </trkpt>
   <trkpt lat="-37.842380000000006" lon="145.38587">
    <ele>281.0</ele>
   </trkpt>
   <trkpt lat="-37.84237" lon="145.38589000000002">
    <ele>281.0</ele>
   </trkpt>
   <trkpt lat="-37.84237" lon="145.38588000000001">
    <ele>275.73</ele>
   </trkpt>
   <trkpt lat="-37.842470000000006" lon="145.38578">
    <ele>276.21</ele>
   </trkpt>
   <trkpt lat="-37.84254" lon="145.38564000000002">
    <ele>276.83000000000004</ele>
   </trkpt>
   <trkpt lat="-37.84266" lon="145.38509000000002">
    <ele>280.61</ele>
   </trkpt>
   <trkpt lat="-37.84272" lon="145.38490000000002">
    <ele>281.55</ele>
   </trkpt>
   <trkpt lat="-37.84281" lon="145.38477">
    <ele>282.08</ele>
   </trkpt>
   <trkpt lat="-37.84288" lon="145.38473000000002">
    <ele>283.01000000000005</ele>
   </trkpt>
   <trkpt lat="-37.84292000000001" lon="145.38473000000002">
    <ele>283.01000000000005</ele>
   </trkpt>
   <trkpt lat="-37.84297" lon="145.38451">
    <ele>284.82</ele>
   </trkpt>
   <trkpt lat="-37.84295" lon="145.38430000000002">
    <ele>287.48</ele>
   </trkpt>
   <trkpt lat="-37.84286" lon="145.38411000000002">
    <ele>288.51000000000005</ele>
   </trkpt>
   <trkpt lat="-37.84281" lon="145.38376000000002">
    <ele>290.36</ele>
   </trkpt>
   <trkpt lat="-37.84281" lon="145.38304000000002">
    <ele>296.64</ele>
   </trkpt>
   <trkpt lat="-37.84279" lon="145.38266000000002">
    <ele>300.65000000000003</ele>
   </trkpt>
   <trkpt lat="-37.84272" lon="145.38237">
    <ele>305.74</ele>
   </trkpt>
   <trkpt lat="-37.84263" lon="145.38217">
    <ele>307.47</ele>
   </trkpt>
   <trkpt lat="-37.84248" lon="145.38167">
    <ele>312.04</ele>
   </trkpt>
   <trkpt lat="-37.84248" lon="145.38133000000002">
    <ele>315.21000000000004</ele>
   </trkpt>
   <trkpt lat="-37.84243" lon="145.38109">
    <ele>318.27000000000004</ele>
   </trkpt>
   <trkpt lat="-37.8423" lon="145.38066">
    <ele>321.64000000000004</ele>
   </trkpt>
   <trkpt lat="-37.84205" lon="145.38012">
    <ele>325.67</ele>
   </trkpt>
   <trkpt lat="-37.84223" lon="145.38017000000002">
    <ele>327.8</ele>
   </trkpt>
   <trkpt lat="-37.842380000000006" lon="145.38016000000002">
    <ele>330.95</ele>
   </trkpt>
   <trkpt lat="-37.8425" lon="145.38008000000002">
    <ele>333.78000000000003</ele>
   </trkpt>
   <trkpt lat="-37.84257" lon="145.37998000000002">
    <ele>334.53000000000003</ele>
   </trkpt>
   <trkpt lat="-37.84277" lon="145.37985">
    <ele>339.75000000000006</ele>
   </trkpt>
   <trkpt lat="-37.84297" lon="145.37982000000002">
    <ele>343.5</ele>
   </trkpt>
   <trkpt lat="-37.84315" lon="145.37983">
    <ele>346.18000000000006</ele>
   </trkpt>
   <trkpt lat="-37.84396" lon="145.38022">
    <ele>357.43</ele>
   </trkpt>
   <trkpt lat="-37.84431" lon="145.38042000000002">
    <ele>362.83000000000004</ele>
   </trkpt>
   <trkpt lat="-37.844440000000006" lon="145.3804">
    <ele>365.07</ele>
   </trkpt>
   <trkpt lat="-37.84449" lon="145.38033000000001">
    <ele>365.07</ele>
   </trkpt>
   <trkpt lat="-37.84451" lon="145.3802">
    <ele>368.29</ele>
   </trkpt>
   <trkpt lat="-37.84451" lon="145.38000000000002">
    <ele>369.72</ele>
   </trkpt>
   <trkpt lat="-37.8444" lon="145.37967">
    <ele>375.14000000000004</ele>
   </trkpt>
   <trkpt lat="-37.84427" lon="145.37936000000002">
    <ele>378.34</ele>
   </trkpt>
   <trkpt lat="-37.84411" lon="145.37913">
    <ele>383.09000000000003</ele>
   </trkpt>
   <trkpt lat="-37.84375" lon="145.37878">
    <ele>388.17</ele>
   </trkpt>
   <trkpt lat="-37.84333" lon="145.37800000000001">
    <ele>397.5400000000001</ele>
   </trkpt>
   <trkpt lat="-37.84326" lon="145.3778">
    <ele>399.24</ele>
   </trkpt>
   <trkpt lat="-37.84324" lon="145.37767000000002">
    <ele>400.71</ele>
   </trkpt>
   <trkpt lat="-37.84326" lon="145.37756000000002">
    <ele>401.91</ele>
   </trkpt>
   <trkpt lat="-37.84333" lon="145.37742">
    <ele>404.16</ele>
   </trkpt>
   <trkpt lat="-37.84346" lon="145.37734">
    <ele>406.87</ele>
   </trkpt>
   <trkpt lat="-37.8436" lon="145.37728">
    <ele>409.88</ele>
   </trkpt>
   <trkpt lat="-37.843610000000005" lon="145.37727">
    <ele>409.88</ele>
   </trkpt>
   <trkpt lat="-37.84384" lon="145.37723000000003">
    <ele>415.67</ele>
   </trkpt>
   <trkpt lat="-37.84431" lon="145.37730000000002">
    <ele>425.21000000000004</ele>
   </trkpt>
   <trkpt lat="-37.84492" lon="145.37729000000002">
    <ele>434.8</ele>
   </trkpt>
   <trkpt lat="-37.84523" lon="145.37737">
    <ele>440.3</ele>
   </trkpt>
   <trkpt lat="-37.84582" lon="145.37730000000002">
    <ele>454.18</ele>
   </trkpt>
   <trkpt lat="-37.84575" lon="145.37768">
    <ele>449.63</ele>
   </trkpt>
   <trkpt lat="-37.84575" lon="145.37785000000002">
    <ele>447.8</ele>
   </trkpt>
   <trkpt lat="-37.84595" lon="145.37876">
    <ele>440.44000000000005</ele>
   </trkpt>
   <trkpt lat="-37.84603000554568" lon="145.37956999821952">
    <ele>430.41</ele>
   </trkpt>
   <trkpt lat="-37.84611000554341" lon="145.38037999819656">
    <ele>420.53000000000003</ele>
   </trkpt>
   <trkpt lat="-37.84619" lon="145.38119">
    <ele>406.02000000000004</ele>
   </trkpt>
   <trkpt lat="-37.84642" lon="145.3819">
    <ele>391.88</ele>
   </trkpt>
   <trkpt lat="-37.84657" lon="145.38202">
    <ele>389.68</ele>
   </trkpt>
   <trkpt lat="-37.84658" lon="145.38203000000001">
    <ele>389.55</ele>
   </trkpt>
   <trkpt lat="-37.84655" lon="145.38184">
    <ele>391.04</ele>
   </trkpt>
   <trkpt lat="-37.8466" lon="145.38173">
    <ele>392.1000000000001</ele>
   </trkpt>
   <trkpt lat="-37.84671" lon="145.38162">
    <ele>393.87000000000006</ele>
   </trkpt>
   <trkpt lat="-37.847170000000006" lon="145.38137">
    <ele>401.65</ele>
   </trkpt>
   <trkpt lat="-37.84772" lon="145.38083">
    <ele>410.22</ele>
   </trkpt>
   <trkpt lat="-37.84828" lon="145.38038">
    <ele>422.33000000000004</ele>
   </trkpt>
   <trkpt lat="-37.84877" lon="145.37985">
    <ele>431.65000000000003</ele>
   </trkpt>
   <trkpt lat="-37.84888" lon="145.37976">
    <ele>433.66</ele>
   </trkpt>
   <trkpt lat="-37.84901" lon="145.37967">
    <ele>433.66</ele>
   </trkpt>
   <trkpt lat="-37.84926" lon="145.3796">
    <ele>439.91</ele>
   </trkpt>
   <trkpt lat="-37.84984" lon="145.37939">
    <ele>446.07</ele>
   </trkpt>
   <trkpt lat="-37.85013" lon="145.37923">
    <ele>452.29</ele>
   </trkpt>
   <trkpt lat="-37.850350000000006" lon="145.37915">
    <ele>454.88000000000005</ele>
   </trkpt>
   <trkpt lat="-37.85049" lon="145.37914">
    <ele>454.64000000000004</ele>
   </trkpt>
   <trkpt lat="-37.850500000000004" lon="145.37914">
    <ele>454.64000000000004</ele>
   </trkpt>
   <trkpt lat="-37.85058" lon="145.37916">
    <ele>454.57</ele>
   </trkpt>
   <trkpt lat="-37.85067" lon="145.37921">
    <ele>454.57</ele>
   </trkpt>
   <trkpt lat="-37.85087" lon="145.37938000000003">
    <ele>454.73</ele>
   </trkpt>
   <trkpt lat="-37.85096" lon="145.37954000000002">
    <ele>455.09000000000003</ele>
   </trkpt>
   <trkpt lat="-37.85121" lon="145.38026000000002">
    <ele>452.21000000000004</ele>
   </trkpt>
   <trkpt lat="-37.8513" lon="145.38049">
    <ele>450.33000000000004</ele>
   </trkpt>
   <trkpt lat="-37.8517" lon="145.38093">
    <ele>445.88000000000005</ele>
   </trkpt>
   <trkpt lat="-37.85195" lon="145.38116000000002">
    <ele>444.39000000000004</ele>
   </trkpt>
   <trkpt lat="-37.85208" lon="145.38124000000002">
    <ele>444.40000000000003</ele>
   </trkpt>
   <trkpt lat="-37.85231" lon="145.38131">
    <ele>445.34000000000003</ele>
   </trkpt>
   <trkpt lat="-37.85255" lon="145.38136">
    <ele>446.81000000000006</ele>
   </trkpt>
   <trkpt lat="-37.85284" lon="145.38136">
    <ele>449.06</ele>
   </trkpt>
   <trkpt lat="-37.85311" lon="145.38133000000002">
    <ele>450.78000000000003</ele>
   </trkpt>
   <trkpt lat="-37.85369" lon="145.38122">
    <ele>453.6600000000001</ele>
   </trkpt>
   <trkpt lat="-37.85421" lon="145.38119">
    <ele>451.45</ele>
   </trkpt>
   <trkpt lat="-37.85478000015918" lon="145.38128499928564">
    <ele>446.57</ele>
   </trkpt>
   <trkpt lat="-37.85535" lon="145.38138">
    <ele>442.22</ele>
   </trkpt>
   <trkpt lat="-37.85562" lon="145.38138">
    <ele>440.07</ele>
   </trkpt>
   <trkpt lat="-37.85591" lon="145.38134000000002">
    <ele>438.11000000000007</ele>
   </trkpt>
   <trkpt lat="-37.856170000000006" lon="145.38129">
    <ele>437.25</ele>
   </trkpt>
   <trkpt lat="-37.8564" lon="145.38117000000003">
    <ele>436.87</ele>
   </trkpt>
   <trkpt lat="-37.85669" lon="145.38112">
    <ele>436.9</ele>
   </trkpt>
   <trkpt lat="-37.85678" lon="145.38113">
    <ele>437.03000000000003</ele>
   </trkpt>
   <trkpt lat="-37.85687" lon="145.38117000000003">
    <ele>437.81</ele>
   </trkpt>
   <trkpt lat="-37.857020000000006" lon="145.38128">
    <ele>438.09000000000003</ele>
   </trkpt>
   <trkpt lat="-37.85712" lon="145.38146">
    <ele>438.56000000000006</ele>
   </trkpt>
   <trkpt lat="-37.857310000000005" lon="145.38186000000002">
    <ele>438.82000000000005</ele>
   </trkpt>
   <trkpt lat="-37.85736" lon="145.38161000000002">
    <ele>446.65000000000003</ele>
   </trkpt>
   <trkpt lat="-37.85727" lon="145.38083">
    <ele>457.45</ele>
   </trkpt>
   <trkpt lat="-37.857220000000005" lon="145.38056">
    <ele>464.67</ele>
   </trkpt>
   <trkpt lat="-37.85721" lon="145.38042000000002">
    <ele>464.67</ele>
   </trkpt>
   <trkpt lat="-37.85725" lon="145.3802">
    <ele>468.97</ele>
   </trkpt>
   <trkpt lat="-37.85725" lon="145.3801">
    <ele>472.89000000000004</ele>
   </trkpt>
   <trkpt lat="-37.85718" lon="145.37988">
    <ele>477.0</ele>
   </trkpt>
   <trkpt lat="-37.85725" lon="145.37954000000002">
    <ele>480.99</ele>
   </trkpt>
   <trkpt lat="-37.85723" lon="145.37939">
    <ele>483.7</ele>
   </trkpt>
   <trkpt lat="-37.8571" lon="145.37916">
    <ele>486.38000000000005</ele>
   </trkpt>
   <trkpt lat="-37.85694" lon="145.37900000000002">
    <ele>488.97</ele>
   </trkpt>
   <trkpt lat="-37.8568" lon="145.37878">
    <ele>490.06000000000006</ele>
   </trkpt>
   <trkpt lat="-37.85712" lon="145.37890000000002">
    <ele>495.09000000000003</ele>
   </trkpt>
   <trkpt lat="-37.85763" lon="145.37932">
    <ele>498.51000000000005</ele>
   </trkpt>
   <trkpt lat="-37.85792" lon="145.37946000000002">
    <ele>499.19</ele>
   </trkpt>
   <trkpt lat="-37.85821" lon="145.37963000000002">
    <ele>499.92</ele>
   </trkpt>
   <trkpt lat="-37.85862" lon="145.37993">
    <ele>503.74000000000007</ele>
   </trkpt>
   <trkpt lat="-37.85902" lon="145.38037">
    <ele>508.71</ele>
   </trkpt>
   <trkpt lat="-37.85953000000001" lon="145.38081000000003">
    <ele>515.5300000000001</ele>
   </trkpt>
   <trkpt lat="-37.85987" lon="145.38102">
    <ele>518.44</ele>
   </trkpt>
   <trkpt lat="-37.86007" lon="145.38119">
    <ele>520.5300000000001</ele>
   </trkpt>
   <trkpt lat="-37.86003" lon="145.38133000000002">
    <ele>521.09</ele>
   </trkpt>
   <trkpt lat="-37.85998" lon="145.38154">
    <ele>521.0100000000001</ele>
   </trkpt>
   <trkpt lat="-37.85992" lon="145.38267000000002">
    <ele>518.7700000000001</ele>
   </trkpt>
   <trkpt lat="-37.859770000000005" lon="145.38287000000003">
    <ele>517.46</ele>
   </trkpt>
   <trkpt lat="-37.85983" lon="145.38292">
    <ele>513.78</ele>
   </trkpt>
   <trkpt lat="-37.85987" lon="145.38334">
    <ele>511.93</ele>
   </trkpt>
   <trkpt lat="-37.85971" lon="145.38439000000002">
    <ele>503.49</ele>
   </trkpt>
   <trkpt lat="-37.85965" lon="145.38445000000002">
    <ele>502.25000000000006</ele>
   </trkpt>
   <trkpt lat="-37.8594" lon="145.38458">
    <ele>498.16</ele>
   </trkpt>
   <trkpt lat="-37.85927" lon="145.38477">
    <ele>493.36</ele>
   </trkpt>
   <trkpt lat="-37.85924" lon="145.38524">
    <ele>485.18000000000006</ele>
   </trkpt>
   <trkpt lat="-37.8592" lon="145.38539">
    <ele>484.27000000000004</ele>
   </trkpt>
   <trkpt lat="-37.85891" lon="145.38586">
    <ele>475.45000000000005</ele>
   </trkpt>
   <trkpt lat="-37.85875" lon="145.38602">
    <ele>472.54</ele>
   </trkpt>
   <trkpt lat="-37.85859000000001" lon="145.38616000000002">
    <ele>471.09000000000003</ele>
   </trkpt>
   <trkpt lat="-37.85839" lon="145.38625000000002">
    <ele>467.29</ele>
   </trkpt>
   <trkpt lat="-37.85826" lon="145.38624000000002">
    <ele>464.99</ele>
   </trkpt>
   <trkpt lat="-37.85824" lon="145.38621">
    <ele>461.39</ele>
   </trkpt>
   <trkpt lat="-37.85824" lon="145.38594">
    <ele>458.14000000000004</ele>
   </trkpt>
   <trkpt lat="-37.85804" lon="145.38562000000002">
    <ele>450.44000000000005</ele>
   </trkpt>
   <trkpt lat="-37.858050000000006" lon="145.38549">
    <ele>449.59000000000003</ele>
   </trkpt>
   <trkpt lat="-37.85792" lon="145.38525">
    <ele>449.13</ele>
   </trkpt>
   <trkpt lat="-37.8575" lon="145.38472000000002">
    <ele>445.56</ele>
   </trkpt>
   <trkpt lat="-37.85741" lon="145.38446000000002">
    <ele>444.6</ele>
   </trkpt>
   <trkpt lat="-37.85739" lon="145.38424">
    <ele>444.21000000000004</ele>
   </trkpt>
   <trkpt lat="-37.85739" lon="145.38403000000002">
    <ele>443.15000000000003</ele>
   </trkpt>
   <trkpt lat="-37.85752" lon="145.38307">
    <ele>441.16</ele>
   </trkpt>
   <trkpt lat="-37.8575" lon="145.38250000000002">
    <ele>439.8</ele>
   </trkpt>
   <trkpt lat="-37.857440000000004" lon="145.38230000000001">
    <ele>439.64000000000004</ele>
   </trkpt>
   <trkpt lat="-37.85707" lon="145.38234">
    <ele>431.11</ele>
   </trkpt>
   <trkpt lat="-37.856730000000006" lon="145.38225">
    <ele>425.04</ele>
   </trkpt>
   <trkpt lat="-37.85665" lon="145.38232000000002">
    <ele>421.86</ele>
   </trkpt>
   <trkpt lat="-37.8566" lon="145.38243">
    <ele>420.81</ele>
   </trkpt>
   <trkpt lat="-37.85667" lon="145.38279">
    <ele>415.73</ele>
   </trkpt>
   <trkpt lat="-37.85663" lon="145.38306">
    <ele>411.32</ele>
   </trkpt>
   <trkpt lat="-37.85654" lon="145.38322000000002">
    <ele>410.11</ele>
   </trkpt>
   <trkpt lat="-37.85638" lon="145.38374000000002">
    <ele>411.78000000000003</ele>
   </trkpt>
   <trkpt lat="-37.85636" lon="145.38406">
    <ele>414.32</ele>
   </trkpt>
   <trkpt lat="-37.85636" lon="145.38443">
    <ele>417.35</ele>
   </trkpt>
   <trkpt lat="-37.85642" lon="145.38465000000002">
    <ele>419.59000000000003</ele>
   </trkpt>
   <trkpt lat="-37.85651" lon="145.38478">
    <ele>421.57000000000005</ele>
   </trkpt>
   <trkpt lat="-37.85705" lon="145.38525">
    <ele>426.51000000000005</ele>
   </trkpt>
   <trkpt lat="-37.85712" lon="145.38534">
    <ele>427.1</ele>
   </trkpt>
   <trkpt lat="-37.85712" lon="145.38546000000002">
    <ele>427.59000000000003</ele>
   </trkpt>
   <trkpt lat="-37.85694" lon="145.38588000000001">
    <ele>431.44000000000005</ele>
   </trkpt>
   <trkpt lat="-37.856660000000005" lon="145.38629">
    <ele>434.70000000000005</ele>
   </trkpt>
   <trkpt lat="-37.856680000000004" lon="145.38626000000002">
    <ele>434.68</ele>
   </trkpt>
   <trkpt lat="-37.85656" lon="145.38636000000002">
    <ele>434.18</ele>
   </trkpt>
   <trkpt lat="-37.85645" lon="145.38638">
    <ele>433.43</ele>
   </trkpt>
   <trkpt lat="-37.85618" lon="145.38636000000002">
    <ele>430.08</ele>
   </trkpt>
   <trkpt lat="-37.85604" lon="145.38625000000002">
    <ele>427.82000000000005</ele>
   </trkpt>
   <trkpt lat="-37.856" lon="145.38617000000002">
    <ele>425.06000000000006</ele>
   </trkpt>
   <trkpt lat="-37.85586" lon="145.38612">
    <ele>423.2</ele>
   </trkpt>
   <trkpt lat="-37.85575" lon="145.38613">
    <ele>422.98</ele>
   </trkpt>
   <trkpt lat="-37.855610000000006" lon="145.3861">
    <ele>423.01000000000005</ele>
   </trkpt>
   <trkpt lat="-37.85501" lon="145.38577">
    <ele>415.09000000000003</ele>
   </trkpt>
   <trkpt lat="-37.854490000000006" lon="145.38562000000002">
    <ele>405.31000000000006</ele>
   </trkpt>
   <trkpt lat="-37.85396" lon="145.38551">
    <ele>392.48</ele>
   </trkpt>
   <trkpt lat="-37.85309" lon="145.38565">
    <ele>373.95</ele>
   </trkpt>
   <trkpt lat="-37.85275" lon="145.38578">
    <ele>370.28000000000003</ele>
   </trkpt>
   <trkpt lat="-37.85233" lon="145.38585">
    <ele>361.04</ele>
   </trkpt>
   <trkpt lat="-37.8519" lon="145.38586">
    <ele>356.23</ele>
   </trkpt>
   <trkpt lat="-37.85116" lon="145.38566">
    <ele>344.75</ele>
   </trkpt>
   <trkpt lat="-37.850460000000005" lon="145.38531">
    <ele>332.56</ele>
   </trkpt>
   <trkpt lat="-37.84995" lon="145.38541">
    <ele>325.41</ele>
   </trkpt>
   <trkpt lat="-37.849500000000006" lon="145.38575">
    <ele>319.93000000000006</ele>
   </trkpt>
   <trkpt lat="-37.84942" lon="145.38578">
    <ele>319.28000000000003</ele>
   </trkpt>
   <trkpt lat="-37.84904" lon="145.38596">
    <ele>313.19</ele>
   </trkpt>
   <trkpt lat="-37.848560000000006" lon="145.38607000000002">
    <ele>307.07</ele>
   </trkpt>
   <trkpt lat="-37.84854" lon="145.38608000000002">
    <ele>307.09000000000003</ele>
   </trkpt>
   <trkpt lat="-37.84834" lon="145.38619">
    <ele>304.6700000000001</ele>
   </trkpt>
   <trkpt lat="-37.84812" lon="145.38636000000002">
    <ele>302.22</ele>
   </trkpt>
   <trkpt lat="-37.84751" lon="145.38669000000002">
    <ele>295.74</ele>
   </trkpt>
   <trkpt lat="-37.84736" lon="145.38680000000002">
    <ele>294.95000000000005</ele>
   </trkpt>
   <trkpt lat="-37.8472" lon="145.38689000000002">
    <ele>293.68</ele>
   </trkpt>
   <trkpt lat="-37.84691" lon="145.38723000000002">
    <ele>289.87</ele>
   </trkpt>
   <trkpt lat="-37.84671" lon="145.38737">
    <ele>288.44</ele>
   </trkpt>
   <trkpt lat="-37.84651" lon="145.38742000000002">
    <ele>287.8</ele>
   </trkpt>
   <trkpt lat="-37.84628" lon="145.38743000000002">
    <ele>287.23</ele>
   </trkpt>
   <trkpt lat="-37.84613" lon="145.38748">
    <ele>287.01000000000005</ele>
   </trkpt>
   <trkpt lat="-37.84577" lon="145.38776000000001">
    <ele>284.5</ele>
   </trkpt>
   <trkpt lat="-37.84557" lon="145.388">
    <ele>283.44</ele>
   </trkpt>
   <trkpt lat="-37.84539" lon="145.38825">
    <ele>283.13000000000005</ele>
   </trkpt>
   <trkpt lat="-37.84523" lon="145.38868000000002">
    <ele>283.55</ele>
   </trkpt>
   <trkpt lat="-37.84487" lon="145.38931000000002">
    <ele>283.94</ele>
   </trkpt>
   <trkpt lat="-37.84478" lon="145.38966000000002">
    <ele>284.67</ele>
   </trkpt>
   <trkpt lat="-37.84474" lon="145.39010000000002">
    <ele>287.19</ele>
   </trkpt>
   <trkpt lat="-37.84463000167539" lon="145.39072500079666">
    <ele>289.59000000000003</ele>
   </trkpt>
   <trkpt lat="-37.84452" lon="145.39135000000002">
    <ele>291.29</ele>
   </trkpt>
   <trkpt lat="-37.84454" lon="145.39234000000002">
    <ele>295.40000000000003</ele>
   </trkpt>
   <trkpt lat="-37.844440000000006" lon="145.39273">
    <ele>297.00000000000006</ele>
   </trkpt>
   <trkpt lat="-37.84436" lon="145.39276">
    <ele>297.33000000000004</ele>
   </trkpt>
   <trkpt lat="-37.84355" lon="145.39252000000002">
    <ele>297.83000000000004</ele>
   </trkpt>
   <trkpt lat="-37.84326" lon="145.39248">
    <ele>298.06000000000006</ele>
   </trkpt>
   <trkpt lat="-37.8429" lon="145.39254000000003">
    <ele>298.63</ele>
   </trkpt>
   <trkpt lat="-37.8421" lon="145.39290000000003">
    <ele>299.66</ele>
   </trkpt>
   <trkpt lat="-37.84192" lon="145.39305000000002">
    <ele>299.69</ele>
   </trkpt>
   <trkpt lat="-37.84183" lon="145.3933">
    <ele>299.6</ele>
   </trkpt>
   <trkpt lat="-37.841820000000006" lon="145.39352000000002">
    <ele>299.59000000000003</ele>
   </trkpt>
   <trkpt lat="-37.84176" lon="145.39351000000002">
    <ele>299.14</ele>
   </trkpt>
   <trkpt lat="-37.84167" lon="145.39354">
    <ele>298.11</ele>
   </trkpt>
   <trkpt lat="-37.841530000000006" lon="145.39354">
    <ele>294.96</ele>
   </trkpt>
   <trkpt lat="-37.8414" lon="145.39349">
    <ele>294.96</ele>
   </trkpt>
   <trkpt lat="-37.84125" lon="145.39347">
    <ele>292.47</ele>
   </trkpt>
   <trkpt lat="-37.84093" lon="145.39345">
    <ele>289.13</ele>
   </trkpt>
   <trkpt lat="-37.84064" lon="145.39347">
    <ele>282.03</ele>
   </trkpt>
   <trkpt lat="-37.84024" lon="145.39342000000002">
    <ele>275.90000000000003</ele>
   </trkpt>
   <trkpt lat="-37.83995" lon="145.39344">
    <ele>270.92</ele>
   </trkpt>
   <trkpt lat="-37.83981" lon="145.39339">
    <ele>269.62</ele>
   </trkpt>
   <trkpt lat="-37.8397" lon="145.39325000000002">
    <ele>267.84000000000003</ele>
   </trkpt>
   <trkpt lat="-37.83966" lon="145.39313">
    <ele>266.86</ele>
   </trkpt>
   <trkpt lat="-37.83937" lon="145.39282">
    <ele>262.5</ele>
   </trkpt>
   <trkpt lat="-37.83894" lon="145.39235000000002">
    <ele>257.3</ele>
   </trkpt>
   <trkpt lat="-37.83872" lon="145.39218000000002">
    <ele>254.82999999999998</ele>
   </trkpt>
   <trkpt lat="-37.83858" lon="145.39221">
    <ele>254.14000000000001</ele>
   </trkpt>
   <trkpt lat="-37.83784" lon="145.3922">
    <ele>253.14000000000001</ele>
   </trkpt>
   <trkpt lat="-37.83766" lon="145.39217000000002">
    <ele>252.85000000000002</ele>
   </trkpt>
   <trkpt lat="-37.83753" lon="145.39213">
    <ele>252.3</ele>
   </trkpt>
   <trkpt lat="-37.837410000000006" lon="145.39212">
    <ele>252.3</ele>
   </trkpt>
   <trkpt lat="-37.83722" lon="145.39226000000002">
    <ele>250.96</ele>
   </trkpt>
   <trkpt lat="-37.836580000000005" lon="145.39262000000002">
    <ele>249.49</ele>
   </trkpt>
   <trkpt lat="-37.83657" lon="145.39263000000003">
    <ele>249.49</ele>
   </trkpt>
   <trkpt lat="-37.83614500089606" lon="145.39308500259907">
    <ele>247.88000000000002</ele>
   </trkpt>
   <trkpt lat="-37.83572" lon="145.39354">
    <ele>244.04</ele>
   </trkpt>
   <trkpt lat="-37.83549" lon="145.39381">
    <ele>245.98000000000002</ele>
   </trkpt>
   <trkpt lat="-37.83545" lon="145.39387000000002">
    <ele>245.98000000000002</ele>
   </trkpt>
   <trkpt lat="-37.83541" lon="145.39405000000002">
    <ele>247.64000000000001</ele>
   </trkpt>
   <trkpt lat="-37.83554" lon="145.39486000000002">
    <ele>253.94</ele>
   </trkpt>
   <trkpt lat="-37.83563" lon="145.39524">
    <ele>254.78</ele>
   </trkpt>
   <trkpt lat="-37.83572" lon="145.39546">
    <ele>255.54999999999998</ele>
   </trkpt>
   <trkpt lat="-37.83585" lon="145.39565000000002">
    <ele>256.01</ele>
   </trkpt>
   <trkpt lat="-37.83623" lon="145.39608">
    <ele>258.63</ele>
   </trkpt>
   <trkpt lat="-37.83666" lon="145.39669">
    <ele>263.02000000000004</ele>
   </trkpt>
   <trkpt lat="-37.837030000000006" lon="145.39711">
    <ele>267.59</ele>
   </trkpt>
   <trkpt lat="-37.8374" lon="145.3973">
    <ele>271.26</ele>
   </trkpt>
   <trkpt lat="-37.83771" lon="145.39768">
    <ele>275.66</ele>
   </trkpt>
   <trkpt lat="-37.8379450010296" lon="145.39816499852745">
    <ele>280.85</ele>
   </trkpt>
   <trkpt lat="-37.83818" lon="145.39865">
    <ele>286.31</ele>
   </trkpt>
   <trkpt lat="-37.8384" lon="145.3992">
    <ele>291.87</ele>
   </trkpt>
   <trkpt lat="-37.83854" lon="145.39981">
    <ele>300.45000000000005</ele>
   </trkpt>
   <trkpt lat="-37.83854" lon="145.40035">
    <ele>305.82000000000005</ele>
   </trkpt>
   <trkpt lat="-37.83849" lon="145.40053">
    <ele>309.3</ele>
   </trkpt>
   <trkpt lat="-37.83812000125378" lon="145.4010600025636">
    <ele>315.13</ele>
   </trkpt>
   <trkpt lat="-37.83775" lon="145.40159">
    <ele>320.32000000000005</ele>
   </trkpt>
   <trkpt lat="-37.83773" lon="145.4016">
    <ele>320.32000000000005</ele>
   </trkpt>
   <trkpt lat="-37.83775" lon="145.40159">
    <ele>320.32000000000005</ele>
   </trkpt>
   <trkpt lat="-37.83737" lon="145.40184000000002">
    <ele>320.19</ele>
   </trkpt>
   <trkpt lat="-37.837140000000005" lon="145.40177">
    <ele>319.3</ele>
   </trkpt>
   <trkpt lat="-37.83684" lon="145.40167000000002">
    <ele>316.73</ele>
   </trkpt>
   <trkpt lat="-37.836560000000006" lon="145.40167000000002">
    <ele>315.53000000000003</ele>
   </trkpt>
   <trkpt lat="-37.83616" lon="145.40175000000002">
    <ele>314.19</ele>
   </trkpt>
   <trkpt lat="-37.83576" lon="145.40176000000002">
    <ele>311.64000000000004</ele>
   </trkpt>
   <trkpt lat="-37.83536" lon="145.40165000000002">
    <ele>311.12</ele>
   </trkpt>
   <trkpt lat="-37.835" lon="145.4015">
    <ele>312.79</ele>
   </trkpt>
   <trkpt lat="-37.83484" lon="145.40141">
    <ele>315.01</ele>
   </trkpt>
   <trkpt lat="-37.83449" lon="145.40113000000002">
    <ele>318.78000000000003</ele>
   </trkpt>
   <trkpt lat="-37.83433" lon="145.40105">
    <ele>319.6</ele>
   </trkpt>
   <trkpt lat="-37.83419" lon="145.40102000000002">
    <ele>320.35</ele>
   </trkpt>
   <trkpt lat="-37.83399" lon="145.40106">
    <ele>320.67</ele>
   </trkpt>
   <trkpt lat="-37.83381" lon="145.40107">
    <ele>321.36</ele>
   </trkpt>
   <trkpt lat="-37.83319" lon="145.40121000000002">
    <ele>320.15999999999997</ele>
   </trkpt>
   <trkpt lat="-37.83287" lon="145.40134">
    <ele>316.47</ele>
   </trkpt>
   <trkpt lat="-37.83249" lon="145.40141">
    <ele>313.81</ele>
   </trkpt>
   <trkpt lat="-37.83227" lon="145.40142">
    <ele>310.11000000000007</ele>
   </trkpt>
   <trkpt lat="-37.83196" lon="145.40146000000001">
    <ele>307.04</ele>
   </trkpt>
   <trkpt lat="-37.83184" lon="145.40143">
    <ele>305.69</ele>
   </trkpt>
   <trkpt lat="-37.83128" lon="145.40112000000002">
    <ele>295.6</ele>
   </trkpt>
   <trkpt lat="-37.83072666775461" lon="145.40076332799177">
    <ele>288.17</ele>
   </trkpt>
   <trkpt lat="-37.83017333443367" lon="145.40040666133316">
    <ele>272.86</ele>
   </trkpt>
   <trkpt lat="-37.829620000000006" lon="145.40005000000002">
    <ele>254.0</ele>
   </trkpt>
   <trkpt lat="-37.82947" lon="145.39998">
    <ele>251.8</ele>
   </trkpt>
   <trkpt lat="-37.82905" lon="145.39988000000002">
    <ele>244.24</ele>
   </trkpt>
   <trkpt lat="-37.82891" lon="145.39976000000001">
    <ele>241.54000000000002</ele>
   </trkpt>
   <trkpt lat="-37.828810000000004" lon="145.39942000000002">
    <ele>238.61</ele>
   </trkpt>
   <trkpt lat="-37.82818000032031" lon="145.39973500273896">
    <ele>239.85</ele>
   </trkpt>
   <trkpt lat="-37.82755" lon="145.40005000000002">
    <ele>239.13</ele>
   </trkpt>
   <trkpt lat="-37.82728" lon="145.40029">
    <ele>239.06000000000003</ele>
   </trkpt>
   <trkpt lat="-37.82712" lon="145.40063">
    <ele>238.51000000000002</ele>
   </trkpt>
   <trkpt lat="-37.82683" lon="145.40156000000002">
    <ele>237.89000000000001</ele>
   </trkpt>
   <trkpt lat="-37.82661" lon="145.40195">
    <ele>237.79000000000002</ele>
   </trkpt>
   <trkpt lat="-37.82636" lon="145.40214">
    <ele>236.92000000000002</ele>
   </trkpt>
   <trkpt lat="-37.826" lon="145.40214">
    <ele>236.02</ele>
   </trkpt>
   <trkpt lat="-37.82546" lon="145.40198">
    <ele>232.91</ele>
   </trkpt>
   <trkpt lat="-37.82497" lon="145.40199">
    <ele>229.25</ele>
   </trkpt>
   <trkpt lat="-37.824740000000006" lon="145.40193000000002">
    <ele>227.86</ele>
   </trkpt>
   <trkpt lat="-37.82434000000001" lon="145.40179">
    <ele>226.16000000000003</ele>
   </trkpt>
   <trkpt lat="-37.8243" lon="145.4018">
    <ele>226.17000000000002</ele>
   </trkpt>
   <trkpt lat="-37.82428" lon="145.40185000000002">
    <ele>226.17000000000002</ele>
   </trkpt>
   <trkpt lat="-37.82417" lon="145.40193000000002">
    <ele>227.03</ele>
   </trkpt>
   <trkpt lat="-37.82399" lon="145.40202000000002">
    <ele>228.46</ele>
   </trkpt>
   <trkpt lat="-37.8239" lon="145.40210000000002">
    <ele>229.75</ele>
   </trkpt>
   <trkpt lat="-37.82385" lon="145.40218000000002">
    <ele>231.86</ele>
   </trkpt>
   <trkpt lat="-37.82381" lon="145.40257000000003">
    <ele>234.78</ele>
   </trkpt>
   <trkpt lat="-37.82383" lon="145.40268">
    <ele>235.45000000000002</ele>
   </trkpt>
   <trkpt lat="-37.82374" lon="145.40289">
    <ele>236.04000000000002</ele>
   </trkpt>
   <trkpt lat="-37.82363" lon="145.40299000000002">
    <ele>238.16</ele>
   </trkpt>
   <trkpt lat="-37.823640000000005" lon="145.40310000000002">
    <ele>238.16</ele>
   </trkpt>
   <trkpt lat="-37.82388" lon="145.40334000000001">
    <ele>238.09000000000003</ele>
   </trkpt>
   <trkpt lat="-37.8241" lon="145.40353000000002">
    <ele>237.64000000000001</ele>
   </trkpt>
   <trkpt lat="-37.82443" lon="145.40384">
    <ele>238.42000000000002</ele>
   </trkpt>
   <trkpt lat="-37.82471" lon="145.4042">
    <ele>238.32000000000002</ele>
   </trkpt>
  </trkseg>
 </trk>
</gpx>
