<?xml version="1.0" encoding="UTF-8"?>
<gpx creator="StravaGPX" version="1.1" xmlns="http://www.topografix.com/GPX/1/1" xmlns:xsi="http://www.w3.org/2001/XMLSchema-instance" xsi:schemaLocation="http://www.topografix.com/GPX/1/1 http://www.topografix.com/GPX/1/1/gpx.xsd">
 <metadata>
  <name>DTR Sunday 8k 23rd March Sassafras</name>
  <author>
   <name>john csorgo</name>
  </author>
  <copyright author="OpenStreetMap contributors">
   <year>2020</year>
   <license>https://www.openstreetmap.org/copyright</license>
  </copyright>
 </metadata>
 <trk>
  <name>DTR Sunday 8k 23rd March Sassafras</name>
  <link href=""/>
  <type>running</type>
  <trkseg>
   <trkpt lat="-37.86269" lon="145.35319">
    <ele>478.25000000000006</ele>
   </trkpt>
   <trkpt lat="-37.86256" lon="145.35293000000001">
    <ele>476.44</ele>
   </trkpt>
   <trkpt lat="-37.86253" lon="145.35292">
    <ele>476.21000000000004</ele>
   </trkpt>
   <trkpt lat="-37.86253" lon="145.35282">
    <ele>476.07000000000005</ele>
   </trkpt>
   <trkpt lat="-37.86242" lon="145.35278000000002">
    <ele>477.19000000000005</ele>
   </trkpt>
   <trkpt lat="-37.86222" lon="145.35236">
    <ele>471.32</ele>
   </trkpt>
   <trkpt lat="-37.86216" lon="145.35208">
    <ele>469.87000000000006</ele>
   </trkpt>
   <trkpt lat="-37.8622" lon="145.3514">
    <ele>465.40000000000003</ele>
   </trkpt>
   <trkpt lat="-37.86256" lon="145.35098000000002">
    <ele>459.97</ele>
   </trkpt>
   <trkpt lat="-37.86258" lon="145.35084">
    <ele>457.63000000000005</ele>
   </trkpt>
   <trkpt lat="-37.862730000000006" lon="145.35069000000001">
    <ele>456.03000000000003</ele>
   </trkpt>
   <trkpt lat="-37.86233" lon="145.35036000000002">
    <ele>445.34000000000003</ele>
   </trkpt>
   <trkpt lat="-37.86218" lon="145.35036000000002">
    <ele>445.51</ele>
   </trkpt>
   <trkpt lat="-37.86175" lon="145.35062000000002">
    <ele>448.28000000000003</ele>
   </trkpt>
   <trkpt lat="-37.86157" lon="145.35075">
    <ele>449.03000000000003</ele>
   </trkpt>
   <trkpt lat="-37.86144" lon="145.35096000000001">
    <ele>448.34000000000003</ele>
   </trkpt>
   <trkpt lat="-37.86104" lon="145.35133000000002">
    <ele>447.8</ele>
   </trkpt>
   <trkpt lat="-37.860960000000006" lon="145.35146">
    <ele>450.13</ele>
   </trkpt>
   <trkpt lat="-37.860490000000006" lon="145.35181">
    <ele>459.44</ele>
   </trkpt>
   <trkpt lat="-37.86023" lon="145.35196000000002">
    <ele>462.15000000000003</ele>
   </trkpt>
   <trkpt lat="-37.85994" lon="145.35221">
    <ele>468.23</ele>
   </trkpt>
   <trkpt lat="-37.8596" lon="145.35241000000002">
    <ele>473.04</ele>
   </trkpt>
   <trkpt lat="-37.85945" lon="145.35244">
    <ele>474.88</ele>
   </trkpt>
   <trkpt lat="-37.8592" lon="145.35248">
    <ele>478.85</ele>
   </trkpt>
   <trkpt lat="-37.85851" lon="145.35268000000002">
    <ele>487.86</ele>
   </trkpt>
   <trkpt lat="-37.85815" lon="145.35273">
    <ele>493.21000000000004</ele>
   </trkpt>
   <trkpt lat="-37.857635000010575" lon="145.35270499982573">
    <ele>499.7900000000001</ele>
   </trkpt>
   <trkpt lat="-37.85712" lon="145.35268000000002">
    <ele>505.99000000000007</ele>
   </trkpt>
   <trkpt lat="-37.85701" lon="145.35266000000001">
    <ele>505.99000000000007</ele>
   </trkpt>
   <trkpt lat="-37.85683" lon="145.35260000000002">
    <ele>507.94000000000005</ele>
   </trkpt>
   <trkpt lat="-37.85636" lon="145.35252">
    <ele>508.78</ele>
   </trkpt>
   <trkpt lat="-37.85622" lon="145.35247">
    <ele>507.73</ele>
   </trkpt>
   <trkpt lat="-37.85614" lon="145.35240000000002">
    <ele>506.74000000000007</ele>
   </trkpt>
   <trkpt lat="-37.85580500091417" lon="145.35193999793628">
    <ele>496.97</ele>
   </trkpt>
   <trkpt lat="-37.855470000000004" lon="145.35148">
    <ele>490.68000000000006</ele>
   </trkpt>
   <trkpt lat="-37.85507500121872" lon="145.3509249969086">
    <ele>481.99</ele>
   </trkpt>
   <trkpt lat="-37.85468" lon="145.35037">
    <ele>472.57000000000005</ele>
   </trkpt>
   <trkpt lat="-37.85419" lon="145.34983000000003">
    <ele>459.59000000000003</ele>
   </trkpt>
   <trkpt lat="-37.853860000000005" lon="145.34941">
    <ele>452.87000000000006</ele>
   </trkpt>
   <trkpt lat="-37.85416" lon="145.34943">
    <ele>452.64000000000004</ele>
   </trkpt>
   <trkpt lat="-37.85474500023648" lon="145.3495549990445">
    <ele>455.34000000000003</ele>
   </trkpt>
   <trkpt lat="-37.85533" lon="145.34968">
    <ele>456.71000000000004</ele>
   </trkpt>
   <trkpt lat="-37.85577" lon="145.34973000000002">
    <ele>453.26000000000005</ele>
   </trkpt>
   <trkpt lat="-37.85632999992552" lon="145.34984499909962">
    <ele>441.52000000000004</ele>
   </trkpt>
   <trkpt lat="-37.85689" lon="145.34996">
    <ele>424.47</ele>
   </trkpt>
   <trkpt lat="-37.85716" lon="145.34998000000002">
    <ele>419.07000000000005</ele>
   </trkpt>
   <trkpt lat="-37.85743" lon="145.34995">
    <ele>414.16</ele>
   </trkpt>
   <trkpt lat="-37.85757" lon="145.34989000000002">
    <ele>411.45000000000005</ele>
   </trkpt>
   <trkpt lat="-37.85781" lon="145.34966">
    <ele>405.32</ele>
   </trkpt>
   <trkpt lat="-37.85801" lon="145.34944000000002">
    <ele>400.88</ele>
   </trkpt>
   <trkpt lat="-37.8581" lon="145.34938000000002">
    <ele>400.88</ele>
   </trkpt>
   <trkpt lat="-37.85875" lon="145.34924">
    <ele>389.68</ele>
   </trkpt>
   <trkpt lat="-37.8588" lon="145.34917000000002">
    <ele>388.99000000000007</ele>
   </trkpt>
   <trkpt lat="-37.85877" lon="145.34889">
    <ele>383.67</ele>
   </trkpt>
   <trkpt lat="-37.85893" lon="145.34861">
    <ele>377.34</ele>
   </trkpt>
   <trkpt lat="-37.859" lon="145.34836">
    <ele>374.9</ele>
   </trkpt>
   <trkpt lat="-37.85902" lon="145.34832">
    <ele>374.29</ele>
   </trkpt>
   <trkpt lat="-37.85909" lon="145.34833">
    <ele>373.64000000000004</ele>
   </trkpt>
   <trkpt lat="-37.8592" lon="145.34841">
    <ele>372.6700000000001</ele>
   </trkpt>
   <trkpt lat="-37.85927" lon="145.34839000000002">
    <ele>371.79</ele>
   </trkpt>
   <trkpt lat="-37.8594" lon="145.34808">
    <ele>367.27000000000004</ele>
   </trkpt>
   <trkpt lat="-37.859500000000004" lon="145.34782">
    <ele>365.04</ele>
   </trkpt>
   <trkpt lat="-37.86027" lon="145.34776000000002">
    <ele>372.46</ele>
   </trkpt>
   <trkpt lat="-37.86032" lon="145.34775000000002">
    <ele>373.56</ele>
   </trkpt>
   <trkpt lat="-37.86068" lon="145.34759000000003">
    <ele>378.82000000000005</ele>
   </trkpt>
   <trkpt lat="-37.86097" lon="145.34757000000002">
    <ele>385.13</ele>
   </trkpt>
   <trkpt lat="-37.86101" lon="145.34763">
    <ele>385.78000000000003</ele>
   </trkpt>
   <trkpt lat="-37.86101" lon="145.34771">
    <ele>386.85</ele>
   </trkpt>
   <trkpt lat="-37.86097" lon="145.34788">
    <ele>387.3</ele>
   </trkpt>
   <trkpt lat="-37.86097" lon="145.34804000000003">
    <ele>389.38000000000005</ele>
   </trkpt>
   <trkpt lat="-37.86104" lon="145.34814">
    <ele>390.54</ele>
   </trkpt>
   <trkpt lat="-37.86112" lon="145.34822">
    <ele>392.03000000000003</ele>
   </trkpt>
   <trkpt lat="-37.86121" lon="145.34824">
    <ele>394.51</ele>
   </trkpt>
   <trkpt lat="-37.86128" lon="145.34822">
    <ele>395.29</ele>
   </trkpt>
   <trkpt lat="-37.86159" lon="145.34802000000002">
    <ele>398.56</ele>
   </trkpt>
   <trkpt lat="-37.86164" lon="145.34794000000002">
    <ele>399.18</ele>
   </trkpt>
   <trkpt lat="-37.86168" lon="145.34779">
    <ele>400.17</ele>
   </trkpt>
   <trkpt lat="-37.86162" lon="145.34753">
    <ele>401.96000000000004</ele>
   </trkpt>
   <trkpt lat="-37.86162" lon="145.34737">
    <ele>402.95000000000005</ele>
   </trkpt>
   <trkpt lat="-37.861790000000006" lon="145.34698">
    <ele>407.2</ele>
   </trkpt>
   <trkpt lat="-37.86186" lon="145.34658000000002">
    <ele>406.6</ele>
   </trkpt>
   <trkpt lat="-37.86193" lon="145.34642000000002">
    <ele>406.62</ele>
   </trkpt>
   <trkpt lat="-37.86209" lon="145.34566">
    <ele>400.96000000000004</ele>
   </trkpt>
   <trkpt lat="-37.86218" lon="145.34539">
    <ele>399.07000000000005</ele>
   </trkpt>
   <trkpt lat="-37.86238" lon="145.34501">
    <ele>395.70000000000005</ele>
   </trkpt>
   <trkpt lat="-37.86253" lon="145.34477">
    <ele>394.85</ele>
   </trkpt>
   <trkpt lat="-37.86281" lon="145.34442">
    <ele>389.81000000000006</ele>
   </trkpt>
   <trkpt lat="-37.862570000000005" lon="145.34472000000002">
    <ele>393.11</ele>
   </trkpt>
   <trkpt lat="-37.862840000000006" lon="145.3444">
    <ele>388.73</ele>
   </trkpt>
   <trkpt lat="-37.86305" lon="145.34406">
    <ele>385.79</ele>
   </trkpt>
   <trkpt lat="-37.86307" lon="145.34395">
    <ele>385.35</ele>
   </trkpt>
   <trkpt lat="-37.86303" lon="145.34388">
    <ele>385.20000000000005</ele>
   </trkpt>
   <trkpt lat="-37.86296" lon="145.34383000000003">
    <ele>384.81000000000006</ele>
   </trkpt>
   <trkpt lat="-37.86231" lon="145.34352">
    <ele>380.84000000000003</ele>
   </trkpt>
   <trkpt lat="-37.86168" lon="145.34332">
    <ele>376.45</ele>
   </trkpt>
   <trkpt lat="-37.861520000000006" lon="145.34317000000001">
    <ele>374.38000000000005</ele>
   </trkpt>
   <trkpt lat="-37.86139" lon="145.34300000000002">
    <ele>373.38000000000005</ele>
   </trkpt>
   <trkpt lat="-37.86128" lon="145.34276">
    <ele>372.46</ele>
   </trkpt>
   <trkpt lat="-37.86121" lon="145.34249">
    <ele>370.18</ele>
   </trkpt>
   <trkpt lat="-37.86108" lon="145.3417">
    <ele>366.02</ele>
   </trkpt>
   <trkpt lat="-37.86097" lon="145.34123000000002">
    <ele>362.21000000000004</ele>
   </trkpt>
   <trkpt lat="-37.86092" lon="145.34113000000002">
    <ele>360.55</ele>
   </trkpt>
   <trkpt lat="-37.860780000000005" lon="145.341">
    <ele>360.54</ele>
   </trkpt>
   <trkpt lat="-37.86086" lon="145.34071">
    <ele>364.95000000000005</ele>
   </trkpt>
   <trkpt lat="-37.86112" lon="145.34012">
    <ele>381.11</ele>
   </trkpt>
   <trkpt lat="-37.86117" lon="145.3399">
    <ele>390.8</ele>
   </trkpt>
   <trkpt lat="-37.86117" lon="145.33978000000002">
    <ele>394.14000000000004</ele>
   </trkpt>
   <trkpt lat="-37.86115" lon="145.33973">
    <ele>395.37000000000006</ele>
   </trkpt>
   <trkpt lat="-37.86081" lon="145.33949">
    <ele>396.61</ele>
   </trkpt>
   <trkpt lat="-37.86056" lon="145.33914000000001">
    <ele>395.94</ele>
   </trkpt>
   <trkpt lat="-37.8605" lon="145.33886">
    <ele>396.07000000000005</ele>
   </trkpt>
   <trkpt lat="-37.860510000000005" lon="145.33876">
    <ele>396.41</ele>
   </trkpt>
   <trkpt lat="-37.86075" lon="145.33882">
    <ele>389.95</ele>
   </trkpt>
   <trkpt lat="-37.86074" lon="145.33889000000002">
    <ele>389.81000000000006</ele>
   </trkpt>
   <trkpt lat="-37.86095" lon="145.33902">
    <ele>393.33</ele>
   </trkpt>
   <trkpt lat="-37.86168" lon="145.33925000000002">
    <ele>410.44</ele>
   </trkpt>
   <trkpt lat="-37.8622" lon="145.33963">
    <ele>421.47</ele>
   </trkpt>
   <trkpt lat="-37.862860000000005" lon="145.34025000000003">
    <ele>440.4</ele>
   </trkpt>
   <trkpt lat="-37.86318" lon="145.33996000000002">
    <ele>439.39000000000004</ele>
   </trkpt>
   <trkpt lat="-37.86354" lon="145.33979000000002">
    <ele>436.26000000000005</ele>
   </trkpt>
   <trkpt lat="-37.863780000000006" lon="145.33974">
    <ele>433.22</ele>
   </trkpt>
   <trkpt lat="-37.8641" lon="145.33975">
    <ele>432.26000000000005</ele>
   </trkpt>
   <trkpt lat="-37.8645" lon="145.33989000000003">
    <ele>429.67</ele>
   </trkpt>
   <trkpt lat="-37.86464" lon="145.33988000000002">
    <ele>428.50000000000006</ele>
   </trkpt>
   <trkpt lat="-37.864720000000005" lon="145.33982">
    <ele>425.82000000000005</ele>
   </trkpt>
   <trkpt lat="-37.86473" lon="145.33981">
    <ele>425.68000000000006</ele>
   </trkpt>
   <trkpt lat="-37.86486" lon="145.33964">
    <ele>423.82</ele>
   </trkpt>
   <trkpt lat="-37.86495" lon="145.33935000000002">
    <ele>423.29</ele>
   </trkpt>
   <trkpt lat="-37.86506" lon="145.33889000000002">
    <ele>422.06000000000006</ele>
   </trkpt>
   <trkpt lat="-37.86531" lon="145.33833">
    <ele>418.93</ele>
   </trkpt>
   <trkpt lat="-37.8654650012238" lon="145.33779500107892">
    <ele>418.87</ele>
   </trkpt>
   <trkpt lat="-37.86562" lon="145.33726000000001">
    <ele>419.08</ele>
   </trkpt>
   <trkpt lat="-37.86583" lon="145.33618">
    <ele>420.28000000000003</ele>
   </trkpt>
   <trkpt lat="-37.86587" lon="145.33555">
    <ele>423.28000000000003</ele>
   </trkpt>
   <trkpt lat="-37.86598" lon="145.33559000000002">
    <ele>425.62000000000006</ele>
   </trkpt>
   <trkpt lat="-37.86621" lon="145.33622000000003">
    <ele>430.56000000000006</ele>
   </trkpt>
   <trkpt lat="-37.86641" lon="145.33626">
    <ele>431.97</ele>
   </trkpt>
   <trkpt lat="-37.86652" lon="145.33644">
    <ele>432.38000000000005</ele>
   </trkpt>
   <trkpt lat="-37.866690000000006" lon="145.33556000000002">
    <ele>426.64</ele>
   </trkpt>
   <trkpt lat="-37.866800000000005" lon="145.33512000000002">
    <ele>423.76</ele>
   </trkpt>
   <trkpt lat="-37.866800000000005" lon="145.33511000000001">
    <ele>423.63000000000005</ele>
   </trkpt>
   <trkpt lat="-37.86688" lon="145.33481">
    <ele>421.88000000000005</ele>
   </trkpt>
   <trkpt lat="-37.86721" lon="145.33406000000002">
    <ele>415.78000000000003</ele>
   </trkpt>
   <trkpt lat="-37.867250000000006" lon="145.33384">
    <ele>414.30000000000007</ele>
   </trkpt>
   <trkpt lat="-37.86724" lon="145.33364">
    <ele>413.40000000000003</ele>
   </trkpt>
   <trkpt lat="-37.867200000000004" lon="145.33355">
    <ele>412.72</ele>
   </trkpt>
   <trkpt lat="-37.8673" lon="145.33371000000002">
    <ele>411.57000000000005</ele>
   </trkpt>
   <trkpt lat="-37.86737" lon="145.33386000000002">
    <ele>410.56</ele>
   </trkpt>
   <trkpt lat="-37.86741" lon="145.33403">
    <ele>409.63000000000005</ele>
   </trkpt>
   <trkpt lat="-37.86744" lon="145.33439">
    <ele>408.17</ele>
   </trkpt>
   <trkpt lat="-37.86735" lon="145.33496000000002">
    <ele>404.94</ele>
   </trkpt>
   <trkpt lat="-37.86735" lon="145.33513000000002">
    <ele>403.54</ele>
   </trkpt>
   <trkpt lat="-37.86741" lon="145.33546">
    <ele>402.47</ele>
   </trkpt>
   <trkpt lat="-37.86748" lon="145.33566000000002">
    <ele>401.17</ele>
   </trkpt>
   <trkpt lat="-37.86762" lon="145.33587">
    <ele>400.25000000000006</ele>
   </trkpt>
   <trkpt lat="-37.867900000000006" lon="145.33622000000003">
    <ele>399.17</ele>
   </trkpt>
   <trkpt lat="-37.86813" lon="145.33664000000002">
    <ele>397.46000000000004</ele>
   </trkpt>
   <trkpt lat="-37.86831" lon="145.3368">
    <ele>396.92</ele>
   </trkpt>
   <trkpt lat="-37.8686" lon="145.33698">
    <ele>396.42</ele>
   </trkpt>
   <trkpt lat="-37.86891" lon="145.33724">
    <ele>399.66</ele>
   </trkpt>
   <trkpt lat="-37.86905" lon="145.33726000000001">
    <ele>399.46000000000004</ele>
   </trkpt>
   <trkpt lat="-37.86914" lon="145.33722">
    <ele>398.6</ele>
   </trkpt>
   <trkpt lat="-37.86927" lon="145.33711000000002">
    <ele>397.12</ele>
   </trkpt>
   <trkpt lat="-37.869530000000005" lon="145.33694">
    <ele>396.58000000000004</ele>
   </trkpt>
   <trkpt lat="-37.869550000000004" lon="145.33693000000002">
    <ele>396.63000000000005</ele>
   </trkpt>
   <trkpt lat="-37.86968" lon="145.33686">
    <ele>397.0400000000001</ele>
   </trkpt>
   <trkpt lat="-37.86983" lon="145.33668">
    <ele>396.14000000000004</ele>
   </trkpt>
   <trkpt lat="-37.87001" lon="145.33628000000002">
    <ele>389.93000000000006</ele>
   </trkpt>
   <trkpt lat="-37.8701" lon="145.33595000000003">
    <ele>384.42</ele>
   </trkpt>
   <trkpt lat="-37.87019" lon="145.33630000000002">
    <ele>393.37000000000006</ele>
   </trkpt>
   <trkpt lat="-37.87019" lon="145.3368">
    <ele>405.90000000000003</ele>
   </trkpt>
   <trkpt lat="-37.87024" lon="145.33688">
    <ele>407.01000000000005</ele>
   </trkpt>
   <trkpt lat="-37.87048" lon="145.33697">
    <ele>410.52000000000004</ele>
   </trkpt>
   <trkpt lat="-37.87077" lon="145.33726000000001">
    <ele>418.76</ele>
   </trkpt>
   <trkpt lat="-37.87091" lon="145.33758">
    <ele>422.35</ele>
   </trkpt>
   <trkpt lat="-37.871100000000006" lon="145.33779">
    <ele>426.38000000000005</ele>
   </trkpt>
   <trkpt lat="-37.87118" lon="145.33802">
    <ele>430.6</ele>
   </trkpt>
   <trkpt lat="-37.87118" lon="145.33812">
    <ele>435.62000000000006</ele>
   </trkpt>
   <trkpt lat="-37.87113" lon="145.33831">
    <ele>438.08000000000004</ele>
   </trkpt>
   <trkpt lat="-37.870990000000006" lon="145.33854000000002">
    <ele>443.8</ele>
   </trkpt>
   <trkpt lat="-37.871" lon="145.33853000000002">
    <ele>444.03000000000003</ele>
   </trkpt>
   <trkpt lat="-37.87091" lon="145.33863000000002">
    <ele>448.91</ele>
   </trkpt>
   <trkpt lat="-37.87075" lon="145.33874">
    <ele>451.24</ele>
   </trkpt>
   <trkpt lat="-37.87059" lon="145.33873">
    <ele>454.33</ele>
   </trkpt>
   <trkpt lat="-37.87035" lon="145.33879000000002">
    <ele>462.64000000000004</ele>
   </trkpt>
   <trkpt lat="-37.87026" lon="145.33888000000002">
    <ele>462.64000000000004</ele>
   </trkpt>
   <trkpt lat="-37.87037" lon="145.33894">
    <ele>463.68</ele>
   </trkpt>
   <trkpt lat="-37.87059" lon="145.33917000000002">
    <ele>466.13000000000005</ele>
   </trkpt>
   <trkpt lat="-37.87082" lon="145.33948">
    <ele>468.30000000000007</ele>
   </trkpt>
   <trkpt lat="-37.87106" lon="145.33963">
    <ele>469.9200000000001</ele>
   </trkpt>
   <trkpt lat="-37.8712" lon="145.33964">
    <ele>471.12</ele>
   </trkpt>
   <trkpt lat="-37.871320000000004" lon="145.33969000000002">
    <ele>472.02000000000004</ele>
   </trkpt>
   <trkpt lat="-37.87185" lon="145.33998000000003">
    <ele>476.84000000000003</ele>
   </trkpt>
   <trkpt lat="-37.87214" lon="145.34024000000002">
    <ele>478.54</ele>
   </trkpt>
   <trkpt lat="-37.87263" lon="145.34076000000002">
    <ele>483.46000000000004</ele>
   </trkpt>
   <trkpt lat="-37.87272" lon="145.34083">
    <ele>485.33000000000004</ele>
   </trkpt>
   <trkpt lat="-37.87288" lon="145.3409">
    <ele>485.33000000000004</ele>
   </trkpt>
   <trkpt lat="-37.87315" lon="145.34105000000002">
    <ele>487.11</ele>
   </trkpt>
   <trkpt lat="-37.87375" lon="145.34154">
    <ele>493.36</ele>
   </trkpt>
   <trkpt lat="-37.87406" lon="145.34185000000002">
    <ele>495.98</ele>
   </trkpt>
   <trkpt lat="-37.87375" lon="145.34193000000002">
    <ele>499.08000000000004</ele>
   </trkpt>
   <trkpt lat="-37.8735" lon="145.34204000000003">
    <ele>501.82000000000005</ele>
   </trkpt>
   <trkpt lat="-37.87326" lon="145.34212000000002">
    <ele>504.15</ele>
   </trkpt>
   <trkpt lat="-37.873050000000006" lon="145.34217">
    <ele>505.4200000000001</ele>
   </trkpt>
   <trkpt lat="-37.873050000000006" lon="145.34216">
    <ele>505.31</ele>
   </trkpt>
   <trkpt lat="-37.87288" lon="145.34221000000002">
    <ele>506.6400000000001</ele>
   </trkpt>
   <trkpt lat="-37.87272" lon="145.34221000000002">
    <ele>507.75</ele>
   </trkpt>
   <trkpt lat="-37.87247" lon="145.34207">
    <ele>508.41</ele>
   </trkpt>
   <trkpt lat="-37.872115001891856" lon="145.342745003319">
    <ele>512.8000000000001</ele>
   </trkpt>
   <trkpt lat="-37.87176" lon="145.34342">
    <ele>512.4300000000001</ele>
   </trkpt>
   <trkpt lat="-37.87145000053656" lon="145.34383500200292">
    <ele>510.30000000000007</ele>
   </trkpt>
   <trkpt lat="-37.871140000000004" lon="145.34425000000002">
    <ele>509.01000000000005</ele>
   </trkpt>
   <trkpt lat="-37.870830000000005" lon="145.34461000000002">
    <ele>507.93</ele>
   </trkpt>
   <trkpt lat="-37.870630000000006" lon="145.34474">
    <ele>507.34</ele>
   </trkpt>
   <trkpt lat="-37.87035" lon="145.34482">
    <ele>505.7900000000001</ele>
   </trkpt>
   <trkpt lat="-37.87024" lon="145.34483">
    <ele>505.88</ele>
   </trkpt>
   <trkpt lat="-37.86983" lon="145.34474">
    <ele>505.36999999999995</ele>
   </trkpt>
   <trkpt lat="-37.86956" lon="145.34455">
    <ele>501.72</ele>
   </trkpt>
   <trkpt lat="-37.86907" lon="145.34435000000002">
    <ele>495.46000000000004</ele>
   </trkpt>
   <trkpt lat="-37.86889" lon="145.34432">
    <ele>493.92</ele>
   </trkpt>
   <trkpt lat="-37.86862" lon="145.34431">
    <ele>492.06000000000006</ele>
   </trkpt>
   <trkpt lat="-37.86844" lon="145.34437">
    <ele>491.45000000000005</ele>
   </trkpt>
   <trkpt lat="-37.867950000064475" lon="145.34443500042607">
    <ele>488.71000000000004</ele>
   </trkpt>
   <trkpt lat="-37.86746" lon="145.3445">
    <ele>484.32</ele>
   </trkpt>
   <trkpt lat="-37.867470000000004" lon="145.3445">
    <ele>484.32</ele>
   </trkpt>
   <trkpt lat="-37.86697" lon="145.34459">
    <ele>479.12000000000006</ele>
   </trkpt>
   <trkpt lat="-37.86621" lon="145.34518">
    <ele>470.77000000000004</ele>
   </trkpt>
   <trkpt lat="-37.86594" lon="145.34547">
    <ele>479.41</ele>
   </trkpt>
   <trkpt lat="-37.86589" lon="145.34556">
    <ele>479.41</ele>
   </trkpt>
   <trkpt lat="-37.866" lon="145.34601">
    <ele>492.55</ele>
   </trkpt>
   <trkpt lat="-37.866" lon="145.34609">
    <ele>493.75</ele>
   </trkpt>
   <trkpt lat="-37.86598" lon="145.34626">
    <ele>497.02</ele>
   </trkpt>
   <trkpt lat="-37.86589" lon="145.34647">
    <ele>502.53999999999996</ele>
   </trkpt>
   <trkpt lat="-37.8659" lon="145.34657">
    <ele>502.53999999999996</ele>
   </trkpt>
   <trkpt lat="-37.865370000000006" lon="145.34673">
    <ele>507.58000000000004</ele>
   </trkpt>
   <trkpt lat="-37.86493" lon="145.34701">
    <ele>511.83</ele>
   </trkpt>
   <trkpt lat="-37.86482" lon="145.34718">
    <ele>514.4300000000001</ele>
   </trkpt>
   <trkpt lat="-37.864810000000006" lon="145.34757000000002">
    <ele>517.11</ele>
   </trkpt>
   <trkpt lat="-37.86484" lon="145.34797">
    <ele>521.58</ele>
   </trkpt>
   <trkpt lat="-37.86491" lon="145.34814">
    <ele>524.6200000000001</ele>
   </trkpt>
   <trkpt lat="-37.86497" lon="145.34822">
    <ele>526.3500000000001</ele>
   </trkpt>
   <trkpt lat="-37.86491" lon="145.34857000000002">
    <ele>524.72</ele>
   </trkpt>
   <trkpt lat="-37.864695001511485" lon="145.3491700017808">
    <ele>520.1300000000001</ele>
   </trkpt>
   <trkpt lat="-37.86448" lon="145.34977">
    <ele>514.1</ele>
   </trkpt>
   <trkpt lat="-37.86417" lon="145.35060000000001">
    <ele>502.84000000000003</ele>
   </trkpt>
   <trkpt lat="-37.8641" lon="145.35074">
    <ele>500.78</ele>
   </trkpt>
   <trkpt lat="-37.8641" lon="145.35089000000002">
    <ele>499.18000000000006</ele>
   </trkpt>
   <trkpt lat="-37.864050000000006" lon="145.35102">
    <ele>498.27000000000004</ele>
   </trkpt>
   <trkpt lat="-37.86379" lon="145.35118">
    <ele>491.25</ele>
   </trkpt>
   <trkpt lat="-37.86368" lon="145.35119">
    <ele>487.06000000000006</ele>
   </trkpt>
   <trkpt lat="-37.86359" lon="145.35126000000002">
    <ele>485.29</ele>
   </trkpt>
   <trkpt lat="-37.8635" lon="145.3513">
    <ele>483.85</ele>
   </trkpt>
   <trkpt lat="-37.863420000000005" lon="145.35147">
    <ele>481.95000000000005</ele>
   </trkpt>
   <trkpt lat="-37.8633" lon="145.35153000000003">
    <ele>481.53000000000003</ele>
   </trkpt>
   <trkpt lat="-37.863110000000006" lon="145.35169000000002">
    <ele>481.18000000000006</ele>
   </trkpt>
   <trkpt lat="-37.86309" lon="145.35176">
    <ele>481.51000000000005</ele>
   </trkpt>
   <trkpt lat="-37.86312" lon="145.35186000000002">
    <ele>481.72</ele>
   </trkpt>
   <trkpt lat="-37.86345" lon="145.35258000000002">
    <ele>484.80000000000007</ele>
   </trkpt>
  </trkseg>
 </trk>
</gpx>
