<?xml version="1.0" encoding="UTF-8"?>
<gpx creator="StravaGPX" version="1.1" xmlns="http://www.topografix.com/GPX/1/1" xmlns:xsi="http://www.w3.org/2001/XMLSchema-instance" xsi:schemaLocation="http://www.topografix.com/GPX/1/1 http://www.topografix.com/GPX/1/1/gpx.xsd">
 <metadata>
  <name>DTR Sunday 23rd March Sassafras</name>
  <author>
   <name>john csorgo</name>
  </author>
  <copyright author="OpenStreetMap contributors">
   <year>2020</year>
   <license>https://www.openstreetmap.org/copyright</license>
  </copyright>
 </metadata>
 <trk>
  <name>DTR Sunday 23rd March Sassafras</name>
  <link href=""/>
  <type>running</type>
  <trkseg>
   <trkpt lat="-37.86269" lon="145.35319">
    <ele>478.25000000000006</ele>
   </trkpt>
   <trkpt lat="-37.86256" lon="145.35293000000001">
    <ele>476.44</ele>
   </trkpt>
   <trkpt lat="-37.86253" lon="145.35292">
    <ele>476.21000000000004</ele>
   </trkpt>
   <trkpt lat="-37.86253" lon="145.35282">
    <ele>476.07000000000005</ele>
   </trkpt>
   <trkpt lat="-37.86242" lon="145.35278000000002">
    <ele>477.19000000000005</ele>
   </trkpt>
   <trkpt lat="-37.86222" lon="145.35236">
    <ele>471.32</ele>
   </trkpt>
   <trkpt lat="-37.86216" lon="145.35208">
    <ele>469.87000000000006</ele>
   </trkpt>
   <trkpt lat="-37.8622" lon="145.3514">
    <ele>465.40000000000003</ele>
   </trkpt>
   <trkpt lat="-37.86256" lon="145.35098000000002">
    <ele>459.97</ele>
   </trkpt>
   <trkpt lat="-37.86258" lon="145.35084">
    <ele>457.63000000000005</ele>
   </trkpt>
   <trkpt lat="-37.862730000000006" lon="145.35069000000001">
    <ele>456.03000000000003</ele>
   </trkpt>
   <trkpt lat="-37.86233" lon="145.35036000000002">
    <ele>445.34000000000003</ele>
   </trkpt>
   <trkpt lat="-37.86218" lon="145.35036000000002">
    <ele>445.51</ele>
   </trkpt>
   <trkpt lat="-37.86175" lon="145.35062000000002">
    <ele>448.28000000000003</ele>
   </trkpt>
   <trkpt lat="-37.86157" lon="145.35075">
    <ele>449.03000000000003</ele>
   </trkpt>
   <trkpt lat="-37.86144" lon="145.35096000000001">
    <ele>448.34000000000003</ele>
   </trkpt>
   <trkpt lat="-37.86104" lon="145.35133000000002">
    <ele>447.8</ele>
   </trkpt>
   <trkpt lat="-37.860960000000006" lon="145.35146">
    <ele>450.13</ele>
   </trkpt>
   <trkpt lat="-37.860490000000006" lon="145.35181">
    <ele>459.44</ele>
   </trkpt>
   <trkpt lat="-37.86023" lon="145.35196000000002">
    <ele>462.15000000000003</ele>
   </trkpt>
   <trkpt lat="-37.85994" lon="145.35221">
    <ele>468.23</ele>
   </trkpt>
   <trkpt lat="-37.8596" lon="145.35241000000002">
    <ele>473.04</ele>
   </trkpt>
   <trkpt lat="-37.85945" lon="145.35244">
    <ele>474.88</ele>
   </trkpt>
   <trkpt lat="-37.8592" lon="145.35248">
    <ele>478.85</ele>
   </trkpt>
   <trkpt lat="-37.85851" lon="145.35268000000002">
    <ele>487.86</ele>
   </trkpt>
   <trkpt lat="-37.85815" lon="145.35273">
    <ele>493.21000000000004</ele>
   </trkpt>
   <trkpt lat="-37.857635000010575" lon="145.35270499982573">
    <ele>499.7900000000001</ele>
   </trkpt>
   <trkpt lat="-37.85712" lon="145.35268000000002">
    <ele>505.99000000000007</ele>
   </trkpt>
   <trkpt lat="-37.85701" lon="145.35266000000001">
    <ele>505.99000000000007</ele>
   </trkpt>
   <trkpt lat="-37.85683" lon="145.35260000000002">
    <ele>507.94000000000005</ele>
   </trkpt>
   <trkpt lat="-37.85636" lon="145.35252">
    <ele>508.78</ele>
   </trkpt>
   <trkpt lat="-37.85622" lon="145.35247">
    <ele>507.73</ele>
   </trkpt>
   <trkpt lat="-37.85614" lon="145.35240000000002">
    <ele>506.74000000000007</ele>
   </trkpt>
   <trkpt lat="-37.85580500091417" lon="145.35193999793628">
    <ele>496.97</ele>
   </trkpt>
   <trkpt lat="-37.855470000000004" lon="145.35148">
    <ele>490.68000000000006</ele>
   </trkpt>
   <trkpt lat="-37.85507500121872" lon="145.3509249969086">
    <ele>481.99</ele>
   </trkpt>
   <trkpt lat="-37.85468" lon="145.35037">
    <ele>472.57000000000005</ele>
   </trkpt>
   <trkpt lat="-37.85419" lon="145.34983000000003">
    <ele>459.59000000000003</ele>
   </trkpt>
   <trkpt lat="-37.853860000000005" lon="145.34941">
    <ele>452.87000000000006</ele>
   </trkpt>
   <trkpt lat="-37.85416" lon="145.34943">
    <ele>452.64000000000004</ele>
   </trkpt>
   <trkpt lat="-37.85474500023648" lon="145.3495549990445">
    <ele>455.34000000000003</ele>
   </trkpt>
   <trkpt lat="-37.85533" lon="145.34968">
    <ele>456.71000000000004</ele>
   </trkpt>
   <trkpt lat="-37.85577" lon="145.34973000000002">
    <ele>453.26000000000005</ele>
   </trkpt>
   <trkpt lat="-37.85632999992552" lon="145.34984499909962">
    <ele>441.52000000000004</ele>
   </trkpt>
   <trkpt lat="-37.85689" lon="145.34996">
    <ele>424.47</ele>
   </trkpt>
   <trkpt lat="-37.85716" lon="145.34998000000002">
    <ele>419.07000000000005</ele>
   </trkpt>
   <trkpt lat="-37.85743" lon="145.34995">
    <ele>414.16</ele>
   </trkpt>
   <trkpt lat="-37.85757" lon="145.34989000000002">
    <ele>411.45000000000005</ele>
   </trkpt>
   <trkpt lat="-37.85781" lon="145.34966">
    <ele>405.32</ele>
   </trkpt>
   <trkpt lat="-37.85801" lon="145.34944000000002">
    <ele>400.88</ele>
   </trkpt>
   <trkpt lat="-37.8581" lon="145.34938000000002">
    <ele>400.88</ele>
   </trkpt>
   <trkpt lat="-37.85875" lon="145.34924">
    <ele>389.68</ele>
   </trkpt>
   <trkpt lat="-37.8588" lon="145.34917000000002">
    <ele>388.99000000000007</ele>
   </trkpt>
   <trkpt lat="-37.85877" lon="145.34889">
    <ele>383.67</ele>
   </trkpt>
   <trkpt lat="-37.85893" lon="145.34861">
    <ele>377.34</ele>
   </trkpt>
   <trkpt lat="-37.859" lon="145.34836">
    <ele>374.9</ele>
   </trkpt>
   <trkpt lat="-37.85902" lon="145.34832">
    <ele>374.29</ele>
   </trkpt>
   <trkpt lat="-37.85909" lon="145.34833">
    <ele>373.64000000000004</ele>
   </trkpt>
   <trkpt lat="-37.8592" lon="145.34841">
    <ele>372.6700000000001</ele>
   </trkpt>
   <trkpt lat="-37.85927" lon="145.34839000000002">
    <ele>371.79</ele>
   </trkpt>
   <trkpt lat="-37.8594" lon="145.34808">
    <ele>367.27000000000004</ele>
   </trkpt>
   <trkpt lat="-37.859500000000004" lon="145.34782">
    <ele>365.04</ele>
   </trkpt>
   <trkpt lat="-37.86027" lon="145.34776000000002">
    <ele>372.46</ele>
   </trkpt>
   <trkpt lat="-37.86032" lon="145.34775000000002">
    <ele>373.56</ele>
   </trkpt>
   <trkpt lat="-37.86068" lon="145.34759000000003">
    <ele>378.82000000000005</ele>
   </trkpt>
   <trkpt lat="-37.86097" lon="145.34757000000002">
    <ele>385.13</ele>
   </trkpt>
   <trkpt lat="-37.86101" lon="145.34763">
    <ele>385.78000000000003</ele>
   </trkpt>
   <trkpt lat="-37.86101" lon="145.34771">
    <ele>386.85</ele>
   </trkpt>
   <trkpt lat="-37.86097" lon="145.34788">
    <ele>387.3</ele>
   </trkpt>
   <trkpt lat="-37.86097" lon="145.34804000000003">
    <ele>389.38000000000005</ele>
   </trkpt>
   <trkpt lat="-37.86104" lon="145.34814">
    <ele>390.54</ele>
   </trkpt>
   <trkpt lat="-37.86112" lon="145.34822">
    <ele>392.03000000000003</ele>
   </trkpt>
   <trkpt lat="-37.86121" lon="145.34824">
    <ele>394.51</ele>
   </trkpt>
   <trkpt lat="-37.86128" lon="145.34822">
    <ele>395.29</ele>
   </trkpt>
   <trkpt lat="-37.86159" lon="145.34802000000002">
    <ele>398.56</ele>
   </trkpt>
   <trkpt lat="-37.86164" lon="145.34794000000002">
    <ele>399.18</ele>
   </trkpt>
   <trkpt lat="-37.86168" lon="145.34779">
    <ele>400.17</ele>
   </trkpt>
   <trkpt lat="-37.86162" lon="145.34753">
    <ele>401.96000000000004</ele>
   </trkpt>
   <trkpt lat="-37.86162" lon="145.34737">
    <ele>402.95000000000005</ele>
   </trkpt>
   <trkpt lat="-37.861790000000006" lon="145.34698">
    <ele>407.2</ele>
   </trkpt>
   <trkpt lat="-37.86186" lon="145.34658000000002">
    <ele>406.6</ele>
   </trkpt>
   <trkpt lat="-37.86193" lon="145.34642000000002">
    <ele>406.62</ele>
   </trkpt>
   <trkpt lat="-37.86209" lon="145.34566">
    <ele>400.96000000000004</ele>
   </trkpt>
   <trkpt lat="-37.86218" lon="145.34539">
    <ele>399.07000000000005</ele>
   </trkpt>
   <trkpt lat="-37.86238" lon="145.34501">
    <ele>395.70000000000005</ele>
   </trkpt>
   <trkpt lat="-37.86253" lon="145.34477">
    <ele>394.85</ele>
   </trkpt>
   <trkpt lat="-37.86281" lon="145.34442">
    <ele>389.81000000000006</ele>
   </trkpt>
   <trkpt lat="-37.862570000000005" lon="145.34472000000002">
    <ele>393.11</ele>
   </trkpt>
   <trkpt lat="-37.862840000000006" lon="145.3444">
    <ele>388.73</ele>
   </trkpt>
   <trkpt lat="-37.86305" lon="145.34406">
    <ele>385.79</ele>
   </trkpt>
   <trkpt lat="-37.86307" lon="145.34395">
    <ele>385.35</ele>
   </trkpt>
   <trkpt lat="-37.86303" lon="145.34388">
    <ele>385.20000000000005</ele>
   </trkpt>
   <trkpt lat="-37.86296" lon="145.34383000000003">
    <ele>384.81000000000006</ele>
   </trkpt>
   <trkpt lat="-37.86231" lon="145.34352">
    <ele>380.84000000000003</ele>
   </trkpt>
   <trkpt lat="-37.86168" lon="145.34332">
    <ele>376.45</ele>
   </trkpt>
   <trkpt lat="-37.861520000000006" lon="145.34317000000001">
    <ele>374.38000000000005</ele>
   </trkpt>
   <trkpt lat="-37.86139" lon="145.34300000000002">
    <ele>373.38000000000005</ele>
   </trkpt>
   <trkpt lat="-37.86128" lon="145.34276">
    <ele>372.46</ele>
   </trkpt>
   <trkpt lat="-37.86121" lon="145.34249">
    <ele>370.18</ele>
   </trkpt>
   <trkpt lat="-37.86108" lon="145.3417">
    <ele>366.02</ele>
   </trkpt>
   <trkpt lat="-37.86097" lon="145.34123000000002">
    <ele>362.21000000000004</ele>
   </trkpt>
   <trkpt lat="-37.86092" lon="145.34113000000002">
    <ele>360.55</ele>
   </trkpt>
   <trkpt lat="-37.860780000000005" lon="145.341">
    <ele>360.54</ele>
   </trkpt>
   <trkpt lat="-37.86086" lon="145.34071">
    <ele>364.95000000000005</ele>
   </trkpt>
   <trkpt lat="-37.86112" lon="145.34012">
    <ele>381.11</ele>
   </trkpt>
   <trkpt lat="-37.86117" lon="145.3399">
    <ele>390.8</ele>
   </trkpt>
   <trkpt lat="-37.86117" lon="145.33978000000002">
    <ele>394.14000000000004</ele>
   </trkpt>
   <trkpt lat="-37.86115" lon="145.33973">
    <ele>395.37000000000006</ele>
   </trkpt>
   <trkpt lat="-37.86081" lon="145.33949">
    <ele>396.61</ele>
   </trkpt>
   <trkpt lat="-37.86056" lon="145.33914000000001">
    <ele>395.94</ele>
   </trkpt>
   <trkpt lat="-37.8605" lon="145.33886">
    <ele>396.07000000000005</ele>
   </trkpt>
   <trkpt lat="-37.860510000000005" lon="145.33876">
    <ele>396.41</ele>
   </trkpt>
   <trkpt lat="-37.86075" lon="145.33882">
    <ele>389.95</ele>
   </trkpt>
   <trkpt lat="-37.86074" lon="145.33889000000002">
    <ele>389.81000000000006</ele>
   </trkpt>
   <trkpt lat="-37.86095" lon="145.33902">
    <ele>393.33</ele>
   </trkpt>
   <trkpt lat="-37.86168" lon="145.33925000000002">
    <ele>410.44</ele>
   </trkpt>
   <trkpt lat="-37.8622" lon="145.33963">
    <ele>421.47</ele>
   </trkpt>
   <trkpt lat="-37.862860000000005" lon="145.34025000000003">
    <ele>440.4</ele>
   </trkpt>
   <trkpt lat="-37.86318" lon="145.33996000000002">
    <ele>439.39000000000004</ele>
   </trkpt>
   <trkpt lat="-37.86354" lon="145.33979000000002">
    <ele>436.26000000000005</ele>
   </trkpt>
   <trkpt lat="-37.863780000000006" lon="145.33974">
    <ele>433.22</ele>
   </trkpt>
   <trkpt lat="-37.8641" lon="145.33975">
    <ele>432.26000000000005</ele>
   </trkpt>
   <trkpt lat="-37.8645" lon="145.33989000000003">
    <ele>429.67</ele>
   </trkpt>
   <trkpt lat="-37.86464" lon="145.33988000000002">
    <ele>428.50000000000006</ele>
   </trkpt>
   <trkpt lat="-37.864720000000005" lon="145.33982">
    <ele>425.82000000000005</ele>
   </trkpt>
   <trkpt lat="-37.86473" lon="145.33982">
    <ele>425.82000000000005</ele>
   </trkpt>
   <trkpt lat="-37.86475" lon="145.33980000000003">
    <ele>425.50000000000006</ele>
   </trkpt>
   <trkpt lat="-37.86486" lon="145.33964">
    <ele>423.82</ele>
   </trkpt>
   <trkpt lat="-37.86495" lon="145.33935000000002">
    <ele>423.29</ele>
   </trkpt>
   <trkpt lat="-37.86506" lon="145.33889000000002">
    <ele>422.06000000000006</ele>
   </trkpt>
   <trkpt lat="-37.86531" lon="145.33833">
    <ele>418.93</ele>
   </trkpt>
   <trkpt lat="-37.8654650012238" lon="145.33779500107892">
    <ele>418.87</ele>
   </trkpt>
   <trkpt lat="-37.86562" lon="145.33726000000001">
    <ele>419.08</ele>
   </trkpt>
   <trkpt lat="-37.86583" lon="145.33618">
    <ele>420.28000000000003</ele>
   </trkpt>
   <trkpt lat="-37.86587" lon="145.33555">
    <ele>423.28000000000003</ele>
   </trkpt>
   <trkpt lat="-37.865815001691594" lon="145.3349149993698">
    <ele>426.09000000000003</ele>
   </trkpt>
   <trkpt lat="-37.86576" lon="145.33428">
    <ele>426.62000000000006</ele>
   </trkpt>
   <trkpt lat="-37.86571" lon="145.3342">
    <ele>426.13</ele>
   </trkpt>
   <trkpt lat="-37.8656" lon="145.33411">
    <ele>424.04</ele>
   </trkpt>
   <trkpt lat="-37.86529" lon="145.33394">
    <ele>416.49</ele>
   </trkpt>
   <trkpt lat="-37.86493" lon="145.33347">
    <ele>404.98</ele>
   </trkpt>
   <trkpt lat="-37.86475" lon="145.33338">
    <ele>398.22</ele>
   </trkpt>
   <trkpt lat="-37.86451" lon="145.3332">
    <ele>389.6</ele>
   </trkpt>
   <trkpt lat="-37.86464" lon="145.333">
    <ele>391.42</ele>
   </trkpt>
   <trkpt lat="-37.86473" lon="145.33291">
    <ele>392.12</ele>
   </trkpt>
   <trkpt lat="-37.86482" lon="145.33287">
    <ele>393.44</ele>
   </trkpt>
   <trkpt lat="-37.86502" lon="145.33284">
    <ele>395.47</ele>
   </trkpt>
   <trkpt lat="-37.86578" lon="145.33302">
    <ele>400.21</ele>
   </trkpt>
   <trkpt lat="-37.86634" lon="145.33317000000002">
    <ele>404.45000000000005</ele>
   </trkpt>
   <trkpt lat="-37.86697" lon="145.33335000000002">
    <ele>410.7</ele>
   </trkpt>
   <trkpt lat="-37.867200000000004" lon="145.33355">
    <ele>412.72</ele>
   </trkpt>
   <trkpt lat="-37.8673" lon="145.33371000000002">
    <ele>411.57000000000005</ele>
   </trkpt>
   <trkpt lat="-37.86737" lon="145.33386000000002">
    <ele>410.56</ele>
   </trkpt>
   <trkpt lat="-37.86741" lon="145.33403">
    <ele>409.63000000000005</ele>
   </trkpt>
   <trkpt lat="-37.86744" lon="145.33422000000002">
    <ele>408.17</ele>
   </trkpt>
   <trkpt lat="-37.86744" lon="145.33439">
    <ele>408.17</ele>
   </trkpt>
   <trkpt lat="-37.86735" lon="145.33496000000002">
    <ele>404.94</ele>
   </trkpt>
   <trkpt lat="-37.86735" lon="145.33513000000002">
    <ele>403.54</ele>
   </trkpt>
   <trkpt lat="-37.86741" lon="145.33546">
    <ele>402.47</ele>
   </trkpt>
   <trkpt lat="-37.86748" lon="145.33566000000002">
    <ele>401.17</ele>
   </trkpt>
   <trkpt lat="-37.86762" lon="145.33587">
    <ele>400.25000000000006</ele>
   </trkpt>
   <trkpt lat="-37.867900000000006" lon="145.33622000000003">
    <ele>399.17</ele>
   </trkpt>
   <trkpt lat="-37.86813" lon="145.33664000000002">
    <ele>397.46000000000004</ele>
   </trkpt>
   <trkpt lat="-37.86831" lon="145.3368">
    <ele>396.92</ele>
   </trkpt>
   <trkpt lat="-37.8686" lon="145.33698">
    <ele>396.42</ele>
   </trkpt>
   <trkpt lat="-37.86891" lon="145.33724">
    <ele>399.66</ele>
   </trkpt>
   <trkpt lat="-37.86905" lon="145.33726000000001">
    <ele>399.46000000000004</ele>
   </trkpt>
   <trkpt lat="-37.86914" lon="145.33722">
    <ele>398.6</ele>
   </trkpt>
   <trkpt lat="-37.86927" lon="145.33711000000002">
    <ele>397.12</ele>
   </trkpt>
   <trkpt lat="-37.86952" lon="145.33695">
    <ele>396.5400000000001</ele>
   </trkpt>
   <trkpt lat="-37.869530000000005" lon="145.33695">
    <ele>396.56</ele>
   </trkpt>
   <trkpt lat="-37.86968" lon="145.33686">
    <ele>397.0400000000001</ele>
   </trkpt>
   <trkpt lat="-37.86983" lon="145.33668">
    <ele>396.14000000000004</ele>
   </trkpt>
   <trkpt lat="-37.87001" lon="145.33628000000002">
    <ele>389.93000000000006</ele>
   </trkpt>
   <trkpt lat="-37.8701" lon="145.33595000000003">
    <ele>384.42</ele>
   </trkpt>
   <trkpt lat="-37.87035" lon="145.3356">
    <ele>376.76000000000005</ele>
   </trkpt>
   <trkpt lat="-37.87055" lon="145.33518">
    <ele>365.07</ele>
   </trkpt>
   <trkpt lat="-37.870450000000005" lon="145.33465">
    <ele>356.27000000000004</ele>
   </trkpt>
   <trkpt lat="-37.87066" lon="145.33478000000002">
    <ele>357.93</ele>
   </trkpt>
   <trkpt lat="-37.87075" lon="145.33478000000002">
    <ele>357.93</ele>
   </trkpt>
   <trkpt lat="-37.870810000000006" lon="145.3347">
    <ele>359.76</ele>
   </trkpt>
   <trkpt lat="-37.870810000000006" lon="145.33446">
    <ele>360.71000000000004</ele>
   </trkpt>
   <trkpt lat="-37.87075" lon="145.33419">
    <ele>361.84000000000003</ele>
   </trkpt>
   <trkpt lat="-37.87082" lon="145.33339">
    <ele>367.29</ele>
   </trkpt>
   <trkpt lat="-37.87091" lon="145.33315000000002">
    <ele>368.82000000000005</ele>
   </trkpt>
   <trkpt lat="-37.87102" lon="145.33292">
    <ele>368.94000000000005</ele>
   </trkpt>
   <trkpt lat="-37.87113" lon="145.33284">
    <ele>368.85</ele>
   </trkpt>
   <trkpt lat="-37.871280000000006" lon="145.33282">
    <ele>369.23</ele>
   </trkpt>
   <trkpt lat="-37.87167" lon="145.33290000000002">
    <ele>373.24</ele>
   </trkpt>
   <trkpt lat="-37.87207" lon="145.33307000000002">
    <ele>378.08000000000004</ele>
   </trkpt>
   <trkpt lat="-37.87238" lon="145.33305000000001">
    <ele>382.68</ele>
   </trkpt>
   <trkpt lat="-37.872460000000004" lon="145.33299000000002">
    <ele>383.37000000000006</ele>
   </trkpt>
   <trkpt lat="-37.872460000000004" lon="145.33298000000002">
    <ele>383.36</ele>
   </trkpt>
   <trkpt lat="-37.87268" lon="145.33283">
    <ele>384.36</ele>
   </trkpt>
   <trkpt lat="-37.872890000000005" lon="145.3325">
    <ele>385.85</ele>
   </trkpt>
   <trkpt lat="-37.87301" lon="145.33226000000002">
    <ele>386.11</ele>
   </trkpt>
   <trkpt lat="-37.87301" lon="145.33218000000002">
    <ele>386.27000000000004</ele>
   </trkpt>
   <trkpt lat="-37.87297" lon="145.33206">
    <ele>386.72</ele>
   </trkpt>
   <trkpt lat="-37.87279" lon="145.33183000000002">
    <ele>388.94</ele>
   </trkpt>
   <trkpt lat="-37.87263" lon="145.33171000000002">
    <ele>389.5</ele>
   </trkpt>
   <trkpt lat="-37.87236" lon="145.33138000000002">
    <ele>391.32000000000005</ele>
   </trkpt>
   <trkpt lat="-37.87225" lon="145.33113">
    <ele>392.51</ele>
   </trkpt>
   <trkpt lat="-37.87223" lon="145.3309">
    <ele>392.75000000000006</ele>
   </trkpt>
   <trkpt lat="-37.87221" lon="145.33038000000002">
    <ele>396.18</ele>
   </trkpt>
   <trkpt lat="-37.87223" lon="145.33017">
    <ele>398.54</ele>
   </trkpt>
   <trkpt lat="-37.87227" lon="145.33004000000003">
    <ele>399.34000000000003</ele>
   </trkpt>
   <trkpt lat="-37.87223" lon="145.32968000000002">
    <ele>399.85</ele>
   </trkpt>
   <trkpt lat="-37.87216" lon="145.32951">
    <ele>398.95000000000005</ele>
   </trkpt>
   <trkpt lat="-37.87196" lon="145.32921000000002">
    <ele>397.33</ele>
   </trkpt>
   <trkpt lat="-37.8718" lon="145.32905000000002">
    <ele>398.93</ele>
   </trkpt>
   <trkpt lat="-37.87171" lon="145.32889">
    <ele>401.66</ele>
   </trkpt>
   <trkpt lat="-37.87169" lon="145.32861000000003">
    <ele>408.45000000000005</ele>
   </trkpt>
   <trkpt lat="-37.87158" lon="145.32842000000002">
    <ele>411.51000000000005</ele>
   </trkpt>
   <trkpt lat="-37.8714" lon="145.32824000000002">
    <ele>415.05</ele>
   </trkpt>
   <trkpt lat="-37.87131" lon="145.32817">
    <ele>415.89000000000004</ele>
   </trkpt>
   <trkpt lat="-37.871" lon="145.32801">
    <ele>418.56000000000006</ele>
   </trkpt>
   <trkpt lat="-37.87062" lon="145.32791">
    <ele>423.39000000000004</ele>
   </trkpt>
   <trkpt lat="-37.87035" lon="145.32771000000002">
    <ele>428.83000000000004</ele>
   </trkpt>
   <trkpt lat="-37.87024" lon="145.32759000000001">
    <ele>433.39000000000004</ele>
   </trkpt>
   <trkpt lat="-37.870160000000006" lon="145.32745">
    <ele>437.47</ele>
   </trkpt>
   <trkpt lat="-37.87008" lon="145.32731">
    <ele>439.39000000000004</ele>
   </trkpt>
   <trkpt lat="-37.87003" lon="145.32713">
    <ele>441.91</ele>
   </trkpt>
   <trkpt lat="-37.87001" lon="145.32697000000002">
    <ele>444.01</ele>
   </trkpt>
   <trkpt lat="-37.87003" lon="145.32679000000002">
    <ele>445.81</ele>
   </trkpt>
   <trkpt lat="-37.87006" lon="145.32671000000002">
    <ele>447.15000000000003</ele>
   </trkpt>
   <trkpt lat="-37.87024" lon="145.32659">
    <ele>448.67</ele>
   </trkpt>
   <trkpt lat="-37.87053" lon="145.32625000000002">
    <ele>457.28000000000003</ele>
   </trkpt>
   <trkpt lat="-37.8706" lon="145.32624">
    <ele>458.57000000000005</ele>
   </trkpt>
   <trkpt lat="-37.87062" lon="145.32624">
    <ele>458.84000000000003</ele>
   </trkpt>
   <trkpt lat="-37.870720000000006" lon="145.32623">
    <ele>462.45000000000005</ele>
   </trkpt>
   <trkpt lat="-37.87082" lon="145.32609000000002">
    <ele>464.33</ele>
   </trkpt>
   <trkpt lat="-37.87093" lon="145.32597">
    <ele>469.29</ele>
   </trkpt>
   <trkpt lat="-37.87104" lon="145.32594">
    <ele>469.29</ele>
   </trkpt>
   <trkpt lat="-37.87124" lon="145.32594">
    <ele>473.76</ele>
   </trkpt>
   <trkpt lat="-37.87142" lon="145.32584">
    <ele>479.44</ele>
   </trkpt>
   <trkpt lat="-37.87171" lon="145.32548">
    <ele>484.95000000000005</ele>
   </trkpt>
   <trkpt lat="-37.871750000000006" lon="145.32506">
    <ele>484.02000000000004</ele>
   </trkpt>
   <trkpt lat="-37.87184500277681" lon="145.32425000102566">
    <ele>476.72</ele>
   </trkpt>
   <trkpt lat="-37.87194" lon="145.32344">
    <ele>466.44</ele>
   </trkpt>
   <trkpt lat="-37.871880000000004" lon="145.32333">
    <ele>464.35</ele>
   </trkpt>
   <trkpt lat="-37.87185" lon="145.3232">
    <ele>461.09000000000003</ele>
   </trkpt>
   <trkpt lat="-37.87187" lon="145.32276000000002">
    <ele>460.87000000000006</ele>
   </trkpt>
   <trkpt lat="-37.871840000000006" lon="145.32255">
    <ele>462.38</ele>
   </trkpt>
   <trkpt lat="-37.87178" lon="145.32256">
    <ele>461.14000000000004</ele>
   </trkpt>
   <trkpt lat="-37.87169" lon="145.32248">
    <ele>460.05</ele>
   </trkpt>
   <trkpt lat="-37.87127" lon="145.32199">
    <ele>456.81000000000006</ele>
   </trkpt>
   <trkpt lat="-37.87086" lon="145.32168000000001">
    <ele>454.09000000000003</ele>
   </trkpt>
   <trkpt lat="-37.87046" lon="145.3213">
    <ele>449.20000000000005</ele>
   </trkpt>
   <trkpt lat="-37.870250000000006" lon="145.32102">
    <ele>446.84000000000003</ele>
   </trkpt>
   <trkpt lat="-37.87019" lon="145.32089000000002">
    <ele>445.08000000000004</ele>
   </trkpt>
   <trkpt lat="-37.87012" lon="145.32062000000002">
    <ele>441.24</ele>
   </trkpt>
   <trkpt lat="-37.87001" lon="145.32003">
    <ele>433.32000000000005</ele>
   </trkpt>
   <trkpt lat="-37.86992" lon="145.31986">
    <ele>431.75</ele>
   </trkpt>
   <trkpt lat="-37.86974" lon="145.3196">
    <ele>426.09000000000003</ele>
   </trkpt>
   <trkpt lat="-37.86965" lon="145.31935000000001">
    <ele>424.50000000000006</ele>
   </trkpt>
   <trkpt lat="-37.86947" lon="145.31873000000002">
    <ele>418.98</ele>
   </trkpt>
   <trkpt lat="-37.86943" lon="145.31849000000003">
    <ele>417.29</ele>
   </trkpt>
   <trkpt lat="-37.86954" lon="145.31789">
    <ele>414.14</ele>
   </trkpt>
   <trkpt lat="-37.869780000000006" lon="145.31726">
    <ele>408.82</ele>
   </trkpt>
   <trkpt lat="-37.87006" lon="145.31660000000002">
    <ele>397.99</ele>
   </trkpt>
   <trkpt lat="-37.8703" lon="145.31616000000002">
    <ele>397.09000000000003</ele>
   </trkpt>
   <trkpt lat="-37.87031" lon="145.31615000000002">
    <ele>397.09000000000003</ele>
   </trkpt>
   <trkpt lat="-37.87041" lon="145.31596000000002">
    <ele>397.33</ele>
   </trkpt>
   <trkpt lat="-37.87059" lon="145.31573">
    <ele>398.22</ele>
   </trkpt>
   <trkpt lat="-37.871" lon="145.31558">
    <ele>402.73</ele>
   </trkpt>
   <trkpt lat="-37.871190000000006" lon="145.31547">
    <ele>404.30000000000007</ele>
   </trkpt>
   <trkpt lat="-37.871" lon="145.31480000000002">
    <ele>396.31000000000006</ele>
   </trkpt>
   <trkpt lat="-37.87064" lon="145.31427000000002">
    <ele>389.86</ele>
   </trkpt>
   <trkpt lat="-37.87055" lon="145.31419000000002">
    <ele>388.35</ele>
   </trkpt>
   <trkpt lat="-37.87091000188113" lon="145.31352500322902">
    <ele>393.38</ele>
   </trkpt>
   <trkpt lat="-37.87127" lon="145.31286">
    <ele>389.63</ele>
   </trkpt>
   <trkpt lat="-37.87133" lon="145.3128">
    <ele>387.8</ele>
   </trkpt>
   <trkpt lat="-37.87165" lon="145.31262">
    <ele>381.27000000000004</ele>
   </trkpt>
   <trkpt lat="-37.87174" lon="145.31253">
    <ele>377.48</ele>
   </trkpt>
   <trkpt lat="-37.87182" lon="145.31231000000002">
    <ele>371.15000000000003</ele>
   </trkpt>
   <trkpt lat="-37.87201" lon="145.31204000000002">
    <ele>361.19</ele>
   </trkpt>
   <trkpt lat="-37.87227" lon="145.31188">
    <ele>352.73</ele>
   </trkpt>
   <trkpt lat="-37.87236" lon="145.31185000000002">
    <ele>350.91</ele>
   </trkpt>
   <trkpt lat="-37.87245" lon="145.31188">
    <ele>349.68000000000006</ele>
   </trkpt>
   <trkpt lat="-37.87254" lon="145.31198">
    <ele>348.65000000000003</ele>
   </trkpt>
   <trkpt lat="-37.87259" lon="145.31212000000002">
    <ele>349.11</ele>
   </trkpt>
   <trkpt lat="-37.87254" lon="145.31233">
    <ele>349.96000000000004</ele>
   </trkpt>
   <trkpt lat="-37.87229" lon="145.31288">
    <ele>356.42</ele>
   </trkpt>
   <trkpt lat="-37.87227" lon="145.31307">
    <ele>358.13</ele>
   </trkpt>
   <trkpt lat="-37.87229" lon="145.31326">
    <ele>360.26</ele>
   </trkpt>
   <trkpt lat="-37.87241" lon="145.3135">
    <ele>362.22</ele>
   </trkpt>
   <trkpt lat="-37.872600000000006" lon="145.31367">
    <ele>365.21000000000004</ele>
   </trkpt>
   <trkpt lat="-37.87288" lon="145.31377">
    <ele>368.56000000000006</ele>
   </trkpt>
   <trkpt lat="-37.87324" lon="145.31379">
    <ele>370.22</ele>
   </trkpt>
   <trkpt lat="-37.87344" lon="145.31381000000002">
    <ele>370.65000000000003</ele>
   </trkpt>
   <trkpt lat="-37.87366" lon="145.31386">
    <ele>371.1</ele>
   </trkpt>
   <trkpt lat="-37.8742" lon="145.31409000000002">
    <ele>373.03000000000003</ele>
   </trkpt>
   <trkpt lat="-37.87447" lon="145.31404">
    <ele>374.94000000000005</ele>
   </trkpt>
   <trkpt lat="-37.87489" lon="145.31387">
    <ele>379.09000000000003</ele>
   </trkpt>
   <trkpt lat="-37.87532" lon="145.31391000000002">
    <ele>381.88000000000005</ele>
   </trkpt>
   <trkpt lat="-37.8757" lon="145.31402">
    <ele>386.02000000000004</ele>
   </trkpt>
   <trkpt lat="-37.87585" lon="145.31401000000002">
    <ele>386.02000000000004</ele>
   </trkpt>
   <trkpt lat="-37.87635" lon="145.31387">
    <ele>391.49</ele>
   </trkpt>
   <trkpt lat="-37.87684" lon="145.31383000000002">
    <ele>399.53000000000003</ele>
   </trkpt>
   <trkpt lat="-37.87729" lon="145.31387">
    <ele>404.30000000000007</ele>
   </trkpt>
   <trkpt lat="-37.87753" lon="145.31387">
    <ele>408.38</ele>
   </trkpt>
   <trkpt lat="-37.87796" lon="145.31396">
    <ele>412.92</ele>
   </trkpt>
   <trkpt lat="-37.87838" lon="145.31409000000002">
    <ele>418.14</ele>
   </trkpt>
   <trkpt lat="-37.87883000008877" lon="145.31413999970323">
    <ele>422.77000000000004</ele>
   </trkpt>
   <trkpt lat="-37.87928" lon="145.31419000000002">
    <ele>424.95000000000005</ele>
   </trkpt>
   <trkpt lat="-37.87948" lon="145.31417000000002">
    <ele>427.26000000000005</ele>
   </trkpt>
   <trkpt lat="-37.87946" lon="145.31428000000002">
    <ele>427.37</ele>
   </trkpt>
   <trkpt lat="-37.87939" lon="145.31436000000002">
    <ele>427.56000000000006</ele>
   </trkpt>
   <trkpt lat="-37.87885" lon="145.31461000000002">
    <ele>430.70000000000005</ele>
   </trkpt>
   <trkpt lat="-37.878600000000006" lon="145.31485">
    <ele>433.55</ele>
   </trkpt>
   <trkpt lat="-37.87829" lon="145.31506000000002">
    <ele>438.23</ele>
   </trkpt>
   <trkpt lat="-37.87791" lon="145.31546">
    <ele>444.19</ele>
   </trkpt>
   <trkpt lat="-37.87778" lon="145.31557">
    <ele>447.43000000000006</ele>
   </trkpt>
   <trkpt lat="-37.87753" lon="145.31569000000002">
    <ele>449.78000000000003</ele>
   </trkpt>
   <trkpt lat="-37.87735" lon="145.31589000000002">
    <ele>450.76000000000005</ele>
   </trkpt>
   <trkpt lat="-37.87693" lon="145.31661000000003">
    <ele>458.78000000000003</ele>
   </trkpt>
   <trkpt lat="-37.87682" lon="145.31683">
    <ele>461.64000000000004</ele>
   </trkpt>
   <trkpt lat="-37.87675" lon="145.31670000000003">
    <ele>460.86</ele>
   </trkpt>
   <trkpt lat="-37.87682" lon="145.31683">
    <ele>461.64000000000004</ele>
   </trkpt>
   <trkpt lat="-37.87668" lon="145.31728">
    <ele>465.76000000000005</ele>
   </trkpt>
   <trkpt lat="-37.87641" lon="145.31827">
    <ele>477.33000000000004</ele>
   </trkpt>
   <trkpt lat="-37.87608" lon="145.31889">
    <ele>483.76</ele>
   </trkpt>
   <trkpt lat="-37.87583" lon="145.31924">
    <ele>486.34000000000003</ele>
   </trkpt>
   <trkpt lat="-37.87547" lon="145.31965000000002">
    <ele>490.15000000000003</ele>
   </trkpt>
   <trkpt lat="-37.87536" lon="145.31973000000002">
    <ele>490.81</ele>
   </trkpt>
   <trkpt lat="-37.87518" lon="145.31998000000002">
    <ele>492.53000000000003</ele>
   </trkpt>
   <trkpt lat="-37.875220000000006" lon="145.31991000000002">
    <ele>492.11</ele>
   </trkpt>
   <trkpt lat="-37.87507" lon="145.32012">
    <ele>493.64</ele>
   </trkpt>
   <trkpt lat="-37.87498" lon="145.32019000000003">
    <ele>494.34000000000003</ele>
   </trkpt>
   <trkpt lat="-37.874880000000005" lon="145.3202">
    <ele>494.8</ele>
   </trkpt>
   <trkpt lat="-37.87473" lon="145.32017000000002">
    <ele>496.55</ele>
   </trkpt>
   <trkpt lat="-37.87442" lon="145.32003">
    <ele>499.57</ele>
   </trkpt>
   <trkpt lat="-37.87415" lon="145.32003">
    <ele>502.9800000000001</ele>
   </trkpt>
   <trkpt lat="-37.874" lon="145.32000000000002">
    <ele>504.82000000000005</ele>
   </trkpt>
   <trkpt lat="-37.87355" lon="145.31979">
    <ele>508.86000000000007</ele>
   </trkpt>
   <trkpt lat="-37.87328" lon="145.3197">
    <ele>513.38</ele>
   </trkpt>
   <trkpt lat="-37.87303" lon="145.31965000000002">
    <ele>514.14</ele>
   </trkpt>
   <trkpt lat="-37.872800000000005" lon="145.31964000000002">
    <ele>515.61</ele>
   </trkpt>
   <trkpt lat="-37.872765013329314" lon="145.32066500145862">
    <ele>508.90000000000003</ele>
   </trkpt>
   <trkpt lat="-37.872730017772454" lon="145.3216900019436">
    <ele>488.8500000000001</ele>
   </trkpt>
   <trkpt lat="-37.872695013329434" lon="145.32271500145467">
    <ele>478.49</ele>
   </trkpt>
   <trkpt lat="-37.87266" lon="145.32374000000002">
    <ele>487.96000000000004</ele>
   </trkpt>
   <trkpt lat="-37.87229000264909" lon="145.3245200037567">
    <ele>492.75</ele>
   </trkpt>
   <trkpt lat="-37.87192" lon="145.3253">
    <ele>486.9100000000001</ele>
   </trkpt>
   <trkpt lat="-37.871880000000004" lon="145.32536000000002">
    <ele>485.87</ele>
   </trkpt>
   <trkpt lat="-37.87171" lon="145.32548">
    <ele>484.95000000000005</ele>
   </trkpt>
   <trkpt lat="-37.87182" lon="145.3257">
    <ele>484.46000000000004</ele>
   </trkpt>
   <trkpt lat="-37.87238" lon="145.32607000000002">
    <ele>483.90000000000003</ele>
   </trkpt>
   <trkpt lat="-37.87261" lon="145.32628000000003">
    <ele>482.21000000000004</ele>
   </trkpt>
   <trkpt lat="-37.87286" lon="145.3266">
    <ele>477.96000000000004</ele>
   </trkpt>
   <trkpt lat="-37.87322500116279" lon="145.32710999756102">
    <ele>471.69000000000005</ele>
   </trkpt>
   <trkpt lat="-37.87359" lon="145.32762000000002">
    <ele>466.02000000000004</ele>
   </trkpt>
   <trkpt lat="-37.87366" lon="145.32778000000002">
    <ele>462.42</ele>
   </trkpt>
   <trkpt lat="-37.87368" lon="145.32803">
    <ele>457.99000000000007</ele>
   </trkpt>
   <trkpt lat="-37.87382" lon="145.32833000000002">
    <ele>455.08000000000004</ele>
   </trkpt>
   <trkpt lat="-37.87435" lon="145.32887000000002">
    <ele>446.15000000000003</ele>
   </trkpt>
   <trkpt lat="-37.87456" lon="145.32923000000002">
    <ele>443.90000000000003</ele>
   </trkpt>
   <trkpt lat="-37.87469" lon="145.32956000000001">
    <ele>442.01</ele>
   </trkpt>
   <trkpt lat="-37.8748" lon="145.32998">
    <ele>440.97</ele>
   </trkpt>
   <trkpt lat="-37.87491" lon="145.33029000000002">
    <ele>441.04</ele>
   </trkpt>
   <trkpt lat="-37.87514" lon="145.33068">
    <ele>441.02000000000004</ele>
   </trkpt>
   <trkpt lat="-37.875280000000004" lon="145.33083000000002">
    <ele>440.96000000000004</ele>
   </trkpt>
   <trkpt lat="-37.87543" lon="145.33104">
    <ele>440.92</ele>
   </trkpt>
   <trkpt lat="-37.87545" lon="145.33118000000002">
    <ele>441.14000000000004</ele>
   </trkpt>
   <trkpt lat="-37.87543" lon="145.33131">
    <ele>441.53000000000003</ele>
   </trkpt>
   <trkpt lat="-37.87534" lon="145.33156000000002">
    <ele>443.6</ele>
   </trkpt>
   <trkpt lat="-37.87489" lon="145.33247">
    <ele>456.37000000000006</ele>
   </trkpt>
   <trkpt lat="-37.87465" lon="145.33307000000002">
    <ele>463.26000000000005</ele>
   </trkpt>
   <trkpt lat="-37.87443500200122" lon="145.33376000205305">
    <ele>470.03000000000003</ele>
   </trkpt>
   <trkpt lat="-37.87422" lon="145.33445">
    <ele>474.41</ele>
   </trkpt>
   <trkpt lat="-37.87414000145752" lon="145.33504500094114">
    <ele>479.95000000000005</ele>
   </trkpt>
   <trkpt lat="-37.87406" lon="145.33564">
    <ele>484.54</ele>
   </trkpt>
   <trkpt lat="-37.87406" lon="145.33563">
    <ele>484.43</ele>
   </trkpt>
   <trkpt lat="-37.87393" lon="145.33620000000002">
    <ele>489.05</ele>
   </trkpt>
   <trkpt lat="-37.87391" lon="145.33668">
    <ele>492.77000000000004</ele>
   </trkpt>
   <trkpt lat="-37.87397" lon="145.33701000000002">
    <ele>497.8</ele>
   </trkpt>
   <trkpt lat="-37.87411" lon="145.3375">
    <ele>500.85</ele>
   </trkpt>
   <trkpt lat="-37.87332750090004" lon="145.33776750852644">
    <ele>479.0</ele>
   </trkpt>
   <trkpt lat="-37.87254500119482" lon="145.33803501137015">
    <ele>449.19</ele>
   </trkpt>
   <trkpt lat="-37.87176250088439" lon="145.3383025085315">
    <ele>437.72</ele>
   </trkpt>
   <trkpt lat="-37.87098" lon="145.33857">
    <ele>446.95</ele>
   </trkpt>
   <trkpt lat="-37.87097" lon="145.33856">
    <ele>444.89000000000004</ele>
   </trkpt>
   <trkpt lat="-37.87091" lon="145.33863000000002">
    <ele>448.91</ele>
   </trkpt>
   <trkpt lat="-37.87075" lon="145.33874">
    <ele>451.24</ele>
   </trkpt>
   <trkpt lat="-37.87059" lon="145.33873">
    <ele>454.33</ele>
   </trkpt>
   <trkpt lat="-37.87035" lon="145.33879000000002">
    <ele>462.64000000000004</ele>
   </trkpt>
   <trkpt lat="-37.87026" lon="145.33888000000002">
    <ele>462.64000000000004</ele>
   </trkpt>
   <trkpt lat="-37.87037" lon="145.33894">
    <ele>463.68</ele>
   </trkpt>
   <trkpt lat="-37.87059" lon="145.33917000000002">
    <ele>466.13000000000005</ele>
   </trkpt>
   <trkpt lat="-37.87082" lon="145.33948">
    <ele>468.30000000000007</ele>
   </trkpt>
   <trkpt lat="-37.87106" lon="145.33963">
    <ele>469.9200000000001</ele>
   </trkpt>
   <trkpt lat="-37.8712" lon="145.33964">
    <ele>471.12</ele>
   </trkpt>
   <trkpt lat="-37.871320000000004" lon="145.33969000000002">
    <ele>472.02000000000004</ele>
   </trkpt>
   <trkpt lat="-37.87185" lon="145.33998000000003">
    <ele>476.84000000000003</ele>
   </trkpt>
   <trkpt lat="-37.872" lon="145.3401">
    <ele>477.80000000000007</ele>
   </trkpt>
   <trkpt lat="-37.87214" lon="145.34024000000002">
    <ele>480.69000000000005</ele>
   </trkpt>
   <trkpt lat="-37.87263" lon="145.34076000000002">
    <ele>483.46000000000004</ele>
   </trkpt>
   <trkpt lat="-37.87272" lon="145.34083">
    <ele>485.33000000000004</ele>
   </trkpt>
   <trkpt lat="-37.87288" lon="145.3409">
    <ele>485.33000000000004</ele>
   </trkpt>
   <trkpt lat="-37.87315" lon="145.34105000000002">
    <ele>487.11</ele>
   </trkpt>
   <trkpt lat="-37.87375" lon="145.34154">
    <ele>493.36</ele>
   </trkpt>
   <trkpt lat="-37.87406" lon="145.34185000000002">
    <ele>495.6700000000001</ele>
   </trkpt>
   <trkpt lat="-37.8744" lon="145.34218">
    <ele>496.96000000000004</ele>
   </trkpt>
   <trkpt lat="-37.87496" lon="145.34279">
    <ele>501.7600000000001</ele>
   </trkpt>
   <trkpt lat="-37.87505" lon="145.34289">
    <ele>502.74000000000007</ele>
   </trkpt>
   <trkpt lat="-37.8751" lon="145.34298">
    <ele>501.86000000000007</ele>
   </trkpt>
   <trkpt lat="-37.875350000000005" lon="145.3428">
    <ele>501.9800000000001</ele>
   </trkpt>
   <trkpt lat="-37.875370000000004" lon="145.34295">
    <ele>502.27</ele>
   </trkpt>
   <trkpt lat="-37.875510000000006" lon="145.34301000000002">
    <ele>504.87</ele>
   </trkpt>
   <trkpt lat="-37.87552" lon="145.34341">
    <ele>506.28000000000003</ele>
   </trkpt>
   <trkpt lat="-37.87545" lon="145.3436">
    <ele>507.88</ele>
   </trkpt>
   <trkpt lat="-37.875510000000006" lon="145.34384">
    <ele>508.97999999999996</ele>
   </trkpt>
   <trkpt lat="-37.87556" lon="145.34399000000002">
    <ele>509.55000000000007</ele>
   </trkpt>
   <trkpt lat="-37.875690000000006" lon="145.34416000000002">
    <ele>510.27</ele>
   </trkpt>
   <trkpt lat="-37.8759" lon="145.34467">
    <ele>512.69</ele>
   </trkpt>
   <trkpt lat="-37.87599" lon="145.34493">
    <ele>513.61</ele>
   </trkpt>
   <trkpt lat="-37.87599" lon="145.3454">
    <ele>515.5300000000001</ele>
   </trkpt>
   <trkpt lat="-37.87603" lon="145.34573">
    <ele>516.08</ele>
   </trkpt>
   <trkpt lat="-37.87603" lon="145.34592">
    <ele>516.14</ele>
   </trkpt>
   <trkpt lat="-37.87615" lon="145.34678000000002">
    <ele>514.19</ele>
   </trkpt>
   <trkpt lat="-37.87621" lon="145.34698">
    <ele>512.2800000000001</ele>
   </trkpt>
   <trkpt lat="-37.8763" lon="145.34708">
    <ele>511.51</ele>
   </trkpt>
   <trkpt lat="-37.87648" lon="145.34716">
    <ele>511.0</ele>
   </trkpt>
   <trkpt lat="-37.876760000000004" lon="145.34722000000002">
    <ele>511.37</ele>
   </trkpt>
   <trkpt lat="-37.87688" lon="145.34705000000002">
    <ele>509.6700000000001</ele>
   </trkpt>
   <trkpt lat="-37.87702" lon="145.34689">
    <ele>508.21000000000004</ele>
   </trkpt>
   <trkpt lat="-37.87726" lon="145.34634">
    <ele>503.82000000000005</ele>
   </trkpt>
   <trkpt lat="-37.877570000000006" lon="145.34542000000002">
    <ele>500.63</ele>
   </trkpt>
   <trkpt lat="-37.87767" lon="145.34526000000002">
    <ele>500.09999999999997</ele>
   </trkpt>
   <trkpt lat="-37.87794" lon="145.34497000000002">
    <ele>498.8</ele>
   </trkpt>
   <trkpt lat="-37.878" lon="145.34487000000001">
    <ele>498.05</ele>
   </trkpt>
   <trkpt lat="-37.878040000000006" lon="145.34474">
    <ele>497.15000000000003</ele>
   </trkpt>
   <trkpt lat="-37.87805" lon="145.34458">
    <ele>495.1</ele>
   </trkpt>
   <trkpt lat="-37.87807" lon="145.34451">
    <ele>494.20000000000005</ele>
   </trkpt>
   <trkpt lat="-37.87814" lon="145.34448">
    <ele>493.82000000000005</ele>
   </trkpt>
   <trkpt lat="-37.87827" lon="145.34451">
    <ele>492.52</ele>
   </trkpt>
   <trkpt lat="-37.87836" lon="145.34455">
    <ele>492.24000000000007</ele>
   </trkpt>
   <trkpt lat="-37.87861" lon="145.34490000000002">
    <ele>491.7</ele>
   </trkpt>
   <trkpt lat="-37.878750000000004" lon="145.34495">
    <ele>490.38000000000005</ele>
   </trkpt>
   <trkpt lat="-37.87888" lon="145.34482">
    <ele>492.47</ele>
   </trkpt>
   <trkpt lat="-37.8789" lon="145.34474">
    <ele>493.61</ele>
   </trkpt>
   <trkpt lat="-37.87914" lon="145.34452000000002">
    <ele>500.27</ele>
   </trkpt>
   <trkpt lat="-37.87919" lon="145.34452000000002">
    <ele>502.06000000000006</ele>
   </trkpt>
   <trkpt lat="-37.87944" lon="145.34486">
    <ele>503.99000000000007</ele>
   </trkpt>
   <trkpt lat="-37.87973" lon="145.34534000000002">
    <ele>502.8</ele>
   </trkpt>
   <trkpt lat="-37.8802" lon="145.34602">
    <ele>499.31</ele>
   </trkpt>
   <trkpt lat="-37.88042" lon="145.34634">
    <ele>497.31</ele>
   </trkpt>
   <trkpt lat="-37.88067" lon="145.34663">
    <ele>495.6</ele>
   </trkpt>
   <trkpt lat="-37.880860000000006" lon="145.34682">
    <ele>494.58</ele>
   </trkpt>
   <trkpt lat="-37.88105" lon="145.34695000000002">
    <ele>494.3</ele>
   </trkpt>
   <trkpt lat="-37.88154" lon="145.34723000000002">
    <ele>491.67</ele>
   </trkpt>
   <trkpt lat="-37.88167" lon="145.34744">
    <ele>491.05</ele>
   </trkpt>
   <trkpt lat="-37.88201" lon="145.34819000000002">
    <ele>484.83000000000004</ele>
   </trkpt>
   <trkpt lat="-37.88226" lon="145.34839000000002">
    <ele>483.62000000000006</ele>
   </trkpt>
   <trkpt lat="-37.88255" lon="145.34856000000002">
    <ele>482.99</ele>
   </trkpt>
   <trkpt lat="-37.88302" lon="145.3487">
    <ele>482.82</ele>
   </trkpt>
   <trkpt lat="-37.88311" lon="145.34876">
    <ele>482.80000000000007</ele>
   </trkpt>
   <trkpt lat="-37.8836" lon="145.34926000000002">
    <ele>481.55</ele>
   </trkpt>
   <trkpt lat="-37.88405" lon="145.34945000000002">
    <ele>480.98</ele>
   </trkpt>
   <trkpt lat="-37.88436" lon="145.34969">
    <ele>479.88</ele>
   </trkpt>
   <trkpt lat="-37.88456" lon="145.35004">
    <ele>477.66</ele>
   </trkpt>
   <trkpt lat="-37.88461" lon="145.35017000000002">
    <ele>476.89000000000004</ele>
   </trkpt>
   <trkpt lat="-37.884640000000005" lon="145.35035000000002">
    <ele>475.66</ele>
   </trkpt>
   <trkpt lat="-37.88461" lon="145.35046">
    <ele>474.51000000000005</ele>
   </trkpt>
   <trkpt lat="-37.88461" lon="145.35066">
    <ele>471.90000000000003</ele>
   </trkpt>
   <trkpt lat="-37.884730000000005" lon="145.35098000000002">
    <ele>470.95000000000005</ele>
   </trkpt>
   <trkpt lat="-37.8853" lon="145.3514">
    <ele>472.56</ele>
   </trkpt>
   <trkpt lat="-37.88552" lon="145.35153000000003">
    <ele>472.04</ele>
   </trkpt>
   <trkpt lat="-37.886070000000004" lon="145.35163">
    <ele>468.68</ele>
   </trkpt>
   <trkpt lat="-37.886410000000005" lon="145.35162000000003">
    <ele>466.0</ele>
   </trkpt>
   <trkpt lat="-37.88669" lon="145.35166">
    <ele>465.93</ele>
   </trkpt>
   <trkpt lat="-37.88716" lon="145.35176">
    <ele>460.85</ele>
   </trkpt>
   <trkpt lat="-37.887330000000006" lon="145.35177000000002">
    <ele>458.01</ele>
   </trkpt>
   <trkpt lat="-37.88734" lon="145.35183">
    <ele>458.01</ele>
   </trkpt>
   <trkpt lat="-37.88729" lon="145.35195000000002">
    <ele>456.97</ele>
   </trkpt>
   <trkpt lat="-37.88727" lon="145.35218">
    <ele>456.87000000000006</ele>
   </trkpt>
   <trkpt lat="-37.88725" lon="145.35215000000002">
    <ele>456.87000000000006</ele>
   </trkpt>
   <trkpt lat="-37.88709" lon="145.35208">
    <ele>460.9800000000001</ele>
   </trkpt>
   <trkpt lat="-37.88709" lon="145.35209">
    <ele>461.0</ele>
   </trkpt>
   <trkpt lat="-37.88696" lon="145.35204000000002">
    <ele>463.4200000000001</ele>
   </trkpt>
   <trkpt lat="-37.88678" lon="145.35203">
    <ele>464.94</ele>
   </trkpt>
   <trkpt lat="-37.88662" lon="145.352">
    <ele>466.66</ele>
   </trkpt>
   <trkpt lat="-37.88626" lon="145.35184">
    <ele>468.99</ele>
   </trkpt>
   <trkpt lat="-37.88615" lon="145.35176">
    <ele>469.41</ele>
   </trkpt>
   <trkpt lat="-37.886070000000004" lon="145.35201">
    <ele>473.21000000000004</ele>
   </trkpt>
   <trkpt lat="-37.886070000000004" lon="145.352">
    <ele>473.14000000000004</ele>
   </trkpt>
   <trkpt lat="-37.88588" lon="145.35242000000002">
    <ele>479.13000000000005</ele>
   </trkpt>
   <trkpt lat="-37.88555" lon="145.35296000000002">
    <ele>485.31</ele>
   </trkpt>
   <trkpt lat="-37.88544" lon="145.35307">
    <ele>485.31</ele>
   </trkpt>
   <trkpt lat="-37.88508" lon="145.35324">
    <ele>489.93</ele>
   </trkpt>
   <trkpt lat="-37.88497" lon="145.35328">
    <ele>489.93</ele>
   </trkpt>
   <trkpt lat="-37.88434" lon="145.35368000000003">
    <ele>492.43</ele>
   </trkpt>
   <trkpt lat="-37.88423" lon="145.35381">
    <ele>491.68000000000006</ele>
   </trkpt>
   <trkpt lat="-37.88371" lon="145.35464000000002">
    <ele>485.59000000000003</ele>
   </trkpt>
   <trkpt lat="-37.88351" lon="145.35512">
    <ele>486.63000000000005</ele>
   </trkpt>
   <trkpt lat="-37.88351" lon="145.3553">
    <ele>486.90000000000003</ele>
   </trkpt>
   <trkpt lat="-37.88318" lon="145.3554">
    <ele>486.00000000000006</ele>
   </trkpt>
   <trkpt lat="-37.88302" lon="145.35574000000003">
    <ele>488.09000000000003</ele>
   </trkpt>
   <trkpt lat="-37.88288" lon="145.35593">
    <ele>489.36</ele>
   </trkpt>
   <trkpt lat="-37.88266" lon="145.35619">
    <ele>490.02000000000004</ele>
   </trkpt>
   <trkpt lat="-37.88244" lon="145.35639">
    <ele>489.88000000000005</ele>
   </trkpt>
   <trkpt lat="-37.88226" lon="145.35667">
    <ele>489.48</ele>
   </trkpt>
   <trkpt lat="-37.88212" lon="145.35702">
    <ele>490.21000000000004</ele>
   </trkpt>
   <trkpt lat="-37.88183" lon="145.35763">
    <ele>490.7900000000001</ele>
   </trkpt>
   <trkpt lat="-37.88161" lon="145.35798">
    <ele>487.57000000000005</ele>
   </trkpt>
   <trkpt lat="-37.88143" lon="145.35821">
    <ele>486.7</ele>
   </trkpt>
   <trkpt lat="-37.88123" lon="145.35861">
    <ele>487.32</ele>
   </trkpt>
   <trkpt lat="-37.881190000000004" lon="145.35876000000002">
    <ele>487.82</ele>
   </trkpt>
   <trkpt lat="-37.88103" lon="145.35904000000002">
    <ele>487.79</ele>
   </trkpt>
   <trkpt lat="-37.88096" lon="145.35906">
    <ele>487.71000000000004</ele>
   </trkpt>
   <trkpt lat="-37.88094" lon="145.35907">
    <ele>487.72</ele>
   </trkpt>
   <trkpt lat="-37.8808" lon="145.35903000000002">
    <ele>487.34000000000003</ele>
   </trkpt>
   <trkpt lat="-37.88051" lon="145.35909">
    <ele>479.2</ele>
   </trkpt>
   <trkpt lat="-37.88033" lon="145.3591">
    <ele>479.36000000000007</ele>
   </trkpt>
   <trkpt lat="-37.8802" lon="145.35908">
    <ele>479.28000000000003</ele>
   </trkpt>
   <trkpt lat="-37.88006" lon="145.35903000000002">
    <ele>478.84000000000003</ele>
   </trkpt>
   <trkpt lat="-37.87991" lon="145.35891">
    <ele>478.18000000000006</ele>
   </trkpt>
   <trkpt lat="-37.87975" lon="145.35876000000002">
    <ele>477.66</ele>
   </trkpt>
   <trkpt lat="-37.87919" lon="145.35846">
    <ele>479.57000000000005</ele>
   </trkpt>
   <trkpt lat="-37.87876" lon="145.35838">
    <ele>481.00000000000006</ele>
   </trkpt>
   <trkpt lat="-37.878600000000006" lon="145.35829">
    <ele>480.92</ele>
   </trkpt>
   <trkpt lat="-37.87818" lon="145.35801">
    <ele>478.63000000000005</ele>
   </trkpt>
   <trkpt lat="-37.87798" lon="145.35797000000002">
    <ele>478.63000000000005</ele>
   </trkpt>
   <trkpt lat="-37.8778" lon="145.35791">
    <ele>476.29</ele>
   </trkpt>
   <trkpt lat="-37.87749" lon="145.35763">
    <ele>475.4200000000001</ele>
   </trkpt>
   <trkpt lat="-37.8772" lon="145.35687000000001">
    <ele>470.87</ele>
   </trkpt>
   <trkpt lat="-37.87709" lon="145.35658">
    <ele>470.37000000000006</ele>
   </trkpt>
   <trkpt lat="-37.87693" lon="145.35664">
    <ele>459.34000000000003</ele>
   </trkpt>
   <trkpt lat="-37.87684" lon="145.35664">
    <ele>475.81000000000006</ele>
   </trkpt>
   <trkpt lat="-37.87675" lon="145.35661000000002">
    <ele>475.88</ele>
   </trkpt>
   <trkpt lat="-37.87646" lon="145.35667">
    <ele>476.18000000000006</ele>
   </trkpt>
   <trkpt lat="-37.8763" lon="145.35674">
    <ele>476.74000000000007</ele>
   </trkpt>
   <trkpt lat="-37.876160000000006" lon="145.35686">
    <ele>476.79</ele>
   </trkpt>
   <trkpt lat="-37.87592" lon="145.35717000000002">
    <ele>476.15000000000003</ele>
   </trkpt>
   <trkpt lat="-37.875840000000004" lon="145.35742000000002">
    <ele>474.54</ele>
   </trkpt>
   <trkpt lat="-37.87577" lon="145.35754">
    <ele>473.22</ele>
   </trkpt>
   <trkpt lat="-37.87559" lon="145.35771000000003">
    <ele>470.49</ele>
   </trkpt>
   <trkpt lat="-37.87545" lon="145.35776">
    <ele>469.68</ele>
   </trkpt>
   <trkpt lat="-37.87482" lon="145.35784">
    <ele>464.17</ele>
   </trkpt>
   <trkpt lat="-37.87473" lon="145.35783">
    <ele>463.68</ele>
   </trkpt>
   <trkpt lat="-37.87435" lon="145.35784">
    <ele>460.33</ele>
   </trkpt>
   <trkpt lat="-37.87413" lon="145.35781">
    <ele>459.72</ele>
   </trkpt>
   <trkpt lat="-37.87379" lon="145.35763">
    <ele>457.93000000000006</ele>
   </trkpt>
   <trkpt lat="-37.87353" lon="145.35718">
    <ele>453.88000000000005</ele>
   </trkpt>
   <trkpt lat="-37.87339" lon="145.35649">
    <ele>451.82000000000005</ele>
   </trkpt>
   <trkpt lat="-37.87335" lon="145.35644000000002">
    <ele>451.45</ele>
   </trkpt>
   <trkpt lat="-37.873310000000004" lon="145.35644000000002">
    <ele>451.45</ele>
   </trkpt>
   <trkpt lat="-37.87328" lon="145.35648">
    <ele>451.45</ele>
   </trkpt>
   <trkpt lat="-37.87328" lon="145.35653000000002">
    <ele>451.45</ele>
   </trkpt>
   <trkpt lat="-37.87341" lon="145.357">
    <ele>448.44000000000005</ele>
   </trkpt>
   <trkpt lat="-37.87341" lon="145.3574">
    <ele>446.31000000000006</ele>
   </trkpt>
   <trkpt lat="-37.87346" lon="145.35765">
    <ele>443.37</ele>
   </trkpt>
   <trkpt lat="-37.87357" lon="145.35787000000002">
    <ele>443.37</ele>
   </trkpt>
   <trkpt lat="-37.873630000000006" lon="145.35801">
    <ele>440.47</ele>
   </trkpt>
   <trkpt lat="-37.87373" lon="145.3582">
    <ele>439.68</ele>
   </trkpt>
   <trkpt lat="-37.87402" lon="145.35849000000002">
    <ele>436.2300000000001</ele>
   </trkpt>
   <trkpt lat="-37.87433" lon="145.35864">
    <ele>433.14000000000004</ele>
   </trkpt>
   <trkpt lat="-37.87447" lon="145.35877000000002">
    <ele>430.64</ele>
   </trkpt>
   <trkpt lat="-37.874770000000005" lon="145.35926">
    <ele>425.51000000000005</ele>
   </trkpt>
   <trkpt lat="-37.87487" lon="145.35939000000002">
    <ele>424.74000000000007</ele>
   </trkpt>
   <trkpt lat="-37.87496" lon="145.35946">
    <ele>424.74000000000007</ele>
   </trkpt>
   <trkpt lat="-37.875130000000006" lon="145.35951">
    <ele>422.25</ele>
   </trkpt>
   <trkpt lat="-37.87521" lon="145.35967000000002">
    <ele>421.49</ele>
   </trkpt>
   <trkpt lat="-37.87516" lon="145.35986000000003">
    <ele>419.13000000000005</ele>
   </trkpt>
   <trkpt lat="-37.87494" lon="145.36006">
    <ele>415.45000000000005</ele>
   </trkpt>
   <trkpt lat="-37.87456" lon="145.36044">
    <ele>407.56</ele>
   </trkpt>
   <trkpt lat="-37.87406" lon="145.36083000000002">
    <ele>400.97</ele>
   </trkpt>
   <trkpt lat="-37.87391" lon="145.36107">
    <ele>399.26000000000005</ele>
   </trkpt>
   <trkpt lat="-37.873720000000006" lon="145.36151">
    <ele>396.82</ele>
   </trkpt>
   <trkpt lat="-37.87377" lon="145.36196">
    <ele>392.82000000000005</ele>
   </trkpt>
   <trkpt lat="-37.873670000000004" lon="145.36171000000002">
    <ele>393.42</ele>
   </trkpt>
   <trkpt lat="-37.87357" lon="145.36148">
    <ele>394.68</ele>
   </trkpt>
   <trkpt lat="-37.87339" lon="145.36129000000003">
    <ele>396.76000000000005</ele>
   </trkpt>
   <trkpt lat="-37.87326" lon="145.36121">
    <ele>400.82</ele>
   </trkpt>
   <trkpt lat="-37.87292" lon="145.36119000000002">
    <ele>404.04</ele>
   </trkpt>
   <trkpt lat="-37.87243" lon="145.36129000000003">
    <ele>407.02000000000004</ele>
   </trkpt>
   <trkpt lat="-37.87234" lon="145.36127000000002">
    <ele>407.77000000000004</ele>
   </trkpt>
   <trkpt lat="-37.87221" lon="145.36118000000002">
    <ele>409.08000000000004</ele>
   </trkpt>
   <trkpt lat="-37.87205" lon="145.36114">
    <ele>409.67</ele>
   </trkpt>
   <trkpt lat="-37.87182" lon="145.36126000000002">
    <ele>409.96000000000004</ele>
   </trkpt>
   <trkpt lat="-37.87113" lon="145.36123">
    <ele>411.42</ele>
   </trkpt>
   <trkpt lat="-37.87071" lon="145.36105">
    <ele>413.45000000000005</ele>
   </trkpt>
   <trkpt lat="-37.86999" lon="145.36083000000002">
    <ele>416.12000000000006</ele>
   </trkpt>
   <trkpt lat="-37.86972" lon="145.36065000000002">
    <ele>417.00000000000006</ele>
   </trkpt>
   <trkpt lat="-37.86963" lon="145.36053">
    <ele>418.54</ele>
   </trkpt>
   <trkpt lat="-37.8695" lon="145.36015">
    <ele>420.56000000000006</ele>
   </trkpt>
   <trkpt lat="-37.869220000000006" lon="145.35977000000003">
    <ele>421.53000000000003</ele>
   </trkpt>
   <trkpt lat="-37.86887" lon="145.35943">
    <ele>424.22</ele>
   </trkpt>
   <trkpt lat="-37.86871" lon="145.35917">
    <ele>426.51000000000005</ele>
   </trkpt>
   <trkpt lat="-37.8682" lon="145.35908">
    <ele>427.19</ele>
   </trkpt>
   <trkpt lat="-37.86806" lon="145.35901">
    <ele>427.96000000000004</ele>
   </trkpt>
   <trkpt lat="-37.86793" lon="145.35878000000002">
    <ele>428.23</ele>
   </trkpt>
   <trkpt lat="-37.86773" lon="145.35860000000002">
    <ele>427.78000000000003</ele>
   </trkpt>
   <trkpt lat="-37.86768" lon="145.35825">
    <ele>428.96</ele>
   </trkpt>
   <trkpt lat="-37.86766" lon="145.3582">
    <ele>428.96</ele>
   </trkpt>
   <trkpt lat="-37.86748" lon="145.35804000000002">
    <ele>429.57</ele>
   </trkpt>
   <trkpt lat="-37.86737" lon="145.35797000000002">
    <ele>429.94000000000005</ele>
   </trkpt>
   <trkpt lat="-37.86728" lon="145.35787000000002">
    <ele>431.47</ele>
   </trkpt>
   <trkpt lat="-37.86715" lon="145.35776">
    <ele>432.26000000000005</ele>
   </trkpt>
   <trkpt lat="-37.86694" lon="145.35745">
    <ele>432.59000000000003</ele>
   </trkpt>
   <trkpt lat="-37.866800000000005" lon="145.35736">
    <ele>433.32000000000005</ele>
   </trkpt>
   <trkpt lat="-37.86674" lon="145.35733000000002">
    <ele>433.84000000000003</ele>
   </trkpt>
   <trkpt lat="-37.86654" lon="145.35708000000002">
    <ele>436.62</ele>
   </trkpt>
   <trkpt lat="-37.8665" lon="145.35665">
    <ele>440.49000000000007</ele>
   </trkpt>
   <trkpt lat="-37.86623" lon="145.35623">
    <ele>446.00000000000006</ele>
   </trkpt>
   <trkpt lat="-37.86605" lon="145.35616000000002">
    <ele>436.84000000000003</ele>
   </trkpt>
   <trkpt lat="-37.86589" lon="145.35612">
    <ele>432.40000000000003</ele>
   </trkpt>
   <trkpt lat="-37.86589" lon="145.35596">
    <ele>419.80000000000007</ele>
   </trkpt>
   <trkpt lat="-37.865930000000006" lon="145.35577">
    <ele>413.19000000000005</ele>
   </trkpt>
   <trkpt lat="-37.86598" lon="145.35567">
    <ele>413.6</ele>
   </trkpt>
   <trkpt lat="-37.86598" lon="145.35555000000002">
    <ele>414.75</ele>
   </trkpt>
   <trkpt lat="-37.86585" lon="145.3554">
    <ele>416.52000000000004</ele>
   </trkpt>
   <trkpt lat="-37.86547" lon="145.35535000000002">
    <ele>423.36</ele>
   </trkpt>
   <trkpt lat="-37.8652" lon="145.35519000000002">
    <ele>427.67</ele>
   </trkpt>
   <trkpt lat="-37.86502" lon="145.35512">
    <ele>434.38000000000005</ele>
   </trkpt>
   <trkpt lat="-37.86486" lon="145.35513">
    <ele>437.44000000000005</ele>
   </trkpt>
   <trkpt lat="-37.8645" lon="145.35506">
    <ele>447.36</ele>
   </trkpt>
   <trkpt lat="-37.86435" lon="145.35499000000002">
    <ele>450.19</ele>
   </trkpt>
   <trkpt lat="-37.86415" lon="145.35496">
    <ele>458.67</ele>
   </trkpt>
   <trkpt lat="-37.863600000000005" lon="145.35494">
    <ele>470.90000000000003</ele>
   </trkpt>
   <trkpt lat="-37.86345" lon="145.35489">
    <ele>473.44</ele>
   </trkpt>
   <trkpt lat="-37.86334" lon="145.35477">
    <ele>477.21000000000004</ele>
   </trkpt>
   <trkpt lat="-37.86316" lon="145.35444">
    <ele>483.04</ele>
   </trkpt>
  </trkseg>
 </trk>
</gpx>
