<?xml version="1.0" encoding="UTF-8"?>
<gpx creator="StravaGPX" version="1.1" xmlns="http://www.topografix.com/GPX/1/1" xmlns:xsi="http://www.w3.org/2001/XMLSchema-instance" xsi:schemaLocation="http://www.topografix.com/GPX/1/1 http://www.topografix.com/GPX/1/1/gpx.xsd">
 <metadata>
  <name>DTR Sunday 17 October 8k Sassafras</name>
  <author>
   <name>john csorgo</name>
  </author>
  <copyright author="OpenStreetMap contributors">
   <year>2020</year>
   <license>https://www.openstreetmap.org/copyright</license>
  </copyright>
 </metadata>
 <trk>
  <name>DTR Sunday 17 October 8k Sassafras</name>
  <link href=""/>
  <type>trail_running</type>
  <trkseg>
   <trkpt lat="-37.862700000000004" lon="145.35336">
    <ele>478.88</ele>
   </trkpt>
   <trkpt lat="-37.86263" lon="145.35319">
    <ele>478.14000000000004</ele>
   </trkpt>
   <trkpt lat="-37.86253" lon="145.35292">
    <ele>476.40000000000003</ele>
   </trkpt>
   <trkpt lat="-37.86253" lon="145.35281">
    <ele>475.41</ele>
   </trkpt>
   <trkpt lat="-37.862590000000004" lon="145.35227">
    <ele>473.31000000000006</ele>
   </trkpt>
   <trkpt lat="-37.86265" lon="145.35228">
    <ele>473.31000000000006</ele>
   </trkpt>
   <trkpt lat="-37.86269" lon="145.35218">
    <ele>473.31000000000006</ele>
   </trkpt>
   <trkpt lat="-37.86271" lon="145.35201">
    <ele>476.65000000000003</ele>
   </trkpt>
   <trkpt lat="-37.86303" lon="145.35168000000002">
    <ele>480.82</ele>
   </trkpt>
   <trkpt lat="-37.863110000000006" lon="145.35169000000002">
    <ele>481.85</ele>
   </trkpt>
   <trkpt lat="-37.8633" lon="145.35153000000003">
    <ele>482.2</ele>
   </trkpt>
   <trkpt lat="-37.863420000000005" lon="145.35147">
    <ele>482.55</ele>
   </trkpt>
   <trkpt lat="-37.8635" lon="145.3513">
    <ele>484.59000000000003</ele>
   </trkpt>
   <trkpt lat="-37.86359" lon="145.35126000000002">
    <ele>486.07000000000005</ele>
   </trkpt>
   <trkpt lat="-37.86368" lon="145.35119">
    <ele>488.79</ele>
   </trkpt>
   <trkpt lat="-37.86379" lon="145.35118">
    <ele>491.97</ele>
   </trkpt>
   <trkpt lat="-37.864050000000006" lon="145.35102">
    <ele>498.94000000000005</ele>
   </trkpt>
   <trkpt lat="-37.8641" lon="145.35089000000002">
    <ele>499.88000000000005</ele>
   </trkpt>
   <trkpt lat="-37.8641" lon="145.35074">
    <ele>501.48</ele>
   </trkpt>
   <trkpt lat="-37.86417" lon="145.35060000000001">
    <ele>503.53000000000003</ele>
   </trkpt>
   <trkpt lat="-37.86448" lon="145.34977">
    <ele>514.37</ele>
   </trkpt>
   <trkpt lat="-37.864695001533185" lon="145.34917000172027">
    <ele>520.5000000000001</ele>
   </trkpt>
   <trkpt lat="-37.86491" lon="145.34857000000002">
    <ele>525.0400000000001</ele>
   </trkpt>
   <trkpt lat="-37.86496" lon="145.34829000000002">
    <ele>526.82</ele>
   </trkpt>
   <trkpt lat="-37.86497" lon="145.34822">
    <ele>526.59</ele>
   </trkpt>
   <trkpt lat="-37.86491" lon="145.34814">
    <ele>524.7900000000001</ele>
   </trkpt>
   <trkpt lat="-37.86484" lon="145.34797">
    <ele>522.2900000000001</ele>
   </trkpt>
   <trkpt lat="-37.864810000000006" lon="145.34757000000002">
    <ele>518.57</ele>
   </trkpt>
   <trkpt lat="-37.86482" lon="145.34718">
    <ele>515.47</ele>
   </trkpt>
   <trkpt lat="-37.86493" lon="145.34701">
    <ele>511.75</ele>
   </trkpt>
   <trkpt lat="-37.865370000000006" lon="145.34673">
    <ele>507.62000000000006</ele>
   </trkpt>
   <trkpt lat="-37.8659" lon="145.34657">
    <ele>502.84000000000003</ele>
   </trkpt>
   <trkpt lat="-37.86589" lon="145.34647">
    <ele>500.16</ele>
   </trkpt>
   <trkpt lat="-37.86598" lon="145.34626">
    <ele>497.28000000000003</ele>
   </trkpt>
   <trkpt lat="-37.866" lon="145.34601">
    <ele>492.72</ele>
   </trkpt>
   <trkpt lat="-37.86589" lon="145.34556">
    <ele>482.23</ele>
   </trkpt>
   <trkpt lat="-37.86594" lon="145.34547">
    <ele>479.62000000000006</ele>
   </trkpt>
   <trkpt lat="-37.865990000000004" lon="145.3454">
    <ele>476.19000000000005</ele>
   </trkpt>
   <trkpt lat="-37.865990000000004" lon="145.34539">
    <ele>475.9200000000001</ele>
   </trkpt>
   <trkpt lat="-37.86621" lon="145.34518">
    <ele>470.94</ele>
   </trkpt>
   <trkpt lat="-37.86697" lon="145.34459">
    <ele>479.41</ele>
   </trkpt>
   <trkpt lat="-37.86741" lon="145.34451">
    <ele>484.57000000000005</ele>
   </trkpt>
   <trkpt lat="-37.86792500001225" lon="145.3444400004904">
    <ele>488.51000000000005</ele>
   </trkpt>
   <trkpt lat="-37.86844" lon="145.34437">
    <ele>491.72</ele>
   </trkpt>
   <trkpt lat="-37.86862" lon="145.34431">
    <ele>492.77000000000004</ele>
   </trkpt>
   <trkpt lat="-37.86889" lon="145.34432">
    <ele>494.3500000000001</ele>
   </trkpt>
   <trkpt lat="-37.86907" lon="145.34435000000002">
    <ele>495.41</ele>
   </trkpt>
   <trkpt lat="-37.86956" lon="145.34455">
    <ele>502.11000000000007</ele>
   </trkpt>
   <trkpt lat="-37.86983" lon="145.34474">
    <ele>505.73</ele>
   </trkpt>
   <trkpt lat="-37.87024" lon="145.34483">
    <ele>506.30000000000007</ele>
   </trkpt>
   <trkpt lat="-37.87035" lon="145.34482">
    <ele>506.2300000000001</ele>
   </trkpt>
   <trkpt lat="-37.870630000000006" lon="145.34474">
    <ele>507.65999999999997</ele>
   </trkpt>
   <trkpt lat="-37.870830000000005" lon="145.34461000000002">
    <ele>508.37</ele>
   </trkpt>
   <trkpt lat="-37.871140000000004" lon="145.34425000000002">
    <ele>509.01000000000005</ele>
   </trkpt>
   <trkpt lat="-37.87088" lon="145.34415">
    <ele>505.40000000000003</ele>
   </trkpt>
   <trkpt lat="-37.87066" lon="145.34400000000002">
    <ele>500.85</ele>
   </trkpt>
   <trkpt lat="-37.87037" lon="145.34387">
    <ele>494.83000000000004</ele>
   </trkpt>
   <trkpt lat="-37.87026" lon="145.34375">
    <ele>494.25</ele>
   </trkpt>
   <trkpt lat="-37.86997" lon="145.34354000000002">
    <ele>498.11000000000007</ele>
   </trkpt>
   <trkpt lat="-37.86992" lon="145.34348">
    <ele>498.70000000000005</ele>
   </trkpt>
   <trkpt lat="-37.86992" lon="145.34339">
    <ele>499.51000000000005</ele>
   </trkpt>
   <trkpt lat="-37.86914" lon="145.34323">
    <ele>495.19</ele>
   </trkpt>
   <trkpt lat="-37.86891" lon="145.34316">
    <ele>493.63</ele>
   </trkpt>
   <trkpt lat="-37.86838" lon="145.34305">
    <ele>490.61</ele>
   </trkpt>
   <trkpt lat="-37.86766" lon="145.34284000000002">
    <ele>486.07000000000005</ele>
   </trkpt>
   <trkpt lat="-37.86741" lon="145.34287">
    <ele>482.21000000000004</ele>
   </trkpt>
   <trkpt lat="-37.86717" lon="145.34283000000002">
    <ele>479.57000000000005</ele>
   </trkpt>
   <trkpt lat="-37.86663" lon="145.34261">
    <ele>478.36000000000007</ele>
   </trkpt>
   <trkpt lat="-37.86634" lon="145.34241">
    <ele>479.39000000000004</ele>
   </trkpt>
   <trkpt lat="-37.86587" lon="145.34215">
    <ele>480.99</ele>
   </trkpt>
   <trkpt lat="-37.865660000000005" lon="145.34188">
    <ele>482.11</ele>
   </trkpt>
   <trkpt lat="-37.86565" lon="145.34187">
    <ele>482.11</ele>
   </trkpt>
   <trkpt lat="-37.865610000000004" lon="145.34172">
    <ele>482.67</ele>
   </trkpt>
   <trkpt lat="-37.86567" lon="145.3417">
    <ele>482.32</ele>
   </trkpt>
   <trkpt lat="-37.86571" lon="145.34146">
    <ele>481.40000000000003</ele>
   </trkpt>
   <trkpt lat="-37.8658" lon="145.34115">
    <ele>477.92</ele>
   </trkpt>
   <trkpt lat="-37.86590000144569" lon="145.34057000065286">
    <ele>471.85</ele>
   </trkpt>
   <trkpt lat="-37.866" lon="145.33999">
    <ele>468.02000000000004</ele>
   </trkpt>
   <trkpt lat="-37.86612" lon="145.33962000000002">
    <ele>465.28000000000003</ele>
   </trkpt>
   <trkpt lat="-37.86639" lon="145.33861000000002">
    <ele>456.61</ele>
   </trkpt>
   <trkpt lat="-37.86647" lon="145.33834000000002">
    <ele>454.17</ele>
   </trkpt>
   <trkpt lat="-37.86652" lon="145.33824">
    <ele>454.17</ele>
   </trkpt>
   <trkpt lat="-37.86663" lon="145.33813">
    <ele>451.61</ele>
   </trkpt>
   <trkpt lat="-37.8667" lon="145.33810000000003">
    <ele>451.61</ele>
   </trkpt>
   <trkpt lat="-37.86679" lon="145.33809000000002">
    <ele>450.69</ele>
   </trkpt>
   <trkpt lat="-37.867250000000006" lon="145.33818000000002">
    <ele>445.81</ele>
   </trkpt>
   <trkpt lat="-37.86739" lon="145.33831">
    <ele>443.62</ele>
   </trkpt>
   <trkpt lat="-37.86717" lon="145.33795">
    <ele>440.8</ele>
   </trkpt>
   <trkpt lat="-37.86688" lon="145.33713">
    <ele>437.36</ele>
   </trkpt>
   <trkpt lat="-37.86663" lon="145.33656000000002">
    <ele>433.34000000000003</ele>
   </trkpt>
   <trkpt lat="-37.86656" lon="145.33645">
    <ele>435.14000000000004</ele>
   </trkpt>
   <trkpt lat="-37.86652" lon="145.33644">
    <ele>435.14000000000004</ele>
   </trkpt>
   <trkpt lat="-37.866460000000004" lon="145.33633">
    <ele>432.43</ele>
   </trkpt>
   <trkpt lat="-37.86652" lon="145.33644">
    <ele>432.72</ele>
   </trkpt>
   <trkpt lat="-37.866690000000006" lon="145.33556000000002">
    <ele>426.31</ele>
   </trkpt>
   <trkpt lat="-37.86688" lon="145.33481">
    <ele>421.91</ele>
   </trkpt>
   <trkpt lat="-37.86721" lon="145.33406000000002">
    <ele>415.59000000000003</ele>
   </trkpt>
   <trkpt lat="-37.867250000000006" lon="145.33384">
    <ele>414.49</ele>
   </trkpt>
   <trkpt lat="-37.86724" lon="145.33364">
    <ele>412.87</ele>
   </trkpt>
   <trkpt lat="-37.867200000000004" lon="145.33355">
    <ele>412.87</ele>
   </trkpt>
   <trkpt lat="-37.8673" lon="145.33371000000002">
    <ele>411.72</ele>
   </trkpt>
   <trkpt lat="-37.86737" lon="145.33386000000002">
    <ele>410.39000000000004</ele>
   </trkpt>
   <trkpt lat="-37.86741" lon="145.33403">
    <ele>409.18</ele>
   </trkpt>
   <trkpt lat="-37.86744" lon="145.33439">
    <ele>408.01000000000005</ele>
   </trkpt>
   <trkpt lat="-37.86735" lon="145.33496000000002">
    <ele>405.32</ele>
   </trkpt>
   <trkpt lat="-37.86735" lon="145.33513000000002">
    <ele>404.20000000000005</ele>
   </trkpt>
   <trkpt lat="-37.86741" lon="145.33546">
    <ele>403.18</ele>
   </trkpt>
   <trkpt lat="-37.86748" lon="145.33566000000002">
    <ele>401.32</ele>
   </trkpt>
   <trkpt lat="-37.86762" lon="145.33587">
    <ele>400.3</ele>
   </trkpt>
   <trkpt lat="-37.867900000000006" lon="145.33622000000003">
    <ele>399.11</ele>
   </trkpt>
   <trkpt lat="-37.868140000000004" lon="145.33664000000002">
    <ele>398.06</ele>
   </trkpt>
   <trkpt lat="-37.86831" lon="145.3368">
    <ele>397.23</ele>
   </trkpt>
   <trkpt lat="-37.8686" lon="145.33698">
    <ele>396.89</ele>
   </trkpt>
   <trkpt lat="-37.86891" lon="145.33724">
    <ele>399.9200000000001</ele>
   </trkpt>
   <trkpt lat="-37.86905" lon="145.33726000000001">
    <ele>400.08000000000004</ele>
   </trkpt>
   <trkpt lat="-37.86914" lon="145.33722">
    <ele>399.3</ele>
   </trkpt>
   <trkpt lat="-37.86927" lon="145.33711000000002">
    <ele>397.3</ele>
   </trkpt>
   <trkpt lat="-37.86968" lon="145.33686">
    <ele>397.63000000000005</ele>
   </trkpt>
   <trkpt lat="-37.86983" lon="145.33668">
    <ele>396.63000000000005</ele>
   </trkpt>
   <trkpt lat="-37.87001" lon="145.33628000000002">
    <ele>390.18</ele>
   </trkpt>
   <trkpt lat="-37.8701" lon="145.33595000000003">
    <ele>384.55000000000007</ele>
   </trkpt>
   <trkpt lat="-37.87019" lon="145.33630000000002">
    <ele>391.71000000000004</ele>
   </trkpt>
   <trkpt lat="-37.87019" lon="145.3368">
    <ele>404.26</ele>
   </trkpt>
   <trkpt lat="-37.87024" lon="145.33688">
    <ele>406.65</ele>
   </trkpt>
   <trkpt lat="-37.87048" lon="145.33697">
    <ele>410.38</ele>
   </trkpt>
   <trkpt lat="-37.87077" lon="145.33726000000001">
    <ele>417.97</ele>
   </trkpt>
   <trkpt lat="-37.87091" lon="145.33758">
    <ele>422.91</ele>
   </trkpt>
   <trkpt lat="-37.871100000000006" lon="145.33779">
    <ele>426.01000000000005</ele>
   </trkpt>
   <trkpt lat="-37.87118" lon="145.33802">
    <ele>429.02</ele>
   </trkpt>
   <trkpt lat="-37.87118" lon="145.33812">
    <ele>433.98</ele>
   </trkpt>
   <trkpt lat="-37.87113" lon="145.33831">
    <ele>441.19</ele>
   </trkpt>
   <trkpt lat="-37.871" lon="145.33853000000002">
    <ele>444.84000000000003</ele>
   </trkpt>
   <trkpt lat="-37.87091" lon="145.33863000000002">
    <ele>444.84000000000003</ele>
   </trkpt>
   <trkpt lat="-37.87075" lon="145.33874">
    <ele>451.87000000000006</ele>
   </trkpt>
   <trkpt lat="-37.87059" lon="145.33873">
    <ele>453.91</ele>
   </trkpt>
   <trkpt lat="-37.87035" lon="145.33879000000002">
    <ele>459.52000000000004</ele>
   </trkpt>
   <trkpt lat="-37.87026" lon="145.33888000000002">
    <ele>462.43000000000006</ele>
   </trkpt>
   <trkpt lat="-37.87037" lon="145.33894">
    <ele>463.46000000000004</ele>
   </trkpt>
   <trkpt lat="-37.87059" lon="145.33917000000002">
    <ele>464.95000000000005</ele>
   </trkpt>
   <trkpt lat="-37.87082" lon="145.33948">
    <ele>466.6</ele>
   </trkpt>
   <trkpt lat="-37.87106" lon="145.33963">
    <ele>469.91</ele>
   </trkpt>
   <trkpt lat="-37.8712" lon="145.33964">
    <ele>471.13000000000005</ele>
   </trkpt>
   <trkpt lat="-37.871320000000004" lon="145.33969000000002">
    <ele>472.02000000000004</ele>
   </trkpt>
   <trkpt lat="-37.87185" lon="145.33998000000003">
    <ele>477.44</ele>
   </trkpt>
   <trkpt lat="-37.87214" lon="145.34024000000002">
    <ele>479.46000000000004</ele>
   </trkpt>
   <trkpt lat="-37.87263" lon="145.34076000000002">
    <ele>484.74000000000007</ele>
   </trkpt>
   <trkpt lat="-37.87272" lon="145.34083">
    <ele>484.74000000000007</ele>
   </trkpt>
   <trkpt lat="-37.87288" lon="145.3409">
    <ele>485.30000000000007</ele>
   </trkpt>
   <trkpt lat="-37.87315" lon="145.34105000000002">
    <ele>487.26</ele>
   </trkpt>
   <trkpt lat="-37.87375" lon="145.34154">
    <ele>491.6</ele>
   </trkpt>
   <trkpt lat="-37.87406" lon="145.34185000000002">
    <ele>495.59000000000003</ele>
   </trkpt>
   <trkpt lat="-37.8744" lon="145.34218">
    <ele>496.89000000000004</ele>
   </trkpt>
   <trkpt lat="-37.87505" lon="145.34289">
    <ele>502.68</ele>
   </trkpt>
   <trkpt lat="-37.8751" lon="145.34298">
    <ele>501.7900000000001</ele>
   </trkpt>
   <trkpt lat="-37.875280000000004" lon="145.34285">
    <ele>502.02000000000004</ele>
   </trkpt>
   <trkpt lat="-37.875280000000004" lon="145.34284000000002">
    <ele>502.0300000000001</ele>
   </trkpt>
   <trkpt lat="-37.875330000000005" lon="145.34309000000002">
    <ele>502.27</ele>
   </trkpt>
   <trkpt lat="-37.87521000266791" lon="145.34389000156114">
    <ele>508.45000000000005</ele>
   </trkpt>
   <trkpt lat="-37.87509" lon="145.34469">
    <ele>513.4000000000001</ele>
   </trkpt>
   <trkpt lat="-37.87503" lon="145.34495">
    <ele>516.72</ele>
   </trkpt>
   <trkpt lat="-37.87498" lon="145.34508000000002">
    <ele>517.1800000000001</ele>
   </trkpt>
   <trkpt lat="-37.87485" lon="145.3452">
    <ele>518.4100000000001</ele>
   </trkpt>
   <trkpt lat="-37.87413" lon="145.34576">
    <ele>526.2800000000001</ele>
   </trkpt>
   <trkpt lat="-37.87415" lon="145.34579000000002">
    <ele>528.83</ele>
   </trkpt>
   <trkpt lat="-37.87438500149358" lon="145.34636499839908">
    <ele>527.6700000000001</ele>
   </trkpt>
   <trkpt lat="-37.87462" lon="145.34694000000002">
    <ele>525.44</ele>
   </trkpt>
   <trkpt lat="-37.87462" lon="145.34726">
    <ele>525.15</ele>
   </trkpt>
   <trkpt lat="-37.87432000192652" lon="145.34794500292165">
    <ele>525.86</ele>
   </trkpt>
   <trkpt lat="-37.87402" lon="145.34863">
    <ele>524.3</ele>
   </trkpt>
   <trkpt lat="-37.87397" lon="145.34874000000002">
    <ele>523.3800000000001</ele>
   </trkpt>
   <trkpt lat="-37.87397" lon="145.3488">
    <ele>523.3800000000001</ele>
   </trkpt>
   <trkpt lat="-37.87398" lon="145.34883000000002">
    <ele>523.3800000000001</ele>
   </trkpt>
   <trkpt lat="-37.87413" lon="145.34910000000002">
    <ele>522.44</ele>
   </trkpt>
   <trkpt lat="-37.87438" lon="145.34938000000002">
    <ele>522.07</ele>
   </trkpt>
   <trkpt lat="-37.8748" lon="145.34975">
    <ele>522.14</ele>
   </trkpt>
   <trkpt lat="-37.87518" lon="145.35024">
    <ele>519.0400000000001</ele>
   </trkpt>
   <trkpt lat="-37.8755" lon="145.3505">
    <ele>516.5500000000001</ele>
   </trkpt>
   <trkpt lat="-37.87576" lon="145.35083">
    <ele>513.26</ele>
   </trkpt>
   <trkpt lat="-37.87592" lon="145.35115000000002">
    <ele>508.19</ele>
   </trkpt>
   <trkpt lat="-37.87601" lon="145.35145">
    <ele>503.17</ele>
   </trkpt>
   <trkpt lat="-37.87617" lon="145.35166">
    <ele>500.11000000000007</ele>
   </trkpt>
   <trkpt lat="-37.87621" lon="145.35187000000002">
    <ele>499.47</ele>
   </trkpt>
   <trkpt lat="-37.87621" lon="145.35214000000002">
    <ele>494.49</ele>
   </trkpt>
   <trkpt lat="-37.87635" lon="145.35272">
    <ele>487.73</ele>
   </trkpt>
   <trkpt lat="-37.87635" lon="145.35294000000002">
    <ele>485.6</ele>
   </trkpt>
   <trkpt lat="-37.87619" lon="145.35323000000002">
    <ele>484.22</ele>
   </trkpt>
   <trkpt lat="-37.87599" lon="145.35412000000002">
    <ele>474.27000000000004</ele>
   </trkpt>
   <trkpt lat="-37.8761" lon="145.35474000000002">
    <ele>471.65</ele>
   </trkpt>
   <trkpt lat="-37.876180000000005" lon="145.35491000000002">
    <ele>470.29</ele>
   </trkpt>
   <trkpt lat="-37.876290000000004" lon="145.35504">
    <ele>462.72</ele>
   </trkpt>
   <trkpt lat="-37.8763" lon="145.35531">
    <ele>458.69000000000005</ele>
   </trkpt>
   <trkpt lat="-37.87635" lon="145.35549">
    <ele>458.69000000000005</ele>
   </trkpt>
   <trkpt lat="-37.87675" lon="145.35619">
    <ele>456.88000000000005</ele>
   </trkpt>
   <trkpt lat="-37.87693" lon="145.35664">
    <ele>459.1000000000001</ele>
   </trkpt>
   <trkpt lat="-37.87684" lon="145.35664">
    <ele>475.9200000000001</ele>
   </trkpt>
   <trkpt lat="-37.87675" lon="145.35661000000002">
    <ele>475.99</ele>
   </trkpt>
   <trkpt lat="-37.876650000000005" lon="145.35662000000002">
    <ele>476.13000000000005</ele>
   </trkpt>
   <trkpt lat="-37.87646" lon="145.35667">
    <ele>476.68000000000006</ele>
   </trkpt>
   <trkpt lat="-37.8763" lon="145.35674">
    <ele>476.83000000000004</ele>
   </trkpt>
   <trkpt lat="-37.876160000000006" lon="145.35686">
    <ele>476.95000000000005</ele>
   </trkpt>
   <trkpt lat="-37.87595" lon="145.35711">
    <ele>476.65000000000003</ele>
   </trkpt>
   <trkpt lat="-37.87577" lon="145.35754">
    <ele>473.63000000000005</ele>
   </trkpt>
   <trkpt lat="-37.87559" lon="145.35771000000003">
    <ele>470.5</ele>
   </trkpt>
   <trkpt lat="-37.87545" lon="145.35776">
    <ele>469.0</ele>
   </trkpt>
   <trkpt lat="-37.875170000000004" lon="145.35780000000003">
    <ele>467.93</ele>
   </trkpt>
   <trkpt lat="-37.87520000000001" lon="145.35791">
    <ele>467.68</ele>
   </trkpt>
   <trkpt lat="-37.87507" lon="145.35798">
    <ele>465.70000000000005</ele>
   </trkpt>
   <trkpt lat="-37.87534" lon="145.35824000000002">
    <ele>460.37000000000006</ele>
   </trkpt>
   <trkpt lat="-37.87557" lon="145.35859000000002">
    <ele>453.03000000000003</ele>
   </trkpt>
   <trkpt lat="-37.875620000000005" lon="145.35864">
    <ele>452.66</ele>
   </trkpt>
   <trkpt lat="-37.87565" lon="145.35885000000002">
    <ele>449.38000000000005</ele>
   </trkpt>
   <trkpt lat="-37.875600000000006" lon="145.35911000000002">
    <ele>443.88000000000005</ele>
   </trkpt>
   <trkpt lat="-37.875510000000006" lon="145.35925">
    <ele>441.08000000000004</ele>
   </trkpt>
   <trkpt lat="-37.87541" lon="145.35920000000002">
    <ele>438.6</ele>
   </trkpt>
   <trkpt lat="-37.87534" lon="145.35920000000002">
    <ele>438.6</ele>
   </trkpt>
   <trkpt lat="-37.87516" lon="145.35925">
    <ele>435.49</ele>
   </trkpt>
   <trkpt lat="-37.87505" lon="145.35920000000002">
    <ele>434.62000000000006</ele>
   </trkpt>
   <trkpt lat="-37.87498" lon="145.35916">
    <ele>432.39000000000004</ele>
   </trkpt>
   <trkpt lat="-37.87494" lon="145.35916">
    <ele>432.39000000000004</ele>
   </trkpt>
   <trkpt lat="-37.874900000000004" lon="145.35919">
    <ele>432.39000000000004</ele>
   </trkpt>
   <trkpt lat="-37.87492" lon="145.35942">
    <ele>425.48</ele>
   </trkpt>
   <trkpt lat="-37.87487" lon="145.35939000000002">
    <ele>425.72</ele>
   </trkpt>
   <trkpt lat="-37.874770000000005" lon="145.35926">
    <ele>426.28000000000003</ele>
   </trkpt>
   <trkpt lat="-37.87458" lon="145.35937">
    <ele>425.83000000000004</ele>
   </trkpt>
   <trkpt lat="-37.87449" lon="145.35945">
    <ele>422.87</ele>
   </trkpt>
   <trkpt lat="-37.8742" lon="145.35981">
    <ele>413.37</ele>
   </trkpt>
   <trkpt lat="-37.874100000000006" lon="145.3599">
    <ele>413.95000000000005</ele>
   </trkpt>
   <trkpt lat="-37.87402" lon="145.35992000000002">
    <ele>414.0</ele>
   </trkpt>
   <trkpt lat="-37.87393" lon="145.35992000000002">
    <ele>414.01000000000005</ele>
   </trkpt>
   <trkpt lat="-37.87388" lon="145.35995">
    <ele>413.93</ele>
   </trkpt>
   <trkpt lat="-37.87377" lon="145.36033">
    <ele>414.77000000000004</ele>
   </trkpt>
   <trkpt lat="-37.87369" lon="145.36029000000002">
    <ele>414.90000000000003</ele>
   </trkpt>
   <trkpt lat="-37.87366" lon="145.36034">
    <ele>413.82</ele>
   </trkpt>
   <trkpt lat="-37.87368" lon="145.3605">
    <ele>413.23</ele>
   </trkpt>
   <trkpt lat="-37.87366" lon="145.36083000000002">
    <ele>409.52000000000004</ele>
   </trkpt>
   <trkpt lat="-37.87339" lon="145.36094">
    <ele>406.03000000000003</ele>
   </trkpt>
   <trkpt lat="-37.87328" lon="145.36106">
    <ele>402.54</ele>
   </trkpt>
   <trkpt lat="-37.87322" lon="145.36118000000002">
    <ele>401.25000000000006</ele>
   </trkpt>
   <trkpt lat="-37.87322" lon="145.36120000000003">
    <ele>400.99</ele>
   </trkpt>
   <trkpt lat="-37.87292" lon="145.36119000000002">
    <ele>404.12</ele>
   </trkpt>
   <trkpt lat="-37.87243" lon="145.36129000000003">
    <ele>406.79</ele>
   </trkpt>
   <trkpt lat="-37.87234" lon="145.36127000000002">
    <ele>407.87</ele>
   </trkpt>
   <trkpt lat="-37.87221" lon="145.36118000000002">
    <ele>408.78000000000003</ele>
   </trkpt>
   <trkpt lat="-37.87205" lon="145.36114">
    <ele>409.59</ele>
   </trkpt>
   <trkpt lat="-37.87182" lon="145.36126000000002">
    <ele>409.88</ele>
   </trkpt>
   <trkpt lat="-37.871140000000004" lon="145.36123">
    <ele>411.22</ele>
   </trkpt>
   <trkpt lat="-37.87113" lon="145.36122">
    <ele>411.22</ele>
   </trkpt>
   <trkpt lat="-37.87071" lon="145.36105">
    <ele>413.21000000000004</ele>
   </trkpt>
   <trkpt lat="-37.86999" lon="145.36083000000002">
    <ele>415.88</ele>
   </trkpt>
   <trkpt lat="-37.86972" lon="145.36065000000002">
    <ele>416.92</ele>
   </trkpt>
   <trkpt lat="-37.86963" lon="145.36053">
    <ele>417.28000000000003</ele>
   </trkpt>
   <trkpt lat="-37.8695" lon="145.36015">
    <ele>420.47</ele>
   </trkpt>
   <trkpt lat="-37.869220000000006" lon="145.35977000000003">
    <ele>421.36</ele>
   </trkpt>
   <trkpt lat="-37.86887" lon="145.35943">
    <ele>424.04</ele>
   </trkpt>
   <trkpt lat="-37.86871" lon="145.35917">
    <ele>426.12000000000006</ele>
   </trkpt>
   <trkpt lat="-37.8682" lon="145.35908">
    <ele>426.71000000000004</ele>
   </trkpt>
   <trkpt lat="-37.86806" lon="145.35901">
    <ele>427.63</ele>
   </trkpt>
   <trkpt lat="-37.86793" lon="145.35878000000002">
    <ele>428.01000000000005</ele>
   </trkpt>
   <trkpt lat="-37.86773" lon="145.35860000000002">
    <ele>427.64</ele>
   </trkpt>
   <trkpt lat="-37.86768" lon="145.35825">
    <ele>428.57000000000005</ele>
   </trkpt>
   <trkpt lat="-37.86766" lon="145.3582">
    <ele>428.8</ele>
   </trkpt>
   <trkpt lat="-37.86748" lon="145.35804000000002">
    <ele>429.2300000000001</ele>
   </trkpt>
   <trkpt lat="-37.86737" lon="145.35797000000002">
    <ele>429.83000000000004</ele>
   </trkpt>
   <trkpt lat="-37.86728" lon="145.35787000000002">
    <ele>430.49</ele>
   </trkpt>
   <trkpt lat="-37.86715" lon="145.35776">
    <ele>431.83000000000004</ele>
   </trkpt>
   <trkpt lat="-37.86694" lon="145.35745">
    <ele>432.21000000000004</ele>
   </trkpt>
   <trkpt lat="-37.86674" lon="145.35733000000002">
    <ele>433.37</ele>
   </trkpt>
   <trkpt lat="-37.86654" lon="145.35708000000002">
    <ele>436.71000000000004</ele>
   </trkpt>
   <trkpt lat="-37.8665" lon="145.35665">
    <ele>440.46000000000004</ele>
   </trkpt>
   <trkpt lat="-37.86623" lon="145.35623">
    <ele>446.00000000000006</ele>
   </trkpt>
   <trkpt lat="-37.86605" lon="145.35616000000002">
    <ele>434.55</ele>
   </trkpt>
   <trkpt lat="-37.86589" lon="145.35612">
    <ele>430.26000000000005</ele>
   </trkpt>
   <trkpt lat="-37.86589" lon="145.35596">
    <ele>419.82</ele>
   </trkpt>
   <trkpt lat="-37.865930000000006" lon="145.35577">
    <ele>413.12000000000006</ele>
   </trkpt>
   <trkpt lat="-37.86598" lon="145.35567">
    <ele>414.30000000000007</ele>
   </trkpt>
   <trkpt lat="-37.86598" lon="145.35555000000002">
    <ele>414.73</ele>
   </trkpt>
   <trkpt lat="-37.86585" lon="145.3554">
    <ele>416.59000000000003</ele>
   </trkpt>
   <trkpt lat="-37.86547" lon="145.35535000000002">
    <ele>424.32000000000005</ele>
   </trkpt>
   <trkpt lat="-37.8652" lon="145.35519000000002">
    <ele>428.82000000000005</ele>
   </trkpt>
   <trkpt lat="-37.86502" lon="145.35512">
    <ele>435.56000000000006</ele>
   </trkpt>
   <trkpt lat="-37.86486" lon="145.35513">
    <ele>437.61000000000007</ele>
   </trkpt>
   <trkpt lat="-37.8645" lon="145.35506">
    <ele>447.53000000000003</ele>
   </trkpt>
   <trkpt lat="-37.86435" lon="145.35499000000002">
    <ele>454.87000000000006</ele>
   </trkpt>
   <trkpt lat="-37.86415" lon="145.35496">
    <ele>458.82000000000005</ele>
   </trkpt>
   <trkpt lat="-37.863600000000005" lon="145.35494">
    <ele>470.99</ele>
   </trkpt>
   <trkpt lat="-37.86345" lon="145.35489">
    <ele>473.71000000000004</ele>
   </trkpt>
   <trkpt lat="-37.86334" lon="145.35477">
    <ele>475.63000000000005</ele>
   </trkpt>
   <trkpt lat="-37.86316" lon="145.35444">
    <ele>483.78000000000003</ele>
   </trkpt>
   <trkpt lat="-37.862820000000006" lon="145.35372">
    <ele>480.06000000000006</ele>
   </trkpt>
  </trkseg>
 </trk>
</gpx>
