<?xml version="1.0" encoding="UTF-8"?>
<gpx creator="StravaGPX" version="1.1" xmlns="http://www.topografix.com/GPX/1/1" xmlns:xsi="http://www.w3.org/2001/XMLSchema-instance" xsi:schemaLocation="http://www.topografix.com/GPX/1/1 http://www.topografix.com/GPX/1/1/gpx.xsd">
 <metadata>
  <name>DTR SUnday 27 Oct Sassafras</name>
  <author>
   <name>john csorgo</name>
  </author>
  <copyright author="OpenStreetMap contributors">
   <year>2020</year>
   <license>https://www.openstreetmap.org/copyright</license>
  </copyright>
 </metadata>
 <trk>
  <name>DTR SUnday 27 Oct Sassafras</name>
  <link href=""/>
  <type>trail_running</type>
  <trkseg>
   <trkpt lat="-37.862700000000004" lon="145.35336">
    <ele>478.88</ele>
   </trkpt>
   <trkpt lat="-37.86263" lon="145.35319">
    <ele>478.14000000000004</ele>
   </trkpt>
   <trkpt lat="-37.86253" lon="145.35292">
    <ele>476.40000000000003</ele>
   </trkpt>
   <trkpt lat="-37.86253" lon="145.35281">
    <ele>475.41</ele>
   </trkpt>
   <trkpt lat="-37.862590000000004" lon="145.35227">
    <ele>473.31000000000006</ele>
   </trkpt>
   <trkpt lat="-37.86265" lon="145.35228">
    <ele>473.31000000000006</ele>
   </trkpt>
   <trkpt lat="-37.86269" lon="145.35218">
    <ele>473.31000000000006</ele>
   </trkpt>
   <trkpt lat="-37.86271" lon="145.35201">
    <ele>476.65000000000003</ele>
   </trkpt>
   <trkpt lat="-37.86303" lon="145.35168000000002">
    <ele>480.82</ele>
   </trkpt>
   <trkpt lat="-37.863110000000006" lon="145.35169000000002">
    <ele>481.85</ele>
   </trkpt>
   <trkpt lat="-37.8633" lon="145.35153000000003">
    <ele>482.2</ele>
   </trkpt>
   <trkpt lat="-37.863420000000005" lon="145.35147">
    <ele>482.55</ele>
   </trkpt>
   <trkpt lat="-37.8635" lon="145.3513">
    <ele>484.59000000000003</ele>
   </trkpt>
   <trkpt lat="-37.86359" lon="145.35126000000002">
    <ele>486.07000000000005</ele>
   </trkpt>
   <trkpt lat="-37.86368" lon="145.35119">
    <ele>488.79</ele>
   </trkpt>
   <trkpt lat="-37.86379" lon="145.35118">
    <ele>491.97</ele>
   </trkpt>
   <trkpt lat="-37.864050000000006" lon="145.35102">
    <ele>498.94000000000005</ele>
   </trkpt>
   <trkpt lat="-37.8641" lon="145.35089000000002">
    <ele>499.88000000000005</ele>
   </trkpt>
   <trkpt lat="-37.8641" lon="145.35074">
    <ele>501.48</ele>
   </trkpt>
   <trkpt lat="-37.86417" lon="145.35060000000001">
    <ele>503.53000000000003</ele>
   </trkpt>
   <trkpt lat="-37.86448" lon="145.34977">
    <ele>514.37</ele>
   </trkpt>
   <trkpt lat="-37.864695001533185" lon="145.34917000172027">
    <ele>520.5000000000001</ele>
   </trkpt>
   <trkpt lat="-37.86491" lon="145.34857000000002">
    <ele>525.0400000000001</ele>
   </trkpt>
   <trkpt lat="-37.86496" lon="145.34829000000002">
    <ele>526.82</ele>
   </trkpt>
   <trkpt lat="-37.86497" lon="145.34822">
    <ele>526.59</ele>
   </trkpt>
   <trkpt lat="-37.86491" lon="145.34814">
    <ele>524.7900000000001</ele>
   </trkpt>
   <trkpt lat="-37.86484" lon="145.34797">
    <ele>522.2900000000001</ele>
   </trkpt>
   <trkpt lat="-37.864810000000006" lon="145.34757000000002">
    <ele>518.57</ele>
   </trkpt>
   <trkpt lat="-37.86482" lon="145.34718">
    <ele>515.47</ele>
   </trkpt>
   <trkpt lat="-37.86493" lon="145.34701">
    <ele>511.75</ele>
   </trkpt>
   <trkpt lat="-37.865370000000006" lon="145.34673">
    <ele>507.62000000000006</ele>
   </trkpt>
   <trkpt lat="-37.8659" lon="145.34657">
    <ele>502.84000000000003</ele>
   </trkpt>
   <trkpt lat="-37.86589" lon="145.34647">
    <ele>500.16</ele>
   </trkpt>
   <trkpt lat="-37.86598" lon="145.34626">
    <ele>497.28000000000003</ele>
   </trkpt>
   <trkpt lat="-37.866" lon="145.34601">
    <ele>492.72</ele>
   </trkpt>
   <trkpt lat="-37.86589" lon="145.34556">
    <ele>482.23</ele>
   </trkpt>
   <trkpt lat="-37.86594" lon="145.34547">
    <ele>479.62000000000006</ele>
   </trkpt>
   <trkpt lat="-37.865990000000004" lon="145.3454">
    <ele>476.19000000000005</ele>
   </trkpt>
   <trkpt lat="-37.865990000000004" lon="145.34539">
    <ele>475.9200000000001</ele>
   </trkpt>
   <trkpt lat="-37.86621" lon="145.34518">
    <ele>470.94</ele>
   </trkpt>
   <trkpt lat="-37.86697" lon="145.34459">
    <ele>479.41</ele>
   </trkpt>
   <trkpt lat="-37.86741" lon="145.34451">
    <ele>484.57000000000005</ele>
   </trkpt>
   <trkpt lat="-37.86792500001225" lon="145.3444400004904">
    <ele>488.51000000000005</ele>
   </trkpt>
   <trkpt lat="-37.86844" lon="145.34437">
    <ele>491.72</ele>
   </trkpt>
   <trkpt lat="-37.86862" lon="145.34431">
    <ele>492.77000000000004</ele>
   </trkpt>
   <trkpt lat="-37.86889" lon="145.34432">
    <ele>494.3500000000001</ele>
   </trkpt>
   <trkpt lat="-37.86907" lon="145.34435000000002">
    <ele>495.41</ele>
   </trkpt>
   <trkpt lat="-37.86956" lon="145.34455">
    <ele>502.11000000000007</ele>
   </trkpt>
   <trkpt lat="-37.86983" lon="145.34474">
    <ele>505.73</ele>
   </trkpt>
   <trkpt lat="-37.87024" lon="145.34483">
    <ele>506.30000000000007</ele>
   </trkpt>
   <trkpt lat="-37.87035" lon="145.34482">
    <ele>506.2300000000001</ele>
   </trkpt>
   <trkpt lat="-37.870630000000006" lon="145.34474">
    <ele>507.65999999999997</ele>
   </trkpt>
   <trkpt lat="-37.870830000000005" lon="145.34461000000002">
    <ele>508.37</ele>
   </trkpt>
   <trkpt lat="-37.871140000000004" lon="145.34425000000002">
    <ele>509.01000000000005</ele>
   </trkpt>
   <trkpt lat="-37.87088" lon="145.34415">
    <ele>505.40000000000003</ele>
   </trkpt>
   <trkpt lat="-37.87066" lon="145.34400000000002">
    <ele>500.85</ele>
   </trkpt>
   <trkpt lat="-37.87037" lon="145.34387">
    <ele>494.83000000000004</ele>
   </trkpt>
   <trkpt lat="-37.87026" lon="145.34375">
    <ele>494.25</ele>
   </trkpt>
   <trkpt lat="-37.86997" lon="145.34354000000002">
    <ele>498.11000000000007</ele>
   </trkpt>
   <trkpt lat="-37.86992" lon="145.34348">
    <ele>498.70000000000005</ele>
   </trkpt>
   <trkpt lat="-37.86992" lon="145.34339">
    <ele>499.51000000000005</ele>
   </trkpt>
   <trkpt lat="-37.86914" lon="145.34323">
    <ele>495.19</ele>
   </trkpt>
   <trkpt lat="-37.86891" lon="145.34316">
    <ele>493.63</ele>
   </trkpt>
   <trkpt lat="-37.86838" lon="145.34305">
    <ele>490.61</ele>
   </trkpt>
   <trkpt lat="-37.86766" lon="145.34284000000002">
    <ele>486.07000000000005</ele>
   </trkpt>
   <trkpt lat="-37.86741" lon="145.34287">
    <ele>482.21000000000004</ele>
   </trkpt>
   <trkpt lat="-37.86717" lon="145.34283000000002">
    <ele>479.57000000000005</ele>
   </trkpt>
   <trkpt lat="-37.86663" lon="145.34261">
    <ele>478.36000000000007</ele>
   </trkpt>
   <trkpt lat="-37.86634" lon="145.34241">
    <ele>479.39000000000004</ele>
   </trkpt>
   <trkpt lat="-37.86587" lon="145.34215">
    <ele>480.99</ele>
   </trkpt>
   <trkpt lat="-37.865660000000005" lon="145.34188">
    <ele>482.11</ele>
   </trkpt>
   <trkpt lat="-37.86565" lon="145.34187">
    <ele>482.11</ele>
   </trkpt>
   <trkpt lat="-37.865610000000004" lon="145.34172">
    <ele>482.67</ele>
   </trkpt>
   <trkpt lat="-37.86567" lon="145.3417">
    <ele>482.32</ele>
   </trkpt>
   <trkpt lat="-37.86571" lon="145.34146">
    <ele>481.40000000000003</ele>
   </trkpt>
   <trkpt lat="-37.8658" lon="145.34115">
    <ele>477.92</ele>
   </trkpt>
   <trkpt lat="-37.86590000144569" lon="145.34057000065286">
    <ele>471.85</ele>
   </trkpt>
   <trkpt lat="-37.866" lon="145.33999">
    <ele>468.02000000000004</ele>
   </trkpt>
   <trkpt lat="-37.86612" lon="145.33962000000002">
    <ele>465.28000000000003</ele>
   </trkpt>
   <trkpt lat="-37.86639" lon="145.33861000000002">
    <ele>456.61</ele>
   </trkpt>
   <trkpt lat="-37.86647" lon="145.33834000000002">
    <ele>454.17</ele>
   </trkpt>
   <trkpt lat="-37.86652" lon="145.33824">
    <ele>454.17</ele>
   </trkpt>
   <trkpt lat="-37.86663" lon="145.33813">
    <ele>451.61</ele>
   </trkpt>
   <trkpt lat="-37.8667" lon="145.33810000000003">
    <ele>451.61</ele>
   </trkpt>
   <trkpt lat="-37.86679" lon="145.33809000000002">
    <ele>450.69</ele>
   </trkpt>
   <trkpt lat="-37.867250000000006" lon="145.33818000000002">
    <ele>445.81</ele>
   </trkpt>
   <trkpt lat="-37.86739" lon="145.33831">
    <ele>443.62</ele>
   </trkpt>
   <trkpt lat="-37.86717" lon="145.33795">
    <ele>441.69</ele>
   </trkpt>
   <trkpt lat="-37.86688" lon="145.33713">
    <ele>437.36</ele>
   </trkpt>
   <trkpt lat="-37.86663" lon="145.33656000000002">
    <ele>433.34000000000003</ele>
   </trkpt>
   <trkpt lat="-37.86656" lon="145.33645">
    <ele>432.72</ele>
   </trkpt>
   <trkpt lat="-37.86652" lon="145.33644">
    <ele>432.72</ele>
   </trkpt>
   <trkpt lat="-37.866690000000006" lon="145.33556000000002">
    <ele>426.31</ele>
   </trkpt>
   <trkpt lat="-37.86688" lon="145.33481">
    <ele>421.91</ele>
   </trkpt>
   <trkpt lat="-37.86721" lon="145.33406000000002">
    <ele>416.03000000000003</ele>
   </trkpt>
   <trkpt lat="-37.867250000000006" lon="145.33384">
    <ele>414.49</ele>
   </trkpt>
   <trkpt lat="-37.86724" lon="145.33364">
    <ele>413.56</ele>
   </trkpt>
   <trkpt lat="-37.867200000000004" lon="145.33355">
    <ele>412.87</ele>
   </trkpt>
   <trkpt lat="-37.8673" lon="145.33371000000002">
    <ele>411.72</ele>
   </trkpt>
   <trkpt lat="-37.86737" lon="145.33386000000002">
    <ele>410.39000000000004</ele>
   </trkpt>
   <trkpt lat="-37.86741" lon="145.33403">
    <ele>409.18</ele>
   </trkpt>
   <trkpt lat="-37.86744" lon="145.33439">
    <ele>408.01000000000005</ele>
   </trkpt>
   <trkpt lat="-37.86735" lon="145.33496000000002">
    <ele>405.32</ele>
   </trkpt>
   <trkpt lat="-37.86735" lon="145.33513000000002">
    <ele>404.20000000000005</ele>
   </trkpt>
   <trkpt lat="-37.86741" lon="145.33546">
    <ele>403.18</ele>
   </trkpt>
   <trkpt lat="-37.86748" lon="145.33566000000002">
    <ele>401.32</ele>
   </trkpt>
   <trkpt lat="-37.86762" lon="145.33587">
    <ele>400.3</ele>
   </trkpt>
   <trkpt lat="-37.867900000000006" lon="145.33622000000003">
    <ele>399.11</ele>
   </trkpt>
   <trkpt lat="-37.86813" lon="145.33664000000002">
    <ele>398.25000000000006</ele>
   </trkpt>
   <trkpt lat="-37.86831" lon="145.3368">
    <ele>397.23</ele>
   </trkpt>
   <trkpt lat="-37.8686" lon="145.33698">
    <ele>396.89</ele>
   </trkpt>
   <trkpt lat="-37.86891" lon="145.33724">
    <ele>399.9200000000001</ele>
   </trkpt>
   <trkpt lat="-37.869060000000005" lon="145.33725">
    <ele>399.91</ele>
   </trkpt>
   <trkpt lat="-37.86914" lon="145.33722">
    <ele>399.3</ele>
   </trkpt>
   <trkpt lat="-37.86927" lon="145.33711000000002">
    <ele>397.3</ele>
   </trkpt>
   <trkpt lat="-37.86968" lon="145.33686">
    <ele>397.63000000000005</ele>
   </trkpt>
   <trkpt lat="-37.86983" lon="145.33668">
    <ele>396.63000000000005</ele>
   </trkpt>
   <trkpt lat="-37.87001" lon="145.33628000000002">
    <ele>390.18</ele>
   </trkpt>
   <trkpt lat="-37.8701" lon="145.33595000000003">
    <ele>384.55000000000007</ele>
   </trkpt>
   <trkpt lat="-37.87035" lon="145.3356">
    <ele>378.12</ele>
   </trkpt>
   <trkpt lat="-37.87055" lon="145.33518">
    <ele>366.57</ele>
   </trkpt>
   <trkpt lat="-37.870450000000005" lon="145.33465">
    <ele>356.37</ele>
   </trkpt>
   <trkpt lat="-37.87066" lon="145.33478000000002">
    <ele>357.79</ele>
   </trkpt>
   <trkpt lat="-37.87075" lon="145.33478000000002">
    <ele>358.52</ele>
   </trkpt>
   <trkpt lat="-37.870810000000006" lon="145.3347">
    <ele>358.52</ele>
   </trkpt>
   <trkpt lat="-37.870810000000006" lon="145.33446">
    <ele>360.73</ele>
   </trkpt>
   <trkpt lat="-37.87075" lon="145.33419">
    <ele>362.1</ele>
   </trkpt>
   <trkpt lat="-37.87082" lon="145.33339">
    <ele>367.27000000000004</ele>
   </trkpt>
   <trkpt lat="-37.87091" lon="145.33315000000002">
    <ele>368.82000000000005</ele>
   </trkpt>
   <trkpt lat="-37.87102" lon="145.33292">
    <ele>368.96</ele>
   </trkpt>
   <trkpt lat="-37.87113" lon="145.33284">
    <ele>368.77000000000004</ele>
   </trkpt>
   <trkpt lat="-37.871280000000006" lon="145.33282">
    <ele>369.07</ele>
   </trkpt>
   <trkpt lat="-37.87167" lon="145.33290000000002">
    <ele>373.06000000000006</ele>
   </trkpt>
   <trkpt lat="-37.87207" lon="145.33307000000002">
    <ele>377.98</ele>
   </trkpt>
   <trkpt lat="-37.87238" lon="145.33305000000001">
    <ele>382.44000000000005</ele>
   </trkpt>
   <trkpt lat="-37.87268" lon="145.33283">
    <ele>384.35</ele>
   </trkpt>
   <trkpt lat="-37.872890000000005" lon="145.3325">
    <ele>385.67</ele>
   </trkpt>
   <trkpt lat="-37.87301" lon="145.33226000000002">
    <ele>385.82000000000005</ele>
   </trkpt>
   <trkpt lat="-37.87301" lon="145.33225000000002">
    <ele>385.82000000000005</ele>
   </trkpt>
   <trkpt lat="-37.87301" lon="145.33218000000002">
    <ele>385.86</ele>
   </trkpt>
   <trkpt lat="-37.87297" lon="145.33206">
    <ele>386.45</ele>
   </trkpt>
   <trkpt lat="-37.87279" lon="145.33183000000002">
    <ele>388.83</ele>
   </trkpt>
   <trkpt lat="-37.87263" lon="145.33171000000002">
    <ele>390.25000000000006</ele>
   </trkpt>
   <trkpt lat="-37.87236" lon="145.33138000000002">
    <ele>391.39</ele>
   </trkpt>
   <trkpt lat="-37.87225" lon="145.33113">
    <ele>392.3</ele>
   </trkpt>
   <trkpt lat="-37.87223" lon="145.3309">
    <ele>393.75000000000006</ele>
   </trkpt>
   <trkpt lat="-37.87221" lon="145.33038000000002">
    <ele>396.05</ele>
   </trkpt>
   <trkpt lat="-37.87223" lon="145.33017">
    <ele>397.91</ele>
   </trkpt>
   <trkpt lat="-37.872260000000004" lon="145.33005">
    <ele>399.14000000000004</ele>
   </trkpt>
   <trkpt lat="-37.87227" lon="145.33004000000003">
    <ele>399.18</ele>
   </trkpt>
   <trkpt lat="-37.8725" lon="145.32989">
    <ele>403.93</ele>
   </trkpt>
   <trkpt lat="-37.87292" lon="145.32993000000002">
    <ele>409.07000000000005</ele>
   </trkpt>
   <trkpt lat="-37.87341" lon="145.33013000000003">
    <ele>414.36000000000007</ele>
   </trkpt>
   <trkpt lat="-37.87384" lon="145.33040000000003">
    <ele>419.89000000000004</ele>
   </trkpt>
   <trkpt lat="-37.87397" lon="145.33055000000002">
    <ele>422.2</ele>
   </trkpt>
   <trkpt lat="-37.87415" lon="145.33067">
    <ele>424.45000000000005</ele>
   </trkpt>
   <trkpt lat="-37.87444" lon="145.33082000000002">
    <ele>429.50000000000006</ele>
   </trkpt>
   <trkpt lat="-37.87465" lon="145.33086">
    <ele>432.33000000000004</ele>
   </trkpt>
   <trkpt lat="-37.875" lon="145.33088">
    <ele>435.41</ele>
   </trkpt>
   <trkpt lat="-37.875400000000006" lon="145.33097">
    <ele>440.29</ele>
   </trkpt>
   <trkpt lat="-37.87514" lon="145.33068">
    <ele>440.4</ele>
   </trkpt>
   <trkpt lat="-37.87491" lon="145.33029000000002">
    <ele>440.46000000000004</ele>
   </trkpt>
   <trkpt lat="-37.8748" lon="145.32998">
    <ele>440.43</ele>
   </trkpt>
   <trkpt lat="-37.87469" lon="145.32956000000001">
    <ele>441.37</ele>
   </trkpt>
   <trkpt lat="-37.87456" lon="145.32923000000002">
    <ele>443.28000000000003</ele>
   </trkpt>
   <trkpt lat="-37.87442" lon="145.32874">
    <ele>453.98</ele>
   </trkpt>
   <trkpt lat="-37.87411" lon="145.32827">
    <ele>466.90000000000003</ele>
   </trkpt>
   <trkpt lat="-37.873960000000004" lon="145.32809">
    <ele>475.0</ele>
   </trkpt>
   <trkpt lat="-37.874100000000006" lon="145.32791">
    <ele>478.47</ele>
   </trkpt>
   <trkpt lat="-37.874370000000006" lon="145.32761000000002">
    <ele>489.14</ele>
   </trkpt>
   <trkpt lat="-37.87436" lon="145.32762000000002">
    <ele>489.14</ele>
   </trkpt>
   <trkpt lat="-37.87465" lon="145.32746">
    <ele>502.78</ele>
   </trkpt>
   <trkpt lat="-37.87489" lon="145.32745">
    <ele>510.43000000000006</ele>
   </trkpt>
   <trkpt lat="-37.87514" lon="145.32764">
    <ele>513.5300000000001</ele>
   </trkpt>
   <trkpt lat="-37.875585003155344" lon="145.3285049947572">
    <ele>512.8900000000001</ele>
   </trkpt>
   <trkpt lat="-37.87603" lon="145.32937">
    <ele>505.94000000000005</ele>
   </trkpt>
   <trkpt lat="-37.87633000079953" lon="145.3298149981314">
    <ele>503.69000000000005</ele>
   </trkpt>
   <trkpt lat="-37.876630000000006" lon="145.33026">
    <ele>499.55</ele>
   </trkpt>
   <trkpt lat="-37.87688" lon="145.33048000000002">
    <ele>498.92</ele>
   </trkpt>
   <trkpt lat="-37.877010000000006" lon="145.33071">
    <ele>501.29</ele>
   </trkpt>
   <trkpt lat="-37.87684" lon="145.33137000000002">
    <ele>504.28000000000003</ele>
   </trkpt>
   <trkpt lat="-37.87659" lon="145.33210000000003">
    <ele>504.97</ele>
   </trkpt>
   <trkpt lat="-37.87648" lon="145.33221">
    <ele>504.19</ele>
   </trkpt>
   <trkpt lat="-37.87608" lon="145.33303">
    <ele>510.46000000000004</ele>
   </trkpt>
   <trkpt lat="-37.87623" lon="145.33316000000002">
    <ele>511.26000000000005</ele>
   </trkpt>
   <trkpt lat="-37.87624" lon="145.33317000000002">
    <ele>511.33000000000004</ele>
   </trkpt>
   <trkpt lat="-37.87673" lon="145.33292">
    <ele>512.5600000000001</ele>
   </trkpt>
   <trkpt lat="-37.87723333648398" lon="145.33230667508676">
    <ele>515.96</ele>
   </trkpt>
   <trkpt lat="-37.87773666978619" lon="145.3316933417915">
    <ele>520.51</ele>
   </trkpt>
   <trkpt lat="-37.878240000000005" lon="145.33108000000001">
    <ele>527.5000000000001</ele>
   </trkpt>
   <trkpt lat="-37.8788100022511" lon="145.33035000565263">
    <ele>534.5300000000001</ele>
   </trkpt>
   <trkpt lat="-37.879380000000005" lon="145.32962">
    <ele>536.15</ele>
   </trkpt>
   <trkpt lat="-37.879450000000006" lon="145.32978">
    <ele>536.64</ele>
   </trkpt>
   <trkpt lat="-37.87961" lon="145.33077">
    <ele>540.8900000000001</ele>
   </trkpt>
   <trkpt lat="-37.87971" lon="145.33158">
    <ele>544.4</ele>
   </trkpt>
   <trkpt lat="-37.87987500503971" lon="145.3326699976568">
    <ele>548.62</ele>
   </trkpt>
   <trkpt lat="-37.88004" lon="145.33376">
    <ele>552.6000000000001</ele>
   </trkpt>
   <trkpt lat="-37.88015" lon="145.33479">
    <ele>551.0400000000001</ele>
   </trkpt>
   <trkpt lat="-37.880120003317" lon="145.33567500022653">
    <ele>549.73</ele>
   </trkpt>
   <trkpt lat="-37.88009" lon="145.33656000000002">
    <ele>548.12</ele>
   </trkpt>
   <trkpt lat="-37.88002" lon="145.33702000000002">
    <ele>546.03</ele>
   </trkpt>
   <trkpt lat="-37.87997" lon="145.33716">
    <ele>545.27</ele>
   </trkpt>
   <trkpt lat="-37.87984" lon="145.33738000000002">
    <ele>543.72</ele>
   </trkpt>
   <trkpt lat="-37.87917" lon="145.33810000000003">
    <ele>536.19</ele>
   </trkpt>
   <trkpt lat="-37.87883" lon="145.33852000000002">
    <ele>533.2800000000001</ele>
   </trkpt>
   <trkpt lat="-37.87836" lon="145.33925000000002">
    <ele>524.46</ele>
   </trkpt>
   <trkpt lat="-37.87806000125196" lon="145.3398000022903">
    <ele>521.11</ele>
   </trkpt>
   <trkpt lat="-37.87776" lon="145.34035">
    <ele>517.25</ele>
   </trkpt>
   <trkpt lat="-37.87743500096775" lon="145.34086000245776">
    <ele>514.82</ele>
   </trkpt>
   <trkpt lat="-37.87711" lon="145.34137">
    <ele>509.75</ele>
   </trkpt>
   <trkpt lat="-37.877010000000006" lon="145.34152">
    <ele>509.75</ele>
   </trkpt>
   <trkpt lat="-37.876520000664314" lon="145.3418900023968">
    <ele>505.36</ele>
   </trkpt>
   <trkpt lat="-37.87603" lon="145.34226">
    <ele>501.26000000000005</ele>
   </trkpt>
   <trkpt lat="-37.876000000000005" lon="145.34233">
    <ele>501.26000000000005</ele>
   </trkpt>
   <trkpt lat="-37.875980000000006" lon="145.34243">
    <ele>501.26000000000005</ele>
   </trkpt>
   <trkpt lat="-37.87581" lon="145.34248000000002">
    <ele>501.17</ele>
   </trkpt>
   <trkpt lat="-37.875350000000005" lon="145.3428">
    <ele>501.9</ele>
   </trkpt>
   <trkpt lat="-37.875370000000004" lon="145.34295">
    <ele>502.1500000000001</ele>
   </trkpt>
   <trkpt lat="-37.875510000000006" lon="145.34301000000002">
    <ele>505.19</ele>
   </trkpt>
   <trkpt lat="-37.87574" lon="145.34297">
    <ele>512.57</ele>
   </trkpt>
   <trkpt lat="-37.87585" lon="145.34284000000002">
    <ele>511.94000000000005</ele>
   </trkpt>
   <trkpt lat="-37.87599" lon="145.34278">
    <ele>511.70000000000005</ele>
   </trkpt>
   <trkpt lat="-37.8763" lon="145.34273000000002">
    <ele>510.61</ele>
   </trkpt>
   <trkpt lat="-37.87688" lon="145.3428">
    <ele>508.4700000000001</ele>
   </trkpt>
   <trkpt lat="-37.87722" lon="145.34272">
    <ele>509.0800000000001</ele>
   </trkpt>
   <trkpt lat="-37.87778" lon="145.34271">
    <ele>507.55000000000007</ele>
   </trkpt>
   <trkpt lat="-37.87791" lon="145.34269">
    <ele>507.18000000000006</ele>
   </trkpt>
   <trkpt lat="-37.87807" lon="145.34255000000002">
    <ele>507.68</ele>
   </trkpt>
   <trkpt lat="-37.87832" lon="145.34217">
    <ele>509.18000000000006</ele>
   </trkpt>
   <trkpt lat="-37.87847" lon="145.34209">
    <ele>507.25000000000006</ele>
   </trkpt>
   <trkpt lat="-37.87858000000001" lon="145.34213000000003">
    <ele>505.50000000000006</ele>
   </trkpt>
   <trkpt lat="-37.87857" lon="145.34212000000002">
    <ele>505.50000000000006</ele>
   </trkpt>
   <trkpt lat="-37.8787" lon="145.34225">
    <ele>503.61</ele>
   </trkpt>
   <trkpt lat="-37.87874" lon="145.34236">
    <ele>499.34000000000003</ele>
   </trkpt>
   <trkpt lat="-37.878690000000006" lon="145.34248000000002">
    <ele>497.33000000000004</ele>
   </trkpt>
   <trkpt lat="-37.87865" lon="145.34264000000002">
    <ele>495.03000000000003</ele>
   </trkpt>
   <trkpt lat="-37.87865" lon="145.34273000000002">
    <ele>493.69</ele>
   </trkpt>
   <trkpt lat="-37.87877" lon="145.34292000000002">
    <ele>493.77000000000004</ele>
   </trkpt>
   <trkpt lat="-37.87892" lon="145.34343">
    <ele>498.69</ele>
   </trkpt>
   <trkpt lat="-37.879070000000006" lon="145.34405">
    <ele>501.6400000000001</ele>
   </trkpt>
   <trkpt lat="-37.87919" lon="145.34452000000002">
    <ele>502.92999999999995</ele>
   </trkpt>
   <trkpt lat="-37.87944" lon="145.34486">
    <ele>505.01000000000005</ele>
   </trkpt>
   <trkpt lat="-37.87973" lon="145.34534000000002">
    <ele>503.33000000000004</ele>
   </trkpt>
   <trkpt lat="-37.88007500116351" lon="145.34583999781185">
    <ele>500.19</ele>
   </trkpt>
   <trkpt lat="-37.88042" lon="145.34634">
    <ele>497.42</ele>
   </trkpt>
   <trkpt lat="-37.88067" lon="145.34663">
    <ele>496.25</ele>
   </trkpt>
   <trkpt lat="-37.880860000000006" lon="145.34682">
    <ele>495.41</ele>
   </trkpt>
   <trkpt lat="-37.88105" lon="145.34695000000002">
    <ele>494.65000000000003</ele>
   </trkpt>
   <trkpt lat="-37.88154" lon="145.34723000000002">
    <ele>492.32000000000005</ele>
   </trkpt>
   <trkpt lat="-37.88167" lon="145.34744">
    <ele>491.65000000000003</ele>
   </trkpt>
   <trkpt lat="-37.88201" lon="145.34819000000002">
    <ele>485.28000000000003</ele>
   </trkpt>
   <trkpt lat="-37.88226" lon="145.34839000000002">
    <ele>484.22</ele>
   </trkpt>
   <trkpt lat="-37.88255" lon="145.34856000000002">
    <ele>483.55</ele>
   </trkpt>
   <trkpt lat="-37.88302" lon="145.3487">
    <ele>483.6</ele>
   </trkpt>
   <trkpt lat="-37.88311" lon="145.34876">
    <ele>483.59000000000003</ele>
   </trkpt>
   <trkpt lat="-37.8836" lon="145.34926000000002">
    <ele>482.41</ele>
   </trkpt>
   <trkpt lat="-37.88405" lon="145.34945000000002">
    <ele>481.62000000000006</ele>
   </trkpt>
   <trkpt lat="-37.88436" lon="145.34969">
    <ele>480.67</ele>
   </trkpt>
   <trkpt lat="-37.88456" lon="145.35004">
    <ele>478.43</ele>
   </trkpt>
   <trkpt lat="-37.88461" lon="145.35017000000002">
    <ele>477.23</ele>
   </trkpt>
   <trkpt lat="-37.884640000000005" lon="145.35035000000002">
    <ele>476.13000000000005</ele>
   </trkpt>
   <trkpt lat="-37.88461" lon="145.35046">
    <ele>475.33000000000004</ele>
   </trkpt>
   <trkpt lat="-37.88461" lon="145.35066">
    <ele>473.69000000000005</ele>
   </trkpt>
   <trkpt lat="-37.884730000000005" lon="145.35098000000002">
    <ele>473.12</ele>
   </trkpt>
   <trkpt lat="-37.8853" lon="145.3514">
    <ele>474.81000000000006</ele>
   </trkpt>
   <trkpt lat="-37.88552" lon="145.35153000000003">
    <ele>474.35</ele>
   </trkpt>
   <trkpt lat="-37.886070000000004" lon="145.35163">
    <ele>471.39000000000004</ele>
   </trkpt>
   <trkpt lat="-37.88615" lon="145.35176">
    <ele>470.40000000000003</ele>
   </trkpt>
   <trkpt lat="-37.88606" lon="145.35204000000002">
    <ele>474.30000000000007</ele>
   </trkpt>
   <trkpt lat="-37.88588" lon="145.35242000000002">
    <ele>479.51000000000005</ele>
   </trkpt>
   <trkpt lat="-37.88555" lon="145.35296000000002">
    <ele>485.22</ele>
   </trkpt>
   <trkpt lat="-37.88544" lon="145.35307">
    <ele>486.67</ele>
   </trkpt>
   <trkpt lat="-37.88508" lon="145.35324">
    <ele>490.42</ele>
   </trkpt>
   <trkpt lat="-37.88497" lon="145.35328">
    <ele>491.28000000000003</ele>
   </trkpt>
   <trkpt lat="-37.88434" lon="145.35368000000003">
    <ele>492.97</ele>
   </trkpt>
   <trkpt lat="-37.88423" lon="145.35381">
    <ele>492.24000000000007</ele>
   </trkpt>
   <trkpt lat="-37.88371" lon="145.35464000000002">
    <ele>486.49</ele>
   </trkpt>
   <trkpt lat="-37.88351" lon="145.35512">
    <ele>487.35</ele>
   </trkpt>
   <trkpt lat="-37.88351" lon="145.3553">
    <ele>487.72</ele>
   </trkpt>
   <trkpt lat="-37.8838" lon="145.35575">
    <ele>488.58</ele>
   </trkpt>
   <trkpt lat="-37.88387" lon="145.35593">
    <ele>489.42</ele>
   </trkpt>
   <trkpt lat="-37.88391" lon="145.35613">
    <ele>490.71000000000004</ele>
   </trkpt>
   <trkpt lat="-37.88391" lon="145.35645000000002">
    <ele>493.04</ele>
   </trkpt>
   <trkpt lat="-37.88389" lon="145.35675">
    <ele>494.7300000000001</ele>
   </trkpt>
   <trkpt lat="-37.883790000000005" lon="145.35717000000002">
    <ele>496.1</ele>
   </trkpt>
   <trkpt lat="-37.8838" lon="145.35755">
    <ele>497.32000000000005</ele>
   </trkpt>
   <trkpt lat="-37.88382" lon="145.35777000000002">
    <ele>497.85</ele>
   </trkpt>
   <trkpt lat="-37.884" lon="145.35808">
    <ele>500.6</ele>
   </trkpt>
   <trkpt lat="-37.88402" lon="145.35827">
    <ele>501.09999999999997</ele>
   </trkpt>
   <trkpt lat="-37.88407" lon="145.35852">
    <ele>501.07</ele>
   </trkpt>
   <trkpt lat="-37.88391" lon="145.35863">
    <ele>499.19</ele>
   </trkpt>
   <trkpt lat="-37.88371" lon="145.35887000000002">
    <ele>496.20000000000005</ele>
   </trkpt>
   <trkpt lat="-37.88347" lon="145.35923000000003">
    <ele>491.84000000000003</ele>
   </trkpt>
   <trkpt lat="-37.88297" lon="145.35958000000002">
    <ele>486.95000000000005</ele>
   </trkpt>
   <trkpt lat="-37.88241" lon="145.35985000000002">
    <ele>482.01000000000005</ele>
   </trkpt>
   <trkpt lat="-37.88165" lon="145.36001000000002">
    <ele>477.35</ele>
   </trkpt>
   <trkpt lat="-37.881190000000004" lon="145.35993000000002">
    <ele>475.52000000000004</ele>
   </trkpt>
   <trkpt lat="-37.88118" lon="145.35992000000002">
    <ele>475.52000000000004</ele>
   </trkpt>
   <trkpt lat="-37.881060000000005" lon="145.35987">
    <ele>475.09</ele>
   </trkpt>
   <trkpt lat="-37.88055000000001" lon="145.35955">
    <ele>474.81000000000006</ele>
   </trkpt>
   <trkpt lat="-37.87982" lon="145.35903000000002">
    <ele>464.52000000000004</ele>
   </trkpt>
   <trkpt lat="-37.87946" lon="145.35884000000001">
    <ele>465.65000000000003</ele>
   </trkpt>
   <trkpt lat="-37.87874" lon="145.35855">
    <ele>469.13000000000005</ele>
   </trkpt>
   <trkpt lat="-37.87811000044398" lon="145.35820499701668">
    <ele>467.14000000000004</ele>
   </trkpt>
   <trkpt lat="-37.877480000000006" lon="145.35786000000002">
    <ele>464.1</ele>
   </trkpt>
   <trkpt lat="-37.87742" lon="145.35779000000002">
    <ele>464.1</ele>
   </trkpt>
   <trkpt lat="-37.87729" lon="145.35749">
    <ele>462.27</ele>
   </trkpt>
   <trkpt lat="-37.87693" lon="145.35664">
    <ele>459.1000000000001</ele>
   </trkpt>
   <trkpt lat="-37.87684" lon="145.35664">
    <ele>475.9200000000001</ele>
   </trkpt>
   <trkpt lat="-37.87675" lon="145.35661000000002">
    <ele>475.99</ele>
   </trkpt>
   <trkpt lat="-37.876650000000005" lon="145.35662000000002">
    <ele>476.13000000000005</ele>
   </trkpt>
   <trkpt lat="-37.87646" lon="145.35667">
    <ele>476.68000000000006</ele>
   </trkpt>
   <trkpt lat="-37.8763" lon="145.35674">
    <ele>476.83000000000004</ele>
   </trkpt>
   <trkpt lat="-37.876160000000006" lon="145.35686">
    <ele>476.95000000000005</ele>
   </trkpt>
   <trkpt lat="-37.87595" lon="145.35711">
    <ele>476.65000000000003</ele>
   </trkpt>
   <trkpt lat="-37.87577" lon="145.35754">
    <ele>473.63000000000005</ele>
   </trkpt>
   <trkpt lat="-37.87559" lon="145.35771000000003">
    <ele>470.5</ele>
   </trkpt>
   <trkpt lat="-37.87545" lon="145.35776">
    <ele>469.0</ele>
   </trkpt>
   <trkpt lat="-37.87489" lon="145.35784">
    <ele>464.89000000000004</ele>
   </trkpt>
   <trkpt lat="-37.87473" lon="145.35783">
    <ele>464.0400000000001</ele>
   </trkpt>
   <trkpt lat="-37.87435" lon="145.35784">
    <ele>461.56</ele>
   </trkpt>
   <trkpt lat="-37.87413" lon="145.35781">
    <ele>459.79</ele>
   </trkpt>
   <trkpt lat="-37.87379" lon="145.35763">
    <ele>457.95</ele>
   </trkpt>
   <trkpt lat="-37.87353" lon="145.35718">
    <ele>454.70000000000005</ele>
   </trkpt>
   <trkpt lat="-37.87339" lon="145.35647">
    <ele>452.25000000000006</ele>
   </trkpt>
   <trkpt lat="-37.873310000000004" lon="145.35644000000002">
    <ele>451.88000000000005</ele>
   </trkpt>
   <trkpt lat="-37.87328" lon="145.3565">
    <ele>451.86</ele>
   </trkpt>
   <trkpt lat="-37.87341" lon="145.357">
    <ele>449.41</ele>
   </trkpt>
   <trkpt lat="-37.87341" lon="145.3574">
    <ele>447.1</ele>
   </trkpt>
   <trkpt lat="-37.87346" lon="145.35765">
    <ele>445.48</ele>
   </trkpt>
   <trkpt lat="-37.87357" lon="145.35787000000002">
    <ele>442.44000000000005</ele>
   </trkpt>
   <trkpt lat="-37.873630000000006" lon="145.35801">
    <ele>442.44000000000005</ele>
   </trkpt>
   <trkpt lat="-37.87373" lon="145.3582">
    <ele>440.43</ele>
   </trkpt>
   <trkpt lat="-37.87402" lon="145.35849000000002">
    <ele>436.94000000000005</ele>
   </trkpt>
   <trkpt lat="-37.87433" lon="145.35864">
    <ele>433.84000000000003</ele>
   </trkpt>
   <trkpt lat="-37.87447" lon="145.35877000000002">
    <ele>431.83000000000004</ele>
   </trkpt>
   <trkpt lat="-37.874770000000005" lon="145.35926">
    <ele>426.28000000000003</ele>
   </trkpt>
   <trkpt lat="-37.87487" lon="145.35939000000002">
    <ele>425.72</ele>
   </trkpt>
   <trkpt lat="-37.87496" lon="145.35946">
    <ele>425.48</ele>
   </trkpt>
   <trkpt lat="-37.875130000000006" lon="145.35951">
    <ele>422.89000000000004</ele>
   </trkpt>
   <trkpt lat="-37.87521" lon="145.35967000000002">
    <ele>422.11</ele>
   </trkpt>
   <trkpt lat="-37.87516" lon="145.35986000000003">
    <ele>420.73</ele>
   </trkpt>
   <trkpt lat="-37.87494" lon="145.36006">
    <ele>419.67</ele>
   </trkpt>
   <trkpt lat="-37.87456" lon="145.36044">
    <ele>408.13000000000005</ele>
   </trkpt>
   <trkpt lat="-37.87406" lon="145.36083000000002">
    <ele>402.11</ele>
   </trkpt>
   <trkpt lat="-37.87391" lon="145.36107">
    <ele>399.69000000000005</ele>
   </trkpt>
   <trkpt lat="-37.873720000000006" lon="145.36151">
    <ele>397.32</ele>
   </trkpt>
   <trkpt lat="-37.87377" lon="145.36195">
    <ele>393.28000000000003</ele>
   </trkpt>
   <trkpt lat="-37.87377" lon="145.36196">
    <ele>393.14000000000004</ele>
   </trkpt>
   <trkpt lat="-37.87357" lon="145.36148">
    <ele>395.03000000000003</ele>
   </trkpt>
   <trkpt lat="-37.87339" lon="145.36129000000003">
    <ele>397.72</ele>
   </trkpt>
   <trkpt lat="-37.87326" lon="145.36121">
    <ele>400.99</ele>
   </trkpt>
   <trkpt lat="-37.87292" lon="145.36119000000002">
    <ele>404.12</ele>
   </trkpt>
   <trkpt lat="-37.87243" lon="145.36129000000003">
    <ele>406.79</ele>
   </trkpt>
   <trkpt lat="-37.87234" lon="145.36127000000002">
    <ele>407.87</ele>
   </trkpt>
   <trkpt lat="-37.87221" lon="145.36118000000002">
    <ele>408.78000000000003</ele>
   </trkpt>
   <trkpt lat="-37.87205" lon="145.36114">
    <ele>409.59</ele>
   </trkpt>
   <trkpt lat="-37.87182" lon="145.36126000000002">
    <ele>409.88</ele>
   </trkpt>
   <trkpt lat="-37.87113" lon="145.36123">
    <ele>411.15000000000003</ele>
   </trkpt>
   <trkpt lat="-37.87071" lon="145.36105">
    <ele>413.21000000000004</ele>
   </trkpt>
   <trkpt lat="-37.86999" lon="145.36083000000002">
    <ele>415.89000000000004</ele>
   </trkpt>
   <trkpt lat="-37.86972" lon="145.36065000000002">
    <ele>416.92</ele>
   </trkpt>
   <trkpt lat="-37.86963" lon="145.36053">
    <ele>417.28000000000003</ele>
   </trkpt>
   <trkpt lat="-37.8695" lon="145.36015">
    <ele>420.47</ele>
   </trkpt>
   <trkpt lat="-37.869220000000006" lon="145.35977000000003">
    <ele>421.36</ele>
   </trkpt>
   <trkpt lat="-37.86887" lon="145.35943">
    <ele>424.04</ele>
   </trkpt>
   <trkpt lat="-37.86871" lon="145.35917">
    <ele>426.12000000000006</ele>
   </trkpt>
   <trkpt lat="-37.8682" lon="145.35908">
    <ele>426.87</ele>
   </trkpt>
   <trkpt lat="-37.86806" lon="145.35901">
    <ele>427.63</ele>
   </trkpt>
   <trkpt lat="-37.86793" lon="145.35878000000002">
    <ele>428.01000000000005</ele>
   </trkpt>
   <trkpt lat="-37.86773" lon="145.35860000000002">
    <ele>427.64</ele>
   </trkpt>
   <trkpt lat="-37.86768" lon="145.35825">
    <ele>428.57000000000005</ele>
   </trkpt>
   <trkpt lat="-37.86766" lon="145.3582">
    <ele>428.8</ele>
   </trkpt>
   <trkpt lat="-37.86748" lon="145.35804000000002">
    <ele>429.62000000000006</ele>
   </trkpt>
   <trkpt lat="-37.86737" lon="145.35797000000002">
    <ele>429.83000000000004</ele>
   </trkpt>
   <trkpt lat="-37.86728" lon="145.35787000000002">
    <ele>430.49</ele>
   </trkpt>
   <trkpt lat="-37.86715" lon="145.35776">
    <ele>431.83000000000004</ele>
   </trkpt>
   <trkpt lat="-37.86694" lon="145.35745">
    <ele>432.38000000000005</ele>
   </trkpt>
   <trkpt lat="-37.86674" lon="145.35733000000002">
    <ele>433.70000000000005</ele>
   </trkpt>
   <trkpt lat="-37.86654" lon="145.35708000000002">
    <ele>436.71000000000004</ele>
   </trkpt>
   <trkpt lat="-37.8665" lon="145.35665">
    <ele>440.46000000000004</ele>
   </trkpt>
   <trkpt lat="-37.86623" lon="145.35623">
    <ele>446.00000000000006</ele>
   </trkpt>
   <trkpt lat="-37.86605" lon="145.35616000000002">
    <ele>434.55</ele>
   </trkpt>
   <trkpt lat="-37.86589" lon="145.35612">
    <ele>430.26000000000005</ele>
   </trkpt>
   <trkpt lat="-37.86589" lon="145.35596">
    <ele>419.82</ele>
   </trkpt>
   <trkpt lat="-37.865930000000006" lon="145.35577">
    <ele>413.12000000000006</ele>
   </trkpt>
   <trkpt lat="-37.86598" lon="145.35567">
    <ele>414.30000000000007</ele>
   </trkpt>
   <trkpt lat="-37.86598" lon="145.35555000000002">
    <ele>414.73</ele>
   </trkpt>
   <trkpt lat="-37.86585" lon="145.3554">
    <ele>416.59000000000003</ele>
   </trkpt>
   <trkpt lat="-37.86547" lon="145.35535000000002">
    <ele>424.32000000000005</ele>
   </trkpt>
   <trkpt lat="-37.8652" lon="145.35519000000002">
    <ele>428.82000000000005</ele>
   </trkpt>
   <trkpt lat="-37.86502" lon="145.35512">
    <ele>435.56000000000006</ele>
   </trkpt>
   <trkpt lat="-37.86486" lon="145.35513">
    <ele>437.61000000000007</ele>
   </trkpt>
   <trkpt lat="-37.8645" lon="145.35506">
    <ele>447.53000000000003</ele>
   </trkpt>
   <trkpt lat="-37.86435" lon="145.35499000000002">
    <ele>454.87000000000006</ele>
   </trkpt>
   <trkpt lat="-37.86415" lon="145.35496">
    <ele>458.82000000000005</ele>
   </trkpt>
   <trkpt lat="-37.863600000000005" lon="145.35494">
    <ele>470.99</ele>
   </trkpt>
   <trkpt lat="-37.86345" lon="145.35489">
    <ele>473.71000000000004</ele>
   </trkpt>
   <trkpt lat="-37.86334" lon="145.35477">
    <ele>474.64000000000004</ele>
   </trkpt>
   <trkpt lat="-37.86316" lon="145.35444">
    <ele>483.78000000000003</ele>
   </trkpt>
   <trkpt lat="-37.862820000000006" lon="145.35372">
    <ele>480.06000000000006</ele>
   </trkpt>
  </trkseg>
 </trk>
</gpx>
