<?xml version="1.0" encoding="UTF-8"?>
<gpx creator="StravaGPX" version="1.1" xmlns="http://www.topografix.com/GPX/1/1" xmlns:xsi="http://www.w3.org/2001/XMLSchema-instance" xsi:schemaLocation="http://www.topografix.com/GPX/1/1 http://www.topografix.com/GPX/1/1/gpx.xsd">
 <metadata>
  <name>DTR Sunday 6th June Grants 20k</name>
  <author>
   <name>john csorgo</name>
  </author>
  <copyright author="OpenStreetMap contributors">
   <year>2020</year>
   <license>https://www.openstreetmap.org/copyright</license>
  </copyright>
 </metadata>
 <trk>
  <name>DTR Sunday 6th June Grants 20k</name>
  <link href=""/>
  <type>trail_running</type>
  <trkseg>
   <trkpt lat="-37.88776" lon="145.37005000000002">
    <ele>371.06000000000006</ele>
   </trkpt>
   <trkpt lat="-37.887710000000006" lon="145.37004000000002">
    <ele>370.82000000000005</ele>
   </trkpt>
   <trkpt lat="-37.88752" lon="145.37004000000002">
    <ele>370.31</ele>
   </trkpt>
   <trkpt lat="-37.88743" lon="145.37009">
    <ele>369.97</ele>
   </trkpt>
   <trkpt lat="-37.88739" lon="145.37014000000002">
    <ele>369.97</ele>
   </trkpt>
   <trkpt lat="-37.88725" lon="145.37041000000002">
    <ele>369.50000000000006</ele>
   </trkpt>
   <trkpt lat="-37.8872" lon="145.37041000000002">
    <ele>369.43</ele>
   </trkpt>
   <trkpt lat="-37.88689" lon="145.37069000000002">
    <ele>369.78000000000003</ele>
   </trkpt>
   <trkpt lat="-37.88694" lon="145.37120000000002">
    <ele>371.01</ele>
   </trkpt>
   <trkpt lat="-37.8872" lon="145.37132000000003">
    <ele>368.46</ele>
   </trkpt>
   <trkpt lat="-37.88743" lon="145.37131000000002">
    <ele>364.89000000000004</ele>
   </trkpt>
   <trkpt lat="-37.88763" lon="145.37134">
    <ele>361.66</ele>
   </trkpt>
   <trkpt lat="-37.88781" lon="145.37142">
    <ele>357.40000000000003</ele>
   </trkpt>
   <trkpt lat="-37.88799" lon="145.37164">
    <ele>353.27000000000004</ele>
   </trkpt>
   <trkpt lat="-37.88836000060442" lon="145.37203499795584">
    <ele>351.02000000000004</ele>
   </trkpt>
   <trkpt lat="-37.88873" lon="145.37243">
    <ele>350.77000000000004</ele>
   </trkpt>
   <trkpt lat="-37.88893" lon="145.37276">
    <ele>353.61</ele>
   </trkpt>
   <trkpt lat="-37.88902" lon="145.37306">
    <ele>355.73</ele>
   </trkpt>
   <trkpt lat="-37.88950000069874" lon="145.37347499726883">
    <ele>350.63000000000005</ele>
   </trkpt>
   <trkpt lat="-37.88998" lon="145.37389000000002">
    <ele>345.86</ele>
   </trkpt>
   <trkpt lat="-37.89007" lon="145.37402">
    <ele>345.27000000000004</ele>
   </trkpt>
   <trkpt lat="-37.89011" lon="145.37428">
    <ele>343.92</ele>
   </trkpt>
   <trkpt lat="-37.89009" lon="145.37448">
    <ele>341.96000000000004</ele>
   </trkpt>
   <trkpt lat="-37.89" lon="145.37468">
    <ele>341.96000000000004</ele>
   </trkpt>
   <trkpt lat="-37.88993" lon="145.37490000000003">
    <ele>341.17</ele>
   </trkpt>
   <trkpt lat="-37.88996" lon="145.37504">
    <ele>341.43</ele>
   </trkpt>
   <trkpt lat="-37.89007" lon="145.37515000000002">
    <ele>342.32</ele>
   </trkpt>
   <trkpt lat="-37.89025" lon="145.37519">
    <ele>342.89000000000004</ele>
   </trkpt>
   <trkpt lat="-37.89052" lon="145.37509">
    <ele>341.93</ele>
   </trkpt>
   <trkpt lat="-37.89079" lon="145.37492">
    <ele>341.28000000000003</ele>
   </trkpt>
   <trkpt lat="-37.89114" lon="145.37492">
    <ele>340.64000000000004</ele>
   </trkpt>
   <trkpt lat="-37.89137" lon="145.37499000000003">
    <ele>340.72</ele>
   </trkpt>
   <trkpt lat="-37.89146" lon="145.37505000000002">
    <ele>341.06</ele>
   </trkpt>
   <trkpt lat="-37.89166" lon="145.37524000000002">
    <ele>342.24</ele>
   </trkpt>
   <trkpt lat="-37.892120000000006" lon="145.37593">
    <ele>349.39000000000004</ele>
   </trkpt>
   <trkpt lat="-37.89235000148019" lon="145.37650499840794">
    <ele>355.61</ele>
   </trkpt>
   <trkpt lat="-37.89258" lon="145.37708">
    <ele>361.1</ele>
   </trkpt>
   <trkpt lat="-37.89264" lon="145.37733">
    <ele>362.84000000000003</ele>
   </trkpt>
   <trkpt lat="-37.89266000000001" lon="145.37775000000002">
    <ele>368.20000000000005</ele>
   </trkpt>
   <trkpt lat="-37.89266000000001" lon="145.37773">
    <ele>368.20000000000005</ele>
   </trkpt>
   <trkpt lat="-37.89262" lon="145.37792000000002">
    <ele>369.70000000000005</ele>
   </trkpt>
   <trkpt lat="-37.89249" lon="145.37814">
    <ele>375.86</ele>
   </trkpt>
   <trkpt lat="-37.89235" lon="145.37830000000002">
    <ele>378.84</ele>
   </trkpt>
   <trkpt lat="-37.89229" lon="145.37834">
    <ele>379.35</ele>
   </trkpt>
   <trkpt lat="-37.89222" lon="145.37835">
    <ele>380.06</ele>
   </trkpt>
   <trkpt lat="-37.89177" lon="145.37807">
    <ele>381.95</ele>
   </trkpt>
   <trkpt lat="-37.89139" lon="145.37794000000002">
    <ele>384.20000000000005</ele>
   </trkpt>
   <trkpt lat="-37.89123" lon="145.37791">
    <ele>385.3</ele>
   </trkpt>
   <trkpt lat="-37.89112" lon="145.3779">
    <ele>385.84000000000003</ele>
   </trkpt>
   <trkpt lat="-37.89085" lon="145.37794000000002">
    <ele>387.93000000000006</ele>
   </trkpt>
   <trkpt lat="-37.89016" lon="145.37795">
    <ele>391.41</ele>
   </trkpt>
   <trkpt lat="-37.88931" lon="145.37781">
    <ele>394.98</ele>
   </trkpt>
   <trkpt lat="-37.88850500008015" lon="145.37797500181114">
    <ele>401.12</ele>
   </trkpt>
   <trkpt lat="-37.8877" lon="145.37814">
    <ele>409.0</ele>
   </trkpt>
   <trkpt lat="-37.887890000000006" lon="145.37830000000002">
    <ele>410.34000000000003</ele>
   </trkpt>
   <trkpt lat="-37.88812" lon="145.37844">
    <ele>410.95000000000005</ele>
   </trkpt>
   <trkpt lat="-37.88832" lon="145.3785">
    <ele>412.15000000000003</ele>
   </trkpt>
   <trkpt lat="-37.88861" lon="145.37863000000002">
    <ele>414.26</ele>
   </trkpt>
   <trkpt lat="-37.88917000045836" lon="145.3789299977599">
    <ele>420.31</ele>
   </trkpt>
   <trkpt lat="-37.88973" lon="145.37923">
    <ele>423.7</ele>
   </trkpt>
   <trkpt lat="-37.890150000000006" lon="145.3795">
    <ele>426.82000000000005</ele>
   </trkpt>
   <trkpt lat="-37.89045" lon="145.37973000000002">
    <ele>427.90000000000003</ele>
   </trkpt>
   <trkpt lat="-37.89085" lon="145.38015000000001">
    <ele>430.95000000000005</ele>
   </trkpt>
   <trkpt lat="-37.8913550007523" lon="145.38059499687247">
    <ele>429.94000000000005</ele>
   </trkpt>
   <trkpt lat="-37.89186" lon="145.38104">
    <ele>428.97</ele>
   </trkpt>
   <trkpt lat="-37.89206" lon="145.38125000000002">
    <ele>428.3</ele>
   </trkpt>
   <trkpt lat="-37.89233" lon="145.38163">
    <ele>428.55</ele>
   </trkpt>
   <trkpt lat="-37.89242" lon="145.38186000000002">
    <ele>428.31</ele>
   </trkpt>
   <trkpt lat="-37.89255" lon="145.38238">
    <ele>426.37</ele>
   </trkpt>
   <trkpt lat="-37.892520001865584" lon="145.38304500037967">
    <ele>424.90000000000003</ele>
   </trkpt>
   <trkpt lat="-37.89249" lon="145.38371">
    <ele>425.04</ele>
   </trkpt>
   <trkpt lat="-37.89251" lon="145.38418000000001">
    <ele>425.29</ele>
   </trkpt>
   <trkpt lat="-37.8926" lon="145.38464000000002">
    <ele>424.91</ele>
   </trkpt>
   <trkpt lat="-37.89279000134739" lon="145.3851949986977">
    <ele>424.59000000000003</ele>
   </trkpt>
   <trkpt lat="-37.89298" lon="145.38575">
    <ele>423.50000000000006</ele>
   </trkpt>
   <trkpt lat="-37.8932" lon="145.38621">
    <ele>419.02000000000004</ele>
   </trkpt>
   <trkpt lat="-37.893440000000005" lon="145.38629">
    <ele>419.42</ele>
   </trkpt>
   <trkpt lat="-37.89345" lon="145.38636000000002">
    <ele>419.39000000000004</ele>
   </trkpt>
   <trkpt lat="-37.8938950003259" lon="145.3866999978202">
    <ele>419.86</ele>
   </trkpt>
   <trkpt lat="-37.89434" lon="145.38704">
    <ele>423.45000000000005</ele>
   </trkpt>
   <trkpt lat="-37.894790000261914" lon="145.3873249982061">
    <ele>426.34000000000003</ele>
   </trkpt>
   <trkpt lat="-37.89524" lon="145.38761000000002">
    <ele>429.09000000000003</ele>
   </trkpt>
   <trkpt lat="-37.89574" lon="145.38798">
    <ele>433.64000000000004</ele>
   </trkpt>
   <trkpt lat="-37.89562" lon="145.38815000000002">
    <ele>431.32000000000005</ele>
   </trkpt>
   <trkpt lat="-37.89537" lon="145.3879">
    <ele>428.93</ele>
   </trkpt>
   <trkpt lat="-37.89506" lon="145.38771">
    <ele>428.39000000000004</ele>
   </trkpt>
   <trkpt lat="-37.894500000304234" lon="145.38743499790033">
    <ele>423.36</ele>
   </trkpt>
   <trkpt lat="-37.89394" lon="145.38716000000002">
    <ele>417.57000000000005</ele>
   </trkpt>
   <trkpt lat="-37.89356" lon="145.38680000000002">
    <ele>413.6</ele>
   </trkpt>
   <trkpt lat="-37.89314" lon="145.38629">
    <ele>412.17</ele>
   </trkpt>
   <trkpt lat="-37.89356" lon="145.38680000000002">
    <ele>413.6</ele>
   </trkpt>
   <trkpt lat="-37.89394" lon="145.38716000000002">
    <ele>417.57000000000005</ele>
   </trkpt>
   <trkpt lat="-37.89450000033552" lon="145.3874349979157">
    <ele>423.36</ele>
   </trkpt>
   <trkpt lat="-37.89506" lon="145.38771">
    <ele>428.39000000000004</ele>
   </trkpt>
   <trkpt lat="-37.89537" lon="145.3879">
    <ele>428.93</ele>
   </trkpt>
   <trkpt lat="-37.89562" lon="145.38815000000002">
    <ele>431.32000000000005</ele>
   </trkpt>
   <trkpt lat="-37.89574" lon="145.38798">
    <ele>433.64000000000004</ele>
   </trkpt>
   <trkpt lat="-37.89587" lon="145.38802">
    <ele>433.64000000000004</ele>
   </trkpt>
   <trkpt lat="-37.896440000000005" lon="145.38758">
    <ele>430.20000000000005</ele>
   </trkpt>
   <trkpt lat="-37.896440000000005" lon="145.38759000000002">
    <ele>430.20000000000005</ele>
   </trkpt>
   <trkpt lat="-37.89656" lon="145.38734000000002">
    <ele>427.41</ele>
   </trkpt>
   <trkpt lat="-37.89663" lon="145.38708000000003">
    <ele>424.44000000000005</ele>
   </trkpt>
   <trkpt lat="-37.89663" lon="145.38676">
    <ele>422.81</ele>
   </trkpt>
   <trkpt lat="-37.89676" lon="145.38609000000002">
    <ele>414.69000000000005</ele>
   </trkpt>
   <trkpt lat="-37.89696" lon="145.38565">
    <ele>409.66</ele>
   </trkpt>
   <trkpt lat="-37.89705" lon="145.38526000000002">
    <ele>405.79</ele>
   </trkpt>
   <trkpt lat="-37.89708" lon="145.38508000000002">
    <ele>404.73</ele>
   </trkpt>
   <trkpt lat="-37.89703" lon="145.38479">
    <ele>403.5</ele>
   </trkpt>
   <trkpt lat="-37.89719" lon="145.38446000000002">
    <ele>400.33</ele>
   </trkpt>
   <trkpt lat="-37.8973" lon="145.38409000000001">
    <ele>397.74</ele>
   </trkpt>
   <trkpt lat="-37.89742500207104" lon="145.3833950010252">
    <ele>395.52000000000004</ele>
   </trkpt>
   <trkpt lat="-37.89755" lon="145.3827">
    <ele>393.0</ele>
   </trkpt>
   <trkpt lat="-37.89759" lon="145.38217">
    <ele>392.36</ele>
   </trkpt>
   <trkpt lat="-37.89769000203622" lon="145.38148000078314">
    <ele>392.23</ele>
   </trkpt>
   <trkpt lat="-37.89779" lon="145.38079000000002">
    <ele>393.17</ele>
   </trkpt>
   <trkpt lat="-37.89784" lon="145.38036000000002">
    <ele>395.26000000000005</ele>
   </trkpt>
   <trkpt lat="-37.89788" lon="145.37979">
    <ele>396.83</ele>
   </trkpt>
   <trkpt lat="-37.897980000000004" lon="145.37919000000002">
    <ele>397.41</ele>
   </trkpt>
   <trkpt lat="-37.89822" lon="145.37928000000002">
    <ele>397.43</ele>
   </trkpt>
   <trkpt lat="-37.8984" lon="145.3794">
    <ele>396.86</ele>
   </trkpt>
   <trkpt lat="-37.899115000498796" lon="145.37975999647793">
    <ele>391.01</ele>
   </trkpt>
   <trkpt lat="-37.89983" lon="145.38012">
    <ele>381.66</ele>
   </trkpt>
   <trkpt lat="-37.90025" lon="145.38027000000002">
    <ele>378.14000000000004</ele>
   </trkpt>
   <trkpt lat="-37.90095" lon="145.38066">
    <ele>373.9</ele>
   </trkpt>
   <trkpt lat="-37.90166" lon="145.38102">
    <ele>369.77000000000004</ele>
   </trkpt>
   <trkpt lat="-37.9022" lon="145.38132000000002">
    <ele>368.96</ele>
   </trkpt>
   <trkpt lat="-37.90243" lon="145.38138">
    <ele>368.48</ele>
   </trkpt>
   <trkpt lat="-37.9026" lon="145.38141000000002">
    <ele>367.63</ele>
   </trkpt>
   <trkpt lat="-37.90278" lon="145.38134000000002">
    <ele>365.95000000000005</ele>
   </trkpt>
   <trkpt lat="-37.90279" lon="145.38133000000002">
    <ele>365.95000000000005</ele>
   </trkpt>
   <trkpt lat="-37.90285" lon="145.38128">
    <ele>365.22</ele>
   </trkpt>
   <trkpt lat="-37.90307" lon="145.38094">
    <ele>358.2</ele>
   </trkpt>
   <trkpt lat="-37.90325" lon="145.38043000000002">
    <ele>346.62</ele>
   </trkpt>
   <trkpt lat="-37.90339" lon="145.38022">
    <ele>343.94</ele>
   </trkpt>
   <trkpt lat="-37.90368" lon="145.37987">
    <ele>336.48</ele>
   </trkpt>
   <trkpt lat="-37.90404" lon="145.37937000000002">
    <ele>323.43000000000006</ele>
   </trkpt>
   <trkpt lat="-37.904320000859784" lon="145.3788850020797">
    <ele>314.59000000000003</ele>
   </trkpt>
   <trkpt lat="-37.9046" lon="145.3784">
    <ele>304.14000000000004</ele>
   </trkpt>
   <trkpt lat="-37.90475" lon="145.37804">
    <ele>292.03000000000003</ele>
   </trkpt>
   <trkpt lat="-37.904970000000006" lon="145.37744">
    <ele>282.23</ele>
   </trkpt>
   <trkpt lat="-37.90523000176999" lon="145.3768050020867">
    <ele>272.75000000000006</ele>
   </trkpt>
   <trkpt lat="-37.90549" lon="145.37617">
    <ele>270.2</ele>
   </trkpt>
   <trkpt lat="-37.905910000000006" lon="145.37546">
    <ele>266.09000000000003</ele>
   </trkpt>
   <trkpt lat="-37.90643" lon="145.37461000000002">
    <ele>257.69</ele>
   </trkpt>
   <trkpt lat="-37.9069" lon="145.37378">
    <ele>246.98000000000002</ele>
   </trkpt>
   <trkpt lat="-37.90699" lon="145.37323">
    <ele>240.11</ele>
   </trkpt>
   <trkpt lat="-37.90713" lon="145.37262">
    <ele>230.02000000000004</ele>
   </trkpt>
   <trkpt lat="-37.90713" lon="145.37253">
    <ele>229.12</ele>
   </trkpt>
   <trkpt lat="-37.90701" lon="145.37227000000001">
    <ele>225.85000000000002</ele>
   </trkpt>
   <trkpt lat="-37.90672" lon="145.37188">
    <ele>220.49</ele>
   </trkpt>
   <trkpt lat="-37.90639" lon="145.37087000000002">
    <ele>222.32000000000002</ele>
   </trkpt>
   <trkpt lat="-37.90628" lon="145.37043">
    <ele>225.10000000000002</ele>
   </trkpt>
   <trkpt lat="-37.9063" lon="145.37003">
    <ele>226.67000000000002</ele>
   </trkpt>
   <trkpt lat="-37.90634" lon="145.36982">
    <ele>226.70000000000002</ele>
   </trkpt>
   <trkpt lat="-37.9065" lon="145.36961000000002">
    <ele>226.63000000000002</ele>
   </trkpt>
   <trkpt lat="-37.9067" lon="145.36924000000002">
    <ele>227.13000000000002</ele>
   </trkpt>
   <trkpt lat="-37.90677" lon="145.36897000000002">
    <ele>227.27</ele>
   </trkpt>
   <trkpt lat="-37.90677" lon="145.36884">
    <ele>227.39000000000001</ele>
   </trkpt>
   <trkpt lat="-37.90668" lon="145.36825000000002">
    <ele>228.14000000000001</ele>
   </trkpt>
   <trkpt lat="-37.90675" lon="145.36773000000002">
    <ele>225.54000000000002</ele>
   </trkpt>
   <trkpt lat="-37.90663" lon="145.36713">
    <ele>223.96</ele>
   </trkpt>
   <trkpt lat="-37.90661" lon="145.36685">
    <ele>226.24</ele>
   </trkpt>
   <trkpt lat="-37.90657" lon="145.36668">
    <ele>229.18</ele>
   </trkpt>
   <trkpt lat="-37.90663" lon="145.36637000000002">
    <ele>236.41</ele>
   </trkpt>
   <trkpt lat="-37.90646" lon="145.36564">
    <ele>254.57000000000002</ele>
   </trkpt>
   <trkpt lat="-37.90623" lon="145.36459000000002">
    <ele>277.98</ele>
   </trkpt>
   <trkpt lat="-37.906150000000004" lon="145.36395000000002">
    <ele>288.65000000000003</ele>
   </trkpt>
   <trkpt lat="-37.90614" lon="145.36394">
    <ele>288.65000000000003</ele>
   </trkpt>
   <trkpt lat="-37.906060000000004" lon="145.36378000000002">
    <ele>291.29</ele>
   </trkpt>
   <trkpt lat="-37.905770000000004" lon="145.36347">
    <ele>294.98</ele>
   </trkpt>
   <trkpt lat="-37.90565" lon="145.3634">
    <ele>294.98</ele>
   </trkpt>
   <trkpt lat="-37.90545" lon="145.36334000000002">
    <ele>300.51</ele>
   </trkpt>
   <trkpt lat="-37.905350000000006" lon="145.36324000000002">
    <ele>303.23</ele>
   </trkpt>
   <trkpt lat="-37.90522" lon="145.36309">
    <ele>305.36</ele>
   </trkpt>
   <trkpt lat="-37.9046" lon="145.36269000000001">
    <ele>314.6</ele>
   </trkpt>
   <trkpt lat="-37.90442" lon="145.36266">
    <ele>316.14000000000004</ele>
   </trkpt>
   <trkpt lat="-37.90417" lon="145.36270000000002">
    <ele>317.59000000000003</ele>
   </trkpt>
   <trkpt lat="-37.90366" lon="145.36271000000002">
    <ele>322.11</ele>
   </trkpt>
   <trkpt lat="-37.90307" lon="145.36296000000002">
    <ele>326.18</ele>
   </trkpt>
   <trkpt lat="-37.90283" lon="145.36315000000002">
    <ele>329.74</ele>
   </trkpt>
   <trkpt lat="-37.90263" lon="145.36328">
    <ele>332.31000000000006</ele>
   </trkpt>
   <trkpt lat="-37.90216" lon="145.36339">
    <ele>338.68</ele>
   </trkpt>
   <trkpt lat="-37.90189" lon="145.36350000000002">
    <ele>341.24</ele>
   </trkpt>
   <trkpt lat="-37.901450000000004" lon="145.36383">
    <ele>346.57000000000005</ele>
   </trkpt>
   <trkpt lat="-37.90124" lon="145.36343000000002">
    <ele>345.19000000000005</ele>
   </trkpt>
   <trkpt lat="-37.901050001985745" lon="145.36273999811638">
    <ele>339.21</ele>
   </trkpt>
   <trkpt lat="-37.90086" lon="145.36205">
    <ele>333.68</ele>
   </trkpt>
   <trkpt lat="-37.900830000000006" lon="145.36186">
    <ele>333.1</ele>
   </trkpt>
   <trkpt lat="-37.90077" lon="145.36145000000002">
    <ele>334.0</ele>
   </trkpt>
   <trkpt lat="-37.90059" lon="145.36069">
    <ele>339.05</ele>
   </trkpt>
   <trkpt lat="-37.90057" lon="145.36046000000002">
    <ele>338.82</ele>
   </trkpt>
   <trkpt lat="-37.9005" lon="145.36012000000002">
    <ele>335.73</ele>
   </trkpt>
   <trkpt lat="-37.9003" lon="145.35946">
    <ele>317.08000000000004</ele>
   </trkpt>
   <trkpt lat="-37.9001" lon="145.35860000000002">
    <ele>302.29</ele>
   </trkpt>
   <trkpt lat="-37.9001" lon="145.35835">
    <ele>299.09000000000003</ele>
   </trkpt>
   <trkpt lat="-37.900000000000006" lon="145.35778000000002">
    <ele>283.86</ele>
   </trkpt>
   <trkpt lat="-37.89992" lon="145.35763">
    <ele>276.37</ele>
   </trkpt>
   <trkpt lat="-37.89992" lon="145.35755">
    <ele>274.59</ele>
   </trkpt>
   <trkpt lat="-37.900000000000006" lon="145.35732000000002">
    <ele>268.35</ele>
   </trkpt>
   <trkpt lat="-37.900000000000006" lon="145.35713">
    <ele>264.46000000000004</ele>
   </trkpt>
   <trkpt lat="-37.89996" lon="145.35696000000002">
    <ele>255.75000000000003</ele>
   </trkpt>
   <trkpt lat="-37.89985" lon="145.35690000000002">
    <ele>255.37000000000003</ele>
   </trkpt>
   <trkpt lat="-37.89994" lon="145.35687000000001">
    <ele>255.37000000000003</ele>
   </trkpt>
   <trkpt lat="-37.90001" lon="145.35687000000001">
    <ele>266.24</ele>
   </trkpt>
   <trkpt lat="-37.9001" lon="145.35691">
    <ele>266.24</ele>
   </trkpt>
   <trkpt lat="-37.90014" lon="145.35665">
    <ele>266.90000000000003</ele>
   </trkpt>
   <trkpt lat="-37.89976" lon="145.35625000000002">
    <ele>269.62</ele>
   </trkpt>
   <trkpt lat="-37.89976" lon="145.35626000000002">
    <ele>269.62</ele>
   </trkpt>
   <trkpt lat="-37.89976" lon="145.35625000000002">
    <ele>269.62</ele>
   </trkpt>
   <trkpt lat="-37.899730000000005" lon="145.35632">
    <ele>269.99</ele>
   </trkpt>
   <trkpt lat="-37.89967" lon="145.35628">
    <ele>270.99</ele>
   </trkpt>
   <trkpt lat="-37.89958" lon="145.35626000000002">
    <ele>270.99</ele>
   </trkpt>
   <trkpt lat="-37.89932" lon="145.35603">
    <ele>273.09</ele>
   </trkpt>
   <trkpt lat="-37.89934" lon="145.35593">
    <ele>274.04</ele>
   </trkpt>
   <trkpt lat="-37.899170000000005" lon="145.35578">
    <ele>274.51000000000005</ele>
   </trkpt>
   <trkpt lat="-37.89898" lon="145.3557">
    <ele>276.26</ele>
   </trkpt>
   <trkpt lat="-37.89873" lon="145.35563000000002">
    <ele>277.86</ele>
   </trkpt>
   <trkpt lat="-37.8984" lon="145.35568">
    <ele>281.73</ele>
   </trkpt>
   <trkpt lat="-37.89819" lon="145.35568">
    <ele>282.40000000000003</ele>
   </trkpt>
   <trkpt lat="-37.89804" lon="145.35571000000002">
    <ele>284.32</ele>
   </trkpt>
   <trkpt lat="-37.89755" lon="145.35618000000002">
    <ele>290.89000000000004</ele>
   </trkpt>
   <trkpt lat="-37.89728" lon="145.35647">
    <ele>294.59000000000003</ele>
   </trkpt>
   <trkpt lat="-37.89719" lon="145.35669000000001">
    <ele>298.23</ele>
   </trkpt>
   <trkpt lat="-37.8971" lon="145.35679000000002">
    <ele>298.23</ele>
   </trkpt>
   <trkpt lat="-37.89701" lon="145.35696000000002">
    <ele>300.81</ele>
   </trkpt>
   <trkpt lat="-37.89663" lon="145.35723000000002">
    <ele>303.1</ele>
   </trkpt>
   <trkpt lat="-37.89618" lon="145.35743000000002">
    <ele>307.02</ele>
   </trkpt>
   <trkpt lat="-37.89598" lon="145.35739">
    <ele>308.23</ele>
   </trkpt>
   <trkpt lat="-37.89558" lon="145.35742000000002">
    <ele>311.05000000000007</ele>
   </trkpt>
   <trkpt lat="-37.89531" lon="145.35732000000002">
    <ele>314.41</ele>
   </trkpt>
   <trkpt lat="-37.89488" lon="145.35739">
    <ele>318.67</ele>
   </trkpt>
   <trkpt lat="-37.89457" lon="145.35722">
    <ele>323.62</ele>
   </trkpt>
   <trkpt lat="-37.89408" lon="145.35721">
    <ele>332.99</ele>
   </trkpt>
   <trkpt lat="-37.89372" lon="145.35718">
    <ele>339.21</ele>
   </trkpt>
   <trkpt lat="-37.89329" lon="145.35727">
    <ele>343.05</ele>
   </trkpt>
   <trkpt lat="-37.89316" lon="145.35723000000002">
    <ele>344.19000000000005</ele>
   </trkpt>
   <trkpt lat="-37.89298" lon="145.35709">
    <ele>345.66</ele>
   </trkpt>
   <trkpt lat="-37.89287" lon="145.35705000000002">
    <ele>347.23</ele>
   </trkpt>
   <trkpt lat="-37.89273" lon="145.35704">
    <ele>349.56</ele>
   </trkpt>
   <trkpt lat="-37.89258" lon="145.35709">
    <ele>351.69</ele>
   </trkpt>
   <trkpt lat="-37.89246" lon="145.35709">
    <ele>351.69</ele>
   </trkpt>
   <trkpt lat="-37.89195" lon="145.35690000000002">
    <ele>361.45000000000005</ele>
   </trkpt>
   <trkpt lat="-37.89186" lon="145.35682">
    <ele>363.08</ele>
   </trkpt>
   <trkpt lat="-37.891740000000006" lon="145.35659">
    <ele>365.91</ele>
   </trkpt>
   <trkpt lat="-37.891200000000005" lon="145.35612">
    <ele>375.66</ele>
   </trkpt>
   <trkpt lat="-37.89049" lon="145.35545000000002">
    <ele>383.89</ele>
   </trkpt>
   <trkpt lat="-37.89034" lon="145.35532">
    <ele>386.48</ele>
   </trkpt>
   <trkpt lat="-37.89014" lon="145.35523">
    <ele>389.15000000000003</ele>
   </trkpt>
   <trkpt lat="-37.889880000000005" lon="145.35507">
    <ele>391.56</ele>
   </trkpt>
   <trkpt lat="-37.88985" lon="145.35506">
    <ele>396.16</ele>
   </trkpt>
   <trkpt lat="-37.88964" lon="145.35511000000002">
    <ele>398.78000000000003</ele>
   </trkpt>
   <trkpt lat="-37.88958" lon="145.35502000000002">
    <ele>400.23</ele>
   </trkpt>
   <trkpt lat="-37.88922" lon="145.35487">
    <ele>402.20000000000005</ele>
   </trkpt>
   <trkpt lat="-37.88915" lon="145.35486">
    <ele>402.84000000000003</ele>
   </trkpt>
   <trkpt lat="-37.88893" lon="145.35489">
    <ele>405.04</ele>
   </trkpt>
   <trkpt lat="-37.888630000000006" lon="145.35499000000002">
    <ele>412.29</ele>
   </trkpt>
   <trkpt lat="-37.888600000000004" lon="145.35502000000002">
    <ele>412.58000000000004</ele>
   </trkpt>
   <trkpt lat="-37.88855" lon="145.35496">
    <ele>414.02000000000004</ele>
   </trkpt>
   <trkpt lat="-37.88857" lon="145.35492000000002">
    <ele>414.02000000000004</ele>
   </trkpt>
   <trkpt lat="-37.88848" lon="145.35468">
    <ele>418.75</ele>
   </trkpt>
   <trkpt lat="-37.88828" lon="145.35435">
    <ele>424.52</ele>
   </trkpt>
   <trkpt lat="-37.8881" lon="145.35416">
    <ele>429.35</ele>
   </trkpt>
   <trkpt lat="-37.88792" lon="145.35378">
    <ele>434.94000000000005</ele>
   </trkpt>
   <trkpt lat="-37.88781" lon="145.35358000000002">
    <ele>437.34000000000003</ele>
   </trkpt>
   <trkpt lat="-37.88772" lon="145.35336">
    <ele>441.12</ele>
   </trkpt>
   <trkpt lat="-37.88765" lon="145.35301">
    <ele>444.58000000000004</ele>
   </trkpt>
   <trkpt lat="-37.88745" lon="145.35251000000002">
    <ele>454.37000000000006</ele>
   </trkpt>
   <trkpt lat="-37.88727" lon="145.35218">
    <ele>457.91</ele>
   </trkpt>
   <trkpt lat="-37.88729" lon="145.35195000000002">
    <ele>457.91</ele>
   </trkpt>
   <trkpt lat="-37.88734" lon="145.35183">
    <ele>457.28000000000003</ele>
   </trkpt>
   <trkpt lat="-37.887330000000006" lon="145.35177000000002">
    <ele>457.28000000000003</ele>
   </trkpt>
   <trkpt lat="-37.88716" lon="145.35176">
    <ele>460.82000000000005</ele>
   </trkpt>
   <trkpt lat="-37.88669" lon="145.35166">
    <ele>463.72</ele>
   </trkpt>
   <trkpt lat="-37.88642" lon="145.35162000000003">
    <ele>463.0400000000001</ele>
   </trkpt>
   <trkpt lat="-37.886410000000005" lon="145.35162000000003">
    <ele>463.02000000000004</ele>
   </trkpt>
   <trkpt lat="-37.886070000000004" lon="145.35163">
    <ele>465.1</ele>
   </trkpt>
   <trkpt lat="-37.88615" lon="145.35176">
    <ele>469.66</ele>
   </trkpt>
   <trkpt lat="-37.88606" lon="145.35204000000002">
    <ele>474.44</ele>
   </trkpt>
   <trkpt lat="-37.88588" lon="145.35242000000002">
    <ele>478.19000000000005</ele>
   </trkpt>
   <trkpt lat="-37.88555" lon="145.35296000000002">
    <ele>485.57000000000005</ele>
   </trkpt>
   <trkpt lat="-37.88544" lon="145.35307">
    <ele>488.07000000000005</ele>
   </trkpt>
   <trkpt lat="-37.88508" lon="145.35324">
    <ele>490.61</ele>
   </trkpt>
   <trkpt lat="-37.88497" lon="145.35328">
    <ele>490.61</ele>
   </trkpt>
   <trkpt lat="-37.88434" lon="145.35368000000003">
    <ele>492.26000000000005</ele>
   </trkpt>
   <trkpt lat="-37.88423" lon="145.35381">
    <ele>491.77000000000004</ele>
   </trkpt>
   <trkpt lat="-37.88371" lon="145.35464000000002">
    <ele>485.99</ele>
   </trkpt>
   <trkpt lat="-37.88351" lon="145.35512">
    <ele>487.11</ele>
   </trkpt>
   <trkpt lat="-37.88351" lon="145.3553">
    <ele>487.52000000000004</ele>
   </trkpt>
   <trkpt lat="-37.88318" lon="145.3554">
    <ele>486.04</ele>
   </trkpt>
   <trkpt lat="-37.88315" lon="145.35522">
    <ele>485.04</ele>
   </trkpt>
   <trkpt lat="-37.88293" lon="145.35439000000002">
    <ele>481.23</ele>
   </trkpt>
   <trkpt lat="-37.88291" lon="145.35394000000002">
    <ele>479.89000000000004</ele>
   </trkpt>
   <trkpt lat="-37.88282" lon="145.35356000000002">
    <ele>478.96000000000004</ele>
   </trkpt>
   <trkpt lat="-37.88266" lon="145.35319">
    <ele>476.86000000000007</ele>
   </trkpt>
   <trkpt lat="-37.88266" lon="145.3531">
    <ele>475.72</ele>
   </trkpt>
   <trkpt lat="-37.883" lon="145.35234">
    <ele>472.75000000000006</ele>
   </trkpt>
   <trkpt lat="-37.88311" lon="145.35219">
    <ele>472.35</ele>
   </trkpt>
   <trkpt lat="-37.88342" lon="145.35195000000002">
    <ele>472.14000000000004</ele>
   </trkpt>
   <trkpt lat="-37.88353" lon="145.35180000000003">
    <ele>471.96000000000004</ele>
   </trkpt>
   <trkpt lat="-37.88369" lon="145.35151000000002">
    <ele>470.66</ele>
   </trkpt>
   <trkpt lat="-37.88385" lon="145.3513">
    <ele>469.09000000000003</ele>
   </trkpt>
   <trkpt lat="-37.88418" lon="145.35115000000002">
    <ele>469.05</ele>
   </trkpt>
   <trkpt lat="-37.88443" lon="145.35108000000002">
    <ele>469.06</ele>
   </trkpt>
   <trkpt lat="-37.88456" lon="145.35107000000002">
    <ele>469.27000000000004</ele>
   </trkpt>
   <trkpt lat="-37.884730000000005" lon="145.35098000000002">
    <ele>469.36000000000007</ele>
   </trkpt>
   <trkpt lat="-37.88461" lon="145.35066">
    <ele>470.84000000000003</ele>
   </trkpt>
   <trkpt lat="-37.88461" lon="145.35046">
    <ele>473.40000000000003</ele>
   </trkpt>
   <trkpt lat="-37.884640000000005" lon="145.35035000000002">
    <ele>475.05</ele>
   </trkpt>
   <trkpt lat="-37.88481" lon="145.35028">
    <ele>475.81000000000006</ele>
   </trkpt>
   <trkpt lat="-37.88503" lon="145.35021">
    <ele>477.91</ele>
   </trkpt>
   <trkpt lat="-37.88521" lon="145.35021">
    <ele>478.46000000000004</ele>
   </trkpt>
   <trkpt lat="-37.88537" lon="145.35015">
    <ele>479.46000000000004</ele>
   </trkpt>
   <trkpt lat="-37.88564" lon="145.34996">
    <ele>483.02000000000004</ele>
   </trkpt>
   <trkpt lat="-37.88568" lon="145.34986">
    <ele>483.45000000000005</ele>
   </trkpt>
   <trkpt lat="-37.88568" lon="145.34975">
    <ele>484.19000000000005</ele>
   </trkpt>
   <trkpt lat="-37.88561" lon="145.34938000000002">
    <ele>485.79</ele>
   </trkpt>
   <trkpt lat="-37.88561" lon="145.34911000000002">
    <ele>486.34000000000003</ele>
   </trkpt>
   <trkpt lat="-37.88555" lon="145.34883000000002">
    <ele>486.55</ele>
   </trkpt>
   <trkpt lat="-37.88548" lon="145.34823">
    <ele>487.29</ele>
   </trkpt>
   <trkpt lat="-37.8855" lon="145.34765000000002">
    <ele>489.14</ele>
   </trkpt>
   <trkpt lat="-37.88555" lon="145.34747000000002">
    <ele>489.89000000000004</ele>
   </trkpt>
   <trkpt lat="-37.88517" lon="145.34727">
    <ele>490.32000000000005</ele>
   </trkpt>
   <trkpt lat="-37.88492" lon="145.34708">
    <ele>491.27000000000004</ele>
   </trkpt>
   <trkpt lat="-37.88461" lon="145.34673">
    <ele>493.72</ele>
   </trkpt>
   <trkpt lat="-37.88454" lon="145.34662">
    <ele>494.28000000000003</ele>
   </trkpt>
   <trkpt lat="-37.88447" lon="145.34646">
    <ele>495.57000000000005</ele>
   </trkpt>
   <trkpt lat="-37.8842" lon="145.34558">
    <ele>505.16</ele>
   </trkpt>
   <trkpt lat="-37.88411" lon="145.34534000000002">
    <ele>506.28000000000003</ele>
   </trkpt>
   <trkpt lat="-37.883970000000005" lon="145.34514000000001">
    <ele>508.31</ele>
   </trkpt>
   <trkpt lat="-37.88389" lon="145.34507000000002">
    <ele>509.07</ele>
   </trkpt>
   <trkpt lat="-37.88349" lon="145.34484">
    <ele>510.45000000000005</ele>
   </trkpt>
   <trkpt lat="-37.88317" lon="145.34475">
    <ele>513.5600000000001</ele>
   </trkpt>
   <trkpt lat="-37.883" lon="145.34471000000002">
    <ele>514.9</ele>
   </trkpt>
   <trkpt lat="-37.88275" lon="145.34470000000002">
    <ele>516.94</ele>
   </trkpt>
   <trkpt lat="-37.88228" lon="145.34477">
    <ele>520.4000000000001</ele>
   </trkpt>
   <trkpt lat="-37.881665000197465" lon="145.3446049986443">
    <ele>524.42</ele>
   </trkpt>
   <trkpt lat="-37.88105" lon="145.34444000000002">
    <ele>525.7900000000001</ele>
   </trkpt>
   <trkpt lat="-37.8803450007479" lon="145.3440799966561">
    <ele>521.2800000000001</ele>
   </trkpt>
   <trkpt lat="-37.87964" lon="145.34372000000002">
    <ele>510.01000000000005</ele>
   </trkpt>
   <trkpt lat="-37.87955" lon="145.34361">
    <ele>505.0</ele>
   </trkpt>
   <trkpt lat="-37.87937" lon="145.34337000000002">
    <ele>502.30000000000007</ele>
   </trkpt>
   <trkpt lat="-37.87917" lon="145.34300000000002">
    <ele>499.34000000000003</ele>
   </trkpt>
   <trkpt lat="-37.87901" lon="145.34286">
    <ele>496.19</ele>
   </trkpt>
   <trkpt lat="-37.87892" lon="145.34284000000002">
    <ele>496.19</ele>
   </trkpt>
   <trkpt lat="-37.87877" lon="145.34292000000002">
    <ele>494.28000000000003</ele>
   </trkpt>
   <trkpt lat="-37.87865" lon="145.34273000000002">
    <ele>493.06000000000006</ele>
   </trkpt>
   <trkpt lat="-37.87865" lon="145.34264000000002">
    <ele>493.43</ele>
   </trkpt>
   <trkpt lat="-37.878690000000006" lon="145.34248000000002">
    <ele>494.75</ele>
   </trkpt>
   <trkpt lat="-37.87874" lon="145.34236">
    <ele>496.88000000000005</ele>
   </trkpt>
   <trkpt lat="-37.8787" lon="145.34225">
    <ele>501.40000000000003</ele>
   </trkpt>
   <trkpt lat="-37.87856" lon="145.34212000000002">
    <ele>504.4200000000001</ele>
   </trkpt>
   <trkpt lat="-37.87847" lon="145.34209">
    <ele>505.9100000000001</ele>
   </trkpt>
   <trkpt lat="-37.87832" lon="145.34217">
    <ele>506.94000000000005</ele>
   </trkpt>
   <trkpt lat="-37.87807" lon="145.34255000000002">
    <ele>505.53999999999996</ele>
   </trkpt>
   <trkpt lat="-37.87791" lon="145.34269">
    <ele>505.8</ele>
   </trkpt>
   <trkpt lat="-37.87778" lon="145.34271">
    <ele>506.94000000000005</ele>
   </trkpt>
   <trkpt lat="-37.87722" lon="145.34272">
    <ele>508.06000000000006</ele>
   </trkpt>
   <trkpt lat="-37.87688" lon="145.3428">
    <ele>507.6400000000001</ele>
   </trkpt>
   <trkpt lat="-37.8763" lon="145.34273000000002">
    <ele>510.87000000000006</ele>
   </trkpt>
   <trkpt lat="-37.87599" lon="145.34278">
    <ele>511.93</ele>
   </trkpt>
   <trkpt lat="-37.87585" lon="145.34284000000002">
    <ele>512.5300000000001</ele>
   </trkpt>
   <trkpt lat="-37.87574" lon="145.34297">
    <ele>513.37</ele>
   </trkpt>
   <trkpt lat="-37.875510000000006" lon="145.34301000000002">
    <ele>504.24</ele>
   </trkpt>
   <trkpt lat="-37.875370000000004" lon="145.34295">
    <ele>502.58000000000004</ele>
   </trkpt>
   <trkpt lat="-37.875350000000005" lon="145.3428">
    <ele>502.26000000000005</ele>
   </trkpt>
   <trkpt lat="-37.8751" lon="145.34298">
    <ele>502.07</ele>
   </trkpt>
   <trkpt lat="-37.87505" lon="145.34289">
    <ele>502.2000000000001</ele>
   </trkpt>
   <trkpt lat="-37.8744" lon="145.34218">
    <ele>496.32000000000005</ele>
   </trkpt>
   <trkpt lat="-37.87406" lon="145.34185000000002">
    <ele>495.53000000000003</ele>
   </trkpt>
   <trkpt lat="-37.87375" lon="145.34154">
    <ele>492.21000000000004</ele>
   </trkpt>
   <trkpt lat="-37.87306" lon="145.34097">
    <ele>486.19000000000005</ele>
   </trkpt>
   <trkpt lat="-37.87263" lon="145.34077000000002">
    <ele>483.39000000000004</ele>
   </trkpt>
   <trkpt lat="-37.87241" lon="145.34055">
    <ele>481.35</ele>
   </trkpt>
   <trkpt lat="-37.87214" lon="145.34019">
    <ele>477.37</ele>
   </trkpt>
   <trkpt lat="-37.87185" lon="145.33992">
    <ele>475.45000000000005</ele>
   </trkpt>
   <trkpt lat="-37.87153" lon="145.33975">
    <ele>473.1</ele>
   </trkpt>
   <trkpt lat="-37.871210000000005" lon="145.33964">
    <ele>470.63000000000005</ele>
   </trkpt>
   <trkpt lat="-37.87106" lon="145.33963">
    <ele>469.18</ele>
   </trkpt>
   <trkpt lat="-37.87082" lon="145.33948">
    <ele>466.95000000000005</ele>
   </trkpt>
   <trkpt lat="-37.87059" lon="145.33917000000002">
    <ele>465.0</ele>
   </trkpt>
   <trkpt lat="-37.87037" lon="145.33894">
    <ele>462.61</ele>
   </trkpt>
   <trkpt lat="-37.87019" lon="145.33884">
    <ele>462.68</ele>
   </trkpt>
   <trkpt lat="-37.8701" lon="145.33884">
    <ele>462.68</ele>
   </trkpt>
   <trkpt lat="-37.86954" lon="145.33893">
    <ele>461.3</ele>
   </trkpt>
   <trkpt lat="-37.86941" lon="145.33893">
    <ele>459.56</ele>
   </trkpt>
   <trkpt lat="-37.86918" lon="145.33896000000001">
    <ele>457.6000000000001</ele>
   </trkpt>
   <trkpt lat="-37.86891" lon="145.33893">
    <ele>455.49000000000007</ele>
   </trkpt>
   <trkpt lat="-37.86849" lon="145.33881000000002">
    <ele>452.55000000000007</ele>
   </trkpt>
   <trkpt lat="-37.86822" lon="145.33868">
    <ele>450.73</ele>
   </trkpt>
   <trkpt lat="-37.86786" lon="145.33862000000002">
    <ele>447.24</ele>
   </trkpt>
   <trkpt lat="-37.86771" lon="145.33857">
    <ele>446.08000000000004</ele>
   </trkpt>
   <trkpt lat="-37.86755" lon="145.33847">
    <ele>445.09000000000003</ele>
   </trkpt>
   <trkpt lat="-37.867250000000006" lon="145.33818000000002">
    <ele>446.14000000000004</ele>
   </trkpt>
   <trkpt lat="-37.86679" lon="145.33809000000002">
    <ele>451.54</ele>
   </trkpt>
   <trkpt lat="-37.8667" lon="145.33810000000003">
    <ele>452.96000000000004</ele>
   </trkpt>
   <trkpt lat="-37.86663" lon="145.33813">
    <ele>452.96000000000004</ele>
   </trkpt>
   <trkpt lat="-37.86652" lon="145.33824">
    <ele>454.35</ele>
   </trkpt>
   <trkpt lat="-37.866530000000004" lon="145.33823">
    <ele>454.35</ele>
   </trkpt>
   <trkpt lat="-37.86647" lon="145.33834000000002">
    <ele>455.14000000000004</ele>
   </trkpt>
   <trkpt lat="-37.86639" lon="145.33861000000002">
    <ele>457.12</ele>
   </trkpt>
   <trkpt lat="-37.86612" lon="145.33962000000002">
    <ele>465.44</ele>
   </trkpt>
   <trkpt lat="-37.866" lon="145.33999">
    <ele>468.06</ele>
   </trkpt>
   <trkpt lat="-37.8659000013994" lon="145.34057000092133">
    <ele>472.82</ele>
   </trkpt>
   <trkpt lat="-37.8658" lon="145.34115">
    <ele>479.64000000000004</ele>
   </trkpt>
   <trkpt lat="-37.86571" lon="145.34146">
    <ele>481.47</ele>
   </trkpt>
   <trkpt lat="-37.86567" lon="145.3417">
    <ele>482.47</ele>
   </trkpt>
   <trkpt lat="-37.865610000000004" lon="145.34172">
    <ele>482.47</ele>
   </trkpt>
   <trkpt lat="-37.86565" lon="145.34188">
    <ele>481.95000000000005</ele>
   </trkpt>
   <trkpt lat="-37.86587" lon="145.34215">
    <ele>480.65000000000003</ele>
   </trkpt>
   <trkpt lat="-37.86634" lon="145.34241">
    <ele>479.39000000000004</ele>
   </trkpt>
   <trkpt lat="-37.86663" lon="145.34261">
    <ele>478.05</ele>
   </trkpt>
   <trkpt lat="-37.86717" lon="145.34283000000002">
    <ele>479.62000000000006</ele>
   </trkpt>
   <trkpt lat="-37.86741" lon="145.34287">
    <ele>482.39000000000004</ele>
   </trkpt>
   <trkpt lat="-37.86766" lon="145.34284000000002">
    <ele>486.36</ele>
   </trkpt>
   <trkpt lat="-37.86838" lon="145.34305">
    <ele>490.99</ele>
   </trkpt>
   <trkpt lat="-37.86891" lon="145.34316">
    <ele>494.00000000000006</ele>
   </trkpt>
   <trkpt lat="-37.86914" lon="145.34323">
    <ele>494.8500000000001</ele>
   </trkpt>
   <trkpt lat="-37.86992" lon="145.34339">
    <ele>498.68000000000006</ele>
   </trkpt>
   <trkpt lat="-37.86992" lon="145.34348">
    <ele>497.71000000000004</ele>
   </trkpt>
   <trkpt lat="-37.86997" lon="145.34354000000002">
    <ele>497.03000000000003</ele>
   </trkpt>
   <trkpt lat="-37.87026" lon="145.34375">
    <ele>493.17</ele>
   </trkpt>
   <trkpt lat="-37.87037" lon="145.34387">
    <ele>493.94000000000005</ele>
   </trkpt>
   <trkpt lat="-37.87066" lon="145.34400000000002">
    <ele>501.21999999999997</ele>
   </trkpt>
   <trkpt lat="-37.87088" lon="145.34415">
    <ele>503.61</ele>
   </trkpt>
   <trkpt lat="-37.871080000000006" lon="145.34421">
    <ele>508.12</ele>
   </trkpt>
   <trkpt lat="-37.87109" lon="145.34422">
    <ele>508.12</ele>
   </trkpt>
   <trkpt lat="-37.87071" lon="145.34472000000002">
    <ele>507.6400000000001</ele>
   </trkpt>
   <trkpt lat="-37.87024" lon="145.34483">
    <ele>505.7900000000001</ele>
   </trkpt>
   <trkpt lat="-37.86983" lon="145.34474">
    <ele>505.49</ele>
   </trkpt>
   <trkpt lat="-37.86956" lon="145.34455">
    <ele>501.82000000000005</ele>
   </trkpt>
   <trkpt lat="-37.86907" lon="145.34435000000002">
    <ele>494.99</ele>
   </trkpt>
   <trkpt lat="-37.86889" lon="145.34432">
    <ele>493.90000000000003</ele>
   </trkpt>
   <trkpt lat="-37.86862" lon="145.34431">
    <ele>492.25</ele>
   </trkpt>
   <trkpt lat="-37.86844" lon="145.34437">
    <ele>491.40000000000003</ele>
   </trkpt>
   <trkpt lat="-37.86792500002919" lon="145.3444400004881">
    <ele>488.54</ele>
   </trkpt>
   <trkpt lat="-37.86741" lon="145.34451">
    <ele>483.53000000000003</ele>
   </trkpt>
   <trkpt lat="-37.86697" lon="145.34459">
    <ele>478.86000000000007</ele>
   </trkpt>
   <trkpt lat="-37.86621" lon="145.34518">
    <ele>470.43</ele>
   </trkpt>
   <trkpt lat="-37.86594" lon="145.34546">
    <ele>478.04</ele>
   </trkpt>
   <trkpt lat="-37.86589" lon="145.34556">
    <ele>478.04</ele>
   </trkpt>
   <trkpt lat="-37.866" lon="145.34601">
    <ele>491.17</ele>
   </trkpt>
   <trkpt lat="-37.866" lon="145.34609">
    <ele>493.63</ele>
   </trkpt>
   <trkpt lat="-37.86598" lon="145.34626">
    <ele>496.99</ele>
   </trkpt>
   <trkpt lat="-37.86589" lon="145.34647">
    <ele>502.6400000000001</ele>
   </trkpt>
   <trkpt lat="-37.8659" lon="145.34657">
    <ele>502.6400000000001</ele>
   </trkpt>
   <trkpt lat="-37.865370000000006" lon="145.34673">
    <ele>507.75</ele>
   </trkpt>
   <trkpt lat="-37.86502" lon="145.34686000000002">
    <ele>510.21999999999997</ele>
   </trkpt>
   <trkpt lat="-37.86482" lon="145.34718">
    <ele>513.75</ele>
   </trkpt>
   <trkpt lat="-37.864810000000006" lon="145.34757000000002">
    <ele>518.63</ele>
   </trkpt>
   <trkpt lat="-37.86484" lon="145.34797">
    <ele>521.81</ele>
   </trkpt>
   <trkpt lat="-37.86491" lon="145.34814">
    <ele>524.94</ele>
   </trkpt>
   <trkpt lat="-37.86497" lon="145.34822">
    <ele>526.3500000000001</ele>
   </trkpt>
   <trkpt lat="-37.86496" lon="145.34829000000002">
    <ele>526.46</ele>
   </trkpt>
   <trkpt lat="-37.86491" lon="145.34857000000002">
    <ele>524.61</ele>
   </trkpt>
   <trkpt lat="-37.864695001511485" lon="145.3491700017808">
    <ele>520.27</ele>
   </trkpt>
   <trkpt lat="-37.86448" lon="145.34977">
    <ele>514.1999999999999</ele>
   </trkpt>
   <trkpt lat="-37.86417" lon="145.35060000000001">
    <ele>503.18000000000006</ele>
   </trkpt>
   <trkpt lat="-37.8641" lon="145.35074">
    <ele>501.0300000000001</ele>
   </trkpt>
   <trkpt lat="-37.8641" lon="145.35089000000002">
    <ele>499.88000000000005</ele>
   </trkpt>
   <trkpt lat="-37.864050000000006" lon="145.35102">
    <ele>498.28000000000003</ele>
   </trkpt>
   <trkpt lat="-37.86379" lon="145.35118">
    <ele>490.09000000000003</ele>
   </trkpt>
   <trkpt lat="-37.86368" lon="145.35119">
    <ele>488.02000000000004</ele>
   </trkpt>
   <trkpt lat="-37.86359" lon="145.35126000000002">
    <ele>485.35</ele>
   </trkpt>
   <trkpt lat="-37.8635" lon="145.3513">
    <ele>483.92</ele>
   </trkpt>
   <trkpt lat="-37.863420000000005" lon="145.35147">
    <ele>481.82</ele>
   </trkpt>
   <trkpt lat="-37.8633" lon="145.35153000000003">
    <ele>481.55</ele>
   </trkpt>
   <trkpt lat="-37.863110000000006" lon="145.35169000000002">
    <ele>481.12000000000006</ele>
   </trkpt>
   <trkpt lat="-37.86309" lon="145.35176">
    <ele>481.46000000000004</ele>
   </trkpt>
   <trkpt lat="-37.86312" lon="145.35186000000002">
    <ele>481.68000000000006</ele>
   </trkpt>
   <trkpt lat="-37.863400000000006" lon="145.35247">
    <ele>484.90000000000003</ele>
   </trkpt>
   <trkpt lat="-37.863690000000005" lon="145.3531">
    <ele>479.08000000000004</ele>
   </trkpt>
   <trkpt lat="-37.863350000000004" lon="145.35333">
    <ele>478.81</ele>
   </trkpt>
   <trkpt lat="-37.862840000000006" lon="145.35371">
    <ele>480.52000000000004</ele>
   </trkpt>
   <trkpt lat="-37.86298" lon="145.35408">
    <ele>481.26</ele>
   </trkpt>
   <trkpt lat="-37.86316" lon="145.35444">
    <ele>483.50000000000006</ele>
   </trkpt>
   <trkpt lat="-37.86334" lon="145.35476">
    <ele>476.93</ele>
   </trkpt>
   <trkpt lat="-37.86345" lon="145.35489">
    <ele>473.74000000000007</ele>
   </trkpt>
   <trkpt lat="-37.863600000000005" lon="145.35494">
    <ele>472.36000000000007</ele>
   </trkpt>
   <trkpt lat="-37.86415" lon="145.35496">
    <ele>460.12</ele>
   </trkpt>
   <trkpt lat="-37.86435" lon="145.35499000000002">
    <ele>451.6</ele>
   </trkpt>
   <trkpt lat="-37.8645" lon="145.35506">
    <ele>448.81000000000006</ele>
   </trkpt>
   <trkpt lat="-37.86486" lon="145.35513">
    <ele>438.75</ele>
   </trkpt>
   <trkpt lat="-37.86502" lon="145.35512">
    <ele>436.62</ele>
   </trkpt>
   <trkpt lat="-37.8652" lon="145.35519000000002">
    <ele>428.64</ele>
   </trkpt>
   <trkpt lat="-37.86547" lon="145.35535000000002">
    <ele>424.12000000000006</ele>
   </trkpt>
   <trkpt lat="-37.86585" lon="145.3554">
    <ele>417.15000000000003</ele>
   </trkpt>
   <trkpt lat="-37.86598" lon="145.35555000000002">
    <ele>415.38</ele>
   </trkpt>
   <trkpt lat="-37.86598" lon="145.35567">
    <ele>414.25</ele>
   </trkpt>
   <trkpt lat="-37.865930000000006" lon="145.35577">
    <ele>413.85</ele>
   </trkpt>
   <trkpt lat="-37.86589" lon="145.35596">
    <ele>424.58</ele>
   </trkpt>
   <trkpt lat="-37.86589" lon="145.35612">
    <ele>430.64</ele>
   </trkpt>
   <trkpt lat="-37.86605" lon="145.35616000000002">
    <ele>434.84000000000003</ele>
   </trkpt>
   <trkpt lat="-37.86623" lon="145.35623">
    <ele>446.00000000000006</ele>
   </trkpt>
   <trkpt lat="-37.8665" lon="145.35665">
    <ele>440.37</ele>
   </trkpt>
   <trkpt lat="-37.86654" lon="145.35708000000002">
    <ele>436.6</ele>
   </trkpt>
   <trkpt lat="-37.86674" lon="145.35733000000002">
    <ele>434.36</ele>
   </trkpt>
   <trkpt lat="-37.86694" lon="145.35745">
    <ele>433.42</ele>
   </trkpt>
   <trkpt lat="-37.86715" lon="145.35776">
    <ele>432.8</ele>
   </trkpt>
   <trkpt lat="-37.86728" lon="145.35787000000002">
    <ele>431.38000000000005</ele>
   </trkpt>
   <trkpt lat="-37.86737" lon="145.35797000000002">
    <ele>430.86</ele>
   </trkpt>
   <trkpt lat="-37.86748" lon="145.35804000000002">
    <ele>430.45000000000005</ele>
   </trkpt>
   <trkpt lat="-37.86766" lon="145.3582">
    <ele>429.91</ele>
   </trkpt>
   <trkpt lat="-37.86768" lon="145.35825">
    <ele>429.71000000000004</ele>
   </trkpt>
   <trkpt lat="-37.86773" lon="145.35860000000002">
    <ele>429.00000000000006</ele>
   </trkpt>
   <trkpt lat="-37.86793" lon="145.35878000000002">
    <ele>429.2900000000001</ele>
   </trkpt>
   <trkpt lat="-37.86806" lon="145.35901">
    <ele>428.33000000000004</ele>
   </trkpt>
   <trkpt lat="-37.8682" lon="145.35908">
    <ele>428.01000000000005</ele>
   </trkpt>
   <trkpt lat="-37.86871" lon="145.35917">
    <ele>427.03000000000003</ele>
   </trkpt>
   <trkpt lat="-37.86887" lon="145.35943">
    <ele>424.83000000000004</ele>
   </trkpt>
   <trkpt lat="-37.869220000000006" lon="145.35977000000003">
    <ele>422.77000000000004</ele>
   </trkpt>
   <trkpt lat="-37.8695" lon="145.36015">
    <ele>421.3</ele>
   </trkpt>
   <trkpt lat="-37.86963" lon="145.36053">
    <ele>418.44</ele>
   </trkpt>
   <trkpt lat="-37.86972" lon="145.36065000000002">
    <ele>417.82</ele>
   </trkpt>
   <trkpt lat="-37.86999" lon="145.36083000000002">
    <ele>417.14</ele>
   </trkpt>
   <trkpt lat="-37.87071" lon="145.36105">
    <ele>414.49</ele>
   </trkpt>
   <trkpt lat="-37.87113" lon="145.36123">
    <ele>412.37</ele>
   </trkpt>
   <trkpt lat="-37.87182" lon="145.36126000000002">
    <ele>411.0</ele>
   </trkpt>
   <trkpt lat="-37.87205" lon="145.36114">
    <ele>410.51000000000005</ele>
   </trkpt>
   <trkpt lat="-37.87221" lon="145.36118000000002">
    <ele>409.38</ele>
   </trkpt>
   <trkpt lat="-37.87234" lon="145.36127000000002">
    <ele>408.71000000000004</ele>
   </trkpt>
   <trkpt lat="-37.87243" lon="145.36129000000003">
    <ele>407.69000000000005</ele>
   </trkpt>
   <trkpt lat="-37.87292" lon="145.36119000000002">
    <ele>404.93</ele>
   </trkpt>
   <trkpt lat="-37.87326" lon="145.36121">
    <ele>400.1</ele>
   </trkpt>
   <trkpt lat="-37.87339" lon="145.36129000000003">
    <ele>397.67</ele>
   </trkpt>
   <trkpt lat="-37.873580000000004" lon="145.36148">
    <ele>395.52000000000004</ele>
   </trkpt>
   <trkpt lat="-37.87357" lon="145.36147000000003">
    <ele>395.52000000000004</ele>
   </trkpt>
   <trkpt lat="-37.87377" lon="145.36196">
    <ele>392.52000000000004</ele>
   </trkpt>
   <trkpt lat="-37.87377" lon="145.36206">
    <ele>376.11000000000007</ele>
   </trkpt>
   <trkpt lat="-37.87368" lon="145.36225000000002">
    <ele>376.83000000000004</ele>
   </trkpt>
   <trkpt lat="-37.87384" lon="145.36255">
    <ele>378.57</ele>
   </trkpt>
   <trkpt lat="-37.87402" lon="145.36301">
    <ele>380.83000000000004</ele>
   </trkpt>
   <trkpt lat="-37.87404" lon="145.36343000000002">
    <ele>383.62</ele>
   </trkpt>
   <trkpt lat="-37.87426" lon="145.36375">
    <ele>383.18</ele>
   </trkpt>
   <trkpt lat="-37.87438" lon="145.36402">
    <ele>383.18</ele>
   </trkpt>
   <trkpt lat="-37.87438" lon="145.3642">
    <ele>383.56</ele>
   </trkpt>
   <trkpt lat="-37.87435" lon="145.36442000000002">
    <ele>384.57</ele>
   </trkpt>
   <trkpt lat="-37.87435" lon="145.36469000000002">
    <ele>385.45</ele>
   </trkpt>
   <trkpt lat="-37.874660000000006" lon="145.36564">
    <ele>382.74</ele>
   </trkpt>
   <trkpt lat="-37.8748" lon="145.366">
    <ele>382.37000000000006</ele>
   </trkpt>
   <trkpt lat="-37.87482" lon="145.36644">
    <ele>383.53000000000003</ele>
   </trkpt>
   <trkpt lat="-37.87489" lon="145.36658">
    <ele>383.09000000000003</ele>
   </trkpt>
   <trkpt lat="-37.87514" lon="145.36678">
    <ele>380.04</ele>
   </trkpt>
   <trkpt lat="-37.87523" lon="145.36692000000002">
    <ele>379.79</ele>
   </trkpt>
   <trkpt lat="-37.87559" lon="145.36734">
    <ele>377.11000000000007</ele>
   </trkpt>
   <trkpt lat="-37.8757" lon="145.3675">
    <ele>374.72</ele>
   </trkpt>
   <trkpt lat="-37.875690000000006" lon="145.36763000000002">
    <ele>373.94000000000005</ele>
   </trkpt>
   <trkpt lat="-37.87561" lon="145.36791000000002">
    <ele>372.95</ele>
   </trkpt>
   <trkpt lat="-37.875510000000006" lon="145.36811">
    <ele>372.75</ele>
   </trkpt>
   <trkpt lat="-37.87545" lon="145.3683">
    <ele>372.58000000000004</ele>
   </trkpt>
   <trkpt lat="-37.87554" lon="145.36892">
    <ele>369.4</ele>
   </trkpt>
   <trkpt lat="-37.87554" lon="145.36915000000002">
    <ele>370.07</ele>
   </trkpt>
   <trkpt lat="-37.87545" lon="145.36945">
    <ele>372.05</ele>
   </trkpt>
   <trkpt lat="-37.87541" lon="145.36953000000003">
    <ele>373.63</ele>
   </trkpt>
   <trkpt lat="-37.87536" lon="145.36978000000002">
    <ele>374.53000000000003</ele>
   </trkpt>
   <trkpt lat="-37.87541" lon="145.37033000000002">
    <ele>369.02</ele>
   </trkpt>
   <trkpt lat="-37.8755" lon="145.37059000000002">
    <ele>365.38000000000005</ele>
   </trkpt>
   <trkpt lat="-37.875600000000006" lon="145.37072">
    <ele>363.69</ele>
   </trkpt>
   <trkpt lat="-37.87608" lon="145.37106">
    <ele>359.06000000000006</ele>
   </trkpt>
   <trkpt lat="-37.87614000000001" lon="145.37109">
    <ele>359.06000000000006</ele>
   </trkpt>
   <trkpt lat="-37.87635" lon="145.37115">
    <ele>341.91</ele>
   </trkpt>
   <trkpt lat="-37.8765" lon="145.37138000000002">
    <ele>334.26</ele>
   </trkpt>
   <trkpt lat="-37.87675" lon="145.37167000000002">
    <ele>333.75000000000006</ele>
   </trkpt>
   <trkpt lat="-37.876850000000005" lon="145.37126">
    <ele>334.42</ele>
   </trkpt>
   <trkpt lat="-37.87691" lon="145.37124">
    <ele>345.51000000000005</ele>
   </trkpt>
   <trkpt lat="-37.87704" lon="145.37123000000003">
    <ele>346.48</ele>
   </trkpt>
   <trkpt lat="-37.87742" lon="145.37142">
    <ele>345.23</ele>
   </trkpt>
   <trkpt lat="-37.877660000000006" lon="145.37156000000002">
    <ele>344.92</ele>
   </trkpt>
   <trkpt lat="-37.87769" lon="145.37155">
    <ele>345.21000000000004</ele>
   </trkpt>
   <trkpt lat="-37.87811000271392" lon="145.37074500464135">
    <ele>351.23</ele>
   </trkpt>
   <trkpt lat="-37.878530000000005" lon="145.36994">
    <ele>355.00000000000006</ele>
   </trkpt>
   <trkpt lat="-37.879110000000004" lon="145.36958">
    <ele>359.99</ele>
   </trkpt>
   <trkpt lat="-37.87921" lon="145.36938">
    <ele>364.71000000000004</ele>
   </trkpt>
   <trkpt lat="-37.879740000000005" lon="145.36895">
    <ele>366.88000000000005</ele>
   </trkpt>
   <trkpt lat="-37.880190000000006" lon="145.36891">
    <ele>371.92</ele>
   </trkpt>
   <trkpt lat="-37.88017" lon="145.36993">
    <ele>354.42</ele>
   </trkpt>
   <trkpt lat="-37.88027" lon="145.37016">
    <ele>351.0</ele>
   </trkpt>
   <trkpt lat="-37.88073" lon="145.36995000000002">
    <ele>353.85</ele>
   </trkpt>
   <trkpt lat="-37.88125999991606" lon="145.36994000007357">
    <ele>357.62000000000006</ele>
   </trkpt>
   <trkpt lat="-37.88179" lon="145.36993">
    <ele>359.50000000000006</ele>
   </trkpt>
   <trkpt lat="-37.88237" lon="145.36998">
    <ele>357.39000000000004</ele>
   </trkpt>
   <trkpt lat="-37.8825" lon="145.37009">
    <ele>356.50000000000006</ele>
   </trkpt>
   <trkpt lat="-37.88257" lon="145.37024000000002">
    <ele>355.49</ele>
   </trkpt>
   <trkpt lat="-37.88259" lon="145.37050000000002">
    <ele>355.45000000000005</ele>
   </trkpt>
   <trkpt lat="-37.88255" lon="145.37072">
    <ele>356.39000000000004</ele>
   </trkpt>
   <trkpt lat="-37.88246" lon="145.37092">
    <ele>356.81</ele>
   </trkpt>
   <trkpt lat="-37.88226" lon="145.37123000000003">
    <ele>358.69</ele>
   </trkpt>
   <trkpt lat="-37.882250000000006" lon="145.37132000000003">
    <ele>357.97</ele>
   </trkpt>
   <trkpt lat="-37.88195" lon="145.37149000000002">
    <ele>356.76</ele>
   </trkpt>
   <trkpt lat="-37.8819" lon="145.37178">
    <ele>361.13</ele>
   </trkpt>
   <trkpt lat="-37.88192500181996" lon="145.3724349999213">
    <ele>369.64000000000004</ele>
   </trkpt>
   <trkpt lat="-37.88195" lon="145.37309000000002">
    <ele>380.20000000000005</ele>
   </trkpt>
   <trkpt lat="-37.88261" lon="145.37303">
    <ele>385.28000000000003</ele>
   </trkpt>
   <trkpt lat="-37.88279" lon="145.37299000000002">
    <ele>386.86</ele>
   </trkpt>
   <trkpt lat="-37.88304" lon="145.37297">
    <ele>390.57</ele>
   </trkpt>
   <trkpt lat="-37.88356" lon="145.37298">
    <ele>401.0</ele>
   </trkpt>
   <trkpt lat="-37.884015000188214" lon="145.37297500002884">
    <ele>413.22</ele>
   </trkpt>
   <trkpt lat="-37.88447" lon="145.37297">
    <ele>421.35</ele>
   </trkpt>
   <trkpt lat="-37.88535" lon="145.37292000000002">
    <ele>430.00000000000006</ele>
   </trkpt>
   <trkpt lat="-37.88511500135821" lon="145.37235499821637">
    <ele>407.0</ele>
   </trkpt>
   <trkpt lat="-37.88488" lon="145.37179">
    <ele>386.01</ele>
   </trkpt>
   <trkpt lat="-37.884890001785294" lon="145.3711400001952">
    <ele>377.07</ele>
   </trkpt>
   <trkpt lat="-37.8849" lon="145.37049000000002">
    <ele>372.23</ele>
   </trkpt>
   <trkpt lat="-37.88506" lon="145.37043">
    <ele>370.62</ele>
   </trkpt>
   <trkpt lat="-37.885200000000005" lon="145.3708">
    <ele>370.85</ele>
   </trkpt>
   <trkpt lat="-37.88543000000001" lon="145.37133">
    <ele>373.3</ele>
   </trkpt>
   <trkpt lat="-37.88552" lon="145.37135">
    <ele>376.48</ele>
   </trkpt>
   <trkpt lat="-37.88557" lon="145.37139000000002">
    <ele>376.48</ele>
   </trkpt>
   <trkpt lat="-37.88584" lon="145.37130000000002">
    <ele>374.25</ele>
   </trkpt>
   <trkpt lat="-37.88617" lon="145.37130000000002">
    <ele>372.8</ele>
   </trkpt>
   <trkpt lat="-37.88635" lon="145.37127">
    <ele>371.39000000000004</ele>
   </trkpt>
   <trkpt lat="-37.88644" lon="145.37119">
    <ele>370.86</ele>
   </trkpt>
   <trkpt lat="-37.8866" lon="145.37096000000003">
    <ele>369.45000000000005</ele>
   </trkpt>
   <trkpt lat="-37.886770000000006" lon="145.37092">
    <ele>368.91</ele>
   </trkpt>
   <trkpt lat="-37.88682" lon="145.37084000000002">
    <ele>368.91</ele>
   </trkpt>
   <trkpt lat="-37.88689" lon="145.37066000000002">
    <ele>368.62</ele>
   </trkpt>
   <trkpt lat="-37.886860000000006" lon="145.37055">
    <ele>366.59000000000003</ele>
   </trkpt>
   <trkpt lat="-37.88729" lon="145.37024000000002">
    <ele>363.24</ele>
   </trkpt>
   <trkpt lat="-37.88732" lon="145.37018">
    <ele>363.09000000000003</ele>
   </trkpt>
  </trkseg>
 </trk>
</gpx>
