<?xml version="1.0" encoding="UTF-8"?>
<gpx creator="StravaGPX" version="1.1" xmlns="http://www.topografix.com/GPX/1/1" xmlns:xsi="http://www.w3.org/2001/XMLSchema-instance" xsi:schemaLocation="http://www.topografix.com/GPX/1/1 http://www.topografix.com/GPX/1/1/gpx.xsd">
 <metadata>
  <name>Sunday 29 Sept 2024 - 20k Sassafras</name>
  <author>
   <name>john csorgo</name>
  </author>
  <copyright author="OpenStreetMap contributors">
   <year>2020</year>
   <license>https://www.openstreetmap.org/copyright</license>
  </copyright>
 </metadata>
 <trk>
  <name>Sunday 29 Sept 2024 - 20k Sassafras</name>
  <link href=""/>
  <type>running</type>
  <trkseg>
   <trkpt lat="-37.862860000000005" lon="145.35369">
    <ele>479.94</ele>
   </trkpt>
   <trkpt lat="-37.86229" lon="145.35409">
    <ele>481.72</ele>
   </trkpt>
   <trkpt lat="-37.86198" lon="145.35437000000002">
    <ele>485.07000000000005</ele>
   </trkpt>
   <trkpt lat="-37.86153" lon="145.35481000000001">
    <ele>487.97</ele>
   </trkpt>
   <trkpt lat="-37.86102" lon="145.35539">
    <ele>491.04</ele>
   </trkpt>
   <trkpt lat="-37.86108" lon="145.35531">
    <ele>490.72</ele>
   </trkpt>
   <trkpt lat="-37.86086" lon="145.35562000000002">
    <ele>492.08</ele>
   </trkpt>
   <trkpt lat="-37.86079" lon="145.35580000000002">
    <ele>492.53000000000003</ele>
   </trkpt>
   <trkpt lat="-37.86079" lon="145.35600000000002">
    <ele>492.78000000000003</ele>
   </trkpt>
   <trkpt lat="-37.86084" lon="145.3562">
    <ele>493.14</ele>
   </trkpt>
   <trkpt lat="-37.86074" lon="145.3561">
    <ele>494.84000000000003</ele>
   </trkpt>
   <trkpt lat="-37.86063" lon="145.35594">
    <ele>499.81</ele>
   </trkpt>
   <trkpt lat="-37.86061" lon="145.35545000000002">
    <ele>511.07</ele>
   </trkpt>
   <trkpt lat="-37.86059" lon="145.35531">
    <ele>512.61</ele>
   </trkpt>
   <trkpt lat="-37.860130000000005" lon="145.35449">
    <ele>513.0100000000001</ele>
   </trkpt>
   <trkpt lat="-37.85981" lon="145.35401000000002">
    <ele>512.3000000000001</ele>
   </trkpt>
   <trkpt lat="-37.85969" lon="145.35411000000002">
    <ele>514.4000000000001</ele>
   </trkpt>
   <trkpt lat="-37.85942" lon="145.35421000000002">
    <ele>522.12</ele>
   </trkpt>
   <trkpt lat="-37.85915" lon="145.35439000000002">
    <ele>532.3100000000001</ele>
   </trkpt>
   <trkpt lat="-37.85889" lon="145.35466000000002">
    <ele>539.08</ele>
   </trkpt>
   <trkpt lat="-37.85877" lon="145.35487">
    <ele>546.62</ele>
   </trkpt>
   <trkpt lat="-37.85866" lon="145.35498">
    <ele>550.0400000000001</ele>
   </trkpt>
   <trkpt lat="-37.85846" lon="145.35508000000002">
    <ele>554.73</ele>
   </trkpt>
   <trkpt lat="-37.85826" lon="145.35524">
    <ele>560.32</ele>
   </trkpt>
   <trkpt lat="-37.85792" lon="145.35547000000003">
    <ele>569.2400000000001</ele>
   </trkpt>
   <trkpt lat="-37.85774" lon="145.3557">
    <ele>574.1400000000001</ele>
   </trkpt>
   <trkpt lat="-37.85765" lon="145.35573000000002">
    <ele>574.79</ele>
   </trkpt>
   <trkpt lat="-37.85756000000001" lon="145.35572000000002">
    <ele>575.1700000000001</ele>
   </trkpt>
   <trkpt lat="-37.85745" lon="145.35598000000002">
    <ele>575.16</ele>
   </trkpt>
   <trkpt lat="-37.85752" lon="145.35645000000002">
    <ele>575.59</ele>
   </trkpt>
   <trkpt lat="-37.85748" lon="145.35684">
    <ele>576.13</ele>
   </trkpt>
   <trkpt lat="-37.857220000000005" lon="145.35777000000002">
    <ele>576.73</ele>
   </trkpt>
   <trkpt lat="-37.85714" lon="145.35814000000002">
    <ele>579.52</ele>
   </trkpt>
   <trkpt lat="-37.85700500323966" lon="145.35901500158764">
    <ele>590.61</ele>
   </trkpt>
   <trkpt lat="-37.85687" lon="145.35989">
    <ele>599.87</ele>
   </trkpt>
   <trkpt lat="-37.856680000000004" lon="145.36065000000002">
    <ele>601.01</ele>
   </trkpt>
   <trkpt lat="-37.85663" lon="145.36111000000002">
    <ele>596.36</ele>
   </trkpt>
   <trkpt lat="-37.856440000000006" lon="145.36187">
    <ele>587.52</ele>
   </trkpt>
   <trkpt lat="-37.856440000000006" lon="145.36186">
    <ele>587.53</ele>
   </trkpt>
   <trkpt lat="-37.85629" lon="145.36248">
    <ele>583.3600000000001</ele>
   </trkpt>
   <trkpt lat="-37.85624" lon="145.36303">
    <ele>578.89</ele>
   </trkpt>
   <trkpt lat="-37.85606000000001" lon="145.36398">
    <ele>574.2</ele>
   </trkpt>
   <trkpt lat="-37.85605" lon="145.36415000000002">
    <ele>573.8700000000001</ele>
   </trkpt>
   <trkpt lat="-37.856010000000005" lon="145.36421">
    <ele>573.57</ele>
   </trkpt>
   <trkpt lat="-37.855940000000004" lon="145.36425">
    <ele>570.61</ele>
   </trkpt>
   <trkpt lat="-37.85598" lon="145.36440000000002">
    <ele>570.71</ele>
   </trkpt>
   <trkpt lat="-37.85591" lon="145.36474">
    <ele>570.4200000000001</ele>
   </trkpt>
   <trkpt lat="-37.85591" lon="145.36497">
    <ele>569.73</ele>
   </trkpt>
   <trkpt lat="-37.85582" lon="145.36514000000003">
    <ele>570.22</ele>
   </trkpt>
   <trkpt lat="-37.855760000000004" lon="145.36512000000002">
    <ele>570.95</ele>
   </trkpt>
   <trkpt lat="-37.85557000793921" lon="145.36609000509046">
    <ele>573.3000000000001</ele>
   </trkpt>
   <trkpt lat="-37.855380007921475" lon="145.36706000518086">
    <ele>573.91</ele>
   </trkpt>
   <trkpt lat="-37.85519" lon="145.36803">
    <ele>573.4100000000001</ele>
   </trkpt>
   <trkpt lat="-37.85499" lon="145.36845000000002">
    <ele>572.69</ele>
   </trkpt>
   <trkpt lat="-37.854580000000006" lon="145.36896000000002">
    <ele>572.33</ele>
   </trkpt>
   <trkpt lat="-37.85445" lon="145.36905000000002">
    <ele>572.49</ele>
   </trkpt>
   <trkpt lat="-37.85421" lon="145.36937">
    <ele>572.8100000000001</ele>
   </trkpt>
   <trkpt lat="-37.85412500393108" lon="145.37033500118534">
    <ele>575.72</ele>
   </trkpt>
   <trkpt lat="-37.854040000000005" lon="145.37130000000002">
    <ele>578.6300000000001</ele>
   </trkpt>
   <trkpt lat="-37.854020000000006" lon="145.37171">
    <ele>579.21</ele>
   </trkpt>
   <trkpt lat="-37.85405" lon="145.37220000000002">
    <ele>579.9000000000001</ele>
   </trkpt>
   <trkpt lat="-37.85414" lon="145.37239000000002">
    <ele>579.45</ele>
   </trkpt>
   <trkpt lat="-37.8543" lon="145.37263000000002">
    <ele>579.2700000000001</ele>
   </trkpt>
   <trkpt lat="-37.85448" lon="145.37287">
    <ele>578.98</ele>
   </trkpt>
   <trkpt lat="-37.85484500071746" lon="145.3732699980644">
    <ele>578.13</ele>
   </trkpt>
   <trkpt lat="-37.85521" lon="145.37367">
    <ele>578.08</ele>
   </trkpt>
   <trkpt lat="-37.85531" lon="145.37379">
    <ele>578.1800000000001</ele>
   </trkpt>
   <trkpt lat="-37.85535" lon="145.37377">
    <ele>578.1800000000001</ele>
   </trkpt>
   <trkpt lat="-37.85567500077416" lon="145.37416499839765">
    <ele>578.5400000000001</ele>
   </trkpt>
   <trkpt lat="-37.856" lon="145.37456">
    <ele>576.57</ele>
   </trkpt>
   <trkpt lat="-37.856260000000006" lon="145.37480000000002">
    <ele>574.16</ele>
   </trkpt>
   <trkpt lat="-37.85622" lon="145.37490000000003">
    <ele>574.1200000000001</ele>
   </trkpt>
   <trkpt lat="-37.85683" lon="145.37527">
    <ele>566.99</ele>
   </trkpt>
   <trkpt lat="-37.85714" lon="145.37555">
    <ele>564.6500000000001</ele>
   </trkpt>
   <trkpt lat="-37.8575" lon="145.37597000000002">
    <ele>561.2900000000001</ele>
   </trkpt>
   <trkpt lat="-37.85786" lon="145.37659000000002">
    <ele>555.69</ele>
   </trkpt>
   <trkpt lat="-37.85819333708845" lon="145.37725332740155">
    <ele>549.01</ele>
   </trkpt>
   <trkpt lat="-37.85852667045583" lon="145.37791666080253">
    <ele>544.76</ele>
   </trkpt>
   <trkpt lat="-37.85886" lon="145.37858">
    <ele>538.19</ele>
   </trkpt>
   <trkpt lat="-37.859" lon="145.37889">
    <ele>533.98</ele>
   </trkpt>
   <trkpt lat="-37.85922" lon="145.37926000000002">
    <ele>532.44</ele>
   </trkpt>
   <trkpt lat="-37.85958500076768" lon="145.37967499798972">
    <ele>529.6899999999999</ele>
   </trkpt>
   <trkpt lat="-37.859950000000005" lon="145.38009000000002">
    <ele>527.6500000000001</ele>
   </trkpt>
   <trkpt lat="-37.86023" lon="145.3805">
    <ele>524.85</ele>
   </trkpt>
   <trkpt lat="-37.86025" lon="145.38059">
    <ele>524.85</ele>
   </trkpt>
   <trkpt lat="-37.86023" lon="145.38074">
    <ele>522.9100000000001</ele>
   </trkpt>
   <trkpt lat="-37.86016" lon="145.381">
    <ele>521.9</ele>
   </trkpt>
   <trkpt lat="-37.86007" lon="145.38119">
    <ele>521.05</ele>
   </trkpt>
   <trkpt lat="-37.86003" lon="145.38133000000002">
    <ele>521.59</ele>
   </trkpt>
   <trkpt lat="-37.85998" lon="145.38154">
    <ele>521.44</ele>
   </trkpt>
   <trkpt lat="-37.85992" lon="145.38259000000002">
    <ele>520.11</ele>
   </trkpt>
   <trkpt lat="-37.86005" lon="145.38256">
    <ele>515.0400000000001</ele>
   </trkpt>
   <trkpt lat="-37.86009" lon="145.38268000000002">
    <ele>514.75</ele>
   </trkpt>
   <trkpt lat="-37.86018" lon="145.38274">
    <ele>514.3199999999999</ele>
   </trkpt>
   <trkpt lat="-37.86023" lon="145.38275000000002">
    <ele>514.3199999999999</ele>
   </trkpt>
   <trkpt lat="-37.86027" lon="145.38273">
    <ele>514.3199999999999</ele>
   </trkpt>
   <trkpt lat="-37.86034" lon="145.38304000000002">
    <ele>511.48</ele>
   </trkpt>
   <trkpt lat="-37.860460001747555" lon="145.38367999904094">
    <ele>507.12</ele>
   </trkpt>
   <trkpt lat="-37.860580000000006" lon="145.38432">
    <ele>503.58000000000004</ele>
   </trkpt>
   <trkpt lat="-37.86079" lon="145.38541">
    <ele>504.14000000000004</ele>
   </trkpt>
   <trkpt lat="-37.86081667230711" lon="145.38622666607725">
    <ele>509.46000000000004</ele>
   </trkpt>
   <trkpt lat="-37.86084333897384" lon="145.3870433327455">
    <ele>516.03</ele>
   </trkpt>
   <trkpt lat="-37.860870000000006" lon="145.38786000000002">
    <ele>521.12</ele>
   </trkpt>
   <trkpt lat="-37.86063" lon="145.38805000000002">
    <ele>520.0600000000001</ele>
   </trkpt>
   <trkpt lat="-37.860440000000004" lon="145.38807">
    <ele>518.69</ele>
   </trkpt>
   <trkpt lat="-37.86045" lon="145.38807">
    <ele>518.78</ele>
   </trkpt>
   <trkpt lat="-37.8603" lon="145.38809">
    <ele>517.45</ele>
   </trkpt>
   <trkpt lat="-37.86007" lon="145.38817">
    <ele>516.17</ele>
   </trkpt>
   <trkpt lat="-37.85998" lon="145.38817">
    <ele>515.08</ele>
   </trkpt>
   <trkpt lat="-37.85949" lon="145.38798">
    <ele>507.92</ele>
   </trkpt>
   <trkpt lat="-37.858990000000006" lon="145.38853">
    <ele>500.39</ele>
   </trkpt>
   <trkpt lat="-37.8588" lon="145.38868000000002">
    <ele>498.18000000000006</ele>
   </trkpt>
   <trkpt lat="-37.85864" lon="145.38878000000003">
    <ele>496.2300000000001</ele>
   </trkpt>
   <trkpt lat="-37.85833" lon="145.38885000000002">
    <ele>491.37</ele>
   </trkpt>
   <trkpt lat="-37.85817" lon="145.38884000000002">
    <ele>487.1</ele>
   </trkpt>
   <trkpt lat="-37.857960000000006" lon="145.38894000000002">
    <ele>487.1</ele>
   </trkpt>
   <trkpt lat="-37.85772" lon="145.38911000000002">
    <ele>480.96000000000004</ele>
   </trkpt>
   <trkpt lat="-37.85763" lon="145.38913000000002">
    <ele>480.96000000000004</ele>
   </trkpt>
   <trkpt lat="-37.85739" lon="145.38909">
    <ele>476.0</ele>
   </trkpt>
   <trkpt lat="-37.8568" lon="145.38893000000002">
    <ele>469.13000000000005</ele>
   </trkpt>
   <trkpt lat="-37.85629" lon="145.38897">
    <ele>464.27</ele>
   </trkpt>
   <trkpt lat="-37.85609" lon="145.38897">
    <ele>462.81000000000006</ele>
   </trkpt>
   <trkpt lat="-37.85593" lon="145.38893000000002">
    <ele>460.3</ele>
   </trkpt>
   <trkpt lat="-37.8558" lon="145.38885000000002">
    <ele>460.3</ele>
   </trkpt>
   <trkpt lat="-37.85573" lon="145.38878000000003">
    <ele>459.86</ele>
   </trkpt>
   <trkpt lat="-37.85555" lon="145.38848000000002">
    <ele>457.35</ele>
   </trkpt>
   <trkpt lat="-37.85542" lon="145.38840000000002">
    <ele>456.46000000000004</ele>
   </trkpt>
   <trkpt lat="-37.85521" lon="145.38836">
    <ele>455.97</ele>
   </trkpt>
   <trkpt lat="-37.854760000000006" lon="145.38847">
    <ele>454.59000000000003</ele>
   </trkpt>
   <trkpt lat="-37.85477" lon="145.38847">
    <ele>454.68</ele>
   </trkpt>
   <trkpt lat="-37.85452" lon="145.38849000000002">
    <ele>453.39</ele>
   </trkpt>
   <trkpt lat="-37.85414" lon="145.38847">
    <ele>451.65000000000003</ele>
   </trkpt>
   <trkpt lat="-37.85392" lon="145.38839000000002">
    <ele>450.37000000000006</ele>
   </trkpt>
   <trkpt lat="-37.85336" lon="145.38830000000002">
    <ele>445.97</ele>
   </trkpt>
   <trkpt lat="-37.85327" lon="145.38825">
    <ele>445.97</ele>
   </trkpt>
   <trkpt lat="-37.85316" lon="145.38828">
    <ele>444.79</ele>
   </trkpt>
   <trkpt lat="-37.85302" lon="145.38841000000002">
    <ele>443.48</ele>
   </trkpt>
   <trkpt lat="-37.8528" lon="145.38859000000002">
    <ele>441.70000000000005</ele>
   </trkpt>
   <trkpt lat="-37.852610000000006" lon="145.3887">
    <ele>440.27000000000004</ele>
   </trkpt>
   <trkpt lat="-37.85242" lon="145.38878000000003">
    <ele>439.01</ele>
   </trkpt>
   <trkpt lat="-37.85226" lon="145.38894000000002">
    <ele>437.34000000000003</ele>
   </trkpt>
   <trkpt lat="-37.85215" lon="145.38913000000002">
    <ele>436.34000000000003</ele>
   </trkpt>
   <trkpt lat="-37.852140000000006" lon="145.38905000000003">
    <ele>436.34000000000003</ele>
   </trkpt>
   <trkpt lat="-37.85215" lon="145.38894000000002">
    <ele>435.48</ele>
   </trkpt>
   <trkpt lat="-37.85222" lon="145.38885000000002">
    <ele>434.44000000000005</ele>
   </trkpt>
   <trkpt lat="-37.8521" lon="145.38887000000003">
    <ele>434.15000000000003</ele>
   </trkpt>
   <trkpt lat="-37.85204" lon="145.38899">
    <ele>433.21000000000004</ele>
   </trkpt>
   <trkpt lat="-37.85195" lon="145.38903000000002">
    <ele>432.6700000000001</ele>
   </trkpt>
   <trkpt lat="-37.85186" lon="145.38935">
    <ele>431.14</ele>
   </trkpt>
   <trkpt lat="-37.85168" lon="145.38977">
    <ele>428.46</ele>
   </trkpt>
   <trkpt lat="-37.85168" lon="145.38989">
    <ele>427.72</ele>
   </trkpt>
   <trkpt lat="-37.8517" lon="145.38996">
    <ele>427.2900000000001</ele>
   </trkpt>
   <trkpt lat="-37.85168" lon="145.38998">
    <ele>426.82000000000005</ele>
   </trkpt>
   <trkpt lat="-37.85163" lon="145.38997">
    <ele>426.82000000000005</ele>
   </trkpt>
   <trkpt lat="-37.85157" lon="145.3899">
    <ele>425.3</ele>
   </trkpt>
   <trkpt lat="-37.85141" lon="145.38953">
    <ele>422.46000000000004</ele>
   </trkpt>
   <trkpt lat="-37.85134" lon="145.38948000000002">
    <ele>421.37</ele>
   </trkpt>
   <trkpt lat="-37.85132" lon="145.38949000000002">
    <ele>421.37</ele>
   </trkpt>
   <trkpt lat="-37.8513" lon="145.38953">
    <ele>421.37</ele>
   </trkpt>
   <trkpt lat="-37.85132" lon="145.38985000000002">
    <ele>419.24000000000007</ele>
   </trkpt>
   <trkpt lat="-37.851350000000004" lon="145.38997">
    <ele>418.7</ele>
   </trkpt>
   <trkpt lat="-37.85139" lon="145.39016">
    <ele>418.35</ele>
   </trkpt>
   <trkpt lat="-37.85152" lon="145.39045000000002">
    <ele>418.09000000000003</ele>
   </trkpt>
   <trkpt lat="-37.85148" lon="145.3905">
    <ele>417.89000000000004</ele>
   </trkpt>
   <trkpt lat="-37.85139" lon="145.39038000000002">
    <ele>417.59000000000003</ele>
   </trkpt>
   <trkpt lat="-37.8513" lon="145.39024">
    <ele>416.74000000000007</ele>
   </trkpt>
   <trkpt lat="-37.851290000000006" lon="145.39015">
    <ele>416.74000000000007</ele>
   </trkpt>
   <trkpt lat="-37.85125" lon="145.39012000000002">
    <ele>415.94</ele>
   </trkpt>
   <trkpt lat="-37.851200000000006" lon="145.39036000000002">
    <ele>415.08000000000004</ele>
   </trkpt>
   <trkpt lat="-37.85121" lon="145.39053">
    <ele>414.08000000000004</ele>
   </trkpt>
   <trkpt lat="-37.85125" lon="145.3907">
    <ele>412.35</ele>
   </trkpt>
   <trkpt lat="-37.85132" lon="145.39086">
    <ele>410.81</ele>
   </trkpt>
   <trkpt lat="-37.8513" lon="145.39086">
    <ele>410.81</ele>
   </trkpt>
   <trkpt lat="-37.851200000000006" lon="145.39074000000002">
    <ele>409.21000000000004</ele>
   </trkpt>
   <trkpt lat="-37.85112" lon="145.39072000000002">
    <ele>407.53000000000003</ele>
   </trkpt>
   <trkpt lat="-37.85107" lon="145.39076">
    <ele>407.53000000000003</ele>
   </trkpt>
   <trkpt lat="-37.85107" lon="145.39085">
    <ele>406.51000000000005</ele>
   </trkpt>
   <trkpt lat="-37.85116" lon="145.39101000000002">
    <ele>405.72</ele>
   </trkpt>
   <trkpt lat="-37.851110000000006" lon="145.39131">
    <ele>402.85</ele>
   </trkpt>
   <trkpt lat="-37.851000000000006" lon="145.39146000000002">
    <ele>400.13000000000005</ele>
   </trkpt>
   <trkpt lat="-37.85052500141801" lon="145.392030003619">
    <ele>388.29</ele>
   </trkpt>
   <trkpt lat="-37.85005" lon="145.39260000000002">
    <ele>381.42</ele>
   </trkpt>
   <trkpt lat="-37.84989" lon="145.39244000000002">
    <ele>374.14000000000004</ele>
   </trkpt>
   <trkpt lat="-37.84962" lon="145.39253000000002">
    <ele>372.77000000000004</ele>
   </trkpt>
   <trkpt lat="-37.84939" lon="145.39251000000002">
    <ele>371.32000000000005</ele>
   </trkpt>
   <trkpt lat="-37.84913" lon="145.39245000000003">
    <ele>369.65000000000003</ele>
   </trkpt>
   <trkpt lat="-37.848670000000006" lon="145.39241">
    <ele>364.99</ele>
   </trkpt>
   <trkpt lat="-37.84821500151693" lon="145.39180499622606">
    <ele>369.18</ele>
   </trkpt>
   <trkpt lat="-37.84776" lon="145.3912">
    <ele>357.77000000000004</ele>
   </trkpt>
   <trkpt lat="-37.84729" lon="145.39048000000003">
    <ele>346.24000000000007</ele>
   </trkpt>
   <trkpt lat="-37.847190000000005" lon="145.39037000000002">
    <ele>344.53</ele>
   </trkpt>
   <trkpt lat="-37.84698" lon="145.39015">
    <ele>342.06</ele>
   </trkpt>
   <trkpt lat="-37.84682" lon="145.39009000000001">
    <ele>342.06</ele>
   </trkpt>
   <trkpt lat="-37.84669" lon="145.39007">
    <ele>335.84000000000003</ele>
   </trkpt>
   <trkpt lat="-37.84655" lon="145.39013">
    <ele>335.84000000000003</ele>
   </trkpt>
   <trkpt lat="-37.84644" lon="145.39021000000002">
    <ele>334.88</ele>
   </trkpt>
   <trkpt lat="-37.84631" lon="145.39039000000002">
    <ele>333.12</ele>
   </trkpt>
   <trkpt lat="-37.84592" lon="145.39099000000002">
    <ele>324.61</ele>
   </trkpt>
   <trkpt lat="-37.845730001843485" lon="145.39166000191827">
    <ele>316.39</ele>
   </trkpt>
   <trkpt lat="-37.84554" lon="145.39233000000002">
    <ele>309.97</ele>
   </trkpt>
   <trkpt lat="-37.84548" lon="145.3925">
    <ele>308.87</ele>
   </trkpt>
   <trkpt lat="-37.8453" lon="145.39271000000002">
    <ele>307.45</ele>
   </trkpt>
   <trkpt lat="-37.8451" lon="145.39284">
    <ele>306.00000000000006</ele>
   </trkpt>
   <trkpt lat="-37.84478" lon="145.39293">
    <ele>301.58</ele>
   </trkpt>
   <trkpt lat="-37.84463" lon="145.39292">
    <ele>299.47</ele>
   </trkpt>
   <trkpt lat="-37.84451" lon="145.39286">
    <ele>299.47</ele>
   </trkpt>
   <trkpt lat="-37.844440000000006" lon="145.39273">
    <ele>297.26</ele>
   </trkpt>
   <trkpt lat="-37.84436" lon="145.39276">
    <ele>297.62000000000006</ele>
   </trkpt>
   <trkpt lat="-37.84355" lon="145.39252000000002">
    <ele>298.00000000000006</ele>
   </trkpt>
   <trkpt lat="-37.84326" lon="145.39248">
    <ele>298.09000000000003</ele>
   </trkpt>
   <trkpt lat="-37.8429" lon="145.39254000000003">
    <ele>298.69</ele>
   </trkpt>
   <trkpt lat="-37.8421" lon="145.39290000000003">
    <ele>299.63</ele>
   </trkpt>
   <trkpt lat="-37.84192" lon="145.39305000000002">
    <ele>299.69</ele>
   </trkpt>
   <trkpt lat="-37.84183" lon="145.3933">
    <ele>299.61</ele>
   </trkpt>
   <trkpt lat="-37.841820000000006" lon="145.39352000000002">
    <ele>299.57</ele>
   </trkpt>
   <trkpt lat="-37.84176" lon="145.39351000000002">
    <ele>298.41</ele>
   </trkpt>
   <trkpt lat="-37.84167" lon="145.39354">
    <ele>297.78000000000003</ele>
   </trkpt>
   <trkpt lat="-37.841530000000006" lon="145.39354">
    <ele>295.81</ele>
   </trkpt>
   <trkpt lat="-37.8414" lon="145.39349">
    <ele>292.76</ele>
   </trkpt>
   <trkpt lat="-37.84093" lon="145.39345">
    <ele>284.06</ele>
   </trkpt>
   <trkpt lat="-37.84064" lon="145.39347">
    <ele>284.06</ele>
   </trkpt>
   <trkpt lat="-37.84024" lon="145.39342000000002">
    <ele>275.84000000000003</ele>
   </trkpt>
   <trkpt lat="-37.83995" lon="145.39344">
    <ele>271.6</ele>
   </trkpt>
   <trkpt lat="-37.83981" lon="145.39339">
    <ele>269.69000000000005</ele>
   </trkpt>
   <trkpt lat="-37.8397" lon="145.39325000000002">
    <ele>268.31000000000006</ele>
   </trkpt>
   <trkpt lat="-37.83966" lon="145.39313">
    <ele>267.27</ele>
   </trkpt>
   <trkpt lat="-37.83937" lon="145.39282">
    <ele>262.66</ele>
   </trkpt>
   <trkpt lat="-37.83894" lon="145.39235000000002">
    <ele>257.73</ele>
   </trkpt>
   <trkpt lat="-37.83872" lon="145.39218000000002">
    <ele>255.32000000000005</ele>
   </trkpt>
   <trkpt lat="-37.83858" lon="145.39221">
    <ele>254.56</ele>
   </trkpt>
   <trkpt lat="-37.83784" lon="145.3922">
    <ele>253.43000000000004</ele>
   </trkpt>
   <trkpt lat="-37.83766" lon="145.39217000000002">
    <ele>252.89</ele>
   </trkpt>
   <trkpt lat="-37.83753" lon="145.39213">
    <ele>252.60999999999999</ele>
   </trkpt>
   <trkpt lat="-37.837410000000006" lon="145.39212">
    <ele>252.13000000000002</ele>
   </trkpt>
   <trkpt lat="-37.83722" lon="145.39226000000002">
    <ele>251.31000000000003</ele>
   </trkpt>
   <trkpt lat="-37.83657" lon="145.39263000000003">
    <ele>249.73</ele>
   </trkpt>
   <trkpt lat="-37.83614500089606" lon="145.39308500259907">
    <ele>247.84000000000003</ele>
   </trkpt>
   <trkpt lat="-37.83572" lon="145.39354">
    <ele>244.28000000000003</ele>
   </trkpt>
   <trkpt lat="-37.83549" lon="145.39381">
    <ele>246.16000000000003</ele>
   </trkpt>
   <trkpt lat="-37.83545" lon="145.39387000000002">
    <ele>246.91000000000003</ele>
   </trkpt>
   <trkpt lat="-37.83541" lon="145.39405000000002">
    <ele>248.09000000000003</ele>
   </trkpt>
   <trkpt lat="-37.83534" lon="145.39405000000002">
    <ele>247.94000000000003</ele>
   </trkpt>
   <trkpt lat="-37.83522" lon="145.39397000000002">
    <ele>246.96</ele>
   </trkpt>
   <trkpt lat="-37.835150000000006" lon="145.39395000000002">
    <ele>246.77</ele>
   </trkpt>
   <trkpt lat="-37.83469" lon="145.39408">
    <ele>246.78000000000003</ele>
   </trkpt>
   <trkpt lat="-37.8346" lon="145.3942">
    <ele>247.23000000000002</ele>
   </trkpt>
   <trkpt lat="-37.83422" lon="145.39430000000002">
    <ele>248.27</ele>
   </trkpt>
   <trkpt lat="-37.83377" lon="145.39452">
    <ele>247.14000000000001</ele>
   </trkpt>
   <trkpt lat="-37.83343" lon="145.39474">
    <ele>245.83</ele>
   </trkpt>
   <trkpt lat="-37.832800000000006" lon="145.39522000000002">
    <ele>246.1</ele>
   </trkpt>
   <trkpt lat="-37.83281" lon="145.39521000000002">
    <ele>246.00000000000003</ele>
   </trkpt>
   <trkpt lat="-37.83211" lon="145.39574000000002">
    <ele>245.87000000000003</ele>
   </trkpt>
   <trkpt lat="-37.83164000096958" lon="145.39622500311518">
    <ele>247.14000000000001</ele>
   </trkpt>
   <trkpt lat="-37.83117" lon="145.39671">
    <ele>245.76000000000002</ele>
   </trkpt>
   <trkpt lat="-37.83084" lon="145.39721">
    <ele>244.27</ele>
   </trkpt>
   <trkpt lat="-37.83032" lon="145.39757">
    <ele>240.49</ele>
   </trkpt>
   <trkpt lat="-37.82995000096149" lon="145.3980700026361">
    <ele>239.95000000000002</ele>
   </trkpt>
   <trkpt lat="-37.82958" lon="145.39857">
    <ele>241.13</ele>
   </trkpt>
   <trkpt lat="-37.82943" lon="145.39875">
    <ele>240.58</ele>
   </trkpt>
   <trkpt lat="-37.82929" lon="145.39898000000002">
    <ele>239.67000000000002</ele>
   </trkpt>
   <trkpt lat="-37.82925" lon="145.39903">
    <ele>239.67000000000002</ele>
   </trkpt>
   <trkpt lat="-37.82916" lon="145.39906000000002">
    <ele>238.51000000000002</ele>
   </trkpt>
   <trkpt lat="-37.82902" lon="145.39890000000003">
    <ele>237.07000000000002</ele>
   </trkpt>
   <trkpt lat="-37.82898" lon="145.39888000000002">
    <ele>237.07000000000002</ele>
   </trkpt>
   <trkpt lat="-37.82882" lon="145.39857">
    <ele>236.12000000000003</ele>
   </trkpt>
   <trkpt lat="-37.82871" lon="145.39852000000002">
    <ele>235.03</ele>
   </trkpt>
   <trkpt lat="-37.82855" lon="145.39870000000002">
    <ele>235.04000000000002</ele>
   </trkpt>
   <trkpt lat="-37.82833" lon="145.39909">
    <ele>237.23000000000002</ele>
   </trkpt>
   <trkpt lat="-37.82833" lon="145.39913">
    <ele>237.68000000000004</ele>
   </trkpt>
   <trkpt lat="-37.8284" lon="145.39929">
    <ele>239.52</ele>
   </trkpt>
   <trkpt lat="-37.82837" lon="145.39937">
    <ele>240.55</ele>
   </trkpt>
   <trkpt lat="-37.82833" lon="145.39941000000002">
    <ele>240.75000000000003</ele>
   </trkpt>
   <trkpt lat="-37.82824" lon="145.39944">
    <ele>240.54000000000002</ele>
   </trkpt>
   <trkpt lat="-37.82795" lon="145.39947">
    <ele>237.51000000000002</ele>
   </trkpt>
   <trkpt lat="-37.82777" lon="145.39955">
    <ele>235.39000000000001</ele>
   </trkpt>
   <trkpt lat="-37.82741" lon="145.39962">
    <ele>233.44</ele>
   </trkpt>
   <trkpt lat="-37.82732" lon="145.39971">
    <ele>233.17000000000002</ele>
   </trkpt>
   <trkpt lat="-37.82714" lon="145.39978000000002">
    <ele>232.99000000000004</ele>
   </trkpt>
   <trkpt lat="-37.827000000000005" lon="145.39981">
    <ele>232.75</ele>
   </trkpt>
   <trkpt lat="-37.82699" lon="145.39978000000002">
    <ele>232.75</ele>
   </trkpt>
   <trkpt lat="-37.82692" lon="145.39973">
    <ele>233.05</ele>
   </trkpt>
   <trkpt lat="-37.82686" lon="145.39961000000002">
    <ele>233.52</ele>
   </trkpt>
   <trkpt lat="-37.82721" lon="145.39939">
    <ele>234.48000000000002</ele>
   </trkpt>
   <trkpt lat="-37.82786" lon="145.39904">
    <ele>236.09</ele>
   </trkpt>
   <trkpt lat="-37.828" lon="145.39888000000002">
    <ele>236.54000000000002</ele>
   </trkpt>
   <trkpt lat="-37.82797" lon="145.39876">
    <ele>237.45000000000002</ele>
   </trkpt>
   <trkpt lat="-37.82784" lon="145.39857">
    <ele>239.53000000000003</ele>
   </trkpt>
   <trkpt lat="-37.827360000000006" lon="145.39869000000002">
    <ele>244.07</ele>
   </trkpt>
   <trkpt lat="-37.82708" lon="145.39866">
    <ele>246.29</ele>
   </trkpt>
   <trkpt lat="-37.82687" lon="145.39849">
    <ele>249.97000000000003</ele>
   </trkpt>
   <trkpt lat="-37.82672" lon="145.39852000000002">
    <ele>252.46</ele>
   </trkpt>
   <trkpt lat="-37.82654" lon="145.39847">
    <ele>255.54000000000005</ele>
   </trkpt>
   <trkpt lat="-37.82636" lon="145.39847">
    <ele>258.02000000000004</ele>
   </trkpt>
   <trkpt lat="-37.82627" lon="145.39843000000002">
    <ele>259.41</ele>
   </trkpt>
   <trkpt lat="-37.826240000000006" lon="145.39856">
    <ele>260.43</ele>
   </trkpt>
   <trkpt lat="-37.82616" lon="145.39844000000002">
    <ele>260.99</ele>
   </trkpt>
   <trkpt lat="-37.82611" lon="145.39843000000002">
    <ele>262.74</ele>
   </trkpt>
   <trkpt lat="-37.82609" lon="145.39847">
    <ele>262.92</ele>
   </trkpt>
   <trkpt lat="-37.826060000000005" lon="145.39843000000002">
    <ele>262.92</ele>
   </trkpt>
   <trkpt lat="-37.82605" lon="145.39805">
    <ele>266.05</ele>
   </trkpt>
   <trkpt lat="-37.82591" lon="145.39762000000002">
    <ele>270.25000000000006</ele>
   </trkpt>
   <trkpt lat="-37.82587" lon="145.39749">
    <ele>272.52000000000004</ele>
   </trkpt>
   <trkpt lat="-37.82571" lon="145.39735000000002">
    <ele>274.67</ele>
   </trkpt>
   <trkpt lat="-37.82569" lon="145.39736000000002">
    <ele>274.67</ele>
   </trkpt>
   <trkpt lat="-37.82569" lon="145.39749">
    <ele>274.65</ele>
   </trkpt>
   <trkpt lat="-37.82578" lon="145.39764000000002">
    <ele>274.03</ele>
   </trkpt>
   <trkpt lat="-37.8258" lon="145.39775">
    <ele>274.09</ele>
   </trkpt>
   <trkpt lat="-37.82573" lon="145.39812">
    <ele>277.14</ele>
   </trkpt>
   <trkpt lat="-37.82571" lon="145.39813">
    <ele>277.14</ele>
   </trkpt>
   <trkpt lat="-37.82567" lon="145.39812">
    <ele>277.14</ele>
   </trkpt>
   <trkpt lat="-37.82564" lon="145.39802">
    <ele>277.87</ele>
   </trkpt>
   <trkpt lat="-37.82564" lon="145.39770000000001">
    <ele>279.33000000000004</ele>
   </trkpt>
   <trkpt lat="-37.8256" lon="145.39759">
    <ele>280.23</ele>
   </trkpt>
   <trkpt lat="-37.82558" lon="145.39761000000001">
    <ele>280.23</ele>
   </trkpt>
   <trkpt lat="-37.8254" lon="145.39804">
    <ele>286.17</ele>
   </trkpt>
   <trkpt lat="-37.82531" lon="145.39818000000002">
    <ele>286.86</ele>
   </trkpt>
   <trkpt lat="-37.82499" lon="145.3984">
    <ele>294.52</ele>
   </trkpt>
   <trkpt lat="-37.82497" lon="145.39835000000002">
    <ele>294.52</ele>
   </trkpt>
   <trkpt lat="-37.82484" lon="145.39839">
    <ele>295.8</ele>
   </trkpt>
   <trkpt lat="-37.824830000000006" lon="145.39835000000002">
    <ele>296.98</ele>
   </trkpt>
   <trkpt lat="-37.82484" lon="145.39797000000002">
    <ele>299.58</ele>
   </trkpt>
   <trkpt lat="-37.82482" lon="145.39792">
    <ele>299.58</ele>
   </trkpt>
   <trkpt lat="-37.82461" lon="145.39818000000002">
    <ele>302.54</ele>
   </trkpt>
   <trkpt lat="-37.82457" lon="145.39815000000002">
    <ele>302.54</ele>
   </trkpt>
   <trkpt lat="-37.82461" lon="145.39797000000002">
    <ele>303.41</ele>
   </trkpt>
   <trkpt lat="-37.82461" lon="145.39769">
    <ele>304.77000000000004</ele>
   </trkpt>
   <trkpt lat="-37.82459" lon="145.39767">
    <ele>304.77000000000004</ele>
   </trkpt>
   <trkpt lat="-37.824470000000005" lon="145.39783">
    <ele>306.50000000000006</ele>
   </trkpt>
   <trkpt lat="-37.824470000000005" lon="145.39782000000002">
    <ele>306.63</ele>
   </trkpt>
   <trkpt lat="-37.824270000000006" lon="145.39787">
    <ele>309.27000000000004</ele>
   </trkpt>
   <trkpt lat="-37.8243" lon="145.39770000000001">
    <ele>310.1</ele>
   </trkpt>
   <trkpt lat="-37.82428" lon="145.39764000000002">
    <ele>310.78</ele>
   </trkpt>
   <trkpt lat="-37.82428" lon="145.39763000000002">
    <ele>310.78</ele>
   </trkpt>
   <trkpt lat="-37.82421" lon="145.39766">
    <ele>311.55000000000007</ele>
   </trkpt>
   <trkpt lat="-37.82419" lon="145.39770000000001">
    <ele>311.99000000000007</ele>
   </trkpt>
   <trkpt lat="-37.82417" lon="145.39772000000002">
    <ele>311.99000000000007</ele>
   </trkpt>
   <trkpt lat="-37.82399" lon="145.39751">
    <ele>315.57</ele>
   </trkpt>
   <trkpt lat="-37.82385" lon="145.3976">
    <ele>317.05</ele>
   </trkpt>
   <trkpt lat="-37.82381" lon="145.39759">
    <ele>317.05</ele>
   </trkpt>
   <trkpt lat="-37.82376" lon="145.39753000000002">
    <ele>318.41</ele>
   </trkpt>
   <trkpt lat="-37.82354" lon="145.39747">
    <ele>320.45</ele>
   </trkpt>
   <trkpt lat="-37.82327" lon="145.39752000000001">
    <ele>323.46000000000004</ele>
   </trkpt>
   <trkpt lat="-37.82305" lon="145.39745000000002">
    <ele>324.86</ele>
   </trkpt>
   <trkpt lat="-37.82298" lon="145.39741">
    <ele>325.40000000000003</ele>
   </trkpt>
   <trkpt lat="-37.822900000000004" lon="145.39744000000002">
    <ele>325.85</ele>
   </trkpt>
   <trkpt lat="-37.82284000000001" lon="145.39702">
    <ele>321.48</ele>
   </trkpt>
   <trkpt lat="-37.8228" lon="145.39682000000002">
    <ele>317.69</ele>
   </trkpt>
   <trkpt lat="-37.8226750013226" lon="145.39626499915124">
    <ele>306.45</ele>
   </trkpt>
   <trkpt lat="-37.82255" lon="145.39571">
    <ele>298.74</ele>
   </trkpt>
   <trkpt lat="-37.82253" lon="145.39551">
    <ele>298.06000000000006</ele>
   </trkpt>
   <trkpt lat="-37.822590000000005" lon="145.39541">
    <ele>295.24</ele>
   </trkpt>
   <trkpt lat="-37.82267" lon="145.39543">
    <ele>294.18</ele>
   </trkpt>
   <trkpt lat="-37.823240000000006" lon="145.39521000000002">
    <ele>289.98</ele>
   </trkpt>
   <trkpt lat="-37.82354" lon="145.39499">
    <ele>284.77000000000004</ele>
   </trkpt>
   <trkpt lat="-37.82374" lon="145.39478000000003">
    <ele>283.07000000000005</ele>
   </trkpt>
   <trkpt lat="-37.823890000000006" lon="145.39452">
    <ele>279.81</ele>
   </trkpt>
   <trkpt lat="-37.82417" lon="145.39417">
    <ele>274.22</ele>
   </trkpt>
   <trkpt lat="-37.824740000000006" lon="145.39372">
    <ele>259.15000000000003</ele>
   </trkpt>
   <trkpt lat="-37.82486" lon="145.39357">
    <ele>258.28000000000003</ele>
   </trkpt>
   <trkpt lat="-37.82515" lon="145.39312">
    <ele>249.38000000000002</ele>
   </trkpt>
   <trkpt lat="-37.82528000000001" lon="145.39302">
    <ele>248.17000000000002</ele>
   </trkpt>
   <trkpt lat="-37.82549" lon="145.39275">
    <ele>243.33</ele>
   </trkpt>
   <trkpt lat="-37.82558" lon="145.39251000000002">
    <ele>242.02</ele>
   </trkpt>
   <trkpt lat="-37.82587" lon="145.39213">
    <ele>240.79000000000002</ele>
   </trkpt>
   <trkpt lat="-37.82614" lon="145.39172000000002">
    <ele>241.21</ele>
   </trkpt>
   <trkpt lat="-37.82636" lon="145.3912">
    <ele>242.56000000000003</ele>
   </trkpt>
   <trkpt lat="-37.82647" lon="145.39103">
    <ele>243.37000000000003</ele>
   </trkpt>
   <trkpt lat="-37.82661" lon="145.39093000000003">
    <ele>244.83</ele>
   </trkpt>
   <trkpt lat="-37.82674" lon="145.39086">
    <ele>245.49</ele>
   </trkpt>
   <trkpt lat="-37.82701" lon="145.39096">
    <ele>249.14000000000001</ele>
   </trkpt>
   <trkpt lat="-37.82728" lon="145.39110000000002">
    <ele>251.07000000000002</ele>
   </trkpt>
   <trkpt lat="-37.82777" lon="145.39144000000002">
    <ele>254.64000000000001</ele>
   </trkpt>
   <trkpt lat="-37.828160000000004" lon="145.39166">
    <ele>257.14000000000004</ele>
   </trkpt>
   <trkpt lat="-37.8282" lon="145.39166">
    <ele>257.17</ele>
   </trkpt>
   <trkpt lat="-37.82846" lon="145.39174">
    <ele>258.12</ele>
   </trkpt>
   <trkpt lat="-37.8286" lon="145.39170000000001">
    <ele>258.25000000000006</ele>
   </trkpt>
   <trkpt lat="-37.82869" lon="145.39164000000002">
    <ele>258.32</ele>
   </trkpt>
   <trkpt lat="-37.82902" lon="145.39116">
    <ele>258.17</ele>
   </trkpt>
   <trkpt lat="-37.82909" lon="145.39100000000002">
    <ele>258.17</ele>
   </trkpt>
   <trkpt lat="-37.8292" lon="145.39066000000003">
    <ele>258.42</ele>
   </trkpt>
   <trkpt lat="-37.82927" lon="145.39053">
    <ele>258.65000000000003</ele>
   </trkpt>
   <trkpt lat="-37.829350000000005" lon="145.39053">
    <ele>258.93</ele>
   </trkpt>
   <trkpt lat="-37.82938" lon="145.39030000000002">
    <ele>258.67</ele>
   </trkpt>
   <trkpt lat="-37.82938" lon="145.38969">
    <ele>259.68</ele>
   </trkpt>
   <trkpt lat="-37.82945" lon="145.3897">
    <ele>260.71</ele>
   </trkpt>
   <trkpt lat="-37.82961" lon="145.3898">
    <ele>261.71</ele>
   </trkpt>
   <trkpt lat="-37.82965" lon="145.38978">
    <ele>261.71</ele>
   </trkpt>
   <trkpt lat="-37.8297" lon="145.38955">
    <ele>262.73</ele>
   </trkpt>
   <trkpt lat="-37.829800000000006" lon="145.38951">
    <ele>263.27</ele>
   </trkpt>
   <trkpt lat="-37.82992" lon="145.38958000000002">
    <ele>264.77</ele>
   </trkpt>
   <trkpt lat="-37.82999" lon="145.38958000000002">
    <ele>264.77</ele>
   </trkpt>
   <trkpt lat="-37.83005" lon="145.38945">
    <ele>265.48</ele>
   </trkpt>
   <trkpt lat="-37.8301" lon="145.38928">
    <ele>265.82</ele>
   </trkpt>
   <trkpt lat="-37.8301" lon="145.38915">
    <ele>266.40000000000003</ele>
   </trkpt>
   <trkpt lat="-37.830180000000006" lon="145.38875000000002">
    <ele>267.65</ele>
   </trkpt>
   <trkpt lat="-37.830180000000006" lon="145.38864">
    <ele>267.82</ele>
   </trkpt>
   <trkpt lat="-37.83012" lon="145.38837">
    <ele>267.93</ele>
   </trkpt>
   <trkpt lat="-37.830180000000006" lon="145.38781">
    <ele>269.96000000000004</ele>
   </trkpt>
   <trkpt lat="-37.83012" lon="145.38764">
    <ele>270.55</ele>
   </trkpt>
   <trkpt lat="-37.83014" lon="145.38717000000003">
    <ele>273.72</ele>
   </trkpt>
   <trkpt lat="-37.83019" lon="145.387">
    <ele>274.47</ele>
   </trkpt>
   <trkpt lat="-37.83019" lon="145.38675">
    <ele>275.56</ele>
   </trkpt>
   <trkpt lat="-37.83012" lon="145.38636000000002">
    <ele>276.49</ele>
   </trkpt>
   <trkpt lat="-37.83014" lon="145.38628">
    <ele>276.51000000000005</ele>
   </trkpt>
   <trkpt lat="-37.82999" lon="145.38576">
    <ele>275.58000000000004</ele>
   </trkpt>
   <trkpt lat="-37.83001" lon="145.38547">
    <ele>275.73</ele>
   </trkpt>
   <trkpt lat="-37.82999" lon="145.38513">
    <ele>275.68</ele>
   </trkpt>
   <trkpt lat="-37.83003" lon="145.38482000000002">
    <ele>276.36000000000007</ele>
   </trkpt>
   <trkpt lat="-37.83012" lon="145.38467">
    <ele>277.40000000000003</ele>
   </trkpt>
   <trkpt lat="-37.83017" lon="145.38471">
    <ele>277.59</ele>
   </trkpt>
   <trkpt lat="-37.8301" lon="145.38509000000002">
    <ele>278.42</ele>
   </trkpt>
   <trkpt lat="-37.8301" lon="145.3854">
    <ele>278.89000000000004</ele>
   </trkpt>
   <trkpt lat="-37.83019" lon="145.38578">
    <ele>280.44</ele>
   </trkpt>
   <trkpt lat="-37.83026" lon="145.38587">
    <ele>280.87</ele>
   </trkpt>
   <trkpt lat="-37.8303" lon="145.38563000000002">
    <ele>281.44</ele>
   </trkpt>
   <trkpt lat="-37.8303" lon="145.38562000000002">
    <ele>281.56</ele>
   </trkpt>
   <trkpt lat="-37.83032" lon="145.38553000000002">
    <ele>281.76</ele>
   </trkpt>
   <trkpt lat="-37.83032" lon="145.38537000000002">
    <ele>282.07000000000005</ele>
   </trkpt>
   <trkpt lat="-37.83041" lon="145.38489">
    <ele>282.61</ele>
   </trkpt>
   <trkpt lat="-37.8305" lon="145.3848">
    <ele>283.07000000000005</ele>
   </trkpt>
   <trkpt lat="-37.830560000000006" lon="145.3848">
    <ele>283.96000000000004</ele>
   </trkpt>
   <trkpt lat="-37.83057" lon="145.38487">
    <ele>283.96000000000004</ele>
   </trkpt>
   <trkpt lat="-37.830560000000006" lon="145.38497">
    <ele>284.49</ele>
   </trkpt>
   <trkpt lat="-37.83057" lon="145.38505">
    <ele>284.71000000000004</ele>
   </trkpt>
   <trkpt lat="-37.83057" lon="145.38511000000003">
    <ele>284.86</ele>
   </trkpt>
   <trkpt lat="-37.83048" lon="145.38520000000003">
    <ele>284.89000000000004</ele>
   </trkpt>
   <trkpt lat="-37.83046" lon="145.38535000000002">
    <ele>284.66</ele>
   </trkpt>
   <trkpt lat="-37.83046" lon="145.38585">
    <ele>284.8</ele>
   </trkpt>
   <trkpt lat="-37.83055" lon="145.38616000000002">
    <ele>285.19</ele>
   </trkpt>
   <trkpt lat="-37.83057" lon="145.38617000000002">
    <ele>285.19</ele>
   </trkpt>
   <trkpt lat="-37.83059" lon="145.38613">
    <ele>286.19</ele>
   </trkpt>
   <trkpt lat="-37.83061" lon="145.38571000000002">
    <ele>287.04</ele>
   </trkpt>
   <trkpt lat="-37.83068" lon="145.38562000000002">
    <ele>287.54</ele>
   </trkpt>
   <trkpt lat="-37.8307" lon="145.38549">
    <ele>288.0</ele>
   </trkpt>
   <trkpt lat="-37.83068" lon="145.38536000000002">
    <ele>288.03000000000003</ele>
   </trkpt>
   <trkpt lat="-37.83079" lon="145.38502000000003">
    <ele>288.15000000000003</ele>
   </trkpt>
   <trkpt lat="-37.83084" lon="145.38475000000003">
    <ele>288.2</ele>
   </trkpt>
   <trkpt lat="-37.83088" lon="145.38465000000002">
    <ele>288.49</ele>
   </trkpt>
   <trkpt lat="-37.83097" lon="145.38456000000002">
    <ele>289.05</ele>
   </trkpt>
   <trkpt lat="-37.83104" lon="145.38455000000002">
    <ele>289.05</ele>
   </trkpt>
   <trkpt lat="-37.831120000000006" lon="145.38464000000002">
    <ele>290.53000000000003</ele>
   </trkpt>
   <trkpt lat="-37.831100000000006" lon="145.38430000000002">
    <ele>290.71000000000004</ele>
   </trkpt>
   <trkpt lat="-37.83135" lon="145.38362">
    <ele>293.86</ele>
   </trkpt>
   <trkpt lat="-37.83144" lon="145.38354">
    <ele>295.02</ele>
   </trkpt>
   <trkpt lat="-37.83149" lon="145.38346">
    <ele>295.7</ele>
   </trkpt>
   <trkpt lat="-37.831480000000006" lon="145.38330000000002">
    <ele>296.24</ele>
   </trkpt>
   <trkpt lat="-37.83151" lon="145.38327">
    <ele>296.96</ele>
   </trkpt>
   <trkpt lat="-37.83167" lon="145.38286000000002">
    <ele>300.07</ele>
   </trkpt>
   <trkpt lat="-37.83171" lon="145.3828">
    <ele>300.86</ele>
   </trkpt>
   <trkpt lat="-37.83182" lon="145.38274">
    <ele>304.35</ele>
   </trkpt>
   <trkpt lat="-37.83189" lon="145.38274">
    <ele>304.35</ele>
   </trkpt>
   <trkpt lat="-37.832" lon="145.38279">
    <ele>306.57</ele>
   </trkpt>
   <trkpt lat="-37.832060000000006" lon="145.38286000000002">
    <ele>307.46</ele>
   </trkpt>
   <trkpt lat="-37.83207" lon="145.38281">
    <ele>307.72</ele>
   </trkpt>
   <trkpt lat="-37.83211" lon="145.38240000000002">
    <ele>309.23</ele>
   </trkpt>
   <trkpt lat="-37.83216" lon="145.38223000000002">
    <ele>310.99000000000007</ele>
   </trkpt>
   <trkpt lat="-37.83225" lon="145.38207">
    <ele>313.33000000000004</ele>
   </trkpt>
   <trkpt lat="-37.83229" lon="145.38207">
    <ele>313.33000000000004</ele>
   </trkpt>
   <trkpt lat="-37.83238" lon="145.38223000000002">
    <ele>317.47</ele>
   </trkpt>
   <trkpt lat="-37.83243" lon="145.38225">
    <ele>317.87000000000006</ele>
   </trkpt>
   <trkpt lat="-37.83245" lon="145.38221000000001">
    <ele>318.03000000000003</ele>
   </trkpt>
   <trkpt lat="-37.8324" lon="145.38189">
    <ele>316.67</ele>
   </trkpt>
   <trkpt lat="-37.8324" lon="145.38176">
    <ele>316.52000000000004</ele>
   </trkpt>
   <trkpt lat="-37.83243" lon="145.38147">
    <ele>317.23</ele>
   </trkpt>
   <trkpt lat="-37.832530000000006" lon="145.38113">
    <ele>319.21999999999997</ele>
   </trkpt>
   <trkpt lat="-37.832530000000006" lon="145.38095">
    <ele>320.19</ele>
   </trkpt>
   <trkpt lat="-37.83258" lon="145.38037">
    <ele>325.53000000000003</ele>
   </trkpt>
   <trkpt lat="-37.832620000000006" lon="145.3803">
    <ele>325.53000000000003</ele>
   </trkpt>
   <trkpt lat="-37.83267" lon="145.38018000000002">
    <ele>328.94</ele>
   </trkpt>
   <trkpt lat="-37.83272" lon="145.38021">
    <ele>328.94</ele>
   </trkpt>
   <trkpt lat="-37.83283" lon="145.38043000000002">
    <ele>333.17</ele>
   </trkpt>
   <trkpt lat="-37.83294" lon="145.38052000000002">
    <ele>336.98</ele>
   </trkpt>
   <trkpt lat="-37.83301" lon="145.38045000000002">
    <ele>338.46000000000004</ele>
   </trkpt>
   <trkpt lat="-37.83312" lon="145.38080000000002">
    <ele>342.08000000000004</ele>
   </trkpt>
   <trkpt lat="-37.833180000000006" lon="145.38076">
    <ele>343.16</ele>
   </trkpt>
   <trkpt lat="-37.83321" lon="145.38043000000002">
    <ele>345.71000000000004</ele>
   </trkpt>
   <trkpt lat="-37.833220000000004" lon="145.38015000000001">
    <ele>346.45000000000005</ele>
   </trkpt>
   <trkpt lat="-37.833220000000004" lon="145.38014">
    <ele>346.87</ele>
   </trkpt>
   <trkpt lat="-37.83323" lon="145.37983">
    <ele>348.5</ele>
   </trkpt>
   <trkpt lat="-37.83328" lon="145.37975">
    <ele>350.41</ele>
   </trkpt>
   <trkpt lat="-37.8333" lon="145.37976">
    <ele>350.41</ele>
   </trkpt>
   <trkpt lat="-37.83332" lon="145.37994">
    <ele>350.41</ele>
   </trkpt>
   <trkpt lat="-37.83339" lon="145.38015000000001">
    <ele>353.68000000000006</ele>
   </trkpt>
   <trkpt lat="-37.83348" lon="145.38031">
    <ele>354.81</ele>
   </trkpt>
   <trkpt lat="-37.83355" lon="145.38059">
    <ele>356.74</ele>
   </trkpt>
   <trkpt lat="-37.8337" lon="145.38096000000002">
    <ele>360.22</ele>
   </trkpt>
   <trkpt lat="-37.83375" lon="145.38101">
    <ele>360.91</ele>
   </trkpt>
   <trkpt lat="-37.83379" lon="145.38095">
    <ele>360.91</ele>
   </trkpt>
   <trkpt lat="-37.83381" lon="145.38102">
    <ele>363.09000000000003</ele>
   </trkpt>
   <trkpt lat="-37.8339" lon="145.38104">
    <ele>364.40000000000003</ele>
   </trkpt>
   <trkpt lat="-37.83393" lon="145.38093">
    <ele>366.17</ele>
   </trkpt>
   <trkpt lat="-37.83393" lon="145.38078000000002">
    <ele>366.81</ele>
   </trkpt>
   <trkpt lat="-37.83397" lon="145.38076">
    <ele>366.81</ele>
   </trkpt>
   <trkpt lat="-37.83404" lon="145.38078000000002">
    <ele>369.57</ele>
   </trkpt>
   <trkpt lat="-37.83413" lon="145.3805">
    <ele>371.82000000000005</ele>
   </trkpt>
   <trkpt lat="-37.83408" lon="145.37972000000002">
    <ele>375.67</ele>
   </trkpt>
   <trkpt lat="-37.83413" lon="145.37958">
    <ele>378.00000000000006</ele>
   </trkpt>
   <trkpt lat="-37.83422" lon="145.37978">
    <ele>379.6</ele>
   </trkpt>
   <trkpt lat="-37.83435" lon="145.38021">
    <ele>381.11</ele>
   </trkpt>
   <trkpt lat="-37.83451" lon="145.38065">
    <ele>382.17</ele>
   </trkpt>
   <trkpt lat="-37.83458" lon="145.38077">
    <ele>383.15000000000003</ele>
   </trkpt>
   <trkpt lat="-37.83464" lon="145.38086">
    <ele>383.54</ele>
   </trkpt>
   <trkpt lat="-37.83446" lon="145.38038">
    <ele>383.89</ele>
   </trkpt>
   <trkpt lat="-37.83444" lon="145.38021">
    <ele>385.57</ele>
   </trkpt>
   <trkpt lat="-37.83446" lon="145.37967">
    <ele>387.38000000000005</ele>
   </trkpt>
   <trkpt lat="-37.83442" lon="145.37944000000002">
    <ele>388.68</ele>
   </trkpt>
   <trkpt lat="-37.834500000000006" lon="145.37906">
    <ele>388.66</ele>
   </trkpt>
   <trkpt lat="-37.83449" lon="145.37891000000002">
    <ele>387.43000000000006</ele>
   </trkpt>
   <trkpt lat="-37.83444" lon="145.3788">
    <ele>387.05</ele>
   </trkpt>
   <trkpt lat="-37.83435" lon="145.37867">
    <ele>387.44</ele>
   </trkpt>
   <trkpt lat="-37.83431" lon="145.37854000000002">
    <ele>388.55</ele>
   </trkpt>
   <trkpt lat="-37.83431" lon="145.37839000000002">
    <ele>388.86</ele>
   </trkpt>
   <trkpt lat="-37.83424" lon="145.37819000000002">
    <ele>390.51</ele>
   </trkpt>
   <trkpt lat="-37.83431" lon="145.37820000000002">
    <ele>391.16</ele>
   </trkpt>
   <trkpt lat="-37.83437" lon="145.37837000000002">
    <ele>391.90000000000003</ele>
   </trkpt>
   <trkpt lat="-37.8344" lon="145.3784">
    <ele>392.85</ele>
   </trkpt>
   <trkpt lat="-37.8344" lon="145.37819000000002">
    <ele>393.8</ele>
   </trkpt>
   <trkpt lat="-37.83433" lon="145.37794000000002">
    <ele>393.87000000000006</ele>
   </trkpt>
   <trkpt lat="-37.83426" lon="145.37779">
    <ele>393.20000000000005</ele>
   </trkpt>
   <trkpt lat="-37.83415" lon="145.37768">
    <ele>392.85</ele>
   </trkpt>
   <trkpt lat="-37.83408" lon="145.37746">
    <ele>394.38</ele>
   </trkpt>
   <trkpt lat="-37.83408" lon="145.37692">
    <ele>396.72</ele>
   </trkpt>
   <trkpt lat="-37.83413" lon="145.37681">
    <ele>397.0400000000001</ele>
   </trkpt>
   <trkpt lat="-37.83442" lon="145.37657000000002">
    <ele>396.92</ele>
   </trkpt>
   <trkpt lat="-37.83451" lon="145.37656">
    <ele>397.49</ele>
   </trkpt>
   <trkpt lat="-37.83502" lon="145.37668000000002">
    <ele>401.38</ele>
   </trkpt>
   <trkpt lat="-37.83527" lon="145.37682">
    <ele>403.32</ele>
   </trkpt>
   <trkpt lat="-37.83538" lon="145.37683">
    <ele>402.90000000000003</ele>
   </trkpt>
   <trkpt lat="-37.83601" lon="145.37661">
    <ele>398.15000000000003</ele>
   </trkpt>
   <trkpt lat="-37.83621" lon="145.37649000000002">
    <ele>397.4800000000001</ele>
   </trkpt>
   <trkpt lat="-37.83637" lon="145.37625">
    <ele>397.63000000000005</ele>
   </trkpt>
   <trkpt lat="-37.83686" lon="145.37578000000002">
    <ele>403.88</ele>
   </trkpt>
   <trkpt lat="-37.83686" lon="145.37577000000002">
    <ele>403.84000000000003</ele>
   </trkpt>
   <trkpt lat="-37.83699" lon="145.37567">
    <ele>406.1</ele>
   </trkpt>
   <trkpt lat="-37.83715" lon="145.37563">
    <ele>408.26</ele>
   </trkpt>
   <trkpt lat="-37.83724" lon="145.37557">
    <ele>408.88</ele>
   </trkpt>
   <trkpt lat="-37.83728" lon="145.37513">
    <ele>407.17</ele>
   </trkpt>
   <trkpt lat="-37.83731" lon="145.37496000000002">
    <ele>407.23</ele>
   </trkpt>
   <trkpt lat="-37.83738" lon="145.37475">
    <ele>407.61</ele>
   </trkpt>
   <trkpt lat="-37.83719" lon="145.37407000000002">
    <ele>409.22</ele>
   </trkpt>
   <trkpt lat="-37.83719" lon="145.37388">
    <ele>409.82</ele>
   </trkpt>
   <trkpt lat="-37.83708" lon="145.37331">
    <ele>414.08000000000004</ele>
   </trkpt>
   <trkpt lat="-37.83699" lon="145.37235">
    <ele>423.8</ele>
   </trkpt>
   <trkpt lat="-37.837030000000006" lon="145.3719">
    <ele>427.50000000000006</ele>
   </trkpt>
   <trkpt lat="-37.83699" lon="145.37133">
    <ele>430.94000000000005</ele>
   </trkpt>
   <trkpt lat="-37.837030000000006" lon="145.37094000000002">
    <ele>432.25</ele>
   </trkpt>
   <trkpt lat="-37.83701000000001" lon="145.37063">
    <ele>434.95000000000005</ele>
   </trkpt>
   <trkpt lat="-37.83737" lon="145.37053">
    <ele>434.2300000000001</ele>
   </trkpt>
   <trkpt lat="-37.83769" lon="145.37040000000002">
    <ele>430.43</ele>
   </trkpt>
   <trkpt lat="-37.83798" lon="145.37023000000002">
    <ele>430.56000000000006</ele>
   </trkpt>
   <trkpt lat="-37.83849" lon="145.36997000000002">
    <ele>438.21000000000004</ele>
   </trkpt>
   <trkpt lat="-37.83869" lon="145.36991">
    <ele>439.62</ele>
   </trkpt>
   <trkpt lat="-37.83885" lon="145.3698">
    <ele>443.47</ele>
   </trkpt>
   <trkpt lat="-37.8391" lon="145.36968000000002">
    <ele>446.95</ele>
   </trkpt>
   <trkpt lat="-37.839560000000006" lon="145.36941000000002">
    <ele>451.6</ele>
   </trkpt>
   <trkpt lat="-37.83975" lon="145.36926000000003">
    <ele>455.72</ele>
   </trkpt>
   <trkpt lat="-37.839940000000006" lon="145.36906000000002">
    <ele>460.42</ele>
   </trkpt>
   <trkpt lat="-37.83999" lon="145.36903">
    <ele>460.91</ele>
   </trkpt>
   <trkpt lat="-37.84022" lon="145.36902">
    <ele>462.95000000000005</ele>
   </trkpt>
   <trkpt lat="-37.840390000000006" lon="145.36898000000002">
    <ele>465.31000000000006</ele>
   </trkpt>
   <trkpt lat="-37.840430000000005" lon="145.36897000000002">
    <ele>465.86000000000007</ele>
   </trkpt>
   <trkpt lat="-37.84057" lon="145.36894">
    <ele>468.5</ele>
   </trkpt>
   <trkpt lat="-37.84087" lon="145.36892">
    <ele>471.93</ele>
   </trkpt>
   <trkpt lat="-37.84093" lon="145.36841">
    <ele>474.41</ele>
   </trkpt>
   <trkpt lat="-37.84091" lon="145.36816000000002">
    <ele>475.08000000000004</ele>
   </trkpt>
   <trkpt lat="-37.84135999986439" lon="145.36817499990394">
    <ele>480.39000000000004</ele>
   </trkpt>
   <trkpt lat="-37.84181" lon="145.36819">
    <ele>485.24000000000007</ele>
   </trkpt>
   <trkpt lat="-37.84219" lon="145.36729000000003">
    <ele>478.34000000000003</ele>
   </trkpt>
   <trkpt lat="-37.842290000000006" lon="145.36720000000003">
    <ele>476.98</ele>
   </trkpt>
   <trkpt lat="-37.842470000000006" lon="145.36715">
    <ele>474.20000000000005</ele>
   </trkpt>
   <trkpt lat="-37.8425" lon="145.36701000000002">
    <ele>473.74000000000007</ele>
   </trkpt>
   <trkpt lat="-37.8425" lon="145.36689">
    <ele>473.9200000000001</ele>
   </trkpt>
   <trkpt lat="-37.84234" lon="145.36639000000002">
    <ele>476.94</ele>
   </trkpt>
   <trkpt lat="-37.84212000120055" lon="145.36584499823752">
    <ele>478.63000000000005</ele>
   </trkpt>
   <trkpt lat="-37.8419" lon="145.36530000000002">
    <ele>474.62</ele>
   </trkpt>
   <trkpt lat="-37.84196" lon="145.36505000000002">
    <ele>474.62</ele>
   </trkpt>
   <trkpt lat="-37.8421" lon="145.36476000000002">
    <ele>471.86000000000007</ele>
   </trkpt>
   <trkpt lat="-37.84245500074403" lon="145.3643400020237">
    <ele>465.44</ele>
   </trkpt>
   <trkpt lat="-37.84281" lon="145.36392">
    <ele>458.5400000000001</ele>
   </trkpt>
   <trkpt lat="-37.84286" lon="145.36383">
    <ele>457.65000000000003</ele>
   </trkpt>
   <trkpt lat="-37.84288" lon="145.36368000000002">
    <ele>456.89</ele>
   </trkpt>
   <trkpt lat="-37.84281" lon="145.36349">
    <ele>456.97</ele>
   </trkpt>
   <trkpt lat="-37.84223" lon="145.36280000000002">
    <ele>469.04</ele>
   </trkpt>
   <trkpt lat="-37.8421" lon="145.36245000000002">
    <ele>470.94</ele>
   </trkpt>
   <trkpt lat="-37.842130000000004" lon="145.36174000000003">
    <ele>476.41</ele>
   </trkpt>
   <trkpt lat="-37.8428350004788" lon="145.3615475055181">
    <ele>482.72</ele>
   </trkpt>
   <trkpt lat="-37.84354000064427" lon="145.36135500735594">
    <ele>495.59000000000003</ele>
   </trkpt>
   <trkpt lat="-37.8442450004964" lon="145.36116250551345">
    <ele>505.7900000000001</ele>
   </trkpt>
   <trkpt lat="-37.844950000000004" lon="145.36097">
    <ele>512.12</ele>
   </trkpt>
   <trkpt lat="-37.84501" lon="145.36099000000002">
    <ele>512.78</ele>
   </trkpt>
   <trkpt lat="-37.84560500000557" lon="145.36085000114778">
    <ele>512.88</ele>
   </trkpt>
   <trkpt lat="-37.8462" lon="145.36071">
    <ele>511.78000000000003</ele>
   </trkpt>
   <trkpt lat="-37.84619" lon="145.36064000000002">
    <ele>511.14000000000004</ele>
   </trkpt>
   <trkpt lat="-37.84655" lon="145.36054000000001">
    <ele>510.90000000000003</ele>
   </trkpt>
   <trkpt lat="-37.84682" lon="145.36052">
    <ele>510.69000000000005</ele>
   </trkpt>
   <trkpt lat="-37.84698" lon="145.36054000000001">
    <ele>510.53999999999996</ele>
   </trkpt>
   <trkpt lat="-37.84707" lon="145.3604">
    <ele>511.9100000000001</ele>
   </trkpt>
   <trkpt lat="-37.84713" lon="145.36037000000002">
    <ele>511.29</ele>
   </trkpt>
   <trkpt lat="-37.84738" lon="145.36030000000002">
    <ele>510.76</ele>
   </trkpt>
   <trkpt lat="-37.84721500233696" lon="145.35955999844154">
    <ele>514.51</ele>
   </trkpt>
   <trkpt lat="-37.84705" lon="145.35882">
    <ele>516.7400000000001</ele>
   </trkpt>
   <trkpt lat="-37.84709" lon="145.35882">
    <ele>517.7400000000001</ele>
   </trkpt>
   <trkpt lat="-37.84695" lon="145.35840000000002">
    <ele>516.49</ele>
   </trkpt>
   <trkpt lat="-37.84664" lon="145.35795000000002">
    <ele>512.5200000000001</ele>
   </trkpt>
   <trkpt lat="-37.846540000000005" lon="145.35771000000003">
    <ele>510.39</ele>
   </trkpt>
   <trkpt lat="-37.84644" lon="145.35760000000002">
    <ele>510.09000000000003</ele>
   </trkpt>
   <trkpt lat="-37.846360000000004" lon="145.35734000000002">
    <ele>509.4000000000001</ele>
   </trkpt>
   <trkpt lat="-37.846006670389734" lon="145.35667666031446">
    <ele>509.61</ele>
   </trkpt>
   <trkpt lat="-37.84565333705871" lon="145.35601332698553">
    <ele>511.27</ele>
   </trkpt>
   <trkpt lat="-37.8453" lon="145.35535000000002">
    <ele>512.0400000000001</ele>
   </trkpt>
   <trkpt lat="-37.84517" lon="145.35528000000002">
    <ele>512.61</ele>
   </trkpt>
   <trkpt lat="-37.8457133347619" lon="145.3548666727697">
    <ele>511.83</ele>
   </trkpt>
   <trkpt lat="-37.846256668079185" lon="145.35445333944867">
    <ele>510.5200000000001</ele>
   </trkpt>
   <trkpt lat="-37.8468" lon="145.35404">
    <ele>507.89000000000004</ele>
   </trkpt>
   <trkpt lat="-37.846830000000004" lon="145.35398">
    <ele>507.89000000000004</ele>
   </trkpt>
   <trkpt lat="-37.846900000000005" lon="145.35394000000002">
    <ele>508.09000000000003</ele>
   </trkpt>
   <trkpt lat="-37.84734" lon="145.35397">
    <ele>498.56000000000006</ele>
   </trkpt>
   <trkpt lat="-37.84781" lon="145.35397">
    <ele>484.84000000000003</ele>
   </trkpt>
   <trkpt lat="-37.84798" lon="145.35389">
    <ele>473.91</ele>
   </trkpt>
   <trkpt lat="-37.84828" lon="145.35382">
    <ele>458.81000000000006</ele>
   </trkpt>
   <trkpt lat="-37.84857" lon="145.35368000000003">
    <ele>453.5</ele>
   </trkpt>
   <trkpt lat="-37.84868" lon="145.35357000000002">
    <ele>447.99000000000007</ele>
   </trkpt>
   <trkpt lat="-37.84881" lon="145.35356000000002">
    <ele>445.54</ele>
   </trkpt>
   <trkpt lat="-37.84884" lon="145.35374000000002">
    <ele>447.39</ele>
   </trkpt>
   <trkpt lat="-37.84881" lon="145.35385000000002">
    <ele>447.94000000000005</ele>
   </trkpt>
   <trkpt lat="-37.8487" lon="145.35414">
    <ele>451.14000000000004</ele>
   </trkpt>
   <trkpt lat="-37.848710000000004" lon="145.35414">
    <ele>451.07</ele>
   </trkpt>
   <trkpt lat="-37.84852" lon="145.35456000000002">
    <ele>453.12</ele>
   </trkpt>
   <trkpt lat="-37.84839" lon="145.35525">
    <ele>448.88000000000005</ele>
   </trkpt>
   <trkpt lat="-37.84814" lon="145.3557">
    <ele>445.67</ele>
   </trkpt>
   <trkpt lat="-37.84812" lon="145.35582000000002">
    <ele>446.34000000000003</ele>
   </trkpt>
   <trkpt lat="-37.84814" lon="145.35590000000002">
    <ele>447.26000000000005</ele>
   </trkpt>
   <trkpt lat="-37.84821" lon="145.35601">
    <ele>447.91</ele>
   </trkpt>
   <trkpt lat="-37.84859" lon="145.35638">
    <ele>445.12</ele>
   </trkpt>
   <trkpt lat="-37.84866" lon="145.35649">
    <ele>444.73</ele>
   </trkpt>
   <trkpt lat="-37.8487" lon="145.35663000000002">
    <ele>443.86</ele>
   </trkpt>
   <trkpt lat="-37.84872" lon="145.35680000000002">
    <ele>443.19</ele>
   </trkpt>
   <trkpt lat="-37.84877" lon="145.35692">
    <ele>442.29</ele>
   </trkpt>
   <trkpt lat="-37.84886" lon="145.35699000000002">
    <ele>439.9</ele>
   </trkpt>
   <trkpt lat="-37.84895" lon="145.35702">
    <ele>437.05000000000007</ele>
   </trkpt>
   <trkpt lat="-37.84951" lon="145.35711">
    <ele>427.66</ele>
   </trkpt>
   <trkpt lat="-37.849700000000006" lon="145.35709">
    <ele>423.43</ele>
   </trkpt>
   <trkpt lat="-37.84998" lon="145.35682">
    <ele>417.7</ele>
   </trkpt>
   <trkpt lat="-37.85009" lon="145.35676">
    <ele>417.07000000000005</ele>
   </trkpt>
   <trkpt lat="-37.85054" lon="145.35639">
    <ele>421.22</ele>
   </trkpt>
   <trkpt lat="-37.85083" lon="145.35617000000002">
    <ele>421.03000000000003</ele>
   </trkpt>
   <trkpt lat="-37.85101" lon="145.35612">
    <ele>420.68000000000006</ele>
   </trkpt>
   <trkpt lat="-37.851480000049214" lon="145.35608500021982">
    <ele>420.44000000000005</ele>
   </trkpt>
   <trkpt lat="-37.85195" lon="145.35605">
    <ele>427.78000000000003</ele>
   </trkpt>
   <trkpt lat="-37.8526" lon="145.35617000000002">
    <ele>444.22</ele>
   </trkpt>
   <trkpt lat="-37.85284" lon="145.3561">
    <ele>447.41</ele>
   </trkpt>
   <trkpt lat="-37.85289" lon="145.35602">
    <ele>447.39</ele>
   </trkpt>
   <trkpt lat="-37.85298" lon="145.3556">
    <ele>446.23</ele>
   </trkpt>
   <trkpt lat="-37.853" lon="145.35505">
    <ele>443.29</ele>
   </trkpt>
   <trkpt lat="-37.85331" lon="145.35443">
    <ele>444.11000000000007</ele>
   </trkpt>
   <trkpt lat="-37.85342" lon="145.35415">
    <ele>445.97</ele>
   </trkpt>
   <trkpt lat="-37.85396" lon="145.35339000000002">
    <ele>453.64000000000004</ele>
   </trkpt>
   <trkpt lat="-37.854110000000006" lon="145.35328">
    <ele>456.73</ele>
   </trkpt>
   <trkpt lat="-37.854350000000004" lon="145.35299">
    <ele>459.53000000000003</ele>
   </trkpt>
   <trkpt lat="-37.85439" lon="145.35299">
    <ele>460.14000000000004</ele>
   </trkpt>
   <trkpt lat="-37.85452" lon="145.35320000000002">
    <ele>463.5</ele>
   </trkpt>
   <trkpt lat="-37.854580000000006" lon="145.35319">
    <ele>464.09000000000003</ele>
   </trkpt>
   <trkpt lat="-37.85461" lon="145.35309">
    <ele>465.78000000000003</ele>
   </trkpt>
   <trkpt lat="-37.85461" lon="145.35294000000002">
    <ele>467.06</ele>
   </trkpt>
   <trkpt lat="-37.85466" lon="145.35276000000002">
    <ele>468.57000000000005</ele>
   </trkpt>
   <trkpt lat="-37.85472" lon="145.3527">
    <ele>471.76</ele>
   </trkpt>
   <trkpt lat="-37.85486" lon="145.3523">
    <ele>476.96000000000004</ele>
   </trkpt>
   <trkpt lat="-37.855140000000006" lon="145.35198000000003">
    <ele>484.94000000000005</ele>
   </trkpt>
   <trkpt lat="-37.85521" lon="145.35193">
    <ele>486.54</ele>
   </trkpt>
   <trkpt lat="-37.85526" lon="145.35179000000002">
    <ele>488.12000000000006</ele>
   </trkpt>
   <trkpt lat="-37.85528" lon="145.35168000000002">
    <ele>488.8500000000001</ele>
   </trkpt>
   <trkpt lat="-37.855470000000004" lon="145.35148">
    <ele>491.15000000000003</ele>
   </trkpt>
   <trkpt lat="-37.85602" lon="145.35223000000002">
    <ele>503.88</ele>
   </trkpt>
   <trkpt lat="-37.85614" lon="145.35240000000002">
    <ele>507.14000000000004</ele>
   </trkpt>
   <trkpt lat="-37.85622" lon="145.35247">
    <ele>508.21999999999997</ele>
   </trkpt>
   <trkpt lat="-37.85636" lon="145.35252">
    <ele>509.49</ele>
   </trkpt>
   <trkpt lat="-37.85683" lon="145.35260000000002">
    <ele>507.58000000000004</ele>
   </trkpt>
   <trkpt lat="-37.85701" lon="145.35266000000001">
    <ele>506.77000000000004</ele>
   </trkpt>
   <trkpt lat="-37.85712" lon="145.35268000000002">
    <ele>506.77000000000004</ele>
   </trkpt>
   <trkpt lat="-37.85763499999471" lon="145.35270499982497">
    <ele>499.76000000000005</ele>
   </trkpt>
   <trkpt lat="-37.85815" lon="145.35273">
    <ele>493.13</ele>
   </trkpt>
   <trkpt lat="-37.85851" lon="145.35268000000002">
    <ele>488.49</ele>
   </trkpt>
   <trkpt lat="-37.8592" lon="145.35248">
    <ele>479.47</ele>
   </trkpt>
   <trkpt lat="-37.85945" lon="145.35244">
    <ele>475.35</ele>
   </trkpt>
   <trkpt lat="-37.8596" lon="145.35241000000002">
    <ele>472.35</ele>
   </trkpt>
   <trkpt lat="-37.85994" lon="145.35221">
    <ele>469.21</ele>
   </trkpt>
   <trkpt lat="-37.86023" lon="145.35196000000002">
    <ele>464.41</ele>
   </trkpt>
   <trkpt lat="-37.860490000000006" lon="145.35181">
    <ele>459.62</ele>
   </trkpt>
   <trkpt lat="-37.860960000000006" lon="145.35146">
    <ele>449.57</ele>
   </trkpt>
   <trkpt lat="-37.86104" lon="145.35133000000002">
    <ele>448.12</ele>
   </trkpt>
   <trkpt lat="-37.86144" lon="145.35096000000001">
    <ele>448.58000000000004</ele>
   </trkpt>
   <trkpt lat="-37.86157" lon="145.35075">
    <ele>449.19</ele>
   </trkpt>
   <trkpt lat="-37.86175" lon="145.35062000000002">
    <ele>448.11000000000007</ele>
   </trkpt>
   <trkpt lat="-37.86218" lon="145.35036000000002">
    <ele>445.6</ele>
   </trkpt>
   <trkpt lat="-37.86233" lon="145.35036000000002">
    <ele>445.93000000000006</ele>
   </trkpt>
   <trkpt lat="-37.862730000000006" lon="145.35069000000001">
    <ele>456.45</ele>
   </trkpt>
   <trkpt lat="-37.86258" lon="145.35084">
    <ele>458.1000000000001</ele>
   </trkpt>
   <trkpt lat="-37.86256" lon="145.35098000000002">
    <ele>460.42</ele>
   </trkpt>
   <trkpt lat="-37.8622" lon="145.3514">
    <ele>466.3</ele>
   </trkpt>
   <trkpt lat="-37.86218" lon="145.35177000000002">
    <ele>468.83000000000004</ele>
   </trkpt>
   <trkpt lat="-37.862190000000005" lon="145.3522">
    <ele>471.41</ele>
   </trkpt>
   <trkpt lat="-37.8624" lon="145.35274">
    <ele>474.72</ele>
   </trkpt>
   <trkpt lat="-37.862460000000006" lon="145.35279">
    <ele>475.41</ele>
   </trkpt>
   <trkpt lat="-37.86253" lon="145.35281">
    <ele>475.41</ele>
   </trkpt>
   <trkpt lat="-37.86256" lon="145.353">
    <ele>476.40000000000003</ele>
   </trkpt>
   <trkpt lat="-37.86263" lon="145.35319">
    <ele>478.14000000000004</ele>
   </trkpt>
   <trkpt lat="-37.862770000000005" lon="145.35352">
    <ele>479.49</ele>
   </trkpt>
  </trkseg>
 </trk>
</gpx>
