<?xml version="1.0" encoding="UTF-8"?>
<gpx creator="StravaGPX" version="1.1" xmlns="http://www.topografix.com/GPX/1/1" xmlns:xsi="http://www.w3.org/2001/XMLSchema-instance" xsi:schemaLocation="http://www.topografix.com/GPX/1/1 http://www.topografix.com/GPX/1/1/gpx.xsd">
 <metadata>
  <name>Sassafras 14k 15th September</name>
  <author>
   <name>john csorgo</name>
  </author>
  <copyright author="OpenStreetMap contributors">
   <year>2020</year>
   <license>https://www.openstreetmap.org/copyright</license>
  </copyright>
 </metadata>
 <trk>
  <name>Sassafras 14k 15th September</name>
  <link href=""/>
  <type>trail_running</type>
  <trkseg>
   <trkpt lat="-37.862950000000005" lon="145.35362">
    <ele>479.38</ele>
   </trkpt>
   <trkpt lat="-37.86305" lon="145.35354">
    <ele>478.80000000000007</ele>
   </trkpt>
   <trkpt lat="-37.86298" lon="145.35341000000003">
    <ele>479.12000000000006</ele>
   </trkpt>
   <trkpt lat="-37.86298" lon="145.35333">
    <ele>479.38</ele>
   </trkpt>
   <trkpt lat="-37.86287" lon="145.35322000000002">
    <ele>479.46000000000004</ele>
   </trkpt>
   <trkpt lat="-37.86278" lon="145.35319">
    <ele>478.95000000000005</ele>
   </trkpt>
   <trkpt lat="-37.86263" lon="145.35319">
    <ele>478.14000000000004</ele>
   </trkpt>
   <trkpt lat="-37.86256" lon="145.353">
    <ele>476.40000000000003</ele>
   </trkpt>
   <trkpt lat="-37.86253" lon="145.35281">
    <ele>475.41</ele>
   </trkpt>
   <trkpt lat="-37.862460000000006" lon="145.35279">
    <ele>475.41</ele>
   </trkpt>
   <trkpt lat="-37.8624" lon="145.35274">
    <ele>474.72</ele>
   </trkpt>
   <trkpt lat="-37.862190000000005" lon="145.3522">
    <ele>471.41</ele>
   </trkpt>
   <trkpt lat="-37.86218" lon="145.35177000000002">
    <ele>468.83000000000004</ele>
   </trkpt>
   <trkpt lat="-37.8622" lon="145.3514">
    <ele>466.3</ele>
   </trkpt>
   <trkpt lat="-37.86256" lon="145.35098000000002">
    <ele>460.42</ele>
   </trkpt>
   <trkpt lat="-37.86258" lon="145.35084">
    <ele>458.1000000000001</ele>
   </trkpt>
   <trkpt lat="-37.86285" lon="145.35058">
    <ele>456.45</ele>
   </trkpt>
   <trkpt lat="-37.863150000000005" lon="145.34997">
    <ele>447.76000000000005</ele>
   </trkpt>
   <trkpt lat="-37.86318" lon="145.3494">
    <ele>441.90000000000003</ele>
   </trkpt>
   <trkpt lat="-37.86316" lon="145.34895">
    <ele>436.68</ele>
   </trkpt>
   <trkpt lat="-37.86316" lon="145.34836">
    <ele>430.98</ele>
   </trkpt>
   <trkpt lat="-37.86312" lon="145.34825">
    <ele>430.03000000000003</ele>
   </trkpt>
   <trkpt lat="-37.86296" lon="145.34810000000002">
    <ele>429.17</ele>
   </trkpt>
   <trkpt lat="-37.86256" lon="145.34787">
    <ele>424.03000000000003</ele>
   </trkpt>
   <trkpt lat="-37.86245" lon="145.34777000000003">
    <ele>423.06000000000006</ele>
   </trkpt>
   <trkpt lat="-37.8622" lon="145.34749000000002">
    <ele>419.30000000000007</ele>
   </trkpt>
   <trkpt lat="-37.86206" lon="145.34726">
    <ele>415.69000000000005</ele>
   </trkpt>
   <trkpt lat="-37.86202" lon="145.34712000000002">
    <ele>413.26</ele>
   </trkpt>
   <trkpt lat="-37.86193" lon="145.34642000000002">
    <ele>406.7</ele>
   </trkpt>
   <trkpt lat="-37.86186" lon="145.34658000000002">
    <ele>406.72</ele>
   </trkpt>
   <trkpt lat="-37.861790000000006" lon="145.34698">
    <ele>407.5</ele>
   </trkpt>
   <trkpt lat="-37.86162" lon="145.34737">
    <ele>403.25000000000006</ele>
   </trkpt>
   <trkpt lat="-37.86162" lon="145.34753">
    <ele>402.26</ele>
   </trkpt>
   <trkpt lat="-37.86168" lon="145.34779">
    <ele>400.24</ele>
   </trkpt>
   <trkpt lat="-37.86164" lon="145.34794000000002">
    <ele>399.65</ele>
   </trkpt>
   <trkpt lat="-37.86159" lon="145.34802000000002">
    <ele>398.94</ele>
   </trkpt>
   <trkpt lat="-37.86128" lon="145.34822">
    <ele>394.75000000000006</ele>
   </trkpt>
   <trkpt lat="-37.861200000000004" lon="145.34823">
    <ele>393.94</ele>
   </trkpt>
   <trkpt lat="-37.86122" lon="145.34823">
    <ele>393.94</ele>
   </trkpt>
   <trkpt lat="-37.86112" lon="145.34822">
    <ele>392.36</ele>
   </trkpt>
   <trkpt lat="-37.86104" lon="145.34814">
    <ele>390.28000000000003</ele>
   </trkpt>
   <trkpt lat="-37.86097" lon="145.34804000000003">
    <ele>389.25000000000006</ele>
   </trkpt>
   <trkpt lat="-37.86097" lon="145.34788">
    <ele>387.57</ele>
   </trkpt>
   <trkpt lat="-37.86101" lon="145.34771">
    <ele>386.58000000000004</ele>
   </trkpt>
   <trkpt lat="-37.86101" lon="145.34763">
    <ele>385.99000000000007</ele>
   </trkpt>
   <trkpt lat="-37.86097" lon="145.34757000000002">
    <ele>384.57</ele>
   </trkpt>
   <trkpt lat="-37.86068" lon="145.34759000000003">
    <ele>379.09000000000003</ele>
   </trkpt>
   <trkpt lat="-37.86032" lon="145.34775000000002">
    <ele>372.84</ele>
   </trkpt>
   <trkpt lat="-37.86027" lon="145.34776000000002">
    <ele>372.84</ele>
   </trkpt>
   <trkpt lat="-37.859500000000004" lon="145.34782">
    <ele>365.45000000000005</ele>
   </trkpt>
   <trkpt lat="-37.85942" lon="145.34772">
    <ele>365.45000000000005</ele>
   </trkpt>
   <trkpt lat="-37.859370000000006" lon="145.34754">
    <ele>348.99</ele>
   </trkpt>
   <trkpt lat="-37.85931" lon="145.34758000000002">
    <ele>349.69000000000005</ele>
   </trkpt>
   <trkpt lat="-37.85918" lon="145.3476">
    <ele>351.56000000000006</ele>
   </trkpt>
   <trkpt lat="-37.8586" lon="145.34761">
    <ele>354.76</ele>
   </trkpt>
   <trkpt lat="-37.85853" lon="145.34743">
    <ele>353.61</ele>
   </trkpt>
   <trkpt lat="-37.85833" lon="145.34725">
    <ele>349.67</ele>
   </trkpt>
   <trkpt lat="-37.85819" lon="145.34719">
    <ele>347.94</ele>
   </trkpt>
   <trkpt lat="-37.857960000000006" lon="145.34694000000002">
    <ele>344.78000000000003</ele>
   </trkpt>
   <trkpt lat="-37.85765" lon="145.34672">
    <ele>341.67</ele>
   </trkpt>
   <trkpt lat="-37.857580000000006" lon="145.34655">
    <ele>338.95000000000005</ele>
   </trkpt>
   <trkpt lat="-37.85743" lon="145.34651000000002">
    <ele>337.0</ele>
   </trkpt>
   <trkpt lat="-37.85727" lon="145.34652">
    <ele>335.8</ele>
   </trkpt>
   <trkpt lat="-37.85703" lon="145.34650000000002">
    <ele>334.43</ele>
   </trkpt>
   <trkpt lat="-37.85696" lon="145.34644">
    <ele>334.14000000000004</ele>
   </trkpt>
   <trkpt lat="-37.85687" lon="145.34644">
    <ele>334.16</ele>
   </trkpt>
   <trkpt lat="-37.8566" lon="145.34635">
    <ele>339.19000000000005</ele>
   </trkpt>
   <trkpt lat="-37.856390000000005" lon="145.34613000000002">
    <ele>342.06</ele>
   </trkpt>
   <trkpt lat="-37.85629" lon="145.34596000000002">
    <ele>345.27000000000004</ele>
   </trkpt>
   <trkpt lat="-37.85616" lon="145.34582">
    <ele>347.82</ele>
   </trkpt>
   <trkpt lat="-37.85607" lon="145.34561000000002">
    <ele>352.16</ele>
   </trkpt>
   <trkpt lat="-37.85562" lon="145.34508000000002">
    <ele>356.95000000000005</ele>
   </trkpt>
   <trkpt lat="-37.85553" lon="145.34492">
    <ele>357.14</ele>
   </trkpt>
   <trkpt lat="-37.85535" lon="145.34470000000002">
    <ele>358.02</ele>
   </trkpt>
   <trkpt lat="-37.85528" lon="145.34457">
    <ele>358.97</ele>
   </trkpt>
   <trkpt lat="-37.85515" lon="145.34415">
    <ele>357.51000000000005</ele>
   </trkpt>
   <trkpt lat="-37.8551" lon="145.34404">
    <ele>357.51000000000005</ele>
   </trkpt>
   <trkpt lat="-37.855050000000006" lon="145.34368">
    <ele>353.86</ele>
   </trkpt>
   <trkpt lat="-37.85492" lon="145.34354000000002">
    <ele>350.24000000000007</ele>
   </trkpt>
   <trkpt lat="-37.8549" lon="145.34348">
    <ele>350.24000000000007</ele>
   </trkpt>
   <trkpt lat="-37.85488" lon="145.34337000000002">
    <ele>348.2</ele>
   </trkpt>
   <trkpt lat="-37.85492" lon="145.34293000000002">
    <ele>342.42</ele>
   </trkpt>
   <trkpt lat="-37.85474" lon="145.3426">
    <ele>337.52000000000004</ele>
   </trkpt>
   <trkpt lat="-37.85472" lon="145.34233">
    <ele>334.22</ele>
   </trkpt>
   <trkpt lat="-37.85468" lon="145.34225">
    <ele>331.65</ele>
   </trkpt>
   <trkpt lat="-37.85448" lon="145.34206">
    <ele>322.65999999999997</ele>
   </trkpt>
   <trkpt lat="-37.85419" lon="145.34158000000002">
    <ele>312.13</ele>
   </trkpt>
   <trkpt lat="-37.85387" lon="145.34123000000002">
    <ele>315.01</ele>
   </trkpt>
   <trkpt lat="-37.85374" lon="145.34099">
    <ele>315.71000000000004</ele>
   </trkpt>
   <trkpt lat="-37.85365" lon="145.34067000000002">
    <ele>313.36</ele>
   </trkpt>
   <trkpt lat="-37.85358" lon="145.33991">
    <ele>303.02</ele>
   </trkpt>
   <trkpt lat="-37.853460000000005" lon="145.33943000000002">
    <ele>302.07</ele>
   </trkpt>
   <trkpt lat="-37.8534" lon="145.33894">
    <ele>298.8</ele>
   </trkpt>
   <trkpt lat="-37.85333" lon="145.33871000000002">
    <ele>297.02</ele>
   </trkpt>
   <trkpt lat="-37.85333" lon="145.33833">
    <ele>292.31</ele>
   </trkpt>
   <trkpt lat="-37.85327" lon="145.33823">
    <ele>291.75</ele>
   </trkpt>
   <trkpt lat="-37.85313" lon="145.33813">
    <ele>293.49</ele>
   </trkpt>
   <trkpt lat="-37.85304" lon="145.33812">
    <ele>295.78000000000003</ele>
   </trkpt>
   <trkpt lat="-37.85293" lon="145.33818000000002">
    <ele>300.01</ele>
   </trkpt>
   <trkpt lat="-37.85242" lon="145.33856">
    <ele>317.94</ele>
   </trkpt>
   <trkpt lat="-37.85233" lon="145.33851">
    <ele>319.41</ele>
   </trkpt>
   <trkpt lat="-37.85215" lon="145.33823">
    <ele>320.74</ele>
   </trkpt>
   <trkpt lat="-37.85206" lon="145.33798000000002">
    <ele>320.48</ele>
   </trkpt>
   <trkpt lat="-37.8519" lon="145.33773000000002">
    <ele>320.84000000000003</ele>
   </trkpt>
   <trkpt lat="-37.85177" lon="145.33761">
    <ele>320.85</ele>
   </trkpt>
   <trkpt lat="-37.85172" lon="145.33751">
    <ele>320.46000000000004</ele>
   </trkpt>
   <trkpt lat="-37.85168" lon="145.33735000000001">
    <ele>319.58000000000004</ele>
   </trkpt>
   <trkpt lat="-37.85139" lon="145.33696">
    <ele>317.88000000000005</ele>
   </trkpt>
   <trkpt lat="-37.85107" lon="145.33634">
    <ele>313.1</ele>
   </trkpt>
   <trkpt lat="-37.85096" lon="145.33634">
    <ele>313.14000000000004</ele>
   </trkpt>
   <trkpt lat="-37.85085" lon="145.33637000000002">
    <ele>313.1</ele>
   </trkpt>
   <trkpt lat="-37.85074" lon="145.33634">
    <ele>312.87</ele>
   </trkpt>
   <trkpt lat="-37.85063" lon="145.33599">
    <ele>308.56</ele>
   </trkpt>
   <trkpt lat="-37.85051" lon="145.33530000000002">
    <ele>296.54</ele>
   </trkpt>
   <trkpt lat="-37.85051" lon="145.33468000000002">
    <ele>279.46999999999997</ele>
   </trkpt>
   <trkpt lat="-37.850645001564736" lon="145.33407000115557">
    <ele>272.6</ele>
   </trkpt>
   <trkpt lat="-37.85078" lon="145.33346">
    <ele>257.0</ele>
   </trkpt>
   <trkpt lat="-37.8508" lon="145.33325000000002">
    <ele>252.56</ele>
   </trkpt>
   <trkpt lat="-37.85076" lon="145.33294">
    <ele>248.45000000000002</ele>
   </trkpt>
   <trkpt lat="-37.85085" lon="145.33266">
    <ele>240.82</ele>
   </trkpt>
   <trkpt lat="-37.850860000000004" lon="145.33241">
    <ele>232.28</ele>
   </trkpt>
   <trkpt lat="-37.85036" lon="145.33271000000002">
    <ele>236.52</ele>
   </trkpt>
   <trkpt lat="-37.8502" lon="145.33283">
    <ele>237.13</ele>
   </trkpt>
   <trkpt lat="-37.85004" lon="145.333">
    <ele>238.23000000000002</ele>
   </trkpt>
   <trkpt lat="-37.84989" lon="145.33313">
    <ele>239.76000000000002</ele>
   </trkpt>
   <trkpt lat="-37.84975" lon="145.33316000000002">
    <ele>240.34000000000003</ele>
   </trkpt>
   <trkpt lat="-37.84926" lon="145.33305000000001">
    <ele>244.48000000000002</ele>
   </trkpt>
   <trkpt lat="-37.849140000000006" lon="145.33307000000002">
    <ele>244.48000000000002</ele>
   </trkpt>
   <trkpt lat="-37.84899" lon="145.33313">
    <ele>244.99</ele>
   </trkpt>
   <trkpt lat="-37.848800000000004" lon="145.33329">
    <ele>246.37000000000003</ele>
   </trkpt>
   <trkpt lat="-37.84872" lon="145.33342000000002">
    <ele>246.9</ele>
   </trkpt>
   <trkpt lat="-37.84863" lon="145.33362000000002">
    <ele>248.26</ele>
   </trkpt>
   <trkpt lat="-37.848580000000005" lon="145.33389000000003">
    <ele>249.15</ele>
   </trkpt>
   <trkpt lat="-37.84852" lon="145.33427">
    <ele>250.52</ele>
   </trkpt>
   <trkpt lat="-37.84852" lon="145.33491">
    <ele>253.51000000000002</ele>
   </trkpt>
   <trkpt lat="-37.8485" lon="145.33511000000001">
    <ele>254.03000000000003</ele>
   </trkpt>
   <trkpt lat="-37.84839" lon="145.33564">
    <ele>255.48999999999998</ele>
   </trkpt>
   <trkpt lat="-37.84836" lon="145.33582">
    <ele>255.82999999999998</ele>
   </trkpt>
   <trkpt lat="-37.84841" lon="145.33623">
    <ele>256.36</ele>
   </trkpt>
   <trkpt lat="-37.84839" lon="145.33696">
    <ele>257.36</ele>
   </trkpt>
   <trkpt lat="-37.84843" lon="145.33804">
    <ele>258.85</ele>
   </trkpt>
   <trkpt lat="-37.84839" lon="145.33828000000003">
    <ele>259.12</ele>
   </trkpt>
   <trkpt lat="-37.8483" lon="145.33857">
    <ele>259.94</ele>
   </trkpt>
   <trkpt lat="-37.8483" lon="145.33871000000002">
    <ele>260.15000000000003</ele>
   </trkpt>
   <trkpt lat="-37.84832" lon="145.33889000000002">
    <ele>260.33</ele>
   </trkpt>
   <trkpt lat="-37.84848" lon="145.33938">
    <ele>260.72</ele>
   </trkpt>
   <trkpt lat="-37.84854" lon="145.34">
    <ele>261.88</ele>
   </trkpt>
   <trkpt lat="-37.8487000038326" lon="145.34095499778738">
    <ele>263.40000000000003</ele>
   </trkpt>
   <trkpt lat="-37.84886" lon="145.34191">
    <ele>267.31000000000006</ele>
   </trkpt>
   <trkpt lat="-37.84888" lon="145.34232">
    <ele>268.6</ele>
   </trkpt>
   <trkpt lat="-37.84886" lon="145.34281000000001">
    <ele>270.79</ele>
   </trkpt>
   <trkpt lat="-37.848770001908534" lon="145.34348000073928">
    <ele>272.5</ele>
   </trkpt>
   <trkpt lat="-37.84868" lon="145.34415">
    <ele>273.40000000000003</ele>
   </trkpt>
   <trkpt lat="-37.84861" lon="145.34492">
    <ele>274.98</ele>
   </trkpt>
   <trkpt lat="-37.848600001896216" lon="145.34559000020948">
    <ele>277.76</ele>
   </trkpt>
   <trkpt lat="-37.84859" lon="145.34626">
    <ele>281.84000000000003</ele>
   </trkpt>
   <trkpt lat="-37.848580000000005" lon="145.34635">
    <ele>282.86</ele>
   </trkpt>
   <trkpt lat="-37.848580000000005" lon="145.34638">
    <ele>282.86</ele>
   </trkpt>
   <trkpt lat="-37.84854" lon="145.34643">
    <ele>282.86</ele>
   </trkpt>
   <trkpt lat="-37.84848" lon="145.34639">
    <ele>284.32</ele>
   </trkpt>
   <trkpt lat="-37.848200000000006" lon="145.3459">
    <ele>289.02</ele>
   </trkpt>
   <trkpt lat="-37.84798" lon="145.34563">
    <ele>290.36</ele>
   </trkpt>
   <trkpt lat="-37.84789" lon="145.34557">
    <ele>291.29</ele>
   </trkpt>
   <trkpt lat="-37.84781" lon="145.34555">
    <ele>291.87</ele>
   </trkpt>
   <trkpt lat="-37.84756" lon="145.34556">
    <ele>292.82</ele>
   </trkpt>
   <trkpt lat="-37.84745" lon="145.34555">
    <ele>293.25</ele>
   </trkpt>
   <trkpt lat="-37.84731" lon="145.34550000000002">
    <ele>293.44000000000005</ele>
   </trkpt>
   <trkpt lat="-37.84722" lon="145.34541000000002">
    <ele>293.42</ele>
   </trkpt>
   <trkpt lat="-37.847170000000006" lon="145.34528">
    <ele>293.26</ele>
   </trkpt>
   <trkpt lat="-37.84707" lon="145.34496000000001">
    <ele>292.68000000000006</ele>
   </trkpt>
   <trkpt lat="-37.84707" lon="145.34472000000002">
    <ele>292.66</ele>
   </trkpt>
   <trkpt lat="-37.84716" lon="145.34429">
    <ele>294.59000000000003</ele>
   </trkpt>
   <trkpt lat="-37.84736" lon="145.34413">
    <ele>294.27000000000004</ele>
   </trkpt>
   <trkpt lat="-37.84742" lon="145.34400000000002">
    <ele>295.87</ele>
   </trkpt>
   <trkpt lat="-37.84736" lon="145.34413">
    <ele>294.26</ele>
   </trkpt>
   <trkpt lat="-37.84716" lon="145.34429">
    <ele>294.59000000000003</ele>
   </trkpt>
   <trkpt lat="-37.8472" lon="145.34408000000002">
    <ele>296.22</ele>
   </trkpt>
   <trkpt lat="-37.84718" lon="145.34387">
    <ele>296.75</ele>
   </trkpt>
   <trkpt lat="-37.847170000000006" lon="145.34381000000002">
    <ele>297.43</ele>
   </trkpt>
   <trkpt lat="-37.84709" lon="145.34374000000003">
    <ele>297.7</ele>
   </trkpt>
   <trkpt lat="-37.84702" lon="145.34371000000002">
    <ele>298.39000000000004</ele>
   </trkpt>
   <trkpt lat="-37.84691" lon="145.34377">
    <ele>299.28000000000003</ele>
   </trkpt>
   <trkpt lat="-37.84666" lon="145.3442">
    <ele>305.64000000000004</ele>
   </trkpt>
   <trkpt lat="-37.84657" lon="145.34428">
    <ele>307.74</ele>
   </trkpt>
   <trkpt lat="-37.84642" lon="145.34432">
    <ele>310.67</ele>
   </trkpt>
   <trkpt lat="-37.84599" lon="145.34422">
    <ele>316.86</ele>
   </trkpt>
   <trkpt lat="-37.84579" lon="145.34413">
    <ele>320.59000000000003</ele>
   </trkpt>
   <trkpt lat="-37.84568" lon="145.34411">
    <ele>320.59000000000003</ele>
   </trkpt>
   <trkpt lat="-37.84559" lon="145.34419000000003">
    <ele>321.92</ele>
   </trkpt>
   <trkpt lat="-37.84557" lon="145.34426000000002">
    <ele>323.18</ele>
   </trkpt>
   <trkpt lat="-37.84559" lon="145.34452000000002">
    <ele>324.94</ele>
   </trkpt>
   <trkpt lat="-37.8457" lon="145.34482">
    <ele>328.62</ele>
   </trkpt>
   <trkpt lat="-37.84586" lon="145.34505000000001">
    <ele>329.91</ele>
   </trkpt>
   <trkpt lat="-37.84597" lon="145.34538">
    <ele>330.94</ele>
   </trkpt>
   <trkpt lat="-37.84595" lon="145.34548">
    <ele>331.53000000000003</ele>
   </trkpt>
   <trkpt lat="-37.8459" lon="145.34558">
    <ele>332.29</ele>
   </trkpt>
   <trkpt lat="-37.84572" lon="145.34585">
    <ele>336.87</ele>
   </trkpt>
   <trkpt lat="-37.84561" lon="145.34591">
    <ele>336.87</ele>
   </trkpt>
   <trkpt lat="-37.84548" lon="145.34592">
    <ele>341.95000000000005</ele>
   </trkpt>
   <trkpt lat="-37.84543" lon="145.3459">
    <ele>341.95000000000005</ele>
   </trkpt>
   <trkpt lat="-37.84519" lon="145.34607000000003">
    <ele>348.62000000000006</ele>
   </trkpt>
   <trkpt lat="-37.845060000000004" lon="145.34613000000002">
    <ele>348.62000000000006</ele>
   </trkpt>
   <trkpt lat="-37.84476" lon="145.34615000000002">
    <ele>361.44000000000005</ele>
   </trkpt>
   <trkpt lat="-37.84445" lon="145.34615000000002">
    <ele>364.69</ele>
   </trkpt>
   <trkpt lat="-37.84418" lon="145.34607000000003">
    <ele>368.1</ele>
   </trkpt>
   <trkpt lat="-37.84398" lon="145.34587000000002">
    <ele>372.28000000000003</ele>
   </trkpt>
   <trkpt lat="-37.84393" lon="145.34585">
    <ele>376.08000000000004</ele>
   </trkpt>
   <trkpt lat="-37.843880000000006" lon="145.34591">
    <ele>376.08000000000004</ele>
   </trkpt>
   <trkpt lat="-37.8438" lon="145.34609">
    <ele>381.57</ele>
   </trkpt>
   <trkpt lat="-37.84378" lon="145.34646">
    <ele>386.26000000000005</ele>
   </trkpt>
   <trkpt lat="-37.84384" lon="145.3469">
    <ele>391.25000000000006</ele>
   </trkpt>
   <trkpt lat="-37.84382" lon="145.34711000000001">
    <ele>396.88</ele>
   </trkpt>
   <trkpt lat="-37.84337" lon="145.34801000000002">
    <ele>409.34000000000003</ele>
   </trkpt>
   <trkpt lat="-37.843320000000006" lon="145.34844">
    <ele>411.46000000000004</ele>
   </trkpt>
   <trkpt lat="-37.84315" lon="145.34874000000002">
    <ele>414.13000000000005</ele>
   </trkpt>
   <trkpt lat="-37.84306" lon="145.34874000000002">
    <ele>414.80000000000007</ele>
   </trkpt>
   <trkpt lat="-37.84286" lon="145.34865000000002">
    <ele>418.68000000000006</ele>
   </trkpt>
   <trkpt lat="-37.842760000000006" lon="145.34866000000002">
    <ele>420.41</ele>
   </trkpt>
   <trkpt lat="-37.84263" lon="145.34873000000002">
    <ele>423.96000000000004</ele>
   </trkpt>
   <trkpt lat="-37.84237" lon="145.3488">
    <ele>428.07000000000005</ele>
   </trkpt>
   <trkpt lat="-37.84219" lon="145.34892000000002">
    <ele>432.57</ele>
   </trkpt>
   <trkpt lat="-37.8421" lon="145.34902000000002">
    <ele>434.49</ele>
   </trkpt>
   <trkpt lat="-37.842020000000005" lon="145.34905">
    <ele>437.31</ele>
   </trkpt>
   <trkpt lat="-37.84192" lon="145.34903">
    <ele>439.28000000000003</ele>
   </trkpt>
   <trkpt lat="-37.84185" lon="145.34889">
    <ele>441.52000000000004</ele>
   </trkpt>
   <trkpt lat="-37.84183" lon="145.34872000000001">
    <ele>441.75</ele>
   </trkpt>
   <trkpt lat="-37.84194" lon="145.34835">
    <ele>442.42</ele>
   </trkpt>
   <trkpt lat="-37.84201" lon="145.34824">
    <ele>443.20000000000005</ele>
   </trkpt>
   <trkpt lat="-37.84219" lon="145.34804000000003">
    <ele>443.93000000000006</ele>
   </trkpt>
   <trkpt lat="-37.84225" lon="145.34794000000002">
    <ele>444.73</ele>
   </trkpt>
   <trkpt lat="-37.8423" lon="145.34775000000002">
    <ele>446.29</ele>
   </trkpt>
   <trkpt lat="-37.8423" lon="145.34731000000002">
    <ele>448.28000000000003</ele>
   </trkpt>
   <trkpt lat="-37.84228" lon="145.3468">
    <ele>450.46000000000004</ele>
   </trkpt>
   <trkpt lat="-37.8423" lon="145.34661">
    <ele>451.12</ele>
   </trkpt>
   <trkpt lat="-37.84239" lon="145.34612">
    <ele>452.63</ele>
   </trkpt>
   <trkpt lat="-37.84241" lon="145.34594">
    <ele>453.6600000000001</ele>
   </trkpt>
   <trkpt lat="-37.84239" lon="145.34554">
    <ele>454.93000000000006</ele>
   </trkpt>
   <trkpt lat="-37.8423" lon="145.34518">
    <ele>455.93000000000006</ele>
   </trkpt>
   <trkpt lat="-37.84221" lon="145.34493">
    <ele>456.47</ele>
   </trkpt>
   <trkpt lat="-37.842040000000004" lon="145.34463000000002">
    <ele>456.97</ele>
   </trkpt>
   <trkpt lat="-37.84183" lon="145.34441">
    <ele>457.42</ele>
   </trkpt>
   <trkpt lat="-37.84163" lon="145.34426000000002">
    <ele>458.74</ele>
   </trkpt>
   <trkpt lat="-37.84125" lon="145.34408000000002">
    <ele>461.33</ele>
   </trkpt>
   <trkpt lat="-37.84091" lon="145.34394">
    <ele>463.53000000000003</ele>
   </trkpt>
   <trkpt lat="-37.84057" lon="145.34386">
    <ele>466.07000000000005</ele>
   </trkpt>
   <trkpt lat="-37.84024" lon="145.34384">
    <ele>468.52000000000004</ele>
   </trkpt>
   <trkpt lat="-37.83966" lon="145.34384">
    <ele>468.72</ele>
   </trkpt>
   <trkpt lat="-37.8391" lon="145.34374000000003">
    <ele>471.0</ele>
   </trkpt>
   <trkpt lat="-37.83874" lon="145.34358">
    <ele>474.54</ele>
   </trkpt>
   <trkpt lat="-37.83854" lon="145.34353000000002">
    <ele>475.29</ele>
   </trkpt>
   <trkpt lat="-37.8384" lon="145.34348">
    <ele>475.09</ele>
   </trkpt>
   <trkpt lat="-37.83818" lon="145.34336000000002">
    <ele>473.44</ele>
   </trkpt>
   <trkpt lat="-37.83807" lon="145.34326000000001">
    <ele>471.03000000000003</ele>
   </trkpt>
   <trkpt lat="-37.83789" lon="145.34306">
    <ele>467.23</ele>
   </trkpt>
   <trkpt lat="-37.8376" lon="145.34282000000002">
    <ele>461.5400000000001</ele>
   </trkpt>
   <trkpt lat="-37.83746" lon="145.34274000000002">
    <ele>460.43000000000006</ele>
   </trkpt>
   <trkpt lat="-37.83713" lon="145.34259">
    <ele>454.68</ele>
   </trkpt>
   <trkpt lat="-37.83682" lon="145.34251">
    <ele>451.29</ele>
   </trkpt>
   <trkpt lat="-37.83681" lon="145.34226">
    <ele>445.73</ele>
   </trkpt>
   <trkpt lat="-37.83688" lon="145.34184000000002">
    <ele>432.50000000000006</ele>
   </trkpt>
   <trkpt lat="-37.83713" lon="145.34112000000002">
    <ele>413.96000000000004</ele>
   </trkpt>
   <trkpt lat="-37.837120000000006" lon="145.34063">
    <ele>399.63000000000005</ele>
   </trkpt>
   <trkpt lat="-37.83719" lon="145.34022000000002">
    <ele>389.3</ele>
   </trkpt>
   <trkpt lat="-37.83719" lon="145.33995000000002">
    <ele>384.09000000000003</ele>
   </trkpt>
   <trkpt lat="-37.83724" lon="145.33924000000002">
    <ele>368.78000000000003</ele>
   </trkpt>
   <trkpt lat="-37.837250000000004" lon="145.33857">
    <ele>355.31</ele>
   </trkpt>
   <trkpt lat="-37.83766" lon="145.33823">
    <ele>346.62</ele>
   </trkpt>
   <trkpt lat="-37.83809" lon="145.33800000000002">
    <ele>338.38</ele>
   </trkpt>
   <trkpt lat="-37.83847" lon="145.33802">
    <ele>333.96000000000004</ele>
   </trkpt>
   <trkpt lat="-37.83885" lon="145.33808000000002">
    <ele>333.93</ele>
   </trkpt>
   <trkpt lat="-37.83928" lon="145.33822">
    <ele>337.21</ele>
   </trkpt>
   <trkpt lat="-37.83876" lon="145.33791000000002">
    <ele>330.09000000000003</ele>
   </trkpt>
   <trkpt lat="-37.83845" lon="145.33756000000002">
    <ele>322.31000000000006</ele>
   </trkpt>
   <trkpt lat="-37.83825" lon="145.33732">
    <ele>316.63</ele>
   </trkpt>
   <trkpt lat="-37.83816" lon="145.33717000000001">
    <ele>313.03000000000003</ele>
   </trkpt>
   <trkpt lat="-37.83813" lon="145.33708000000001">
    <ele>311.07</ele>
   </trkpt>
   <trkpt lat="-37.83805" lon="145.33651">
    <ele>300.9</ele>
   </trkpt>
   <trkpt lat="-37.83789" lon="145.33617">
    <ele>295.76</ele>
   </trkpt>
   <trkpt lat="-37.83731" lon="145.33561">
    <ele>280.44</ele>
   </trkpt>
   <trkpt lat="-37.837050000000005" lon="145.33555">
    <ele>277.37</ele>
   </trkpt>
   <trkpt lat="-37.83682" lon="145.3356">
    <ele>275.98</ele>
   </trkpt>
   <trkpt lat="-37.83652" lon="145.33563">
    <ele>272.03000000000003</ele>
   </trkpt>
   <trkpt lat="-37.83616" lon="145.33564">
    <ele>265.08000000000004</ele>
   </trkpt>
   <trkpt lat="-37.8359" lon="145.33574000000002">
    <ele>257.51</ele>
   </trkpt>
   <trkpt lat="-37.83574" lon="145.33575000000002">
    <ele>255.28</ele>
   </trkpt>
   <trkpt lat="-37.83561" lon="145.33572">
    <ele>249.95000000000002</ele>
   </trkpt>
   <trkpt lat="-37.83538" lon="145.33562">
    <ele>244.37000000000003</ele>
   </trkpt>
   <trkpt lat="-37.83518" lon="145.33557000000002">
    <ele>241.91</ele>
   </trkpt>
   <trkpt lat="-37.834970000000006" lon="145.33549000000002">
    <ele>238.65000000000003</ele>
   </trkpt>
   <trkpt lat="-37.834970000000006" lon="145.33541000000002">
    <ele>238.68000000000004</ele>
   </trkpt>
   <trkpt lat="-37.834970000000006" lon="145.33540000000002">
    <ele>238.68000000000004</ele>
   </trkpt>
   <trkpt lat="-37.83502" lon="145.33532000000002">
    <ele>238.72</ele>
   </trkpt>
   <trkpt lat="-37.83516" lon="145.33518">
    <ele>239.42000000000002</ele>
   </trkpt>
   <trkpt lat="-37.835440000000006" lon="145.33481">
    <ele>239.92000000000002</ele>
   </trkpt>
   <trkpt lat="-37.835750000000004" lon="145.33454">
    <ele>240.44</ele>
   </trkpt>
   <trkpt lat="-37.83628" lon="145.33443000000003">
    <ele>240.22</ele>
   </trkpt>
   <trkpt lat="-37.83677" lon="145.33428">
    <ele>238.98000000000002</ele>
   </trkpt>
   <trkpt lat="-37.83722" lon="145.33425000000003">
    <ele>238.15000000000003</ele>
   </trkpt>
   <trkpt lat="-37.83782" lon="145.33411">
    <ele>232.36</ele>
   </trkpt>
   <trkpt lat="-37.83803" lon="145.33407000000003">
    <ele>231.17000000000002</ele>
   </trkpt>
   <trkpt lat="-37.83825" lon="145.33406000000002">
    <ele>229.79000000000002</ele>
   </trkpt>
   <trkpt lat="-37.83901" lon="145.33413000000002">
    <ele>226.77</ele>
   </trkpt>
   <trkpt lat="-37.83954000000001" lon="145.33409">
    <ele>229.19000000000003</ele>
   </trkpt>
   <trkpt lat="-37.84004" lon="145.3341">
    <ele>231.24000000000004</ele>
   </trkpt>
   <trkpt lat="-37.84055" lon="145.33406000000002">
    <ele>232.76000000000002</ele>
   </trkpt>
   <trkpt lat="-37.841120000000004" lon="145.33404000000002">
    <ele>233.92000000000002</ele>
   </trkpt>
   <trkpt lat="-37.84176" lon="145.3339">
    <ele>232.31</ele>
   </trkpt>
   <trkpt lat="-37.84243" lon="145.33378000000002">
    <ele>225.16000000000003</ele>
   </trkpt>
   <trkpt lat="-37.84295" lon="145.33379000000002">
    <ele>218.78000000000003</ele>
   </trkpt>
   <trkpt lat="-37.84313" lon="145.33376">
    <ele>216.43</ele>
   </trkpt>
   <trkpt lat="-37.84353" lon="145.33365">
    <ele>210.65</ele>
   </trkpt>
   <trkpt lat="-37.84371" lon="145.33363">
    <ele>209.24</ele>
   </trkpt>
   <trkpt lat="-37.84389" lon="145.33365">
    <ele>207.77</ele>
   </trkpt>
   <trkpt lat="-37.84409" lon="145.33361000000002">
    <ele>207.02</ele>
   </trkpt>
   <trkpt lat="-37.84416" lon="145.33384">
    <ele>207.28000000000003</ele>
   </trkpt>
   <trkpt lat="-37.84422" lon="145.33398000000003">
    <ele>207.05</ele>
   </trkpt>
   <trkpt lat="-37.84431" lon="145.33408">
    <ele>206.98000000000002</ele>
   </trkpt>
   <trkpt lat="-37.84458" lon="145.33425000000003">
    <ele>207.70000000000002</ele>
   </trkpt>
   <trkpt lat="-37.84465" lon="145.33432000000002">
    <ele>208.31000000000003</ele>
   </trkpt>
   <trkpt lat="-37.84469" lon="145.33442000000002">
    <ele>209.06000000000003</ele>
   </trkpt>
   <trkpt lat="-37.84469" lon="145.33455">
    <ele>209.46</ele>
   </trkpt>
   <trkpt lat="-37.84458" lon="145.3348">
    <ele>211.95000000000002</ele>
   </trkpt>
   <trkpt lat="-37.84451" lon="145.33489">
    <ele>213.81000000000003</ele>
   </trkpt>
   <trkpt lat="-37.84438" lon="145.33501">
    <ele>215.19000000000003</ele>
   </trkpt>
   <trkpt lat="-37.84411" lon="145.33519">
    <ele>222.46</ele>
   </trkpt>
   <trkpt lat="-37.84344" lon="145.33578">
    <ele>233.56</ele>
   </trkpt>
   <trkpt lat="-37.84322" lon="145.33603000000002">
    <ele>237.59000000000003</ele>
   </trkpt>
   <trkpt lat="-37.84297" lon="145.33640000000003">
    <ele>246.86</ele>
   </trkpt>
   <trkpt lat="-37.84288" lon="145.33671">
    <ele>246.86</ele>
   </trkpt>
   <trkpt lat="-37.84272" lon="145.33701000000002">
    <ele>254.21000000000004</ele>
   </trkpt>
   <trkpt lat="-37.84264" lon="145.3374">
    <ele>260.33</ele>
   </trkpt>
   <trkpt lat="-37.8427" lon="145.33762000000002">
    <ele>264.70000000000005</ele>
   </trkpt>
   <trkpt lat="-37.8427" lon="145.33763000000002">
    <ele>264.70000000000005</ele>
   </trkpt>
   <trkpt lat="-37.842850000000006" lon="145.33771000000002">
    <ele>262.47</ele>
   </trkpt>
   <trkpt lat="-37.84304" lon="145.33775">
    <ele>259.53000000000003</ele>
   </trkpt>
   <trkpt lat="-37.84317" lon="145.33780000000002">
    <ele>257.84000000000003</ele>
   </trkpt>
   <trkpt lat="-37.84357" lon="145.33804">
    <ele>256.17</ele>
   </trkpt>
   <trkpt lat="-37.84382" lon="145.33804">
    <ele>255.03000000000003</ele>
   </trkpt>
   <trkpt lat="-37.84398" lon="145.33810000000003">
    <ele>255.76999999999998</ele>
   </trkpt>
   <trkpt lat="-37.84422" lon="145.33827000000002">
    <ele>258.43000000000006</ele>
   </trkpt>
   <trkpt lat="-37.84458" lon="145.33867">
    <ele>259.96000000000004</ele>
   </trkpt>
   <trkpt lat="-37.8451" lon="145.33901">
    <ele>253.5</ele>
   </trkpt>
   <trkpt lat="-37.8457" lon="145.33971000000003">
    <ele>254.23000000000002</ele>
   </trkpt>
   <trkpt lat="-37.84595" lon="145.34006000000002">
    <ele>257.12</ele>
   </trkpt>
   <trkpt lat="-37.84617" lon="145.34048">
    <ele>257.74</ele>
   </trkpt>
   <trkpt lat="-37.84646" lon="145.34082">
    <ele>258.5</ele>
   </trkpt>
   <trkpt lat="-37.84673" lon="145.34095000000002">
    <ele>260.19000000000005</ele>
   </trkpt>
   <trkpt lat="-37.84693" lon="145.3411">
    <ele>262.87000000000006</ele>
   </trkpt>
   <trkpt lat="-37.84713" lon="145.34135">
    <ele>265.47</ele>
   </trkpt>
   <trkpt lat="-37.84756" lon="145.34195000000003">
    <ele>272.3</ele>
   </trkpt>
   <trkpt lat="-37.84767" lon="145.34217">
    <ele>275.8</ele>
   </trkpt>
   <trkpt lat="-37.847730000000006" lon="145.34234">
    <ele>278.77000000000004</ele>
   </trkpt>
   <trkpt lat="-37.847730000000006" lon="145.34262">
    <ele>280.40000000000003</ele>
   </trkpt>
   <trkpt lat="-37.84767" lon="145.34276">
    <ele>284.59000000000003</ele>
   </trkpt>
   <trkpt lat="-37.84756" lon="145.34290000000001">
    <ele>287.59000000000003</ele>
   </trkpt>
   <trkpt lat="-37.84751" lon="145.34304">
    <ele>288.8</ele>
   </trkpt>
   <trkpt lat="-37.84745" lon="145.34362000000002">
    <ele>292.48</ele>
   </trkpt>
   <trkpt lat="-37.84747" lon="145.34383000000003">
    <ele>292.91</ele>
   </trkpt>
   <trkpt lat="-37.84745" lon="145.34394">
    <ele>293.15000000000003</ele>
   </trkpt>
   <trkpt lat="-37.84736" lon="145.34413">
    <ele>294.27000000000004</ele>
   </trkpt>
   <trkpt lat="-37.84716" lon="145.34429">
    <ele>294.59000000000003</ele>
   </trkpt>
   <trkpt lat="-37.84707" lon="145.34472000000002">
    <ele>292.66</ele>
   </trkpt>
   <trkpt lat="-37.84707" lon="145.34496000000001">
    <ele>292.98</ele>
   </trkpt>
   <trkpt lat="-37.847170000000006" lon="145.34528">
    <ele>293.26</ele>
   </trkpt>
   <trkpt lat="-37.84722" lon="145.34541000000002">
    <ele>293.42</ele>
   </trkpt>
   <trkpt lat="-37.84731" lon="145.34550000000002">
    <ele>293.44000000000005</ele>
   </trkpt>
   <trkpt lat="-37.84745" lon="145.34555">
    <ele>293.25</ele>
   </trkpt>
   <trkpt lat="-37.84756" lon="145.34556">
    <ele>292.82</ele>
   </trkpt>
   <trkpt lat="-37.84781" lon="145.34555">
    <ele>291.87</ele>
   </trkpt>
   <trkpt lat="-37.84789" lon="145.34557">
    <ele>291.29</ele>
   </trkpt>
   <trkpt lat="-37.84798" lon="145.34563">
    <ele>290.36</ele>
   </trkpt>
   <trkpt lat="-37.848200000000006" lon="145.3459">
    <ele>289.02</ele>
   </trkpt>
   <trkpt lat="-37.84848" lon="145.34639">
    <ele>284.32</ele>
   </trkpt>
   <trkpt lat="-37.84852" lon="145.34641000000002">
    <ele>283.68000000000006</ele>
   </trkpt>
   <trkpt lat="-37.84854" lon="145.34642000000002">
    <ele>283.68000000000006</ele>
   </trkpt>
   <trkpt lat="-37.84857" lon="145.34639">
    <ele>283.68000000000006</ele>
   </trkpt>
   <trkpt lat="-37.84859" lon="145.34626">
    <ele>281.84000000000003</ele>
   </trkpt>
   <trkpt lat="-37.848600001899754" lon="145.34558999997228">
    <ele>277.76</ele>
   </trkpt>
   <trkpt lat="-37.84861" lon="145.34492">
    <ele>274.98</ele>
   </trkpt>
   <trkpt lat="-37.84868" lon="145.34415">
    <ele>273.40000000000003</ele>
   </trkpt>
   <trkpt lat="-37.84875" lon="145.34365000000003">
    <ele>272.94</ele>
   </trkpt>
   <trkpt lat="-37.84875" lon="145.34361">
    <ele>272.94</ele>
   </trkpt>
   <trkpt lat="-37.84886" lon="145.34412">
    <ele>277.13000000000005</ele>
   </trkpt>
   <trkpt lat="-37.84895" lon="145.34452000000002">
    <ele>285.37</ele>
   </trkpt>
   <trkpt lat="-37.8491" lon="145.34499000000002">
    <ele>291.47</ele>
   </trkpt>
   <trkpt lat="-37.84937" lon="145.34567">
    <ele>301.37</ele>
   </trkpt>
   <trkpt lat="-37.84964" lon="145.34674">
    <ele>310.15000000000003</ele>
   </trkpt>
   <trkpt lat="-37.84975" lon="145.34712000000002">
    <ele>312.77000000000004</ele>
   </trkpt>
   <trkpt lat="-37.85007" lon="145.34765000000002">
    <ele>320.65999999999997</ele>
   </trkpt>
   <trkpt lat="-37.85033500150118" lon="145.34822999808796">
    <ele>329.43</ele>
   </trkpt>
   <trkpt lat="-37.8506" lon="145.34881000000001">
    <ele>336.73</ele>
   </trkpt>
   <trkpt lat="-37.8508" lon="145.34936000000002">
    <ele>343.40000000000003</ele>
   </trkpt>
   <trkpt lat="-37.85098" lon="145.34968">
    <ele>351.92</ele>
   </trkpt>
   <trkpt lat="-37.851040000000005" lon="145.34975">
    <ele>357.45000000000005</ele>
   </trkpt>
   <trkpt lat="-37.85105" lon="145.34976">
    <ele>357.45000000000005</ele>
   </trkpt>
   <trkpt lat="-37.85116" lon="145.34979">
    <ele>361.92</ele>
   </trkpt>
   <trkpt lat="-37.85195" lon="145.34931">
    <ele>391.72</ele>
   </trkpt>
   <trkpt lat="-37.85246" lon="145.34893000000002">
    <ele>415.41</ele>
   </trkpt>
   <trkpt lat="-37.85262" lon="145.34889">
    <ele>418.00000000000006</ele>
   </trkpt>
   <trkpt lat="-37.85284" lon="145.34871">
    <ele>426.82000000000005</ele>
   </trkpt>
   <trkpt lat="-37.85298" lon="145.34869">
    <ele>428.00000000000006</ele>
   </trkpt>
   <trkpt lat="-37.85329" lon="145.34838000000002">
    <ele>435.37</ele>
   </trkpt>
   <trkpt lat="-37.85347" lon="145.34833">
    <ele>438.06000000000006</ele>
   </trkpt>
   <trkpt lat="-37.85349" lon="145.34832">
    <ele>438.06000000000006</ele>
   </trkpt>
   <trkpt lat="-37.85347" lon="145.34849">
    <ele>438.83000000000004</ele>
   </trkpt>
   <trkpt lat="-37.85349" lon="145.34869">
    <ele>446.34000000000003</ele>
   </trkpt>
   <trkpt lat="-37.85378" lon="145.34931">
    <ele>451.76000000000005</ele>
   </trkpt>
   <trkpt lat="-37.85419" lon="145.34983000000003">
    <ele>459.58000000000004</ele>
   </trkpt>
   <trkpt lat="-37.85468" lon="145.35037">
    <ele>472.32</ele>
   </trkpt>
   <trkpt lat="-37.85507500138615" lon="145.35092499714384">
    <ele>482.46000000000004</ele>
   </trkpt>
   <trkpt lat="-37.855470000000004" lon="145.35148">
    <ele>491.15000000000003</ele>
   </trkpt>
   <trkpt lat="-37.85580500087528" lon="145.35193999788288">
    <ele>497.38000000000005</ele>
   </trkpt>
   <trkpt lat="-37.85614" lon="145.35240000000002">
    <ele>503.89000000000004</ele>
   </trkpt>
   <trkpt lat="-37.85644000082839" lon="145.35284999812686">
    <ele>517.37</ele>
   </trkpt>
   <trkpt lat="-37.85674" lon="145.35330000000002">
    <ele>528.4300000000001</ele>
   </trkpt>
   <trkpt lat="-37.85703" lon="145.35389">
    <ele>542.3100000000001</ele>
   </trkpt>
   <trkpt lat="-37.85703" lon="145.35401000000002">
    <ele>542.3100000000001</ele>
   </trkpt>
   <trkpt lat="-37.85685" lon="145.35449">
    <ele>552.09</ele>
   </trkpt>
   <trkpt lat="-37.8568" lon="145.35479">
    <ele>556.9000000000001</ele>
   </trkpt>
   <trkpt lat="-37.85681" lon="145.35496">
    <ele>560.47</ele>
   </trkpt>
   <trkpt lat="-37.85683" lon="145.35502000000002">
    <ele>562.1700000000001</ele>
   </trkpt>
   <trkpt lat="-37.85718" lon="145.35543">
    <ele>571.8199999999999</ele>
   </trkpt>
   <trkpt lat="-37.857330000000005" lon="145.35569">
    <ele>575.0200000000001</ele>
   </trkpt>
   <trkpt lat="-37.85745" lon="145.35567">
    <ele>575.2700000000001</ele>
   </trkpt>
   <trkpt lat="-37.85756000000001" lon="145.35572000000002">
    <ele>580.0200000000001</ele>
   </trkpt>
   <trkpt lat="-37.857470000000006" lon="145.35592000000003">
    <ele>577.9000000000001</ele>
   </trkpt>
   <trkpt lat="-37.85756000000001" lon="145.35572000000002">
    <ele>575.1700000000001</ele>
   </trkpt>
   <trkpt lat="-37.85765" lon="145.35573000000002">
    <ele>574.79</ele>
   </trkpt>
   <trkpt lat="-37.85774" lon="145.3557">
    <ele>574.1400000000001</ele>
   </trkpt>
   <trkpt lat="-37.85792" lon="145.35547000000003">
    <ele>569.2400000000001</ele>
   </trkpt>
   <trkpt lat="-37.85826" lon="145.35524">
    <ele>560.32</ele>
   </trkpt>
   <trkpt lat="-37.85846" lon="145.35508000000002">
    <ele>554.73</ele>
   </trkpt>
   <trkpt lat="-37.85866" lon="145.35498">
    <ele>550.0400000000001</ele>
   </trkpt>
   <trkpt lat="-37.85877" lon="145.35487">
    <ele>546.62</ele>
   </trkpt>
   <trkpt lat="-37.85889" lon="145.35466000000002">
    <ele>541.7</ele>
   </trkpt>
   <trkpt lat="-37.85915" lon="145.35439000000002">
    <ele>532.3100000000001</ele>
   </trkpt>
   <trkpt lat="-37.85942" lon="145.35421000000002">
    <ele>522.12</ele>
   </trkpt>
   <trkpt lat="-37.85969" lon="145.35411000000002">
    <ele>514.4000000000001</ele>
   </trkpt>
   <trkpt lat="-37.85981" lon="145.35401000000002">
    <ele>512.3000000000001</ele>
   </trkpt>
   <trkpt lat="-37.860130000000005" lon="145.35449">
    <ele>513.0100000000001</ele>
   </trkpt>
   <trkpt lat="-37.86059" lon="145.35531">
    <ele>512.61</ele>
   </trkpt>
   <trkpt lat="-37.86061" lon="145.35545000000002">
    <ele>511.07</ele>
   </trkpt>
   <trkpt lat="-37.86063" lon="145.35594">
    <ele>499.81</ele>
   </trkpt>
   <trkpt lat="-37.86074" lon="145.3561">
    <ele>494.84000000000003</ele>
   </trkpt>
   <trkpt lat="-37.86083" lon="145.35618000000002">
    <ele>493.40000000000003</ele>
   </trkpt>
   <trkpt lat="-37.86084" lon="145.3562">
    <ele>493.40000000000003</ele>
   </trkpt>
   <trkpt lat="-37.86079" lon="145.35600000000002">
    <ele>492.78000000000003</ele>
   </trkpt>
   <trkpt lat="-37.86079" lon="145.35580000000002">
    <ele>492.53000000000003</ele>
   </trkpt>
   <trkpt lat="-37.86086" lon="145.35562000000002">
    <ele>492.08</ele>
   </trkpt>
   <trkpt lat="-37.86108" lon="145.35531">
    <ele>490.72</ele>
   </trkpt>
   <trkpt lat="-37.86153" lon="145.35481000000001">
    <ele>487.97</ele>
   </trkpt>
   <trkpt lat="-37.86198" lon="145.35437000000002">
    <ele>485.07000000000005</ele>
   </trkpt>
   <trkpt lat="-37.86229" lon="145.35409">
    <ele>481.72</ele>
   </trkpt>
   <trkpt lat="-37.86299" lon="145.35359000000003">
    <ele>479.15000000000003</ele>
   </trkpt>
  </trkseg>
 </trk>
</gpx>
