<?xml version="1.0" encoding="UTF-8"?>
<gpx creator="StravaGPX" version="1.1" xmlns="http://www.topografix.com/GPX/1/1" xmlns:xsi="http://www.w3.org/2001/XMLSchema-instance" xsi:schemaLocation="http://www.topografix.com/GPX/1/1 http://www.topografix.com/GPX/1/1/gpx.xsd">
 <metadata>
  <name>RCR Mad Mouse 12k</name>
  <author>
   <name>john csorgo</name>
  </author>
  <copyright author="OpenStreetMap contributors">
   <year>2020</year>
   <license>https://www.openstreetmap.org/copyright</license>
  </copyright>
 </metadata>
 <trk>
  <name>RCR Mad Mouse 12k</name>
  <link href=""/>
  <type>trail_running</type>
  <trkseg>
   <trkpt lat="-37.8162" lon="145.37919000000002">
    <ele>434.75</ele>
   </trkpt>
   <trkpt lat="-37.81613" lon="145.37887">
    <ele>434.52</ele>
   </trkpt>
   <trkpt lat="-37.816" lon="145.37896">
    <ele>433.40000000000003</ele>
   </trkpt>
   <trkpt lat="-37.81579" lon="145.3788">
    <ele>431.91</ele>
   </trkpt>
   <trkpt lat="-37.81546" lon="145.37838000000002">
    <ele>430.65000000000003</ele>
   </trkpt>
   <trkpt lat="-37.815000000000005" lon="145.37811000000002">
    <ele>429.8</ele>
   </trkpt>
   <trkpt lat="-37.81450000127363" lon="145.3775549962098">
    <ele>434.6700000000001</ele>
   </trkpt>
   <trkpt lat="-37.814" lon="145.377">
    <ele>441.37</ele>
   </trkpt>
   <trkpt lat="-37.81394" lon="145.37682">
    <ele>443.8</ele>
   </trkpt>
   <trkpt lat="-37.8138" lon="145.37578000000002">
    <ele>451.24</ele>
   </trkpt>
   <trkpt lat="-37.81362" lon="145.37471000000002">
    <ele>460.93000000000006</ele>
   </trkpt>
   <trkpt lat="-37.81349" lon="145.37412">
    <ele>463.79</ele>
   </trkpt>
   <trkpt lat="-37.813320000000004" lon="145.37306">
    <ele>463.81000000000006</ele>
   </trkpt>
   <trkpt lat="-37.813320000000004" lon="145.37307">
    <ele>463.81000000000006</ele>
   </trkpt>
   <trkpt lat="-37.81358" lon="145.37265000000002">
    <ele>465.05</ele>
   </trkpt>
   <trkpt lat="-37.81396" lon="145.37239000000002">
    <ele>468.26000000000005</ele>
   </trkpt>
   <trkpt lat="-37.81441" lon="145.37232">
    <ele>470.1</ele>
   </trkpt>
   <trkpt lat="-37.81461" lon="145.37204">
    <ele>472.54</ele>
   </trkpt>
   <trkpt lat="-37.81479" lon="145.37143">
    <ele>477.83000000000004</ele>
   </trkpt>
   <trkpt lat="-37.81481" lon="145.37055">
    <ele>480.22</ele>
   </trkpt>
   <trkpt lat="-37.81467" lon="145.36967">
    <ele>472.98</ele>
   </trkpt>
   <trkpt lat="-37.81459" lon="145.36878000000002">
    <ele>465.23</ele>
   </trkpt>
   <trkpt lat="-37.81459" lon="145.36827000000002">
    <ele>460.71000000000004</ele>
   </trkpt>
   <trkpt lat="-37.8147" lon="145.36782000000002">
    <ele>455.40000000000003</ele>
   </trkpt>
   <trkpt lat="-37.81488" lon="145.36741">
    <ele>452.73</ele>
   </trkpt>
   <trkpt lat="-37.81508" lon="145.36724">
    <ele>450.71000000000004</ele>
   </trkpt>
   <trkpt lat="-37.81537" lon="145.36716">
    <ele>450.14000000000004</ele>
   </trkpt>
   <trkpt lat="-37.8155" lon="145.36708000000002">
    <ele>450.78000000000003</ele>
   </trkpt>
   <trkpt lat="-37.81573" lon="145.36681000000002">
    <ele>454.55</ele>
   </trkpt>
   <trkpt lat="-37.81615" lon="145.36669">
    <ele>457.94</ele>
   </trkpt>
   <trkpt lat="-37.81678999995962" lon="145.36669999991267">
    <ele>465.5</ele>
   </trkpt>
   <trkpt lat="-37.81743" lon="145.36671">
    <ele>470.49</ele>
   </trkpt>
   <trkpt lat="-37.81745" lon="145.36571">
    <ele>458.79</ele>
   </trkpt>
   <trkpt lat="-37.81736" lon="145.36494000000002">
    <ele>450.08000000000004</ele>
   </trkpt>
   <trkpt lat="-37.81723" lon="145.36425">
    <ele>440.52000000000004</ele>
   </trkpt>
   <trkpt lat="-37.81721" lon="145.36373">
    <ele>435.3</ele>
   </trkpt>
   <trkpt lat="-37.81734" lon="145.36311">
    <ele>428.51000000000005</ele>
   </trkpt>
   <trkpt lat="-37.8177" lon="145.36251000000001">
    <ele>418.50000000000006</ele>
   </trkpt>
   <trkpt lat="-37.8181" lon="145.36234000000002">
    <ele>410.30000000000007</ele>
   </trkpt>
   <trkpt lat="-37.81828" lon="145.36215">
    <ele>406.85</ele>
   </trkpt>
   <trkpt lat="-37.81861" lon="145.36159">
    <ele>399.32</ele>
   </trkpt>
   <trkpt lat="-37.8187" lon="145.36124">
    <ele>394.6</ele>
   </trkpt>
   <trkpt lat="-37.8187" lon="145.36094">
    <ele>389.5</ele>
   </trkpt>
   <trkpt lat="-37.81857" lon="145.36003000000002">
    <ele>379.58000000000004</ele>
   </trkpt>
   <trkpt lat="-37.81864" lon="145.35987">
    <ele>379.85</ele>
   </trkpt>
   <trkpt lat="-37.81873" lon="145.35982">
    <ele>381.51</ele>
   </trkpt>
   <trkpt lat="-37.81895" lon="145.35959000000003">
    <ele>387.65000000000003</ele>
   </trkpt>
   <trkpt lat="-37.81929" lon="145.35952">
    <ele>393.28000000000003</ele>
   </trkpt>
   <trkpt lat="-37.81951" lon="145.35937">
    <ele>392.62</ele>
   </trkpt>
   <trkpt lat="-37.81987" lon="145.35896000000002">
    <ele>393.48</ele>
   </trkpt>
   <trkpt lat="-37.820330000000006" lon="145.35863">
    <ele>395.97</ele>
   </trkpt>
   <trkpt lat="-37.82043" lon="145.35848000000001">
    <ele>395.98</ele>
   </trkpt>
   <trkpt lat="-37.8205" lon="145.35833000000002">
    <ele>395.90000000000003</ele>
   </trkpt>
   <trkpt lat="-37.820420000000006" lon="145.35778000000002">
    <ele>395.46000000000004</ele>
   </trkpt>
   <trkpt lat="-37.82043" lon="145.35744000000003">
    <ele>395.35</ele>
   </trkpt>
   <trkpt lat="-37.82045" lon="145.3573">
    <ele>395.41</ele>
   </trkpt>
   <trkpt lat="-37.82085" lon="145.35671000000002">
    <ele>394.8</ele>
   </trkpt>
   <trkpt lat="-37.82099" lon="145.35655">
    <ele>395.61</ele>
   </trkpt>
   <trkpt lat="-37.82112" lon="145.35653000000002">
    <ele>397.0400000000001</ele>
   </trkpt>
   <trkpt lat="-37.82126" lon="145.35643000000002">
    <ele>398.23</ele>
   </trkpt>
   <trkpt lat="-37.821450000000006" lon="145.35625000000002">
    <ele>398.35</ele>
   </trkpt>
   <trkpt lat="-37.82164" lon="145.35581000000002">
    <ele>400.3</ele>
   </trkpt>
   <trkpt lat="-37.82202" lon="145.35513">
    <ele>398.63000000000005</ele>
   </trkpt>
   <trkpt lat="-37.82204" lon="145.35498">
    <ele>397.34000000000003</ele>
   </trkpt>
   <trkpt lat="-37.82204" lon="145.35479">
    <ele>396.57000000000005</ele>
   </trkpt>
   <trkpt lat="-37.82193" lon="145.3544">
    <ele>401.07000000000005</ele>
   </trkpt>
   <trkpt lat="-37.82164" lon="145.35381">
    <ele>410.95000000000005</ele>
   </trkpt>
   <trkpt lat="-37.82159" lon="145.35368000000003">
    <ele>410.95000000000005</ele>
   </trkpt>
   <trkpt lat="-37.82155" lon="145.35288">
    <ele>418.74000000000007</ele>
   </trkpt>
   <trkpt lat="-37.82159" lon="145.35263">
    <ele>420.93</ele>
   </trkpt>
   <trkpt lat="-37.82209" lon="145.35202">
    <ele>437.25</ele>
   </trkpt>
   <trkpt lat="-37.82234000081451" lon="145.3515450018735">
    <ele>445.66</ele>
   </trkpt>
   <trkpt lat="-37.822590000000005" lon="145.35107000000002">
    <ele>449.46000000000004</ele>
   </trkpt>
   <trkpt lat="-37.82276" lon="145.35129">
    <ele>461.31000000000006</ele>
   </trkpt>
   <trkpt lat="-37.822860000000006" lon="145.35153000000003">
    <ele>464.5</ele>
   </trkpt>
   <trkpt lat="-37.822950000000006" lon="145.35162000000003">
    <ele>469.73</ele>
   </trkpt>
   <trkpt lat="-37.82305" lon="145.35166">
    <ele>469.73</ele>
   </trkpt>
   <trkpt lat="-37.82323" lon="145.35186000000002">
    <ele>480.56000000000006</ele>
   </trkpt>
   <trkpt lat="-37.82336" lon="145.3521">
    <ele>494.3500000000001</ele>
   </trkpt>
   <trkpt lat="-37.82352" lon="145.35215000000002">
    <ele>496.01000000000005</ele>
   </trkpt>
   <trkpt lat="-37.82363" lon="145.35215000000002">
    <ele>502.30000000000007</ele>
   </trkpt>
   <trkpt lat="-37.82372" lon="145.35218">
    <ele>503.97</ele>
   </trkpt>
   <trkpt lat="-37.82383" lon="145.35227">
    <ele>511.11000000000007</ele>
   </trkpt>
   <trkpt lat="-37.82399" lon="145.35247">
    <ele>527.98</ele>
   </trkpt>
   <trkpt lat="-37.82439" lon="145.35239">
    <ele>536.75</ele>
   </trkpt>
   <trkpt lat="-37.82455" lon="145.35246">
    <ele>538.66</ele>
   </trkpt>
   <trkpt lat="-37.82475" lon="145.35263">
    <ele>554.58</ele>
   </trkpt>
   <trkpt lat="-37.82547" lon="145.35287000000002">
    <ele>586.3000000000001</ele>
   </trkpt>
   <trkpt lat="-37.82551" lon="145.35260000000002">
    <ele>585.9100000000001</ele>
   </trkpt>
   <trkpt lat="-37.82558" lon="145.35231000000002">
    <ele>585.04</ele>
   </trkpt>
   <trkpt lat="-37.82596" lon="145.35162000000003">
    <ele>582.1400000000001</ele>
   </trkpt>
   <trkpt lat="-37.82625" lon="145.35123000000002">
    <ele>579.16</ele>
   </trkpt>
   <trkpt lat="-37.82658" lon="145.35101">
    <ele>577.11</ele>
   </trkpt>
   <trkpt lat="-37.82701" lon="145.35084">
    <ele>577.87</ele>
   </trkpt>
   <trkpt lat="-37.82758000007891" lon="145.35072500088367">
    <ele>575.98</ele>
   </trkpt>
   <trkpt lat="-37.82815" lon="145.35061000000002">
    <ele>574.9200000000001</ele>
   </trkpt>
   <trkpt lat="-37.8286300000965" lon="145.35060500003155">
    <ele>577.64</ele>
   </trkpt>
   <trkpt lat="-37.82911" lon="145.35060000000001">
    <ele>575.97</ele>
   </trkpt>
   <trkpt lat="-37.82943" lon="145.35047">
    <ele>569.4</ele>
   </trkpt>
   <trkpt lat="-37.82963" lon="145.35047">
    <ele>567.4200000000001</ele>
   </trkpt>
   <trkpt lat="-37.82999" lon="145.35055">
    <ele>564.73</ele>
   </trkpt>
   <trkpt lat="-37.83032" lon="145.35069000000001">
    <ele>561.44</ele>
   </trkpt>
   <trkpt lat="-37.83066" lon="145.35092">
    <ele>559.2900000000001</ele>
   </trkpt>
   <trkpt lat="-37.83093" lon="145.35097000000002">
    <ele>557.15</ele>
   </trkpt>
   <trkpt lat="-37.831230000000005" lon="145.35090000000002">
    <ele>556.9300000000001</ele>
   </trkpt>
   <trkpt lat="-37.83162" lon="145.35071000000002">
    <ele>560.85</ele>
   </trkpt>
   <trkpt lat="-37.83196" lon="145.35046">
    <ele>570.5600000000001</ele>
   </trkpt>
   <trkpt lat="-37.83231" lon="145.35010000000003">
    <ele>578.5100000000001</ele>
   </trkpt>
   <trkpt lat="-37.83267" lon="145.34969">
    <ele>586.21</ele>
   </trkpt>
   <trkpt lat="-37.83274" lon="145.34954000000002">
    <ele>586.8800000000001</ele>
   </trkpt>
   <trkpt lat="-37.83287" lon="145.34947000000003">
    <ele>587.3000000000001</ele>
   </trkpt>
   <trkpt lat="-37.83296" lon="145.34934">
    <ele>588.2700000000001</ele>
   </trkpt>
   <trkpt lat="-37.833110000000005" lon="145.34921">
    <ele>590.47</ele>
   </trkpt>
   <trkpt lat="-37.83321" lon="145.34915">
    <ele>592.52</ele>
   </trkpt>
   <trkpt lat="-37.83334" lon="145.3484">
    <ele>595.45</ele>
   </trkpt>
   <trkpt lat="-37.83339" lon="145.34822">
    <ele>595.1800000000001</ele>
   </trkpt>
   <trkpt lat="-37.83346" lon="145.34808">
    <ele>595.1200000000001</ele>
   </trkpt>
   <trkpt lat="-37.83379500052499" lon="145.34767500204265">
    <ele>597.0500000000001</ele>
   </trkpt>
   <trkpt lat="-37.83413" lon="145.34727">
    <ele>596.89</ele>
   </trkpt>
   <trkpt lat="-37.834390000000006" lon="145.34703000000002">
    <ele>596.23</ele>
   </trkpt>
   <trkpt lat="-37.8344" lon="145.34702000000001">
    <ele>596.23</ele>
   </trkpt>
   <trkpt lat="-37.83491" lon="145.3468">
    <ele>596.13</ele>
   </trkpt>
   <trkpt lat="-37.835150000000006" lon="145.34676000000002">
    <ele>596.82</ele>
   </trkpt>
   <trkpt lat="-37.83574" lon="145.34658000000002">
    <ele>599.69</ele>
   </trkpt>
   <trkpt lat="-37.83601" lon="145.34655">
    <ele>602.6100000000001</ele>
   </trkpt>
   <trkpt lat="-37.8363" lon="145.34654">
    <ele>605.95</ele>
   </trkpt>
   <trkpt lat="-37.83668" lon="145.34660000000002">
    <ele>610.08</ele>
   </trkpt>
   <trkpt lat="-37.83681" lon="145.34659000000002">
    <ele>610.0500000000001</ele>
   </trkpt>
   <trkpt lat="-37.83706" lon="145.34649000000002">
    <ele>607.26</ele>
   </trkpt>
   <trkpt lat="-37.83722" lon="145.34633000000002">
    <ele>601.0000000000001</ele>
   </trkpt>
   <trkpt lat="-37.83733" lon="145.34626">
    <ele>598.96</ele>
   </trkpt>
   <trkpt lat="-37.83766" lon="145.34623000000002">
    <ele>592.6800000000001</ele>
   </trkpt>
   <trkpt lat="-37.83791" lon="145.34608">
    <ele>585.46</ele>
   </trkpt>
   <trkpt lat="-37.83813" lon="145.34605000000002">
    <ele>580.1400000000001</ele>
   </trkpt>
   <trkpt lat="-37.83834" lon="145.34596000000002">
    <ele>572.2600000000001</ele>
   </trkpt>
   <trkpt lat="-37.83843" lon="145.34587000000002">
    <ele>569.69</ele>
   </trkpt>
   <trkpt lat="-37.83856" lon="145.34584">
    <ele>566.72</ele>
   </trkpt>
   <trkpt lat="-37.83872" lon="145.34589000000003">
    <ele>565.3600000000001</ele>
   </trkpt>
   <trkpt lat="-37.83896" lon="145.34608">
    <ele>565.7500000000001</ele>
   </trkpt>
   <trkpt lat="-37.83912" lon="145.34615000000002">
    <ele>564.4100000000001</ele>
   </trkpt>
   <trkpt lat="-37.83961" lon="145.34607000000003">
    <ele>549.85</ele>
   </trkpt>
   <trkpt lat="-37.83979" lon="145.34606000000002">
    <ele>549.85</ele>
   </trkpt>
   <trkpt lat="-37.84004" lon="145.34607000000003">
    <ele>545.8000000000001</ele>
   </trkpt>
   <trkpt lat="-37.84013" lon="145.34609">
    <ele>544.3100000000001</ele>
   </trkpt>
   <trkpt lat="-37.84024" lon="145.34614000000002">
    <ele>542.94</ele>
   </trkpt>
   <trkpt lat="-37.84035" lon="145.34613000000002">
    <ele>541.7</ele>
   </trkpt>
   <trkpt lat="-37.84035" lon="145.34608">
    <ele>539.34</ele>
   </trkpt>
   <trkpt lat="-37.84004" lon="145.34539">
    <ele>531.24</ele>
   </trkpt>
   <trkpt lat="-37.83977" lon="145.34502">
    <ele>522.4000000000001</ele>
   </trkpt>
   <trkpt lat="-37.83977" lon="145.34496000000001">
    <ele>519.46</ele>
   </trkpt>
   <trkpt lat="-37.83979" lon="145.34494">
    <ele>519.46</ele>
   </trkpt>
   <trkpt lat="-37.839850000000006" lon="145.34493">
    <ele>517.57</ele>
   </trkpt>
   <trkpt lat="-37.84055" lon="145.34504">
    <ele>508.84000000000003</ele>
   </trkpt>
   <trkpt lat="-37.84082" lon="145.34512">
    <ele>503.75</ele>
   </trkpt>
   <trkpt lat="-37.84122" lon="145.34528">
    <ele>499.52</ele>
   </trkpt>
   <trkpt lat="-37.84127" lon="145.34528">
    <ele>494.96000000000004</ele>
   </trkpt>
   <trkpt lat="-37.84127" lon="145.34522">
    <ele>494.96000000000004</ele>
   </trkpt>
   <trkpt lat="-37.8412" lon="145.34501">
    <ele>491.31</ele>
   </trkpt>
   <trkpt lat="-37.84109" lon="145.34479000000002">
    <ele>489.75</ele>
   </trkpt>
   <trkpt lat="-37.84091" lon="145.34453000000002">
    <ele>484.23</ele>
   </trkpt>
   <trkpt lat="-37.84051" lon="145.34409000000002">
    <ele>473.1</ele>
   </trkpt>
   <trkpt lat="-37.84028" lon="145.34392000000003">
    <ele>469.9200000000001</ele>
   </trkpt>
   <trkpt lat="-37.84024" lon="145.34384">
    <ele>468.52000000000004</ele>
   </trkpt>
   <trkpt lat="-37.83966" lon="145.34384">
    <ele>468.72</ele>
   </trkpt>
   <trkpt lat="-37.8391" lon="145.34374000000003">
    <ele>471.0</ele>
   </trkpt>
   <trkpt lat="-37.83874" lon="145.34358">
    <ele>474.54</ele>
   </trkpt>
   <trkpt lat="-37.83854" lon="145.34353000000002">
    <ele>475.29</ele>
   </trkpt>
   <trkpt lat="-37.8384" lon="145.34348">
    <ele>475.09</ele>
   </trkpt>
   <trkpt lat="-37.83818" lon="145.34336000000002">
    <ele>472.9200000000001</ele>
   </trkpt>
   <trkpt lat="-37.83807" lon="145.34326000000001">
    <ele>471.03000000000003</ele>
   </trkpt>
   <trkpt lat="-37.83789" lon="145.34306">
    <ele>467.23</ele>
   </trkpt>
   <trkpt lat="-37.8376" lon="145.34282000000002">
    <ele>461.5400000000001</ele>
   </trkpt>
   <trkpt lat="-37.83746" lon="145.34274000000002">
    <ele>460.43000000000006</ele>
   </trkpt>
   <trkpt lat="-37.83713" lon="145.34259">
    <ele>454.68</ele>
   </trkpt>
   <trkpt lat="-37.83682" lon="145.34251">
    <ele>451.29</ele>
   </trkpt>
   <trkpt lat="-37.83677" lon="145.34259">
    <ele>450.79</ele>
   </trkpt>
   <trkpt lat="-37.83666" lon="145.34268">
    <ele>449.62</ele>
   </trkpt>
   <trkpt lat="-37.83659" lon="145.34271">
    <ele>449.07</ele>
   </trkpt>
   <trkpt lat="-37.8361" lon="145.34279">
    <ele>445.52000000000004</ele>
   </trkpt>
   <trkpt lat="-37.83574" lon="145.34278">
    <ele>442.45</ele>
   </trkpt>
   <trkpt lat="-37.8354" lon="145.34276">
    <ele>435.96</ele>
   </trkpt>
   <trkpt lat="-37.835" lon="145.34276">
    <ele>430.16</ele>
   </trkpt>
   <trkpt lat="-37.83471" lon="145.34282000000002">
    <ele>425.81</ele>
   </trkpt>
   <trkpt lat="-37.83449" lon="145.34293000000002">
    <ele>423.16</ele>
   </trkpt>
   <trkpt lat="-37.83428" lon="145.34307">
    <ele>421.50000000000006</ele>
   </trkpt>
   <trkpt lat="-37.83408" lon="145.34327000000002">
    <ele>418.91</ele>
   </trkpt>
   <trkpt lat="-37.8339" lon="145.34354000000002">
    <ele>416.58000000000004</ele>
   </trkpt>
   <trkpt lat="-37.83381" lon="145.34364000000002">
    <ele>415.25</ele>
   </trkpt>
   <trkpt lat="-37.83375" lon="145.34368">
    <ele>414.73</ele>
   </trkpt>
   <trkpt lat="-37.8335" lon="145.34375">
    <ele>411.81</ele>
   </trkpt>
   <trkpt lat="-37.83334" lon="145.34378">
    <ele>409.1</ele>
   </trkpt>
   <trkpt lat="-37.833180000000006" lon="145.34378">
    <ele>406.0</ele>
   </trkpt>
   <trkpt lat="-37.83272" lon="145.3436">
    <ele>393.48</ele>
   </trkpt>
   <trkpt lat="-37.83258" lon="145.34358">
    <ele>388.8</ele>
   </trkpt>
   <trkpt lat="-37.832240000000006" lon="145.34348">
    <ele>376.15000000000003</ele>
   </trkpt>
   <trkpt lat="-37.83202" lon="145.34352">
    <ele>370.94000000000005</ele>
   </trkpt>
   <trkpt lat="-37.83175" lon="145.34362000000002">
    <ele>365.13</ele>
   </trkpt>
   <trkpt lat="-37.83151" lon="145.34382000000002">
    <ele>358.97</ele>
   </trkpt>
   <trkpt lat="-37.83144" lon="145.34383000000003">
    <ele>356.3</ele>
   </trkpt>
   <trkpt lat="-37.83142" lon="145.34377">
    <ele>355.54</ele>
   </trkpt>
   <trkpt lat="-37.8316" lon="145.34351">
    <ele>352.79</ele>
   </trkpt>
   <trkpt lat="-37.83162" lon="145.34344000000002">
    <ele>351.41</ele>
   </trkpt>
   <trkpt lat="-37.83169" lon="145.34243">
    <ele>334.08000000000004</ele>
   </trkpt>
   <trkpt lat="-37.83164" lon="145.34225">
    <ele>331.72</ele>
   </trkpt>
   <trkpt lat="-37.83153" lon="145.3424">
    <ele>331.95</ele>
   </trkpt>
   <trkpt lat="-37.83144" lon="145.34259">
    <ele>332.34000000000003</ele>
   </trkpt>
   <trkpt lat="-37.83124" lon="145.34334">
    <ele>333.46000000000004</ele>
   </trkpt>
   <trkpt lat="-37.83113" lon="145.34359">
    <ele>334.44</ele>
   </trkpt>
   <trkpt lat="-37.83095" lon="145.34385">
    <ele>334.43</ele>
   </trkpt>
   <trkpt lat="-37.83034" lon="145.34411">
    <ele>336.65</ele>
   </trkpt>
   <trkpt lat="-37.829930000000004" lon="145.34408000000002">
    <ele>330.62</ele>
   </trkpt>
   <trkpt lat="-37.82963" lon="145.34352">
    <ele>316.04</ele>
   </trkpt>
   <trkpt lat="-37.82952" lon="145.34314">
    <ele>306.02</ele>
   </trkpt>
   <trkpt lat="-37.82943" lon="145.34233">
    <ele>291.55</ele>
   </trkpt>
   <trkpt lat="-37.82923" lon="145.34232">
    <ele>290.96</ele>
   </trkpt>
   <trkpt lat="-37.828950000000006" lon="145.34237000000002">
    <ele>290.93</ele>
   </trkpt>
   <trkpt lat="-37.82878" lon="145.34246000000002">
    <ele>290.79</ele>
   </trkpt>
   <trkpt lat="-37.82831" lon="145.34295">
    <ele>289.75</ele>
   </trkpt>
   <trkpt lat="-37.82782" lon="145.34341">
    <ele>291.06000000000006</ele>
   </trkpt>
   <trkpt lat="-37.82755" lon="145.34356000000002">
    <ele>292.7</ele>
   </trkpt>
   <trkpt lat="-37.8273" lon="145.34364000000002">
    <ele>294.78999999999996</ele>
   </trkpt>
   <trkpt lat="-37.82705" lon="145.34382000000002">
    <ele>297.1</ele>
   </trkpt>
   <trkpt lat="-37.82692" lon="145.34395">
    <ele>299.03000000000003</ele>
   </trkpt>
   <trkpt lat="-37.82681" lon="145.34403">
    <ele>299.99</ele>
   </trkpt>
   <trkpt lat="-37.82638" lon="145.34404">
    <ele>302.18</ele>
   </trkpt>
   <trkpt lat="-37.82607" lon="145.34413">
    <ele>302.85</ele>
   </trkpt>
   <trkpt lat="-37.82573" lon="145.34427000000002">
    <ele>303.63</ele>
   </trkpt>
   <trkpt lat="-37.82555" lon="145.34439">
    <ele>304.84</ele>
   </trkpt>
   <trkpt lat="-37.82538" lon="145.34456">
    <ele>305.35</ele>
   </trkpt>
   <trkpt lat="-37.82488" lon="145.34525000000002">
    <ele>304.22</ele>
   </trkpt>
   <trkpt lat="-37.82446" lon="145.34535000000002">
    <ele>306.71000000000004</ele>
   </trkpt>
   <trkpt lat="-37.82428" lon="145.34546">
    <ele>309.91</ele>
   </trkpt>
   <trkpt lat="-37.82408" lon="145.34560000000002">
    <ele>312.74</ele>
   </trkpt>
   <trkpt lat="-37.82381" lon="145.34588000000002">
    <ele>316.15000000000003</ele>
   </trkpt>
   <trkpt lat="-37.823380000385534" lon="145.34611500128605">
    <ele>317.59000000000003</ele>
   </trkpt>
   <trkpt lat="-37.822950000000006" lon="145.34635">
    <ele>317.32000000000005</ele>
   </trkpt>
   <trkpt lat="-37.822770000000006" lon="145.34649000000002">
    <ele>319.08000000000004</ele>
   </trkpt>
   <trkpt lat="-37.82267" lon="145.34661">
    <ele>320.90000000000003</ele>
   </trkpt>
   <trkpt lat="-37.822660000000006" lon="145.34663">
    <ele>320.90000000000003</ele>
   </trkpt>
   <trkpt lat="-37.8226" lon="145.34677000000002">
    <ele>323.02000000000004</ele>
   </trkpt>
   <trkpt lat="-37.82253" lon="145.34703000000002">
    <ele>326.29</ele>
   </trkpt>
   <trkpt lat="-37.82253" lon="145.34733">
    <ele>329.77</ele>
   </trkpt>
   <trkpt lat="-37.82255" lon="145.34759000000003">
    <ele>332.88</ele>
   </trkpt>
   <trkpt lat="-37.82253" lon="145.34774000000002">
    <ele>334.91</ele>
   </trkpt>
   <trkpt lat="-37.82244" lon="145.3478">
    <ele>335.84000000000003</ele>
   </trkpt>
   <trkpt lat="-37.82204" lon="145.3479">
    <ele>338.76</ele>
   </trkpt>
   <trkpt lat="-37.82166" lon="145.34824">
    <ele>344.63000000000005</ele>
   </trkpt>
   <trkpt lat="-37.82126" lon="145.34882000000002">
    <ele>353.29</ele>
   </trkpt>
   <trkpt lat="-37.82108" lon="145.3493">
    <ele>360.05</ele>
   </trkpt>
   <trkpt lat="-37.82103" lon="145.34965000000003">
    <ele>364.48</ele>
   </trkpt>
   <trkpt lat="-37.82101" lon="145.35052000000002">
    <ele>374.70000000000005</ele>
   </trkpt>
   <trkpt lat="-37.82103" lon="145.35089000000002">
    <ele>377.66</ele>
   </trkpt>
   <trkpt lat="-37.820980000000006" lon="145.35155">
    <ele>379.17</ele>
   </trkpt>
   <trkpt lat="-37.82088" lon="145.35202">
    <ele>379.08000000000004</ele>
   </trkpt>
   <trkpt lat="-37.82052" lon="145.35284000000001">
    <ele>379.86</ele>
   </trkpt>
   <trkpt lat="-37.82047" lon="145.35311000000002">
    <ele>380.0</ele>
   </trkpt>
   <trkpt lat="-37.82047" lon="145.35327">
    <ele>380.32000000000005</ele>
   </trkpt>
   <trkpt lat="-37.82052" lon="145.35340000000002">
    <ele>380.32000000000005</ele>
   </trkpt>
   <trkpt lat="-37.82063" lon="145.35363">
    <ele>380.39</ele>
   </trkpt>
   <trkpt lat="-37.82101" lon="145.35419000000002">
    <ele>379.92</ele>
   </trkpt>
   <trkpt lat="-37.821450000000006" lon="145.35441">
    <ele>380.33000000000004</ele>
   </trkpt>
   <trkpt lat="-37.8215" lon="145.3545">
    <ele>380.33000000000004</ele>
   </trkpt>
   <trkpt lat="-37.82155" lon="145.35462">
    <ele>380.37000000000006</ele>
   </trkpt>
   <trkpt lat="-37.82159" lon="145.3548">
    <ele>380.33000000000004</ele>
   </trkpt>
   <trkpt lat="-37.82152" lon="145.35504">
    <ele>380.04</ele>
   </trkpt>
   <trkpt lat="-37.82123" lon="145.35564000000002">
    <ele>380.32000000000005</ele>
   </trkpt>
   <trkpt lat="-37.82101" lon="145.35605">
    <ele>380.48</ele>
   </trkpt>
   <trkpt lat="-37.82081" lon="145.35627000000002">
    <ele>380.51</ele>
   </trkpt>
   <trkpt lat="-37.82034" lon="145.35669000000001">
    <ele>381.52000000000004</ele>
   </trkpt>
   <trkpt lat="-37.82021" lon="145.35685">
    <ele>381.62</ele>
   </trkpt>
   <trkpt lat="-37.82014" lon="145.35699000000002">
    <ele>381.34000000000003</ele>
   </trkpt>
   <trkpt lat="-37.82009" lon="145.35717000000002">
    <ele>381.29</ele>
   </trkpt>
   <trkpt lat="-37.82007" lon="145.35739">
    <ele>381.3</ele>
   </trkpt>
   <trkpt lat="-37.82011" lon="145.35786000000002">
    <ele>381.31</ele>
   </trkpt>
   <trkpt lat="-37.82011" lon="145.35802">
    <ele>381.05000000000007</ele>
   </trkpt>
   <trkpt lat="-37.82005" lon="145.35831000000002">
    <ele>380.85</ele>
   </trkpt>
   <trkpt lat="-37.81978" lon="145.35862">
    <ele>381.09000000000003</ele>
   </trkpt>
   <trkpt lat="-37.81935500048139" lon="145.35900000230328">
    <ele>380.51</ele>
   </trkpt>
   <trkpt lat="-37.81893" lon="145.35938000000002">
    <ele>380.8</ele>
   </trkpt>
   <trkpt lat="-37.81866" lon="145.35975000000002">
    <ele>380.13</ele>
   </trkpt>
   <trkpt lat="-37.81864" lon="145.35987">
    <ele>379.85</ele>
   </trkpt>
   <trkpt lat="-37.81857" lon="145.36003000000002">
    <ele>379.58000000000004</ele>
   </trkpt>
   <trkpt lat="-37.8187" lon="145.36094">
    <ele>393.17</ele>
   </trkpt>
   <trkpt lat="-37.8187" lon="145.36124">
    <ele>394.6</ele>
   </trkpt>
   <trkpt lat="-37.81861" lon="145.36159">
    <ele>399.32</ele>
   </trkpt>
   <trkpt lat="-37.81828" lon="145.36215">
    <ele>406.85</ele>
   </trkpt>
   <trkpt lat="-37.8181" lon="145.36234000000002">
    <ele>410.30000000000007</ele>
   </trkpt>
   <trkpt lat="-37.8177" lon="145.36251000000001">
    <ele>418.50000000000006</ele>
   </trkpt>
   <trkpt lat="-37.81734" lon="145.36311">
    <ele>428.51000000000005</ele>
   </trkpt>
   <trkpt lat="-37.81721" lon="145.36373">
    <ele>435.3</ele>
   </trkpt>
   <trkpt lat="-37.81723" lon="145.36425">
    <ele>440.52000000000004</ele>
   </trkpt>
   <trkpt lat="-37.81736" lon="145.36494000000002">
    <ele>450.08000000000004</ele>
   </trkpt>
   <trkpt lat="-37.81745" lon="145.36571">
    <ele>458.79</ele>
   </trkpt>
   <trkpt lat="-37.81743" lon="145.36671">
    <ele>470.49</ele>
   </trkpt>
   <trkpt lat="-37.81679000004122" lon="145.36669999991395">
    <ele>465.5</ele>
   </trkpt>
   <trkpt lat="-37.81615" lon="145.36669">
    <ele>457.94</ele>
   </trkpt>
   <trkpt lat="-37.81573" lon="145.36681000000002">
    <ele>454.55</ele>
   </trkpt>
   <trkpt lat="-37.8155" lon="145.36708000000002">
    <ele>450.78000000000003</ele>
   </trkpt>
   <trkpt lat="-37.81537" lon="145.36716">
    <ele>450.14000000000004</ele>
   </trkpt>
   <trkpt lat="-37.81508" lon="145.36724">
    <ele>450.71000000000004</ele>
   </trkpt>
   <trkpt lat="-37.81488" lon="145.36741">
    <ele>452.73</ele>
   </trkpt>
   <trkpt lat="-37.8147" lon="145.36782000000002">
    <ele>455.40000000000003</ele>
   </trkpt>
   <trkpt lat="-37.81459" lon="145.36827000000002">
    <ele>460.71000000000004</ele>
   </trkpt>
   <trkpt lat="-37.81459" lon="145.36878000000002">
    <ele>465.23</ele>
   </trkpt>
   <trkpt lat="-37.81467" lon="145.36967">
    <ele>472.98</ele>
   </trkpt>
   <trkpt lat="-37.81481" lon="145.37055">
    <ele>480.22</ele>
   </trkpt>
   <trkpt lat="-37.81479" lon="145.37143">
    <ele>477.83000000000004</ele>
   </trkpt>
   <trkpt lat="-37.81461" lon="145.37204">
    <ele>472.54</ele>
   </trkpt>
   <trkpt lat="-37.81441" lon="145.37232">
    <ele>470.1</ele>
   </trkpt>
   <trkpt lat="-37.81396" lon="145.37239000000002">
    <ele>468.26000000000005</ele>
   </trkpt>
   <trkpt lat="-37.81358" lon="145.37265000000002">
    <ele>465.05</ele>
   </trkpt>
   <trkpt lat="-37.813320000000004" lon="145.37307">
    <ele>463.81000000000006</ele>
   </trkpt>
   <trkpt lat="-37.813320000000004" lon="145.37306">
    <ele>463.81000000000006</ele>
   </trkpt>
   <trkpt lat="-37.813480006935606" lon="145.3739666626601">
    <ele>463.79</ele>
   </trkpt>
   <trkpt lat="-37.81364000692208" lon="145.37487332925002">
    <ele>458.42</ele>
   </trkpt>
   <trkpt lat="-37.8138" lon="145.37578000000002">
    <ele>451.24</ele>
   </trkpt>
   <trkpt lat="-37.81394" lon="145.37682">
    <ele>443.8</ele>
   </trkpt>
   <trkpt lat="-37.814" lon="145.377">
    <ele>441.37</ele>
   </trkpt>
   <trkpt lat="-37.81450000133028" lon="145.37755499627264">
    <ele>434.6700000000001</ele>
   </trkpt>
   <trkpt lat="-37.815000000000005" lon="145.37811000000002">
    <ele>429.8</ele>
   </trkpt>
   <trkpt lat="-37.81546" lon="145.37838000000002">
    <ele>430.65000000000003</ele>
   </trkpt>
   <trkpt lat="-37.81579" lon="145.3788">
    <ele>431.91</ele>
   </trkpt>
   <trkpt lat="-37.816" lon="145.37896">
    <ele>433.40000000000003</ele>
   </trkpt>
   <trkpt lat="-37.81613" lon="145.37887">
    <ele>434.52</ele>
   </trkpt>
   <trkpt lat="-37.8162" lon="145.37919000000002">
    <ele>434.75</ele>
   </trkpt>
  </trkseg>
 </trk>
</gpx>
