<?xml version="1.0" encoding="UTF-8"?>
<gpx creator="StravaGPX" version="1.1" xmlns="http://www.topografix.com/GPX/1/1" xmlns:xsi="http://www.w3.org/2001/XMLSchema-instance" xsi:schemaLocation="http://www.topografix.com/GPX/1/1 http://www.topografix.com/GPX/1/1/gpx.xsd">
 <metadata>
  <name>RCR 23k Standard Loop</name>
  <author>
   <name>john csorgo</name>
  </author>
  <copyright author="OpenStreetMap contributors">
   <year>2020</year>
   <license>https://www.openstreetmap.org/copyright</license>
  </copyright>
 </metadata>
 <trk>
  <name>RCR 23k Standard Loop</name>
  <link href=""/>
  <type>trail_running</type>
  <trkseg>
   <trkpt lat="-37.8162" lon="145.37919000000002">
    <ele>434.75</ele>
   </trkpt>
   <trkpt lat="-37.81613" lon="145.37887">
    <ele>434.52</ele>
   </trkpt>
   <trkpt lat="-37.816" lon="145.37896">
    <ele>433.40000000000003</ele>
   </trkpt>
   <trkpt lat="-37.81579" lon="145.3788">
    <ele>431.91</ele>
   </trkpt>
   <trkpt lat="-37.81546" lon="145.37838000000002">
    <ele>430.65000000000003</ele>
   </trkpt>
   <trkpt lat="-37.815000000000005" lon="145.37811000000002">
    <ele>429.8</ele>
   </trkpt>
   <trkpt lat="-37.81450000127363" lon="145.3775549962098">
    <ele>434.6700000000001</ele>
   </trkpt>
   <trkpt lat="-37.814" lon="145.377">
    <ele>441.37</ele>
   </trkpt>
   <trkpt lat="-37.81394" lon="145.37682">
    <ele>443.8</ele>
   </trkpt>
   <trkpt lat="-37.8138" lon="145.37578000000002">
    <ele>451.24</ele>
   </trkpt>
   <trkpt lat="-37.81362" lon="145.37471000000002">
    <ele>460.93000000000006</ele>
   </trkpt>
   <trkpt lat="-37.81349" lon="145.37412">
    <ele>463.79</ele>
   </trkpt>
   <trkpt lat="-37.813320000000004" lon="145.37306">
    <ele>463.81000000000006</ele>
   </trkpt>
   <trkpt lat="-37.813320000000004" lon="145.37307">
    <ele>463.81000000000006</ele>
   </trkpt>
   <trkpt lat="-37.81358" lon="145.37265000000002">
    <ele>465.05</ele>
   </trkpt>
   <trkpt lat="-37.81396" lon="145.37239000000002">
    <ele>468.26000000000005</ele>
   </trkpt>
   <trkpt lat="-37.81441" lon="145.37232">
    <ele>470.1</ele>
   </trkpt>
   <trkpt lat="-37.81461" lon="145.37204">
    <ele>472.54</ele>
   </trkpt>
   <trkpt lat="-37.81479" lon="145.37143">
    <ele>477.83000000000004</ele>
   </trkpt>
   <trkpt lat="-37.81481" lon="145.37055">
    <ele>480.22</ele>
   </trkpt>
   <trkpt lat="-37.81467" lon="145.36967">
    <ele>472.98</ele>
   </trkpt>
   <trkpt lat="-37.81459" lon="145.36878000000002">
    <ele>465.23</ele>
   </trkpt>
   <trkpt lat="-37.81459" lon="145.36827000000002">
    <ele>460.71000000000004</ele>
   </trkpt>
   <trkpt lat="-37.8147" lon="145.36782000000002">
    <ele>455.40000000000003</ele>
   </trkpt>
   <trkpt lat="-37.81488" lon="145.36741">
    <ele>452.73</ele>
   </trkpt>
   <trkpt lat="-37.81508" lon="145.36724">
    <ele>450.71000000000004</ele>
   </trkpt>
   <trkpt lat="-37.81537" lon="145.36716">
    <ele>450.14000000000004</ele>
   </trkpt>
   <trkpt lat="-37.8155" lon="145.36708000000002">
    <ele>450.78000000000003</ele>
   </trkpt>
   <trkpt lat="-37.81573" lon="145.36681000000002">
    <ele>454.55</ele>
   </trkpt>
   <trkpt lat="-37.81615" lon="145.36669">
    <ele>457.94</ele>
   </trkpt>
   <trkpt lat="-37.81678999995962" lon="145.36669999991267">
    <ele>465.5</ele>
   </trkpt>
   <trkpt lat="-37.81743" lon="145.36671">
    <ele>470.49</ele>
   </trkpt>
   <trkpt lat="-37.81745" lon="145.36571">
    <ele>458.79</ele>
   </trkpt>
   <trkpt lat="-37.81736" lon="145.36494000000002">
    <ele>450.08000000000004</ele>
   </trkpt>
   <trkpt lat="-37.81723" lon="145.36425">
    <ele>440.52000000000004</ele>
   </trkpt>
   <trkpt lat="-37.81721" lon="145.36373">
    <ele>435.3</ele>
   </trkpt>
   <trkpt lat="-37.81734" lon="145.36311">
    <ele>428.51000000000005</ele>
   </trkpt>
   <trkpt lat="-37.8177" lon="145.36251000000001">
    <ele>418.50000000000006</ele>
   </trkpt>
   <trkpt lat="-37.8181" lon="145.36234000000002">
    <ele>410.30000000000007</ele>
   </trkpt>
   <trkpt lat="-37.81828" lon="145.36215">
    <ele>406.85</ele>
   </trkpt>
   <trkpt lat="-37.81861" lon="145.36159">
    <ele>399.32</ele>
   </trkpt>
   <trkpt lat="-37.8187" lon="145.36124">
    <ele>394.6</ele>
   </trkpt>
   <trkpt lat="-37.8187" lon="145.36094">
    <ele>389.5</ele>
   </trkpt>
   <trkpt lat="-37.81857" lon="145.36003000000002">
    <ele>379.58000000000004</ele>
   </trkpt>
   <trkpt lat="-37.81864" lon="145.35987">
    <ele>379.85</ele>
   </trkpt>
   <trkpt lat="-37.81873" lon="145.35982">
    <ele>381.51</ele>
   </trkpt>
   <trkpt lat="-37.81895" lon="145.35959000000003">
    <ele>387.65000000000003</ele>
   </trkpt>
   <trkpt lat="-37.81929" lon="145.35952">
    <ele>393.28000000000003</ele>
   </trkpt>
   <trkpt lat="-37.81951" lon="145.35937">
    <ele>392.62</ele>
   </trkpt>
   <trkpt lat="-37.81987" lon="145.35896000000002">
    <ele>393.48</ele>
   </trkpt>
   <trkpt lat="-37.820330000000006" lon="145.35863">
    <ele>395.97</ele>
   </trkpt>
   <trkpt lat="-37.82043" lon="145.35848000000001">
    <ele>395.98</ele>
   </trkpt>
   <trkpt lat="-37.8205" lon="145.35833000000002">
    <ele>395.90000000000003</ele>
   </trkpt>
   <trkpt lat="-37.820420000000006" lon="145.35778000000002">
    <ele>395.46000000000004</ele>
   </trkpt>
   <trkpt lat="-37.82043" lon="145.35744000000003">
    <ele>395.35</ele>
   </trkpt>
   <trkpt lat="-37.82045" lon="145.3573">
    <ele>395.41</ele>
   </trkpt>
   <trkpt lat="-37.82085" lon="145.35671000000002">
    <ele>394.8</ele>
   </trkpt>
   <trkpt lat="-37.82099" lon="145.35655">
    <ele>395.61</ele>
   </trkpt>
   <trkpt lat="-37.82112" lon="145.35653000000002">
    <ele>397.0400000000001</ele>
   </trkpt>
   <trkpt lat="-37.82126" lon="145.35643000000002">
    <ele>398.23</ele>
   </trkpt>
   <trkpt lat="-37.821450000000006" lon="145.35625000000002">
    <ele>398.35</ele>
   </trkpt>
   <trkpt lat="-37.82164" lon="145.35581000000002">
    <ele>400.3</ele>
   </trkpt>
   <trkpt lat="-37.82202" lon="145.35513">
    <ele>398.63000000000005</ele>
   </trkpt>
   <trkpt lat="-37.82204" lon="145.35498">
    <ele>397.34000000000003</ele>
   </trkpt>
   <trkpt lat="-37.82204" lon="145.35479">
    <ele>396.57000000000005</ele>
   </trkpt>
   <trkpt lat="-37.82193" lon="145.3544">
    <ele>401.07000000000005</ele>
   </trkpt>
   <trkpt lat="-37.82164" lon="145.35381">
    <ele>410.95000000000005</ele>
   </trkpt>
   <trkpt lat="-37.82159" lon="145.35368000000003">
    <ele>410.95000000000005</ele>
   </trkpt>
   <trkpt lat="-37.82155" lon="145.35288">
    <ele>418.99</ele>
   </trkpt>
   <trkpt lat="-37.82159" lon="145.35263">
    <ele>420.93</ele>
   </trkpt>
   <trkpt lat="-37.82209" lon="145.35202">
    <ele>437.25</ele>
   </trkpt>
   <trkpt lat="-37.82234000081451" lon="145.3515450018735">
    <ele>445.66</ele>
   </trkpt>
   <trkpt lat="-37.822590000000005" lon="145.35107000000002">
    <ele>449.46000000000004</ele>
   </trkpt>
   <trkpt lat="-37.82276" lon="145.35129">
    <ele>461.31000000000006</ele>
   </trkpt>
   <trkpt lat="-37.822860000000006" lon="145.35153000000003">
    <ele>464.5</ele>
   </trkpt>
   <trkpt lat="-37.822950000000006" lon="145.35162000000003">
    <ele>469.73</ele>
   </trkpt>
   <trkpt lat="-37.82305" lon="145.35166">
    <ele>469.73</ele>
   </trkpt>
   <trkpt lat="-37.82323" lon="145.35186000000002">
    <ele>480.56000000000006</ele>
   </trkpt>
   <trkpt lat="-37.82336" lon="145.3521">
    <ele>494.3500000000001</ele>
   </trkpt>
   <trkpt lat="-37.82352" lon="145.35215000000002">
    <ele>496.01000000000005</ele>
   </trkpt>
   <trkpt lat="-37.82363" lon="145.35215000000002">
    <ele>502.30000000000007</ele>
   </trkpt>
   <trkpt lat="-37.82372" lon="145.35218">
    <ele>503.97</ele>
   </trkpt>
   <trkpt lat="-37.82383" lon="145.35227">
    <ele>511.11000000000007</ele>
   </trkpt>
   <trkpt lat="-37.82399" lon="145.35247">
    <ele>527.98</ele>
   </trkpt>
   <trkpt lat="-37.82439" lon="145.35239">
    <ele>536.75</ele>
   </trkpt>
   <trkpt lat="-37.82455" lon="145.35246">
    <ele>538.66</ele>
   </trkpt>
   <trkpt lat="-37.82475" lon="145.35263">
    <ele>554.58</ele>
   </trkpt>
   <trkpt lat="-37.82547" lon="145.35287000000002">
    <ele>586.3000000000001</ele>
   </trkpt>
   <trkpt lat="-37.82551" lon="145.35260000000002">
    <ele>585.9100000000001</ele>
   </trkpt>
   <trkpt lat="-37.82558" lon="145.35231000000002">
    <ele>585.04</ele>
   </trkpt>
   <trkpt lat="-37.82596" lon="145.35162000000003">
    <ele>582.1400000000001</ele>
   </trkpt>
   <trkpt lat="-37.82625" lon="145.35123000000002">
    <ele>579.16</ele>
   </trkpt>
   <trkpt lat="-37.82658" lon="145.35101">
    <ele>577.11</ele>
   </trkpt>
   <trkpt lat="-37.82701" lon="145.35084">
    <ele>577.87</ele>
   </trkpt>
   <trkpt lat="-37.82758000007891" lon="145.35072500088367">
    <ele>575.98</ele>
   </trkpt>
   <trkpt lat="-37.82815" lon="145.35061000000002">
    <ele>574.9200000000001</ele>
   </trkpt>
   <trkpt lat="-37.8286300000965" lon="145.35060500003155">
    <ele>577.64</ele>
   </trkpt>
   <trkpt lat="-37.82911" lon="145.35060000000001">
    <ele>575.97</ele>
   </trkpt>
   <trkpt lat="-37.82943" lon="145.35047">
    <ele>569.4</ele>
   </trkpt>
   <trkpt lat="-37.82963" lon="145.35047">
    <ele>567.4200000000001</ele>
   </trkpt>
   <trkpt lat="-37.82999" lon="145.35055">
    <ele>564.73</ele>
   </trkpt>
   <trkpt lat="-37.83032" lon="145.35069000000001">
    <ele>561.44</ele>
   </trkpt>
   <trkpt lat="-37.83066" lon="145.35092">
    <ele>559.2900000000001</ele>
   </trkpt>
   <trkpt lat="-37.83093" lon="145.35097000000002">
    <ele>557.15</ele>
   </trkpt>
   <trkpt lat="-37.831230000000005" lon="145.35090000000002">
    <ele>556.9300000000001</ele>
   </trkpt>
   <trkpt lat="-37.83162" lon="145.35071000000002">
    <ele>560.85</ele>
   </trkpt>
   <trkpt lat="-37.83196" lon="145.35046">
    <ele>570.5600000000001</ele>
   </trkpt>
   <trkpt lat="-37.83231" lon="145.35010000000003">
    <ele>578.5100000000001</ele>
   </trkpt>
   <trkpt lat="-37.83267" lon="145.34969">
    <ele>586.21</ele>
   </trkpt>
   <trkpt lat="-37.83274" lon="145.34954000000002">
    <ele>586.8800000000001</ele>
   </trkpt>
   <trkpt lat="-37.83287" lon="145.34947000000003">
    <ele>587.3000000000001</ele>
   </trkpt>
   <trkpt lat="-37.83296" lon="145.34934">
    <ele>588.2700000000001</ele>
   </trkpt>
   <trkpt lat="-37.833110000000005" lon="145.34921">
    <ele>590.47</ele>
   </trkpt>
   <trkpt lat="-37.83321" lon="145.34915">
    <ele>592.52</ele>
   </trkpt>
   <trkpt lat="-37.83334" lon="145.3484">
    <ele>595.45</ele>
   </trkpt>
   <trkpt lat="-37.83339" lon="145.34822">
    <ele>595.1800000000001</ele>
   </trkpt>
   <trkpt lat="-37.83346" lon="145.34808">
    <ele>595.1200000000001</ele>
   </trkpt>
   <trkpt lat="-37.83379500052499" lon="145.34767500204265">
    <ele>597.0500000000001</ele>
   </trkpt>
   <trkpt lat="-37.83413" lon="145.34727">
    <ele>596.89</ele>
   </trkpt>
   <trkpt lat="-37.8344" lon="145.34703000000002">
    <ele>596.2700000000001</ele>
   </trkpt>
   <trkpt lat="-37.83491" lon="145.3468">
    <ele>596.1800000000001</ele>
   </trkpt>
   <trkpt lat="-37.835150000000006" lon="145.34676000000002">
    <ele>596.82</ele>
   </trkpt>
   <trkpt lat="-37.83574" lon="145.34658000000002">
    <ele>600.1200000000001</ele>
   </trkpt>
   <trkpt lat="-37.83601" lon="145.34655">
    <ele>602.6100000000001</ele>
   </trkpt>
   <trkpt lat="-37.8363" lon="145.34654">
    <ele>605.95</ele>
   </trkpt>
   <trkpt lat="-37.83668" lon="145.34660000000002">
    <ele>610.08</ele>
   </trkpt>
   <trkpt lat="-37.83681" lon="145.34659000000002">
    <ele>610.0500000000001</ele>
   </trkpt>
   <trkpt lat="-37.83706" lon="145.34649000000002">
    <ele>606.35</ele>
   </trkpt>
   <trkpt lat="-37.83722" lon="145.34633000000002">
    <ele>601.0000000000001</ele>
   </trkpt>
   <trkpt lat="-37.83733" lon="145.34626">
    <ele>598.96</ele>
   </trkpt>
   <trkpt lat="-37.83766" lon="145.34623000000002">
    <ele>591.59</ele>
   </trkpt>
   <trkpt lat="-37.83791" lon="145.34608">
    <ele>584.32</ele>
   </trkpt>
   <trkpt lat="-37.83813" lon="145.34605000000002">
    <ele>579.01</ele>
   </trkpt>
   <trkpt lat="-37.83834" lon="145.34596000000002">
    <ele>572.2600000000001</ele>
   </trkpt>
   <trkpt lat="-37.83843" lon="145.34587000000002">
    <ele>569.69</ele>
   </trkpt>
   <trkpt lat="-37.83856" lon="145.34584">
    <ele>566.72</ele>
   </trkpt>
   <trkpt lat="-37.83872" lon="145.34589000000003">
    <ele>565.2600000000001</ele>
   </trkpt>
   <trkpt lat="-37.83896" lon="145.34608">
    <ele>565.7500000000001</ele>
   </trkpt>
   <trkpt lat="-37.83912" lon="145.34615000000002">
    <ele>563.76</ele>
   </trkpt>
   <trkpt lat="-37.83961" lon="145.34607000000003">
    <ele>549.85</ele>
   </trkpt>
   <trkpt lat="-37.83979" lon="145.34606000000002">
    <ele>549.85</ele>
   </trkpt>
   <trkpt lat="-37.84004" lon="145.34607000000003">
    <ele>545.8000000000001</ele>
   </trkpt>
   <trkpt lat="-37.84013" lon="145.34609">
    <ele>544.3100000000001</ele>
   </trkpt>
   <trkpt lat="-37.84024" lon="145.34614000000002">
    <ele>541.7</ele>
   </trkpt>
   <trkpt lat="-37.84035" lon="145.34613000000002">
    <ele>541.7</ele>
   </trkpt>
   <trkpt lat="-37.84035" lon="145.34608">
    <ele>539.34</ele>
   </trkpt>
   <trkpt lat="-37.84004" lon="145.34539">
    <ele>531.24</ele>
   </trkpt>
   <trkpt lat="-37.83977" lon="145.34502">
    <ele>519.46</ele>
   </trkpt>
   <trkpt lat="-37.83977" lon="145.34496000000001">
    <ele>519.46</ele>
   </trkpt>
   <trkpt lat="-37.83979" lon="145.34494">
    <ele>519.46</ele>
   </trkpt>
   <trkpt lat="-37.839850000000006" lon="145.34493">
    <ele>517.57</ele>
   </trkpt>
   <trkpt lat="-37.84055" lon="145.34504">
    <ele>508.84000000000003</ele>
   </trkpt>
   <trkpt lat="-37.84082" lon="145.34512">
    <ele>503.75</ele>
   </trkpt>
   <trkpt lat="-37.84122" lon="145.34528">
    <ele>499.52</ele>
   </trkpt>
   <trkpt lat="-37.84127" lon="145.34528">
    <ele>494.96000000000004</ele>
   </trkpt>
   <trkpt lat="-37.84127" lon="145.34522">
    <ele>494.96000000000004</ele>
   </trkpt>
   <trkpt lat="-37.8412" lon="145.34501">
    <ele>491.31</ele>
   </trkpt>
   <trkpt lat="-37.84109" lon="145.34479000000002">
    <ele>489.75</ele>
   </trkpt>
   <trkpt lat="-37.84091" lon="145.34454000000002">
    <ele>483.81</ele>
   </trkpt>
   <trkpt lat="-37.84051" lon="145.34409000000002">
    <ele>473.1</ele>
   </trkpt>
   <trkpt lat="-37.84028" lon="145.34392000000003">
    <ele>469.9200000000001</ele>
   </trkpt>
   <trkpt lat="-37.84024" lon="145.34384">
    <ele>468.52000000000004</ele>
   </trkpt>
   <trkpt lat="-37.84057" lon="145.34386">
    <ele>466.07000000000005</ele>
   </trkpt>
   <trkpt lat="-37.84091" lon="145.34394">
    <ele>463.53000000000003</ele>
   </trkpt>
   <trkpt lat="-37.84125" lon="145.34408000000002">
    <ele>461.33</ele>
   </trkpt>
   <trkpt lat="-37.84163" lon="145.34426000000002">
    <ele>458.74</ele>
   </trkpt>
   <trkpt lat="-37.84183" lon="145.34441">
    <ele>457.42</ele>
   </trkpt>
   <trkpt lat="-37.842040000000004" lon="145.34463000000002">
    <ele>456.97</ele>
   </trkpt>
   <trkpt lat="-37.84221" lon="145.34493">
    <ele>456.47</ele>
   </trkpt>
   <trkpt lat="-37.8423" lon="145.34518">
    <ele>455.93000000000006</ele>
   </trkpt>
   <trkpt lat="-37.84239" lon="145.34554">
    <ele>454.93000000000006</ele>
   </trkpt>
   <trkpt lat="-37.84241" lon="145.34594">
    <ele>453.6600000000001</ele>
   </trkpt>
   <trkpt lat="-37.84239" lon="145.34612">
    <ele>452.63</ele>
   </trkpt>
   <trkpt lat="-37.8423" lon="145.34661">
    <ele>451.12</ele>
   </trkpt>
   <trkpt lat="-37.84228" lon="145.3468">
    <ele>450.46000000000004</ele>
   </trkpt>
   <trkpt lat="-37.8423" lon="145.34731000000002">
    <ele>448.02000000000004</ele>
   </trkpt>
   <trkpt lat="-37.8423" lon="145.34775000000002">
    <ele>446.29</ele>
   </trkpt>
   <trkpt lat="-37.84225" lon="145.34794000000002">
    <ele>444.73</ele>
   </trkpt>
   <trkpt lat="-37.84219" lon="145.34804000000003">
    <ele>443.93000000000006</ele>
   </trkpt>
   <trkpt lat="-37.84201" lon="145.34824">
    <ele>443.20000000000005</ele>
   </trkpt>
   <trkpt lat="-37.84194" lon="145.34835">
    <ele>442.42</ele>
   </trkpt>
   <trkpt lat="-37.84183" lon="145.34872000000001">
    <ele>441.75</ele>
   </trkpt>
   <trkpt lat="-37.84185" lon="145.34889">
    <ele>441.52000000000004</ele>
   </trkpt>
   <trkpt lat="-37.84192" lon="145.34903">
    <ele>439.28000000000003</ele>
   </trkpt>
   <trkpt lat="-37.84201" lon="145.34905">
    <ele>437.43</ele>
   </trkpt>
   <trkpt lat="-37.842020000000005" lon="145.34905">
    <ele>437.43</ele>
   </trkpt>
   <trkpt lat="-37.8421" lon="145.34902000000002">
    <ele>434.49</ele>
   </trkpt>
   <trkpt lat="-37.84219" lon="145.34892000000002">
    <ele>432.57</ele>
   </trkpt>
   <trkpt lat="-37.84237" lon="145.3488">
    <ele>428.07000000000005</ele>
   </trkpt>
   <trkpt lat="-37.84263" lon="145.34873000000002">
    <ele>423.96000000000004</ele>
   </trkpt>
   <trkpt lat="-37.842760000000006" lon="145.34866000000002">
    <ele>420.41</ele>
   </trkpt>
   <trkpt lat="-37.84286" lon="145.34865000000002">
    <ele>418.68000000000006</ele>
   </trkpt>
   <trkpt lat="-37.84306" lon="145.34874000000002">
    <ele>414.80000000000007</ele>
   </trkpt>
   <trkpt lat="-37.84315" lon="145.34874000000002">
    <ele>414.13000000000005</ele>
   </trkpt>
   <trkpt lat="-37.843320000000006" lon="145.34844">
    <ele>411.46000000000004</ele>
   </trkpt>
   <trkpt lat="-37.84337" lon="145.34801000000002">
    <ele>409.34000000000003</ele>
   </trkpt>
   <trkpt lat="-37.84382" lon="145.34711000000001">
    <ele>396.88</ele>
   </trkpt>
   <trkpt lat="-37.84384" lon="145.3469">
    <ele>391.25000000000006</ele>
   </trkpt>
   <trkpt lat="-37.84378" lon="145.34646">
    <ele>386.26000000000005</ele>
   </trkpt>
   <trkpt lat="-37.8438" lon="145.34609">
    <ele>381.57</ele>
   </trkpt>
   <trkpt lat="-37.843880000000006" lon="145.34591">
    <ele>376.08000000000004</ele>
   </trkpt>
   <trkpt lat="-37.84393" lon="145.34585">
    <ele>376.08000000000004</ele>
   </trkpt>
   <trkpt lat="-37.84398" lon="145.34587000000002">
    <ele>372.28000000000003</ele>
   </trkpt>
   <trkpt lat="-37.84418" lon="145.34607000000003">
    <ele>368.1</ele>
   </trkpt>
   <trkpt lat="-37.84445" lon="145.34615000000002">
    <ele>364.69</ele>
   </trkpt>
   <trkpt lat="-37.845060000000004" lon="145.34613000000002">
    <ele>348.62000000000006</ele>
   </trkpt>
   <trkpt lat="-37.84519" lon="145.34607000000003">
    <ele>348.62000000000006</ele>
   </trkpt>
   <trkpt lat="-37.84543" lon="145.3459">
    <ele>341.95000000000005</ele>
   </trkpt>
   <trkpt lat="-37.84548" lon="145.34592">
    <ele>341.95000000000005</ele>
   </trkpt>
   <trkpt lat="-37.84561" lon="145.34591">
    <ele>339.02000000000004</ele>
   </trkpt>
   <trkpt lat="-37.84572" lon="145.34585">
    <ele>336.87</ele>
   </trkpt>
   <trkpt lat="-37.8459" lon="145.34558">
    <ele>332.29</ele>
   </trkpt>
   <trkpt lat="-37.84595" lon="145.34548">
    <ele>331.53000000000003</ele>
   </trkpt>
   <trkpt lat="-37.84597" lon="145.34538">
    <ele>330.94</ele>
   </trkpt>
   <trkpt lat="-37.84586" lon="145.34505000000001">
    <ele>329.91</ele>
   </trkpt>
   <trkpt lat="-37.8457" lon="145.34482">
    <ele>328.62</ele>
   </trkpt>
   <trkpt lat="-37.84559" lon="145.34452000000002">
    <ele>324.94</ele>
   </trkpt>
   <trkpt lat="-37.84557" lon="145.34426000000002">
    <ele>323.18</ele>
   </trkpt>
   <trkpt lat="-37.84559" lon="145.34419000000003">
    <ele>321.92</ele>
   </trkpt>
   <trkpt lat="-37.84568" lon="145.34411">
    <ele>320.59000000000003</ele>
   </trkpt>
   <trkpt lat="-37.84579" lon="145.34413">
    <ele>320.59000000000003</ele>
   </trkpt>
   <trkpt lat="-37.84599" lon="145.34422">
    <ele>316.86</ele>
   </trkpt>
   <trkpt lat="-37.84642" lon="145.34432">
    <ele>307.74</ele>
   </trkpt>
   <trkpt lat="-37.84657" lon="145.34428">
    <ele>305.64000000000004</ele>
   </trkpt>
   <trkpt lat="-37.84666" lon="145.3442">
    <ele>304.36</ele>
   </trkpt>
   <trkpt lat="-37.84691" lon="145.34377">
    <ele>299.28000000000003</ele>
   </trkpt>
   <trkpt lat="-37.84702" lon="145.34371000000002">
    <ele>298.02</ele>
   </trkpt>
   <trkpt lat="-37.84709" lon="145.34374000000003">
    <ele>297.43</ele>
   </trkpt>
   <trkpt lat="-37.847170000000006" lon="145.34381000000002">
    <ele>296.75</ele>
   </trkpt>
   <trkpt lat="-37.84718" lon="145.34387">
    <ele>296.75</ele>
   </trkpt>
   <trkpt lat="-37.8472" lon="145.34408000000002">
    <ele>295.59000000000003</ele>
   </trkpt>
   <trkpt lat="-37.84707" lon="145.34472000000002">
    <ele>292.66</ele>
   </trkpt>
   <trkpt lat="-37.84707" lon="145.34496000000001">
    <ele>292.98</ele>
   </trkpt>
   <trkpt lat="-37.847170000000006" lon="145.34528">
    <ele>293.26</ele>
   </trkpt>
   <trkpt lat="-37.84722" lon="145.34541000000002">
    <ele>293.42</ele>
   </trkpt>
   <trkpt lat="-37.84731" lon="145.34550000000002">
    <ele>293.44000000000005</ele>
   </trkpt>
   <trkpt lat="-37.84745" lon="145.34555">
    <ele>293.25</ele>
   </trkpt>
   <trkpt lat="-37.84756" lon="145.34556">
    <ele>292.99</ele>
   </trkpt>
   <trkpt lat="-37.84781" lon="145.34555">
    <ele>291.87</ele>
   </trkpt>
   <trkpt lat="-37.84789" lon="145.34557">
    <ele>291.29</ele>
   </trkpt>
   <trkpt lat="-37.84798" lon="145.34563">
    <ele>290.36</ele>
   </trkpt>
   <trkpt lat="-37.848200000000006" lon="145.3459">
    <ele>289.02</ele>
   </trkpt>
   <trkpt lat="-37.84848" lon="145.34639">
    <ele>284.32</ele>
   </trkpt>
   <trkpt lat="-37.84852" lon="145.34641000000002">
    <ele>283.67</ele>
   </trkpt>
   <trkpt lat="-37.84855" lon="145.34642000000002">
    <ele>283.67</ele>
   </trkpt>
   <trkpt lat="-37.84857" lon="145.34639">
    <ele>283.67</ele>
   </trkpt>
   <trkpt lat="-37.84859" lon="145.34626">
    <ele>281.84000000000003</ele>
   </trkpt>
   <trkpt lat="-37.848600001899754" lon="145.34558999997228">
    <ele>277.76</ele>
   </trkpt>
   <trkpt lat="-37.84861" lon="145.34492">
    <ele>274.98</ele>
   </trkpt>
   <trkpt lat="-37.84868" lon="145.34415">
    <ele>273.40000000000003</ele>
   </trkpt>
   <trkpt lat="-37.84875" lon="145.34364000000002">
    <ele>272.94</ele>
   </trkpt>
   <trkpt lat="-37.84875" lon="145.34361">
    <ele>272.92</ele>
   </trkpt>
   <trkpt lat="-37.84886" lon="145.34412">
    <ele>277.13000000000005</ele>
   </trkpt>
   <trkpt lat="-37.84895" lon="145.34452000000002">
    <ele>285.37</ele>
   </trkpt>
   <trkpt lat="-37.8491" lon="145.34499000000002">
    <ele>291.47</ele>
   </trkpt>
   <trkpt lat="-37.84937" lon="145.34567">
    <ele>301.94000000000005</ele>
   </trkpt>
   <trkpt lat="-37.84964" lon="145.34674">
    <ele>310.15000000000003</ele>
   </trkpt>
   <trkpt lat="-37.84975" lon="145.34712000000002">
    <ele>313.32000000000005</ele>
   </trkpt>
   <trkpt lat="-37.85007" lon="145.34765000000002">
    <ele>319.21999999999997</ele>
   </trkpt>
   <trkpt lat="-37.85033500150118" lon="145.34822999808796">
    <ele>329.43</ele>
   </trkpt>
   <trkpt lat="-37.8506" lon="145.34881000000001">
    <ele>336.73</ele>
   </trkpt>
   <trkpt lat="-37.8508" lon="145.34936000000002">
    <ele>343.40000000000003</ele>
   </trkpt>
   <trkpt lat="-37.85098" lon="145.34968">
    <ele>351.92</ele>
   </trkpt>
   <trkpt lat="-37.85105" lon="145.34977">
    <ele>360.32000000000005</ele>
   </trkpt>
   <trkpt lat="-37.85116" lon="145.34979">
    <ele>361.92</ele>
   </trkpt>
   <trkpt lat="-37.85195" lon="145.34931">
    <ele>391.72</ele>
   </trkpt>
   <trkpt lat="-37.85246" lon="145.34893000000002">
    <ele>415.41</ele>
   </trkpt>
   <trkpt lat="-37.85262" lon="145.34889">
    <ele>418.00000000000006</ele>
   </trkpt>
   <trkpt lat="-37.85284" lon="145.34871">
    <ele>426.82000000000005</ele>
   </trkpt>
   <trkpt lat="-37.85298" lon="145.34869">
    <ele>428.00000000000006</ele>
   </trkpt>
   <trkpt lat="-37.85329" lon="145.34838000000002">
    <ele>435.37</ele>
   </trkpt>
   <trkpt lat="-37.85349" lon="145.34832">
    <ele>438.33000000000004</ele>
   </trkpt>
   <trkpt lat="-37.85347" lon="145.34849">
    <ele>438.83000000000004</ele>
   </trkpt>
   <trkpt lat="-37.85349" lon="145.34869">
    <ele>446.34000000000003</ele>
   </trkpt>
   <trkpt lat="-37.85378" lon="145.34931">
    <ele>451.76000000000005</ele>
   </trkpt>
   <trkpt lat="-37.85419" lon="145.34983000000003">
    <ele>459.58000000000004</ele>
   </trkpt>
   <trkpt lat="-37.85468" lon="145.35037">
    <ele>472.32</ele>
   </trkpt>
   <trkpt lat="-37.85507500138615" lon="145.35092499714384">
    <ele>482.46000000000004</ele>
   </trkpt>
   <trkpt lat="-37.855470000000004" lon="145.35148">
    <ele>491.15000000000003</ele>
   </trkpt>
   <trkpt lat="-37.85580500087528" lon="145.35193999788288">
    <ele>499.42</ele>
   </trkpt>
   <trkpt lat="-37.85614" lon="145.35240000000002">
    <ele>507.14000000000004</ele>
   </trkpt>
   <trkpt lat="-37.85622" lon="145.35247">
    <ele>508.21999999999997</ele>
   </trkpt>
   <trkpt lat="-37.85636" lon="145.35252">
    <ele>509.49</ele>
   </trkpt>
   <trkpt lat="-37.85683" lon="145.35260000000002">
    <ele>507.58000000000004</ele>
   </trkpt>
   <trkpt lat="-37.85701" lon="145.35266000000001">
    <ele>506.77000000000004</ele>
   </trkpt>
   <trkpt lat="-37.85712" lon="145.35267000000002">
    <ele>504.97</ele>
   </trkpt>
   <trkpt lat="-37.857130000000005" lon="145.35268000000002">
    <ele>504.97</ele>
   </trkpt>
   <trkpt lat="-37.85763999989397" lon="145.35270499982175">
    <ele>499.76000000000005</ele>
   </trkpt>
   <trkpt lat="-37.85815" lon="145.35273">
    <ele>493.13</ele>
   </trkpt>
   <trkpt lat="-37.85851" lon="145.35268000000002">
    <ele>488.49</ele>
   </trkpt>
   <trkpt lat="-37.8592" lon="145.35248">
    <ele>479.47</ele>
   </trkpt>
   <trkpt lat="-37.85945" lon="145.35244">
    <ele>475.35</ele>
   </trkpt>
   <trkpt lat="-37.8596" lon="145.35241000000002">
    <ele>472.35</ele>
   </trkpt>
   <trkpt lat="-37.85994" lon="145.35221">
    <ele>469.21</ele>
   </trkpt>
   <trkpt lat="-37.86023" lon="145.35196000000002">
    <ele>464.41</ele>
   </trkpt>
   <trkpt lat="-37.860490000000006" lon="145.35181">
    <ele>459.62</ele>
   </trkpt>
   <trkpt lat="-37.860960000000006" lon="145.35146">
    <ele>449.57</ele>
   </trkpt>
   <trkpt lat="-37.86104" lon="145.35133000000002">
    <ele>448.12</ele>
   </trkpt>
   <trkpt lat="-37.86115" lon="145.3511">
    <ele>444.15000000000003</ele>
   </trkpt>
   <trkpt lat="-37.86135" lon="145.35045000000002">
    <ele>437.05000000000007</ele>
   </trkpt>
   <trkpt lat="-37.86166" lon="145.34982000000002">
    <ele>430.19</ele>
   </trkpt>
   <trkpt lat="-37.86182" lon="145.34959">
    <ele>426.92</ele>
   </trkpt>
   <trkpt lat="-37.86224" lon="145.34912">
    <ele>416.59000000000003</ele>
   </trkpt>
   <trkpt lat="-37.86236" lon="145.34893000000002">
    <ele>414.7</ele>
   </trkpt>
   <trkpt lat="-37.86238" lon="145.34883000000002">
    <ele>414.7</ele>
   </trkpt>
   <trkpt lat="-37.862370000000006" lon="145.34855000000002">
    <ele>410.98</ele>
   </trkpt>
   <trkpt lat="-37.86211500119145" lon="145.3480099980435">
    <ele>407.18</ele>
   </trkpt>
   <trkpt lat="-37.86186" lon="145.34747000000002">
    <ele>407.91</ele>
   </trkpt>
   <trkpt lat="-37.861790000000006" lon="145.34698">
    <ele>407.5</ele>
   </trkpt>
   <trkpt lat="-37.86162" lon="145.34737">
    <ele>403.25000000000006</ele>
   </trkpt>
   <trkpt lat="-37.86162" lon="145.34753">
    <ele>402.26</ele>
   </trkpt>
   <trkpt lat="-37.86168" lon="145.34779">
    <ele>400.24</ele>
   </trkpt>
   <trkpt lat="-37.86164" lon="145.34794000000002">
    <ele>399.65</ele>
   </trkpt>
   <trkpt lat="-37.86159" lon="145.34802000000002">
    <ele>398.94</ele>
   </trkpt>
   <trkpt lat="-37.86128" lon="145.34822">
    <ele>395.5</ele>
   </trkpt>
   <trkpt lat="-37.86121" lon="145.34824">
    <ele>394.75000000000006</ele>
   </trkpt>
   <trkpt lat="-37.86112" lon="145.34822">
    <ele>392.36</ele>
   </trkpt>
   <trkpt lat="-37.86104" lon="145.34814">
    <ele>390.90000000000003</ele>
   </trkpt>
   <trkpt lat="-37.86097" lon="145.34804000000003">
    <ele>389.25000000000006</ele>
   </trkpt>
   <trkpt lat="-37.86097" lon="145.34788">
    <ele>387.57</ele>
   </trkpt>
   <trkpt lat="-37.86101" lon="145.34771">
    <ele>386.58000000000004</ele>
   </trkpt>
   <trkpt lat="-37.86101" lon="145.34763">
    <ele>385.99000000000007</ele>
   </trkpt>
   <trkpt lat="-37.86097" lon="145.34757000000002">
    <ele>384.57</ele>
   </trkpt>
   <trkpt lat="-37.86068" lon="145.34759000000003">
    <ele>379.09000000000003</ele>
   </trkpt>
   <trkpt lat="-37.86032" lon="145.34775000000002">
    <ele>372.84</ele>
   </trkpt>
   <trkpt lat="-37.86027" lon="145.34776000000002">
    <ele>372.84</ele>
   </trkpt>
   <trkpt lat="-37.859500000000004" lon="145.34782">
    <ele>365.45000000000005</ele>
   </trkpt>
   <trkpt lat="-37.85942" lon="145.34772">
    <ele>365.45000000000005</ele>
   </trkpt>
   <trkpt lat="-37.859370000000006" lon="145.34754">
    <ele>348.99</ele>
   </trkpt>
   <trkpt lat="-37.85931" lon="145.34758000000002">
    <ele>349.69000000000005</ele>
   </trkpt>
   <trkpt lat="-37.85918" lon="145.3476">
    <ele>351.56000000000006</ele>
   </trkpt>
   <trkpt lat="-37.8586" lon="145.34761">
    <ele>355.13000000000005</ele>
   </trkpt>
   <trkpt lat="-37.85853" lon="145.34743">
    <ele>353.61</ele>
   </trkpt>
   <trkpt lat="-37.85833" lon="145.34725">
    <ele>349.67</ele>
   </trkpt>
   <trkpt lat="-37.85819" lon="145.34719">
    <ele>347.94</ele>
   </trkpt>
   <trkpt lat="-37.857960000000006" lon="145.34694000000002">
    <ele>345.11</ele>
   </trkpt>
   <trkpt lat="-37.85765" lon="145.34672">
    <ele>342.43</ele>
   </trkpt>
   <trkpt lat="-37.857580000000006" lon="145.34655">
    <ele>338.95000000000005</ele>
   </trkpt>
   <trkpt lat="-37.85743" lon="145.34651000000002">
    <ele>337.0</ele>
   </trkpt>
   <trkpt lat="-37.85727" lon="145.34652">
    <ele>335.8</ele>
   </trkpt>
   <trkpt lat="-37.85703" lon="145.34650000000002">
    <ele>334.43</ele>
   </trkpt>
   <trkpt lat="-37.85696" lon="145.34644">
    <ele>334.14000000000004</ele>
   </trkpt>
   <trkpt lat="-37.85687" lon="145.34644">
    <ele>334.16</ele>
   </trkpt>
   <trkpt lat="-37.8566" lon="145.34635">
    <ele>339.19000000000005</ele>
   </trkpt>
   <trkpt lat="-37.856390000000005" lon="145.34613000000002">
    <ele>342.06</ele>
   </trkpt>
   <trkpt lat="-37.85638" lon="145.34612">
    <ele>342.06</ele>
   </trkpt>
   <trkpt lat="-37.85629" lon="145.34596000000002">
    <ele>345.27000000000004</ele>
   </trkpt>
   <trkpt lat="-37.85616" lon="145.34582">
    <ele>347.82</ele>
   </trkpt>
   <trkpt lat="-37.85607" lon="145.34561000000002">
    <ele>352.16</ele>
   </trkpt>
   <trkpt lat="-37.85562" lon="145.34508000000002">
    <ele>356.95000000000005</ele>
   </trkpt>
   <trkpt lat="-37.85553" lon="145.34492">
    <ele>357.14</ele>
   </trkpt>
   <trkpt lat="-37.85535" lon="145.34470000000002">
    <ele>358.02</ele>
   </trkpt>
   <trkpt lat="-37.85528" lon="145.34457">
    <ele>358.97</ele>
   </trkpt>
   <trkpt lat="-37.85515" lon="145.34415">
    <ele>357.51000000000005</ele>
   </trkpt>
   <trkpt lat="-37.8551" lon="145.34404">
    <ele>357.51000000000005</ele>
   </trkpt>
   <trkpt lat="-37.855050000000006" lon="145.34368">
    <ele>353.86</ele>
   </trkpt>
   <trkpt lat="-37.85492" lon="145.34354000000002">
    <ele>350.24000000000007</ele>
   </trkpt>
   <trkpt lat="-37.8549" lon="145.34348">
    <ele>350.24000000000007</ele>
   </trkpt>
   <trkpt lat="-37.85488" lon="145.34337000000002">
    <ele>348.2</ele>
   </trkpt>
   <trkpt lat="-37.85492" lon="145.34293000000002">
    <ele>343.26</ele>
   </trkpt>
   <trkpt lat="-37.85474" lon="145.3426">
    <ele>337.52000000000004</ele>
   </trkpt>
   <trkpt lat="-37.85472" lon="145.34233">
    <ele>334.22</ele>
   </trkpt>
   <trkpt lat="-37.85468" lon="145.34225">
    <ele>331.65</ele>
   </trkpt>
   <trkpt lat="-37.85448" lon="145.34206">
    <ele>322.65999999999997</ele>
   </trkpt>
   <trkpt lat="-37.85419" lon="145.34158000000002">
    <ele>312.13</ele>
   </trkpt>
   <trkpt lat="-37.85387" lon="145.34123000000002">
    <ele>315.01</ele>
   </trkpt>
   <trkpt lat="-37.85374" lon="145.34099">
    <ele>315.71000000000004</ele>
   </trkpt>
   <trkpt lat="-37.85365" lon="145.34067000000002">
    <ele>313.36</ele>
   </trkpt>
   <trkpt lat="-37.85358" lon="145.33991">
    <ele>303.02</ele>
   </trkpt>
   <trkpt lat="-37.853460000000005" lon="145.33943000000002">
    <ele>302.07</ele>
   </trkpt>
   <trkpt lat="-37.8534" lon="145.33894">
    <ele>298.8</ele>
   </trkpt>
   <trkpt lat="-37.85333" lon="145.33871000000002">
    <ele>297.02</ele>
   </trkpt>
   <trkpt lat="-37.85333" lon="145.33833">
    <ele>292.31</ele>
   </trkpt>
   <trkpt lat="-37.85327" lon="145.33823">
    <ele>291.75</ele>
   </trkpt>
   <trkpt lat="-37.85313" lon="145.33813">
    <ele>293.49</ele>
   </trkpt>
   <trkpt lat="-37.85304" lon="145.33812">
    <ele>295.78000000000003</ele>
   </trkpt>
   <trkpt lat="-37.85293" lon="145.33818000000002">
    <ele>300.01</ele>
   </trkpt>
   <trkpt lat="-37.85242" lon="145.33856">
    <ele>317.94</ele>
   </trkpt>
   <trkpt lat="-37.85233" lon="145.33851">
    <ele>319.41</ele>
   </trkpt>
   <trkpt lat="-37.85215" lon="145.33823">
    <ele>320.74</ele>
   </trkpt>
   <trkpt lat="-37.85206" lon="145.33798000000002">
    <ele>320.48</ele>
   </trkpt>
   <trkpt lat="-37.8519" lon="145.33773000000002">
    <ele>320.84000000000003</ele>
   </trkpt>
   <trkpt lat="-37.85177" lon="145.33761">
    <ele>320.85</ele>
   </trkpt>
   <trkpt lat="-37.85172" lon="145.33751">
    <ele>320.46000000000004</ele>
   </trkpt>
   <trkpt lat="-37.85168" lon="145.33735000000001">
    <ele>319.58000000000004</ele>
   </trkpt>
   <trkpt lat="-37.85139" lon="145.33696">
    <ele>317.88000000000005</ele>
   </trkpt>
   <trkpt lat="-37.85107" lon="145.33634">
    <ele>313.1</ele>
   </trkpt>
   <trkpt lat="-37.85096" lon="145.33634">
    <ele>313.09000000000003</ele>
   </trkpt>
   <trkpt lat="-37.85085" lon="145.33637000000002">
    <ele>313.1</ele>
   </trkpt>
   <trkpt lat="-37.85074" lon="145.33634">
    <ele>312.43</ele>
   </trkpt>
   <trkpt lat="-37.85063" lon="145.33599">
    <ele>307.68</ele>
   </trkpt>
   <trkpt lat="-37.85051" lon="145.33530000000002">
    <ele>296.54</ele>
   </trkpt>
   <trkpt lat="-37.85051" lon="145.33468000000002">
    <ele>279.46999999999997</ele>
   </trkpt>
   <trkpt lat="-37.850645001564736" lon="145.33407000115557">
    <ele>267.82</ele>
   </trkpt>
   <trkpt lat="-37.85078" lon="145.33346">
    <ele>257.0</ele>
   </trkpt>
   <trkpt lat="-37.8508" lon="145.33325000000002">
    <ele>252.56</ele>
   </trkpt>
   <trkpt lat="-37.85076" lon="145.33294">
    <ele>248.45000000000002</ele>
   </trkpt>
   <trkpt lat="-37.85085" lon="145.33266">
    <ele>240.82</ele>
   </trkpt>
   <trkpt lat="-37.850860000000004" lon="145.33241">
    <ele>232.28</ele>
   </trkpt>
   <trkpt lat="-37.85036" lon="145.33271000000002">
    <ele>236.52</ele>
   </trkpt>
   <trkpt lat="-37.8502" lon="145.33283">
    <ele>237.13</ele>
   </trkpt>
   <trkpt lat="-37.85004" lon="145.333">
    <ele>238.23000000000002</ele>
   </trkpt>
   <trkpt lat="-37.84989" lon="145.33313">
    <ele>239.76000000000002</ele>
   </trkpt>
   <trkpt lat="-37.84975" lon="145.33316000000002">
    <ele>240.34000000000003</ele>
   </trkpt>
   <trkpt lat="-37.84926" lon="145.33305000000001">
    <ele>244.48000000000002</ele>
   </trkpt>
   <trkpt lat="-37.849140000000006" lon="145.33307000000002">
    <ele>244.48000000000002</ele>
   </trkpt>
   <trkpt lat="-37.84899" lon="145.33313">
    <ele>245.23000000000002</ele>
   </trkpt>
   <trkpt lat="-37.848800000000004" lon="145.33329">
    <ele>246.37000000000003</ele>
   </trkpt>
   <trkpt lat="-37.84857" lon="145.33327">
    <ele>244.05</ele>
   </trkpt>
   <trkpt lat="-37.84848" lon="145.3333">
    <ele>243.37000000000003</ele>
   </trkpt>
   <trkpt lat="-37.84839" lon="145.33338">
    <ele>242.85</ele>
   </trkpt>
   <trkpt lat="-37.84792" lon="145.33391">
    <ele>238.0</ele>
   </trkpt>
   <trkpt lat="-37.847820000000006" lon="145.33396000000002">
    <ele>238.0</ele>
   </trkpt>
   <trkpt lat="-37.84769" lon="145.33421">
    <ele>237.21000000000004</ele>
   </trkpt>
   <trkpt lat="-37.84725" lon="145.33479">
    <ele>233.01000000000002</ele>
   </trkpt>
   <trkpt lat="-37.84709" lon="145.33493">
    <ele>232.11</ele>
   </trkpt>
   <trkpt lat="-37.84675" lon="145.33514000000002">
    <ele>230.58</ele>
   </trkpt>
   <trkpt lat="-37.8466" lon="145.33527">
    <ele>228.75</ele>
   </trkpt>
   <trkpt lat="-37.84642" lon="145.33547000000002">
    <ele>227.64000000000001</ele>
   </trkpt>
   <trkpt lat="-37.846250000000005" lon="145.33588">
    <ele>226.36</ele>
   </trkpt>
   <trkpt lat="-37.84631" lon="145.33607">
    <ele>225.96</ele>
   </trkpt>
   <trkpt lat="-37.84626" lon="145.33624">
    <ele>225.94000000000003</ele>
   </trkpt>
   <trkpt lat="-37.8466" lon="145.33685">
    <ele>229.54000000000002</ele>
   </trkpt>
   <trkpt lat="-37.84684" lon="145.33762000000002">
    <ele>232.25</ele>
   </trkpt>
   <trkpt lat="-37.84698" lon="145.33795">
    <ele>234.69</ele>
   </trkpt>
   <trkpt lat="-37.84729" lon="145.33877">
    <ele>241.26000000000002</ele>
   </trkpt>
   <trkpt lat="-37.84756" lon="145.33926000000002">
    <ele>245.77</ele>
   </trkpt>
   <trkpt lat="-37.84765" lon="145.33934000000002">
    <ele>247.93</ele>
   </trkpt>
   <trkpt lat="-37.84776" lon="145.33938">
    <ele>247.93</ele>
   </trkpt>
   <trkpt lat="-37.84807" lon="145.33973">
    <ele>251.38000000000005</ele>
   </trkpt>
   <trkpt lat="-37.84816" lon="145.33994">
    <ele>253.04999999999998</ele>
   </trkpt>
   <trkpt lat="-37.84845" lon="145.34047">
    <ele>257.81000000000006</ele>
   </trkpt>
   <trkpt lat="-37.84852" lon="145.34067000000002">
    <ele>259.53000000000003</ele>
   </trkpt>
   <trkpt lat="-37.84869000161858" lon="145.3412899985462">
    <ele>264.44</ele>
   </trkpt>
   <trkpt lat="-37.84886" lon="145.34191">
    <ele>266.65</ele>
   </trkpt>
   <trkpt lat="-37.84888" lon="145.34232">
    <ele>268.6</ele>
   </trkpt>
   <trkpt lat="-37.84886" lon="145.34281000000001">
    <ele>270.79</ele>
   </trkpt>
   <trkpt lat="-37.848770001908534" lon="145.34348000073928">
    <ele>272.5</ele>
   </trkpt>
   <trkpt lat="-37.84868" lon="145.34415">
    <ele>273.40000000000003</ele>
   </trkpt>
   <trkpt lat="-37.84861" lon="145.34492">
    <ele>274.98</ele>
   </trkpt>
   <trkpt lat="-37.848600001896216" lon="145.34559000020948">
    <ele>277.76</ele>
   </trkpt>
   <trkpt lat="-37.84859" lon="145.34626">
    <ele>281.84000000000003</ele>
   </trkpt>
   <trkpt lat="-37.84857" lon="145.34640000000002">
    <ele>283.35</ele>
   </trkpt>
   <trkpt lat="-37.84854" lon="145.34642000000002">
    <ele>283.35</ele>
   </trkpt>
   <trkpt lat="-37.84848" lon="145.34639">
    <ele>284.32</ele>
   </trkpt>
   <trkpt lat="-37.848200000000006" lon="145.3459">
    <ele>289.02</ele>
   </trkpt>
   <trkpt lat="-37.84798" lon="145.34563">
    <ele>290.36</ele>
   </trkpt>
   <trkpt lat="-37.84789" lon="145.34557">
    <ele>291.29</ele>
   </trkpt>
   <trkpt lat="-37.84781" lon="145.34555">
    <ele>291.87</ele>
   </trkpt>
   <trkpt lat="-37.84756" lon="145.34556">
    <ele>292.82</ele>
   </trkpt>
   <trkpt lat="-37.84745" lon="145.34555">
    <ele>293.25</ele>
   </trkpt>
   <trkpt lat="-37.84731" lon="145.34550000000002">
    <ele>293.44000000000005</ele>
   </trkpt>
   <trkpt lat="-37.84722" lon="145.34541000000002">
    <ele>293.42</ele>
   </trkpt>
   <trkpt lat="-37.847170000000006" lon="145.34528">
    <ele>293.26</ele>
   </trkpt>
   <trkpt lat="-37.84707" lon="145.34496000000001">
    <ele>292.98</ele>
   </trkpt>
   <trkpt lat="-37.84707" lon="145.34472000000002">
    <ele>292.66</ele>
   </trkpt>
   <trkpt lat="-37.84716" lon="145.34429">
    <ele>294.59000000000003</ele>
   </trkpt>
   <trkpt lat="-37.84736" lon="145.34413">
    <ele>294.27000000000004</ele>
   </trkpt>
   <trkpt lat="-37.84745" lon="145.34394">
    <ele>293.15000000000003</ele>
   </trkpt>
   <trkpt lat="-37.84747" lon="145.34383000000003">
    <ele>292.91</ele>
   </trkpt>
   <trkpt lat="-37.84745" lon="145.34362000000002">
    <ele>292.48</ele>
   </trkpt>
   <trkpt lat="-37.84751" lon="145.34304">
    <ele>288.8</ele>
   </trkpt>
   <trkpt lat="-37.84756" lon="145.34290000000001">
    <ele>287.59000000000003</ele>
   </trkpt>
   <trkpt lat="-37.84767" lon="145.34276">
    <ele>284.59000000000003</ele>
   </trkpt>
   <trkpt lat="-37.847730000000006" lon="145.34262">
    <ele>280.40000000000003</ele>
   </trkpt>
   <trkpt lat="-37.847730000000006" lon="145.34234">
    <ele>278.77000000000004</ele>
   </trkpt>
   <trkpt lat="-37.84767" lon="145.34217">
    <ele>275.8</ele>
   </trkpt>
   <trkpt lat="-37.84756" lon="145.34195000000003">
    <ele>272.3</ele>
   </trkpt>
   <trkpt lat="-37.84713" lon="145.34135">
    <ele>265.47</ele>
   </trkpt>
   <trkpt lat="-37.84693" lon="145.3411">
    <ele>262.87000000000006</ele>
   </trkpt>
   <trkpt lat="-37.84673" lon="145.34095000000002">
    <ele>260.19000000000005</ele>
   </trkpt>
   <trkpt lat="-37.84646" lon="145.34082">
    <ele>258.5</ele>
   </trkpt>
   <trkpt lat="-37.84617" lon="145.34048">
    <ele>257.74</ele>
   </trkpt>
   <trkpt lat="-37.84595" lon="145.34006000000002">
    <ele>257.12</ele>
   </trkpt>
   <trkpt lat="-37.8457" lon="145.33971000000003">
    <ele>254.23000000000002</ele>
   </trkpt>
   <trkpt lat="-37.8451" lon="145.33901">
    <ele>253.5</ele>
   </trkpt>
   <trkpt lat="-37.84458" lon="145.33867">
    <ele>259.96000000000004</ele>
   </trkpt>
   <trkpt lat="-37.84422" lon="145.33827000000002">
    <ele>258.43000000000006</ele>
   </trkpt>
   <trkpt lat="-37.84398" lon="145.33810000000003">
    <ele>255.76999999999998</ele>
   </trkpt>
   <trkpt lat="-37.84382" lon="145.33804">
    <ele>255.03000000000003</ele>
   </trkpt>
   <trkpt lat="-37.84357" lon="145.33804">
    <ele>256.17</ele>
   </trkpt>
   <trkpt lat="-37.84317" lon="145.33780000000002">
    <ele>257.84000000000003</ele>
   </trkpt>
   <trkpt lat="-37.84304" lon="145.33775">
    <ele>259.53000000000003</ele>
   </trkpt>
   <trkpt lat="-37.842850000000006" lon="145.33771000000002">
    <ele>263.13000000000005</ele>
   </trkpt>
   <trkpt lat="-37.8427" lon="145.33763000000002">
    <ele>264.85</ele>
   </trkpt>
   <trkpt lat="-37.84266" lon="145.33792000000003">
    <ele>269.91</ele>
   </trkpt>
   <trkpt lat="-37.84242500179924" lon="145.33857000203523">
    <ele>282.11</ele>
   </trkpt>
   <trkpt lat="-37.84219" lon="145.33922">
    <ele>297.27000000000004</ele>
   </trkpt>
   <trkpt lat="-37.841950000000004" lon="145.33969000000002">
    <ele>310.85</ele>
   </trkpt>
   <trkpt lat="-37.84178" lon="145.33959000000002">
    <ele>310.75</ele>
   </trkpt>
   <trkpt lat="-37.8416" lon="145.33959000000002">
    <ele>311.35</ele>
   </trkpt>
   <trkpt lat="-37.84143" lon="145.33965">
    <ele>312.71000000000004</ele>
   </trkpt>
   <trkpt lat="-37.84098" lon="145.33985">
    <ele>318.98</ele>
   </trkpt>
   <trkpt lat="-37.84069" lon="145.33977000000002">
    <ele>320.96000000000004</ele>
   </trkpt>
   <trkpt lat="-37.84042" lon="145.33958">
    <ele>323.08000000000004</ele>
   </trkpt>
   <trkpt lat="-37.84015" lon="145.33934000000002">
    <ele>328.21</ele>
   </trkpt>
   <trkpt lat="-37.83977" lon="145.33871000000002">
    <ele>336.58000000000004</ele>
   </trkpt>
   <trkpt lat="-37.83961" lon="145.33852000000002">
    <ele>337.75000000000006</ele>
   </trkpt>
   <trkpt lat="-37.83928" lon="145.33822">
    <ele>337.21</ele>
   </trkpt>
   <trkpt lat="-37.83885" lon="145.33808000000002">
    <ele>333.93</ele>
   </trkpt>
   <trkpt lat="-37.83847" lon="145.33802">
    <ele>333.96000000000004</ele>
   </trkpt>
   <trkpt lat="-37.83809" lon="145.33800000000002">
    <ele>338.38</ele>
   </trkpt>
   <trkpt lat="-37.83766" lon="145.33823">
    <ele>346.62</ele>
   </trkpt>
   <trkpt lat="-37.837250000000004" lon="145.33857">
    <ele>355.31</ele>
   </trkpt>
   <trkpt lat="-37.83719" lon="145.33865">
    <ele>356.76</ele>
   </trkpt>
   <trkpt lat="-37.8369" lon="145.33888000000002">
    <ele>359.76</ele>
   </trkpt>
   <trkpt lat="-37.83677" lon="145.339">
    <ele>360.36</ele>
   </trkpt>
   <trkpt lat="-37.83625" lon="145.33926000000002">
    <ele>361.28000000000003</ele>
   </trkpt>
   <trkpt lat="-37.83576" lon="145.33959000000002">
    <ele>357.66</ele>
   </trkpt>
   <trkpt lat="-37.83543" lon="145.33977000000002">
    <ele>352.46000000000004</ele>
   </trkpt>
   <trkpt lat="-37.835150000000006" lon="145.33989000000003">
    <ele>348.27000000000004</ele>
   </trkpt>
   <trkpt lat="-37.83475" lon="145.34023000000002">
    <ele>340.56</ele>
   </trkpt>
   <trkpt lat="-37.83442" lon="145.34049000000002">
    <ele>346.57000000000005</ele>
   </trkpt>
   <trkpt lat="-37.83415" lon="145.34074">
    <ele>348.14</ele>
   </trkpt>
   <trkpt lat="-37.83397" lon="145.34079">
    <ele>345.31</ele>
   </trkpt>
   <trkpt lat="-37.83357" lon="145.34077000000002">
    <ele>334.29</ele>
   </trkpt>
   <trkpt lat="-37.83337" lon="145.34082">
    <ele>331.64000000000004</ele>
   </trkpt>
   <trkpt lat="-37.83323" lon="145.34098">
    <ele>330.45</ele>
   </trkpt>
   <trkpt lat="-37.83301" lon="145.34152">
    <ele>330.17</ele>
   </trkpt>
   <trkpt lat="-37.8327" lon="145.34184000000002">
    <ele>327.44</ele>
   </trkpt>
   <trkpt lat="-37.83238" lon="145.34191">
    <ele>329.62</ele>
   </trkpt>
   <trkpt lat="-37.83178" lon="145.34217">
    <ele>331.88</ele>
   </trkpt>
   <trkpt lat="-37.83164" lon="145.34225">
    <ele>331.72</ele>
   </trkpt>
   <trkpt lat="-37.83153" lon="145.3424">
    <ele>331.95</ele>
   </trkpt>
   <trkpt lat="-37.83144" lon="145.34259">
    <ele>332.34000000000003</ele>
   </trkpt>
   <trkpt lat="-37.83124" lon="145.34334">
    <ele>333.46000000000004</ele>
   </trkpt>
   <trkpt lat="-37.83113" lon="145.34359">
    <ele>334.44</ele>
   </trkpt>
   <trkpt lat="-37.83095" lon="145.34385">
    <ele>334.66</ele>
   </trkpt>
   <trkpt lat="-37.83034" lon="145.34411">
    <ele>336.65</ele>
   </trkpt>
   <trkpt lat="-37.829930000000004" lon="145.34408000000002">
    <ele>330.62</ele>
   </trkpt>
   <trkpt lat="-37.82963" lon="145.34352">
    <ele>316.04</ele>
   </trkpt>
   <trkpt lat="-37.82952" lon="145.34314">
    <ele>306.02</ele>
   </trkpt>
   <trkpt lat="-37.82943" lon="145.34233">
    <ele>291.55</ele>
   </trkpt>
   <trkpt lat="-37.829240000000006" lon="145.34232">
    <ele>290.93</ele>
   </trkpt>
   <trkpt lat="-37.828950000000006" lon="145.34237000000002">
    <ele>290.93</ele>
   </trkpt>
   <trkpt lat="-37.82878" lon="145.34246000000002">
    <ele>290.79</ele>
   </trkpt>
   <trkpt lat="-37.82831" lon="145.34295">
    <ele>289.78000000000003</ele>
   </trkpt>
   <trkpt lat="-37.82782" lon="145.34341">
    <ele>291.06000000000006</ele>
   </trkpt>
   <trkpt lat="-37.82755" lon="145.34356000000002">
    <ele>292.7</ele>
   </trkpt>
   <trkpt lat="-37.8273" lon="145.34364000000002">
    <ele>295.6</ele>
   </trkpt>
   <trkpt lat="-37.82705" lon="145.34382000000002">
    <ele>298.28000000000003</ele>
   </trkpt>
   <trkpt lat="-37.82692" lon="145.34395">
    <ele>299.03000000000003</ele>
   </trkpt>
   <trkpt lat="-37.82681" lon="145.34403">
    <ele>299.99</ele>
   </trkpt>
   <trkpt lat="-37.82638" lon="145.34404">
    <ele>302.18</ele>
   </trkpt>
   <trkpt lat="-37.82607" lon="145.34413">
    <ele>302.85</ele>
   </trkpt>
   <trkpt lat="-37.82573" lon="145.34427000000002">
    <ele>304.42</ele>
   </trkpt>
   <trkpt lat="-37.825570000000006" lon="145.34438">
    <ele>304.62</ele>
   </trkpt>
   <trkpt lat="-37.82555" lon="145.34439">
    <ele>304.62</ele>
   </trkpt>
   <trkpt lat="-37.82538" lon="145.34456">
    <ele>305.35</ele>
   </trkpt>
   <trkpt lat="-37.82488" lon="145.34525000000002">
    <ele>304.22</ele>
   </trkpt>
   <trkpt lat="-37.82446" lon="145.34535000000002">
    <ele>306.71000000000004</ele>
   </trkpt>
   <trkpt lat="-37.82428" lon="145.34546">
    <ele>309.91</ele>
   </trkpt>
   <trkpt lat="-37.82408" lon="145.34560000000002">
    <ele>312.74</ele>
   </trkpt>
   <trkpt lat="-37.82381" lon="145.34588000000002">
    <ele>316.15000000000003</ele>
   </trkpt>
   <trkpt lat="-37.823380000385534" lon="145.34611500128605">
    <ele>317.64000000000004</ele>
   </trkpt>
   <trkpt lat="-37.822950000000006" lon="145.34635">
    <ele>317.32000000000005</ele>
   </trkpt>
   <trkpt lat="-37.822770000000006" lon="145.34649000000002">
    <ele>318.56</ele>
   </trkpt>
   <trkpt lat="-37.82267" lon="145.34663">
    <ele>320.31000000000006</ele>
   </trkpt>
   <trkpt lat="-37.8226" lon="145.34677000000002">
    <ele>323.02000000000004</ele>
   </trkpt>
   <trkpt lat="-37.82253" lon="145.34703000000002">
    <ele>326.29</ele>
   </trkpt>
   <trkpt lat="-37.82253" lon="145.34733">
    <ele>329.77</ele>
   </trkpt>
   <trkpt lat="-37.82255" lon="145.34759000000003">
    <ele>332.88</ele>
   </trkpt>
   <trkpt lat="-37.82253" lon="145.34774000000002">
    <ele>334.91</ele>
   </trkpt>
   <trkpt lat="-37.82244" lon="145.3478">
    <ele>335.84000000000003</ele>
   </trkpt>
   <trkpt lat="-37.82204" lon="145.3479">
    <ele>338.76</ele>
   </trkpt>
   <trkpt lat="-37.82166" lon="145.34824">
    <ele>344.63000000000005</ele>
   </trkpt>
   <trkpt lat="-37.82126" lon="145.34882000000002">
    <ele>353.03000000000003</ele>
   </trkpt>
   <trkpt lat="-37.82108" lon="145.3493">
    <ele>360.05</ele>
   </trkpt>
   <trkpt lat="-37.82103" lon="145.34965000000003">
    <ele>364.48</ele>
   </trkpt>
   <trkpt lat="-37.82101" lon="145.35052000000002">
    <ele>374.70000000000005</ele>
   </trkpt>
   <trkpt lat="-37.82103" lon="145.35089000000002">
    <ele>377.66</ele>
   </trkpt>
   <trkpt lat="-37.820980000000006" lon="145.35155">
    <ele>379.17</ele>
   </trkpt>
   <trkpt lat="-37.82088" lon="145.35202">
    <ele>379.08000000000004</ele>
   </trkpt>
   <trkpt lat="-37.82052" lon="145.35284000000001">
    <ele>379.86</ele>
   </trkpt>
   <trkpt lat="-37.82047" lon="145.35311000000002">
    <ele>380.0</ele>
   </trkpt>
   <trkpt lat="-37.82047" lon="145.35327">
    <ele>380.32000000000005</ele>
   </trkpt>
   <trkpt lat="-37.82052" lon="145.35340000000002">
    <ele>380.41</ele>
   </trkpt>
   <trkpt lat="-37.82063" lon="145.35363">
    <ele>380.39</ele>
   </trkpt>
   <trkpt lat="-37.82101" lon="145.35419000000002">
    <ele>379.92</ele>
   </trkpt>
   <trkpt lat="-37.821450000000006" lon="145.35441">
    <ele>380.33000000000004</ele>
   </trkpt>
   <trkpt lat="-37.8215" lon="145.3545">
    <ele>380.33000000000004</ele>
   </trkpt>
   <trkpt lat="-37.82155" lon="145.35462">
    <ele>380.37000000000006</ele>
   </trkpt>
   <trkpt lat="-37.82159" lon="145.3548">
    <ele>380.33000000000004</ele>
   </trkpt>
   <trkpt lat="-37.82152" lon="145.35504">
    <ele>380.04</ele>
   </trkpt>
   <trkpt lat="-37.82123" lon="145.35564000000002">
    <ele>380.32000000000005</ele>
   </trkpt>
   <trkpt lat="-37.82101" lon="145.35605">
    <ele>380.48</ele>
   </trkpt>
   <trkpt lat="-37.82081" lon="145.35627000000002">
    <ele>380.54</ele>
   </trkpt>
   <trkpt lat="-37.82034" lon="145.35669000000001">
    <ele>381.62</ele>
   </trkpt>
   <trkpt lat="-37.82021" lon="145.35685">
    <ele>381.62</ele>
   </trkpt>
   <trkpt lat="-37.82014" lon="145.35699000000002">
    <ele>381.34000000000003</ele>
   </trkpt>
   <trkpt lat="-37.82009" lon="145.35717000000002">
    <ele>381.29</ele>
   </trkpt>
   <trkpt lat="-37.82007" lon="145.35739">
    <ele>381.3</ele>
   </trkpt>
   <trkpt lat="-37.82011" lon="145.35786000000002">
    <ele>381.31</ele>
   </trkpt>
   <trkpt lat="-37.82011" lon="145.35802">
    <ele>381.05000000000007</ele>
   </trkpt>
   <trkpt lat="-37.82005" lon="145.35831000000002">
    <ele>380.85</ele>
   </trkpt>
   <trkpt lat="-37.81978" lon="145.35862">
    <ele>381.09000000000003</ele>
   </trkpt>
   <trkpt lat="-37.81935500048139" lon="145.35900000230328">
    <ele>380.51</ele>
   </trkpt>
   <trkpt lat="-37.81893" lon="145.35938000000002">
    <ele>380.8</ele>
   </trkpt>
   <trkpt lat="-37.81866" lon="145.35975000000002">
    <ele>380.13</ele>
   </trkpt>
   <trkpt lat="-37.81864" lon="145.35987">
    <ele>379.85</ele>
   </trkpt>
   <trkpt lat="-37.81857" lon="145.36003000000002">
    <ele>379.58000000000004</ele>
   </trkpt>
   <trkpt lat="-37.8187" lon="145.36094">
    <ele>393.17</ele>
   </trkpt>
   <trkpt lat="-37.8187" lon="145.36124">
    <ele>394.6</ele>
   </trkpt>
   <trkpt lat="-37.81861" lon="145.36159">
    <ele>399.32</ele>
   </trkpt>
   <trkpt lat="-37.81828" lon="145.36215">
    <ele>406.85</ele>
   </trkpt>
   <trkpt lat="-37.8181" lon="145.36234000000002">
    <ele>412.92</ele>
   </trkpt>
   <trkpt lat="-37.8177" lon="145.36251000000001">
    <ele>418.50000000000006</ele>
   </trkpt>
   <trkpt lat="-37.81734" lon="145.36311">
    <ele>428.51000000000005</ele>
   </trkpt>
   <trkpt lat="-37.81721" lon="145.36373">
    <ele>435.3</ele>
   </trkpt>
   <trkpt lat="-37.81723" lon="145.36425">
    <ele>441.19</ele>
   </trkpt>
   <trkpt lat="-37.81736" lon="145.36494000000002">
    <ele>450.08000000000004</ele>
   </trkpt>
   <trkpt lat="-37.81745" lon="145.36571">
    <ele>458.79</ele>
   </trkpt>
   <trkpt lat="-37.81743" lon="145.36671">
    <ele>470.49</ele>
   </trkpt>
   <trkpt lat="-37.81679000004122" lon="145.36669999991395">
    <ele>465.5</ele>
   </trkpt>
   <trkpt lat="-37.81615" lon="145.36669">
    <ele>457.07000000000005</ele>
   </trkpt>
   <trkpt lat="-37.81573" lon="145.36681000000002">
    <ele>454.55</ele>
   </trkpt>
   <trkpt lat="-37.8155" lon="145.36708000000002">
    <ele>450.78000000000003</ele>
   </trkpt>
   <trkpt lat="-37.81537" lon="145.36716">
    <ele>450.0</ele>
   </trkpt>
   <trkpt lat="-37.81508" lon="145.36724">
    <ele>450.71000000000004</ele>
   </trkpt>
   <trkpt lat="-37.81488" lon="145.36741">
    <ele>452.73</ele>
   </trkpt>
   <trkpt lat="-37.814710000000005" lon="145.36781000000002">
    <ele>457.0</ele>
   </trkpt>
   <trkpt lat="-37.81459" lon="145.36827000000002">
    <ele>460.71000000000004</ele>
   </trkpt>
   <trkpt lat="-37.81459" lon="145.36878000000002">
    <ele>465.23</ele>
   </trkpt>
   <trkpt lat="-37.81467" lon="145.36967">
    <ele>472.98</ele>
   </trkpt>
   <trkpt lat="-37.81481" lon="145.37055">
    <ele>480.22</ele>
   </trkpt>
   <trkpt lat="-37.81479" lon="145.37143">
    <ele>477.4200000000001</ele>
   </trkpt>
   <trkpt lat="-37.81461" lon="145.37204">
    <ele>472.54</ele>
   </trkpt>
   <trkpt lat="-37.81441" lon="145.37232">
    <ele>470.1</ele>
   </trkpt>
   <trkpt lat="-37.81396" lon="145.37239000000002">
    <ele>468.26000000000005</ele>
   </trkpt>
   <trkpt lat="-37.81358" lon="145.37265000000002">
    <ele>465.05</ele>
   </trkpt>
   <trkpt lat="-37.81331" lon="145.37307">
    <ele>463.81000000000006</ele>
   </trkpt>
   <trkpt lat="-37.813473340218714" lon="145.37397332926582">
    <ele>463.79</ele>
   </trkpt>
   <trkpt lat="-37.813636673539314" lon="145.37487666252858">
    <ele>458.42</ele>
   </trkpt>
   <trkpt lat="-37.8138" lon="145.37578000000002">
    <ele>451.24</ele>
   </trkpt>
   <trkpt lat="-37.81394" lon="145.37682">
    <ele>443.8</ele>
   </trkpt>
   <trkpt lat="-37.814" lon="145.377">
    <ele>441.37</ele>
   </trkpt>
   <trkpt lat="-37.81450000133028" lon="145.37755499627264">
    <ele>434.6700000000001</ele>
   </trkpt>
   <trkpt lat="-37.815000000000005" lon="145.37811000000002">
    <ele>429.8</ele>
   </trkpt>
   <trkpt lat="-37.81546" lon="145.37838000000002">
    <ele>430.65000000000003</ele>
   </trkpt>
   <trkpt lat="-37.81579" lon="145.3788">
    <ele>431.91</ele>
   </trkpt>
   <trkpt lat="-37.816" lon="145.37896">
    <ele>433.40000000000003</ele>
   </trkpt>
   <trkpt lat="-37.81613" lon="145.37887">
    <ele>434.52</ele>
   </trkpt>
   <trkpt lat="-37.8162" lon="145.37919000000002">
    <ele>434.75</ele>
   </trkpt>
  </trkseg>
 </trk>
</gpx>
