<?xml version="1.0" encoding="UTF-8"?>
<gpx creator="StravaGPX" version="1.1" xmlns="http://www.topografix.com/GPX/1/1" xmlns:xsi="http://www.w3.org/2001/XMLSchema-instance" xsi:schemaLocation="http://www.topografix.com/GPX/1/1 http://www.topografix.com/GPX/1/1/gpx.xsd">
 <metadata>
  <name>Sunday 4 August 2024 - 20k 1000 Steps</name>
  <author>
   <name>john csorgo</name>
  </author>
  <copyright author="OpenStreetMap contributors">
   <year>2020</year>
   <license>https://www.openstreetmap.org/copyright</license>
  </copyright>
 </metadata>
 <trk>
  <name>Sunday 4 August 2024 - 20k 1000 Steps</name>
  <link href=""/>
  <type>running</type>
  <trkseg>
   <trkpt lat="-37.89074" lon="145.31704000000002">
    <ele>180.73</ele>
   </trkpt>
   <trkpt lat="-37.890730000000005" lon="145.31686000000002">
    <ele>181.07</ele>
   </trkpt>
   <trkpt lat="-37.8909" lon="145.31665">
    <ele>180.70000000000002</ele>
   </trkpt>
   <trkpt lat="-37.89099" lon="145.31640000000002">
    <ele>181.14000000000001</ele>
   </trkpt>
   <trkpt lat="-37.89099" lon="145.31613000000002">
    <ele>181.28000000000003</ele>
   </trkpt>
   <trkpt lat="-37.89108" lon="145.31604000000002">
    <ele>181.28000000000003</ele>
   </trkpt>
   <trkpt lat="-37.89148" lon="145.31548">
    <ele>173.19</ele>
   </trkpt>
   <trkpt lat="-37.89159" lon="145.3153">
    <ele>171.96</ele>
   </trkpt>
   <trkpt lat="-37.89164" lon="145.31531">
    <ele>171.96</ele>
   </trkpt>
   <trkpt lat="-37.89202" lon="145.31486">
    <ele>164.43</ele>
   </trkpt>
   <trkpt lat="-37.892360000000004" lon="145.31427000000002">
    <ele>159.70000000000002</ele>
   </trkpt>
   <trkpt lat="-37.892680000000006" lon="145.31344">
    <ele>151.62</ele>
   </trkpt>
   <trkpt lat="-37.89278" lon="145.31323">
    <ele>149.33</ele>
   </trkpt>
   <trkpt lat="-37.8928" lon="145.31221000000002">
    <ele>147.25000000000003</ele>
   </trkpt>
   <trkpt lat="-37.89278" lon="145.31192000000001">
    <ele>145.8</ele>
   </trkpt>
   <trkpt lat="-37.892830000000004" lon="145.31176000000002">
    <ele>144.85</ele>
   </trkpt>
   <trkpt lat="-37.89287" lon="145.31158000000002">
    <ele>143.44</ele>
   </trkpt>
   <trkpt lat="-37.89287" lon="145.31123000000002">
    <ele>142.48000000000002</ele>
   </trkpt>
   <trkpt lat="-37.89282" lon="145.31105000000002">
    <ele>142.72</ele>
   </trkpt>
   <trkpt lat="-37.89273" lon="145.31084">
    <ele>143.44</ele>
   </trkpt>
   <trkpt lat="-37.89273" lon="145.31085000000002">
    <ele>143.44</ele>
   </trkpt>
   <trkpt lat="-37.89269" lon="145.31058000000002">
    <ele>143.59000000000003</ele>
   </trkpt>
   <trkpt lat="-37.89265" lon="145.31045">
    <ele>143.48000000000002</ele>
   </trkpt>
   <trkpt lat="-37.89253" lon="145.31028">
    <ele>143.44</ele>
   </trkpt>
   <trkpt lat="-37.89242667342418" lon="145.3093866642151">
    <ele>139.85</ele>
   </trkpt>
   <trkpt lat="-37.89232334009733" lon="145.30849333093795">
    <ele>135.81</ele>
   </trkpt>
   <trkpt lat="-37.89222" lon="145.3076">
    <ele>137.07</ele>
   </trkpt>
   <trkpt lat="-37.89215" lon="145.30678">
    <ele>137.89000000000001</ele>
   </trkpt>
   <trkpt lat="-37.892120000000006" lon="145.30672">
    <ele>137.81</ele>
   </trkpt>
   <trkpt lat="-37.892030000000005" lon="145.30664000000002">
    <ele>137.55</ele>
   </trkpt>
   <trkpt lat="-37.89208" lon="145.30653">
    <ele>135.76000000000002</ele>
   </trkpt>
   <trkpt lat="-37.89213" lon="145.30595000000002">
    <ele>132.84</ele>
   </trkpt>
   <trkpt lat="-37.892160000000004" lon="145.30587">
    <ele>132.26000000000002</ele>
   </trkpt>
   <trkpt lat="-37.89206" lon="145.30575000000002">
    <ele>132.17000000000002</ele>
   </trkpt>
   <trkpt lat="-37.89174333829542" lon="145.3049866601796">
    <ele>130.82000000000002</ele>
   </trkpt>
   <trkpt lat="-37.8914266716617" lon="145.30422332692572">
    <ele>132.44</ele>
   </trkpt>
   <trkpt lat="-37.891110000000005" lon="145.30346">
    <ele>133.37</ele>
   </trkpt>
   <trkpt lat="-37.89096" lon="145.30304">
    <ele>133.10000000000002</ele>
   </trkpt>
   <trkpt lat="-37.89072" lon="145.30254000000002">
    <ele>132.8</ele>
   </trkpt>
   <trkpt lat="-37.89029500270011" lon="145.3017399953691">
    <ele>132.81</ele>
   </trkpt>
   <trkpt lat="-37.88987" lon="145.30094000000003">
    <ele>131.94</ele>
   </trkpt>
   <trkpt lat="-37.889680000000006" lon="145.3006">
    <ele>131.26000000000002</ele>
   </trkpt>
   <trkpt lat="-37.889410000000005" lon="145.30023">
    <ele>130.96</ele>
   </trkpt>
   <trkpt lat="-37.88935" lon="145.30030000000002">
    <ele>130.66</ele>
   </trkpt>
   <trkpt lat="-37.88904" lon="145.29997">
    <ele>130.5</ele>
   </trkpt>
   <trkpt lat="-37.8889" lon="145.29981">
    <ele>130.72</ele>
   </trkpt>
   <trkpt lat="-37.888780000000004" lon="145.29981">
    <ele>130.61</ele>
   </trkpt>
   <trkpt lat="-37.88877" lon="145.29987">
    <ele>130.61</ele>
   </trkpt>
   <trkpt lat="-37.88864" lon="145.29993000000002">
    <ele>129.42000000000002</ele>
   </trkpt>
   <trkpt lat="-37.88864" lon="145.29999">
    <ele>129.42000000000002</ele>
   </trkpt>
   <trkpt lat="-37.888760000000005" lon="145.29999">
    <ele>128.76000000000002</ele>
   </trkpt>
   <trkpt lat="-37.88879" lon="145.30005">
    <ele>128.54999999999998</ele>
   </trkpt>
   <trkpt lat="-37.88877" lon="145.30008">
    <ele>128.54999999999998</ele>
   </trkpt>
   <trkpt lat="-37.88864" lon="145.30014">
    <ele>127.55</ele>
   </trkpt>
   <trkpt lat="-37.88864" lon="145.30018">
    <ele>127.55</ele>
   </trkpt>
   <trkpt lat="-37.88866" lon="145.30021000000002">
    <ele>127.55</ele>
   </trkpt>
   <trkpt lat="-37.88884" lon="145.30023">
    <ele>126.5</ele>
   </trkpt>
   <trkpt lat="-37.8889" lon="145.30020000000002">
    <ele>126.0</ele>
   </trkpt>
   <trkpt lat="-37.88895" lon="145.30022000000002">
    <ele>126.0</ele>
   </trkpt>
   <trkpt lat="-37.88899" lon="145.30028000000001">
    <ele>124.85000000000001</ele>
   </trkpt>
   <trkpt lat="-37.88902" lon="145.30038000000002">
    <ele>124.85000000000001</ele>
   </trkpt>
   <trkpt lat="-37.888980000000004" lon="145.30047000000002">
    <ele>124.22000000000001</ele>
   </trkpt>
   <trkpt lat="-37.88895" lon="145.30049000000002">
    <ele>124.22000000000001</ele>
   </trkpt>
   <trkpt lat="-37.8889" lon="145.30049000000002">
    <ele>124.22000000000001</ele>
   </trkpt>
   <trkpt lat="-37.88882" lon="145.30042">
    <ele>124.01</ele>
   </trkpt>
   <trkpt lat="-37.888670000000005" lon="145.30045">
    <ele>123.62</ele>
   </trkpt>
   <trkpt lat="-37.88868" lon="145.30045">
    <ele>123.38</ele>
   </trkpt>
   <trkpt lat="-37.88832" lon="145.30052">
    <ele>121.75000000000001</ele>
   </trkpt>
   <trkpt lat="-37.88781" lon="145.30057000000002">
    <ele>120.20000000000002</ele>
   </trkpt>
   <trkpt lat="-37.887640000000005" lon="145.30056000000002">
    <ele>120.15</ele>
   </trkpt>
   <trkpt lat="-37.88772" lon="145.3006">
    <ele>119.67000000000002</ele>
   </trkpt>
   <trkpt lat="-37.88801" lon="145.30066000000002">
    <ele>118.61</ele>
   </trkpt>
   <trkpt lat="-37.88855" lon="145.30068">
    <ele>117.41000000000001</ele>
   </trkpt>
   <trkpt lat="-37.88861" lon="145.30069">
    <ele>117.41000000000001</ele>
   </trkpt>
   <trkpt lat="-37.888740000000006" lon="145.30074000000002">
    <ele>117.17</ele>
   </trkpt>
   <trkpt lat="-37.88886" lon="145.30089">
    <ele>116.92</ele>
   </trkpt>
   <trkpt lat="-37.88902" lon="145.30095">
    <ele>116.05000000000001</ele>
   </trkpt>
   <trkpt lat="-37.88902" lon="145.30098">
    <ele>115.86</ele>
   </trkpt>
   <trkpt lat="-37.88899" lon="145.30098">
    <ele>115.86</ele>
   </trkpt>
   <trkpt lat="-37.88843" lon="145.30082000000002">
    <ele>110.91000000000001</ele>
   </trkpt>
   <trkpt lat="-37.88843" lon="145.30081">
    <ele>110.91000000000001</ele>
   </trkpt>
   <trkpt lat="-37.88808" lon="145.30086">
    <ele>110.71</ele>
   </trkpt>
   <trkpt lat="-37.887600000000006" lon="145.30096">
    <ele>110.87</ele>
   </trkpt>
   <trkpt lat="-37.887600000000006" lon="145.30102000000002">
    <ele>110.28</ele>
   </trkpt>
   <trkpt lat="-37.88817" lon="145.30094000000003">
    <ele>108.57000000000001</ele>
   </trkpt>
   <trkpt lat="-37.888180000000006" lon="145.30094000000003">
    <ele>108.57000000000001</ele>
   </trkpt>
   <trkpt lat="-37.888290000000005" lon="145.30097">
    <ele>107.56</ele>
   </trkpt>
   <trkpt lat="-37.888940000000005" lon="145.30135">
    <ele>103.63000000000001</ele>
   </trkpt>
   <trkpt lat="-37.888940000000005" lon="145.30141">
    <ele>103.4</ele>
   </trkpt>
   <trkpt lat="-37.888450000000006" lon="145.30122">
    <ele>103.32000000000001</ele>
   </trkpt>
   <trkpt lat="-37.8881" lon="145.30124">
    <ele>101.96000000000001</ele>
   </trkpt>
   <trkpt lat="-37.88761" lon="145.30126">
    <ele>109.00000000000001</ele>
   </trkpt>
   <trkpt lat="-37.886790000000005" lon="145.30117">
    <ele>124.78000000000002</ele>
   </trkpt>
   <trkpt lat="-37.88678" lon="145.30117">
    <ele>129.77</ele>
   </trkpt>
   <trkpt lat="-37.88671" lon="145.30122">
    <ele>131.74</ele>
   </trkpt>
   <trkpt lat="-37.886680000000005" lon="145.30126">
    <ele>132.58</ele>
   </trkpt>
   <trkpt lat="-37.88671" lon="145.30129000000002">
    <ele>132.58</ele>
   </trkpt>
   <trkpt lat="-37.88671" lon="145.30144">
    <ele>134.0</ele>
   </trkpt>
   <trkpt lat="-37.88667" lon="145.30146000000002">
    <ele>135.4</ele>
   </trkpt>
   <trkpt lat="-37.8866" lon="145.30139">
    <ele>136.87</ele>
   </trkpt>
   <trkpt lat="-37.886570000000006" lon="145.30142">
    <ele>137.49</ele>
   </trkpt>
   <trkpt lat="-37.886540000000004" lon="145.30142">
    <ele>138.61</ele>
   </trkpt>
   <trkpt lat="-37.886480000000006" lon="145.30146000000002">
    <ele>140.02</ele>
   </trkpt>
   <trkpt lat="-37.88645" lon="145.30154000000002">
    <ele>141.57</ele>
   </trkpt>
   <trkpt lat="-37.8864" lon="145.30155000000002">
    <ele>142.95000000000002</ele>
   </trkpt>
   <trkpt lat="-37.88642" lon="145.30162">
    <ele>143.5</ele>
   </trkpt>
   <trkpt lat="-37.88638" lon="145.30168">
    <ele>144.35</ele>
   </trkpt>
   <trkpt lat="-37.88633" lon="145.30166">
    <ele>144.55</ele>
   </trkpt>
   <trkpt lat="-37.886280000000006" lon="145.30186">
    <ele>147.27</ele>
   </trkpt>
   <trkpt lat="-37.886280000000006" lon="145.30185">
    <ele>147.15</ele>
   </trkpt>
   <trkpt lat="-37.88622" lon="145.30229">
    <ele>151.52</ele>
   </trkpt>
   <trkpt lat="-37.88629" lon="145.3023">
    <ele>151.48</ele>
   </trkpt>
   <trkpt lat="-37.88622" lon="145.30247">
    <ele>153.32000000000002</ele>
   </trkpt>
   <trkpt lat="-37.8862" lon="145.30258">
    <ele>154.86</ele>
   </trkpt>
   <trkpt lat="-37.88631" lon="145.30272000000002">
    <ele>157.17</ele>
   </trkpt>
   <trkpt lat="-37.8862" lon="145.30275">
    <ele>159.4</ele>
   </trkpt>
   <trkpt lat="-37.88626" lon="145.30284">
    <ele>159.4</ele>
   </trkpt>
   <trkpt lat="-37.88617" lon="145.30289000000002">
    <ele>160.86</ele>
   </trkpt>
   <trkpt lat="-37.88626" lon="145.30297000000002">
    <ele>161.4</ele>
   </trkpt>
   <trkpt lat="-37.88613" lon="145.30305">
    <ele>164.37</ele>
   </trkpt>
   <trkpt lat="-37.88626" lon="145.30319">
    <ele>167.08</ele>
   </trkpt>
   <trkpt lat="-37.886390000000006" lon="145.30325000000002">
    <ele>169.76000000000002</ele>
   </trkpt>
   <trkpt lat="-37.88685499999119" lon="145.3034849983935">
    <ele>176.1</ele>
   </trkpt>
   <trkpt lat="-37.88732" lon="145.30372">
    <ele>183.13000000000002</ele>
   </trkpt>
   <trkpt lat="-37.88752" lon="145.30386000000001">
    <ele>187.46</ele>
   </trkpt>
   <trkpt lat="-37.88783" lon="145.30395000000001">
    <ele>193.19000000000003</ele>
   </trkpt>
   <trkpt lat="-37.88808" lon="145.30385">
    <ele>193.95000000000002</ele>
   </trkpt>
   <trkpt lat="-37.88828" lon="145.30369000000002">
    <ele>192.69000000000003</ele>
   </trkpt>
   <trkpt lat="-37.88846" lon="145.30367">
    <ele>192.27</ele>
   </trkpt>
   <trkpt lat="-37.88864" lon="145.30369000000002">
    <ele>192.19000000000003</ele>
   </trkpt>
   <trkpt lat="-37.88935" lon="145.30413000000001">
    <ele>196.52</ele>
   </trkpt>
   <trkpt lat="-37.88951" lon="145.3042">
    <ele>200.25</ele>
   </trkpt>
   <trkpt lat="-37.88955" lon="145.30427">
    <ele>202.0</ele>
   </trkpt>
   <trkpt lat="-37.88953" lon="145.30433000000002">
    <ele>202.0</ele>
   </trkpt>
   <trkpt lat="-37.88931" lon="145.30447">
    <ele>207.57</ele>
   </trkpt>
   <trkpt lat="-37.88913" lon="145.30452000000002">
    <ele>210.82</ele>
   </trkpt>
   <trkpt lat="-37.888960000000004" lon="145.30451000000002">
    <ele>213.59000000000003</ele>
   </trkpt>
   <trkpt lat="-37.888870000000004" lon="145.30451000000002">
    <ele>214.6</ele>
   </trkpt>
   <trkpt lat="-37.8887" lon="145.30462">
    <ele>213.94000000000003</ele>
   </trkpt>
   <trkpt lat="-37.88848" lon="145.30454">
    <ele>212.43</ele>
   </trkpt>
   <trkpt lat="-37.88828" lon="145.30439">
    <ele>209.51000000000002</ele>
   </trkpt>
   <trkpt lat="-37.88823" lon="145.30448">
    <ele>209.09000000000003</ele>
   </trkpt>
   <trkpt lat="-37.888020000000004" lon="145.30467000000002">
    <ele>207.92000000000002</ele>
   </trkpt>
   <trkpt lat="-37.88801" lon="145.30476000000002">
    <ele>209.49</ele>
   </trkpt>
   <trkpt lat="-37.887910000000005" lon="145.30494000000002">
    <ele>210.96</ele>
   </trkpt>
   <trkpt lat="-37.88783" lon="145.30486000000002">
    <ele>213.32</ele>
   </trkpt>
   <trkpt lat="-37.88779" lon="145.30485000000002">
    <ele>213.32</ele>
   </trkpt>
   <trkpt lat="-37.88761" lon="145.30491">
    <ele>217.19000000000003</ele>
   </trkpt>
   <trkpt lat="-37.88678" lon="145.30505000000002">
    <ele>226.8</ele>
   </trkpt>
   <trkpt lat="-37.88669" lon="145.3051">
    <ele>229.49</ele>
   </trkpt>
   <trkpt lat="-37.88651" lon="145.30526">
    <ele>229.49</ele>
   </trkpt>
   <trkpt lat="-37.88622" lon="145.30555">
    <ele>236.59</ele>
   </trkpt>
   <trkpt lat="-37.88604" lon="145.30565">
    <ele>238.73000000000002</ele>
   </trkpt>
   <trkpt lat="-37.88552500007154" lon="145.30579000098223">
    <ele>244.87000000000003</ele>
   </trkpt>
   <trkpt lat="-37.88501" lon="145.30593000000002">
    <ele>251.57000000000002</ele>
   </trkpt>
   <trkpt lat="-37.88485" lon="145.30595000000002">
    <ele>254.96</ele>
   </trkpt>
   <trkpt lat="-37.8847" lon="145.30594000000002">
    <ele>256.26000000000005</ele>
   </trkpt>
   <trkpt lat="-37.88438" lon="145.30587">
    <ele>261.92</ele>
   </trkpt>
   <trkpt lat="-37.884" lon="145.3059">
    <ele>266.97</ele>
   </trkpt>
   <trkpt lat="-37.88364" lon="145.30588">
    <ele>273.8</ele>
   </trkpt>
   <trkpt lat="-37.88353" lon="145.30589">
    <ele>273.8</ele>
   </trkpt>
   <trkpt lat="-37.88331" lon="145.30595000000002">
    <ele>276.79</ele>
   </trkpt>
   <trkpt lat="-37.883140000000004" lon="145.30602000000002">
    <ele>278.68</ele>
   </trkpt>
   <trkpt lat="-37.88315" lon="145.30602000000002">
    <ele>278.55</ele>
   </trkpt>
   <trkpt lat="-37.88232" lon="145.30639000000002">
    <ele>289.88</ele>
   </trkpt>
   <trkpt lat="-37.88183" lon="145.30649000000003">
    <ele>296.12000000000006</ele>
   </trkpt>
   <trkpt lat="-37.88105" lon="145.30653">
    <ele>302.29</ele>
   </trkpt>
   <trkpt lat="-37.881" lon="145.30655000000002">
    <ele>302.29</ele>
   </trkpt>
   <trkpt lat="-37.88087" lon="145.30666000000002">
    <ele>303.96</ele>
   </trkpt>
   <trkpt lat="-37.88083" lon="145.30677">
    <ele>305.00000000000006</ele>
   </trkpt>
   <trkpt lat="-37.880860000000006" lon="145.30694000000003">
    <ele>306.37</ele>
   </trkpt>
   <trkpt lat="-37.88089" lon="145.30704">
    <ele>309.98</ele>
   </trkpt>
   <trkpt lat="-37.88109" lon="145.30728000000002">
    <ele>314.83</ele>
   </trkpt>
   <trkpt lat="-37.881190000000004" lon="145.30734">
    <ele>314.83</ele>
   </trkpt>
   <trkpt lat="-37.881640000000004" lon="145.30761">
    <ele>323.26000000000005</ele>
   </trkpt>
   <trkpt lat="-37.88208" lon="145.30768">
    <ele>330.59000000000003</ele>
   </trkpt>
   <trkpt lat="-37.88232" lon="145.30774000000002">
    <ele>330.59000000000003</ele>
   </trkpt>
   <trkpt lat="-37.88268" lon="145.30786">
    <ele>334.70000000000005</ele>
   </trkpt>
   <trkpt lat="-37.88313" lon="145.30817000000002">
    <ele>340.16</ele>
   </trkpt>
   <trkpt lat="-37.88333" lon="145.30835000000002">
    <ele>342.30000000000007</ele>
   </trkpt>
   <trkpt lat="-37.88353" lon="145.3086">
    <ele>343.99</ele>
   </trkpt>
   <trkpt lat="-37.883860000000006" lon="145.30907000000002">
    <ele>347.88</ele>
   </trkpt>
   <trkpt lat="-37.883950000000006" lon="145.30926000000002">
    <ele>347.88</ele>
   </trkpt>
   <trkpt lat="-37.88398" lon="145.3095">
    <ele>351.51000000000005</ele>
   </trkpt>
   <trkpt lat="-37.88398" lon="145.30967">
    <ele>351.93</ele>
   </trkpt>
   <trkpt lat="-37.88391" lon="145.31067000000002">
    <ele>359.76</ele>
   </trkpt>
   <trkpt lat="-37.88394" lon="145.31089">
    <ele>361.21000000000004</ele>
   </trkpt>
   <trkpt lat="-37.884" lon="145.31125">
    <ele>364.86</ele>
   </trkpt>
   <trkpt lat="-37.88412" lon="145.31159000000002">
    <ele>367.84000000000003</ele>
   </trkpt>
   <trkpt lat="-37.88411" lon="145.31158000000002">
    <ele>367.84000000000003</ele>
   </trkpt>
   <trkpt lat="-37.88436000121334" lon="145.31209999837967">
    <ele>372.24</ele>
   </trkpt>
   <trkpt lat="-37.88461" lon="145.31262">
    <ele>375.39000000000004</ele>
   </trkpt>
   <trkpt lat="-37.884640000000005" lon="145.31277">
    <ele>376.25</ele>
   </trkpt>
   <trkpt lat="-37.88429" lon="145.31272">
    <ele>383.47</ele>
   </trkpt>
   <trkpt lat="-37.88414" lon="145.31267000000003">
    <ele>386.43000000000006</ele>
   </trkpt>
   <trkpt lat="-37.88369" lon="145.31236">
    <ele>393.59000000000003</ele>
   </trkpt>
   <trkpt lat="-37.8834" lon="145.31222000000002">
    <ele>398.63000000000005</ele>
   </trkpt>
   <trkpt lat="-37.88308" lon="145.31215">
    <ele>402.4200000000001</ele>
   </trkpt>
   <trkpt lat="-37.882740000000005" lon="145.31214">
    <ele>405.84000000000003</ele>
   </trkpt>
   <trkpt lat="-37.8825" lon="145.31224">
    <ele>406.09</ele>
   </trkpt>
   <trkpt lat="-37.88199" lon="145.31279">
    <ele>404.68</ele>
   </trkpt>
   <trkpt lat="-37.88152" lon="145.31319000000002">
    <ele>408.05</ele>
   </trkpt>
   <trkpt lat="-37.88118" lon="145.31343">
    <ele>411.49</ele>
   </trkpt>
   <trkpt lat="-37.88082" lon="145.31362000000001">
    <ele>415.46000000000004</ele>
   </trkpt>
   <trkpt lat="-37.88049" lon="145.31388">
    <ele>419.28000000000003</ele>
   </trkpt>
   <trkpt lat="-37.88026" lon="145.31401000000002">
    <ele>421.43</ele>
   </trkpt>
   <trkpt lat="-37.88013" lon="145.31401000000002">
    <ele>422.41</ele>
   </trkpt>
   <trkpt lat="-37.88006" lon="145.31393">
    <ele>422.8</ele>
   </trkpt>
   <trkpt lat="-37.87993" lon="145.31385">
    <ele>422.91</ele>
   </trkpt>
   <trkpt lat="-37.87975" lon="145.31393">
    <ele>423.50000000000006</ele>
   </trkpt>
   <trkpt lat="-37.87953" lon="145.31416000000002">
    <ele>423.71000000000004</ele>
   </trkpt>
   <trkpt lat="-37.87941" lon="145.31419000000002">
    <ele>422.66</ele>
   </trkpt>
   <trkpt lat="-37.87928" lon="145.31419000000002">
    <ele>422.02000000000004</ele>
   </trkpt>
   <trkpt lat="-37.87882999993238" lon="145.31413999968586">
    <ele>418.80000000000007</ele>
   </trkpt>
   <trkpt lat="-37.87838" lon="145.31409000000002">
    <ele>413.54</ele>
   </trkpt>
   <trkpt lat="-37.87796" lon="145.31396">
    <ele>408.82</ele>
   </trkpt>
   <trkpt lat="-37.87753" lon="145.31387">
    <ele>404.81000000000006</ele>
   </trkpt>
   <trkpt lat="-37.87729" lon="145.31387">
    <ele>400.28000000000003</ele>
   </trkpt>
   <trkpt lat="-37.87684" lon="145.31383000000002">
    <ele>395.49</ele>
   </trkpt>
   <trkpt lat="-37.87635" lon="145.31387">
    <ele>388.16</ele>
   </trkpt>
   <trkpt lat="-37.87585" lon="145.31401000000002">
    <ele>382.03000000000003</ele>
   </trkpt>
   <trkpt lat="-37.8757" lon="145.31402">
    <ele>382.03000000000003</ele>
   </trkpt>
   <trkpt lat="-37.87532" lon="145.31391000000002">
    <ele>378.66</ele>
   </trkpt>
   <trkpt lat="-37.87489" lon="145.31387">
    <ele>376.02000000000004</ele>
   </trkpt>
   <trkpt lat="-37.87447" lon="145.31404">
    <ele>371.77000000000004</ele>
   </trkpt>
   <trkpt lat="-37.8742" lon="145.31409000000002">
    <ele>369.96</ele>
   </trkpt>
   <trkpt lat="-37.87366" lon="145.31386">
    <ele>368.34000000000003</ele>
   </trkpt>
   <trkpt lat="-37.87344" lon="145.31381000000002">
    <ele>367.78000000000003</ele>
   </trkpt>
   <trkpt lat="-37.87288" lon="145.31377">
    <ele>365.16</ele>
   </trkpt>
   <trkpt lat="-37.872600000000006" lon="145.31367">
    <ele>361.72</ele>
   </trkpt>
   <trkpt lat="-37.872510000000005" lon="145.31359">
    <ele>360.74</ele>
   </trkpt>
   <trkpt lat="-37.8725" lon="145.31358">
    <ele>360.74</ele>
   </trkpt>
   <trkpt lat="-37.87241" lon="145.3135">
    <ele>358.95000000000005</ele>
   </trkpt>
   <trkpt lat="-37.87229" lon="145.31326">
    <ele>358.03000000000003</ele>
   </trkpt>
   <trkpt lat="-37.87227" lon="145.31307">
    <ele>355.52</ele>
   </trkpt>
   <trkpt lat="-37.87229" lon="145.31288">
    <ele>353.87</ele>
   </trkpt>
   <trkpt lat="-37.87254" lon="145.31233">
    <ele>347.83000000000004</ele>
   </trkpt>
   <trkpt lat="-37.87259" lon="145.31212000000002">
    <ele>346.81</ele>
   </trkpt>
   <trkpt lat="-37.87254" lon="145.31198">
    <ele>346.72</ele>
   </trkpt>
   <trkpt lat="-37.87245" lon="145.31188">
    <ele>347.94</ele>
   </trkpt>
   <trkpt lat="-37.87236" lon="145.31185000000002">
    <ele>349.31</ele>
   </trkpt>
   <trkpt lat="-37.87227" lon="145.31188">
    <ele>351.31</ele>
   </trkpt>
   <trkpt lat="-37.87201" lon="145.31204000000002">
    <ele>360.00000000000006</ele>
   </trkpt>
   <trkpt lat="-37.87182" lon="145.31231000000002">
    <ele>369.70000000000005</ele>
   </trkpt>
   <trkpt lat="-37.87174" lon="145.31253">
    <ele>375.98</ele>
   </trkpt>
   <trkpt lat="-37.87165" lon="145.31262">
    <ele>375.98</ele>
   </trkpt>
   <trkpt lat="-37.87133" lon="145.3128">
    <ele>385.53000000000003</ele>
   </trkpt>
   <trkpt lat="-37.87127" lon="145.31286">
    <ele>388.55</ele>
   </trkpt>
   <trkpt lat="-37.87091000185914" lon="145.31352500326963">
    <ele>391.93000000000006</ele>
   </trkpt>
   <trkpt lat="-37.87055" lon="145.31419000000002">
    <ele>386.29</ele>
   </trkpt>
   <trkpt lat="-37.87041" lon="145.31411">
    <ele>384.75</ele>
   </trkpt>
   <trkpt lat="-37.870340000000006" lon="145.31408000000002">
    <ele>383.59000000000003</ele>
   </trkpt>
   <trkpt lat="-37.87026" lon="145.31409000000002">
    <ele>381.56</ele>
   </trkpt>
   <trkpt lat="-37.87017" lon="145.31414">
    <ele>381.56</ele>
   </trkpt>
   <trkpt lat="-37.86997" lon="145.31447">
    <ele>373.13</ele>
   </trkpt>
   <trkpt lat="-37.86988" lon="145.31455000000003">
    <ele>373.13</ele>
   </trkpt>
   <trkpt lat="-37.86972" lon="145.31458">
    <ele>373.13</ele>
   </trkpt>
   <trkpt lat="-37.86956" lon="145.31449">
    <ele>368.1700000000001</ele>
   </trkpt>
   <trkpt lat="-37.869020000000006" lon="145.31414">
    <ele>357.19</ele>
   </trkpt>
   <trkpt lat="-37.86898" lon="145.31477">
    <ele>352.2</ele>
   </trkpt>
   <trkpt lat="-37.868990000000004" lon="145.31497000000002">
    <ele>349.58</ele>
   </trkpt>
   <trkpt lat="-37.869" lon="145.31505">
    <ele>349.58</ele>
   </trkpt>
   <trkpt lat="-37.86896" lon="145.31523">
    <ele>348.18000000000006</ele>
   </trkpt>
   <trkpt lat="-37.86889" lon="145.31538">
    <ele>347.03</ele>
   </trkpt>
   <trkpt lat="-37.86871" lon="145.31564">
    <ele>345.77000000000004</ele>
   </trkpt>
   <trkpt lat="-37.86842" lon="145.31596000000002">
    <ele>343.80000000000007</ele>
   </trkpt>
   <trkpt lat="-37.86811" lon="145.31645">
    <ele>342.34000000000003</ele>
   </trkpt>
   <trkpt lat="-37.86785000209512" lon="145.31716000260528">
    <ele>337.93</ele>
   </trkpt>
   <trkpt lat="-37.86759" lon="145.31787">
    <ele>335.45000000000005</ele>
   </trkpt>
   <trkpt lat="-37.8675" lon="145.31827">
    <ele>334.13000000000005</ele>
   </trkpt>
   <trkpt lat="-37.86741" lon="145.31875000000002">
    <ele>331.77</ele>
   </trkpt>
   <trkpt lat="-37.86744" lon="145.31893000000002">
    <ele>330.65</ele>
   </trkpt>
   <trkpt lat="-37.86762" lon="145.31942">
    <ele>327.68</ele>
   </trkpt>
   <trkpt lat="-37.867810000000006" lon="145.31973000000002">
    <ele>325.31000000000006</ele>
   </trkpt>
   <trkpt lat="-37.86786" lon="145.31989000000002">
    <ele>324.81000000000006</ele>
   </trkpt>
   <trkpt lat="-37.86786" lon="145.31999000000002">
    <ele>324.66</ele>
   </trkpt>
   <trkpt lat="-37.867720000000006" lon="145.32028000000003">
    <ele>324.78000000000003</ele>
   </trkpt>
   <trkpt lat="-37.86737" lon="145.32079000000002">
    <ele>325.74</ele>
   </trkpt>
   <trkpt lat="-37.86712" lon="145.32127">
    <ele>324.71000000000004</ele>
   </trkpt>
   <trkpt lat="-37.86706" lon="145.32158">
    <ele>322.58000000000004</ele>
   </trkpt>
   <trkpt lat="-37.86715" lon="145.32185">
    <ele>321.91</ele>
   </trkpt>
   <trkpt lat="-37.86741" lon="145.32231000000002">
    <ele>316.59000000000003</ele>
   </trkpt>
   <trkpt lat="-37.867805001486104" lon="145.32290999672855">
    <ele>314.48</ele>
   </trkpt>
   <trkpt lat="-37.8682" lon="145.32351">
    <ele>313.02000000000004</ele>
   </trkpt>
   <trkpt lat="-37.868280000000006" lon="145.32366000000002">
    <ele>312.12</ele>
   </trkpt>
   <trkpt lat="-37.86827" lon="145.32377000000002">
    <ele>311.37</ele>
   </trkpt>
   <trkpt lat="-37.868190000000006" lon="145.32392000000002">
    <ele>310.95</ele>
   </trkpt>
   <trkpt lat="-37.86772500170464" lon="145.32454000380716">
    <ele>307.77000000000004</ele>
   </trkpt>
   <trkpt lat="-37.86726" lon="145.32516">
    <ele>303.01</ele>
   </trkpt>
   <trkpt lat="-37.866920001763475" lon="145.32582500327686">
    <ele>298.22</ele>
   </trkpt>
   <trkpt lat="-37.866580000000006" lon="145.32649">
    <ele>290.50000000000006</ele>
   </trkpt>
   <trkpt lat="-37.86652" lon="145.32690000000002">
    <ele>293.55</ele>
   </trkpt>
   <trkpt lat="-37.866510000000005" lon="145.32752000000002">
    <ele>294.48</ele>
   </trkpt>
   <trkpt lat="-37.86641" lon="145.32750000000001">
    <ele>291.52</ele>
   </trkpt>
   <trkpt lat="-37.86634" lon="145.32726000000002">
    <ele>287.85</ele>
   </trkpt>
   <trkpt lat="-37.8663" lon="145.32718">
    <ele>285.95000000000005</ele>
   </trkpt>
   <trkpt lat="-37.86623" lon="145.32717000000002">
    <ele>285.95000000000005</ele>
   </trkpt>
   <trkpt lat="-37.86616" lon="145.32719">
    <ele>285.95000000000005</ele>
   </trkpt>
   <trkpt lat="-37.86596" lon="145.3273">
    <ele>276.81</ele>
   </trkpt>
   <trkpt lat="-37.86589" lon="145.3273">
    <ele>276.81</ele>
   </trkpt>
   <trkpt lat="-37.865610000000004" lon="145.3274">
    <ele>270.89</ele>
   </trkpt>
   <trkpt lat="-37.865" lon="145.32741000000001">
    <ele>252.12</ele>
   </trkpt>
   <trkpt lat="-37.86491" lon="145.32743000000002">
    <ele>251.18</ele>
   </trkpt>
   <trkpt lat="-37.86484" lon="145.32752000000002">
    <ele>248.41000000000003</ele>
   </trkpt>
   <trkpt lat="-37.86471" lon="145.32788000000002">
    <ele>261.0</ele>
   </trkpt>
   <trkpt lat="-37.86462" lon="145.3279">
    <ele>262.19000000000005</ele>
   </trkpt>
   <trkpt lat="-37.86453" lon="145.3279">
    <ele>264.79</ele>
   </trkpt>
   <trkpt lat="-37.86446" lon="145.32787000000002">
    <ele>265.27</ele>
   </trkpt>
   <trkpt lat="-37.8643" lon="145.32765">
    <ele>262.84000000000003</ele>
   </trkpt>
   <trkpt lat="-37.86419" lon="145.32758">
    <ele>262.37000000000006</ele>
   </trkpt>
   <trkpt lat="-37.86401" lon="145.32756">
    <ele>260.77</ele>
   </trkpt>
   <trkpt lat="-37.86321" lon="145.32762000000002">
    <ele>256.19</ele>
   </trkpt>
   <trkpt lat="-37.86267" lon="145.32777000000002">
    <ele>253.82000000000005</ele>
   </trkpt>
   <trkpt lat="-37.86222" lon="145.32782">
    <ele>248.55</ele>
   </trkpt>
   <trkpt lat="-37.86202" lon="145.32789000000002">
    <ele>245.32</ele>
   </trkpt>
   <trkpt lat="-37.861990000000006" lon="145.32794">
    <ele>245.32</ele>
   </trkpt>
   <trkpt lat="-37.86206" lon="145.32807000000003">
    <ele>247.95000000000002</ele>
   </trkpt>
   <trkpt lat="-37.86209" lon="145.32809">
    <ele>247.95000000000002</ele>
   </trkpt>
   <trkpt lat="-37.86218" lon="145.32828">
    <ele>251.89</ele>
   </trkpt>
   <trkpt lat="-37.862370000000006" lon="145.32841000000002">
    <ele>258.12</ele>
   </trkpt>
   <trkpt lat="-37.86242" lon="145.32841000000002">
    <ele>258.12</ele>
   </trkpt>
   <trkpt lat="-37.86247" lon="145.32846">
    <ele>258.12</ele>
   </trkpt>
   <trkpt lat="-37.86252" lon="145.32857">
    <ele>261.42</ele>
   </trkpt>
   <trkpt lat="-37.86256" lon="145.32867000000002">
    <ele>261.93</ele>
   </trkpt>
   <trkpt lat="-37.86265" lon="145.32876000000002">
    <ele>266.23</ele>
   </trkpt>
   <trkpt lat="-37.86269" lon="145.32891">
    <ele>266.23</ele>
   </trkpt>
   <trkpt lat="-37.8628" lon="145.32904000000002">
    <ele>269.91</ele>
   </trkpt>
   <trkpt lat="-37.86287" lon="145.32920000000001">
    <ele>273.19000000000005</ele>
   </trkpt>
   <trkpt lat="-37.86294" lon="145.32931000000002">
    <ele>275.75</ele>
   </trkpt>
   <trkpt lat="-37.86305" lon="145.32935">
    <ele>281.28000000000003</ele>
   </trkpt>
   <trkpt lat="-37.86309" lon="145.32941000000002">
    <ele>282.59</ele>
   </trkpt>
   <trkpt lat="-37.86321" lon="145.32951">
    <ele>286.39000000000004</ele>
   </trkpt>
   <trkpt lat="-37.86325" lon="145.32963">
    <ele>289.13</ele>
   </trkpt>
   <trkpt lat="-37.86332" lon="145.32969">
    <ele>292.28000000000003</ele>
   </trkpt>
   <trkpt lat="-37.863400000000006" lon="145.3298">
    <ele>294.01000000000005</ele>
   </trkpt>
   <trkpt lat="-37.863400000000006" lon="145.32991">
    <ele>303.04</ele>
   </trkpt>
   <trkpt lat="-37.86352" lon="145.3298">
    <ele>303.29</ele>
   </trkpt>
   <trkpt lat="-37.86361" lon="145.32976000000002">
    <ele>303.39000000000004</ele>
   </trkpt>
   <trkpt lat="-37.86403" lon="145.32975000000002">
    <ele>305.03000000000003</ele>
   </trkpt>
   <trkpt lat="-37.86424" lon="145.32978">
    <ele>305.99</ele>
   </trkpt>
   <trkpt lat="-37.86446" lon="145.32988">
    <ele>307.8</ele>
   </trkpt>
   <trkpt lat="-37.86459" lon="145.32996">
    <ele>308.67</ele>
   </trkpt>
   <trkpt lat="-37.86475" lon="145.33010000000002">
    <ele>308.67</ele>
   </trkpt>
   <trkpt lat="-37.8652" lon="145.33063">
    <ele>312.4</ele>
   </trkpt>
   <trkpt lat="-37.86565" lon="145.33109000000002">
    <ele>316.36</ele>
   </trkpt>
   <trkpt lat="-37.86587" lon="145.33126000000001">
    <ele>317.3</ele>
   </trkpt>
   <trkpt lat="-37.86627" lon="145.33148">
    <ele>320.41</ele>
   </trkpt>
   <trkpt lat="-37.86643" lon="145.33152">
    <ele>320.41</ele>
   </trkpt>
   <trkpt lat="-37.86672" lon="145.33155000000002">
    <ele>322.37000000000006</ele>
   </trkpt>
   <trkpt lat="-37.86728" lon="145.33145000000002">
    <ele>326.07</ele>
   </trkpt>
   <trkpt lat="-37.8675" lon="145.33145000000002">
    <ele>327.03000000000003</ele>
   </trkpt>
   <trkpt lat="-37.867720000000006" lon="145.33149">
    <ele>327.88</ele>
   </trkpt>
   <trkpt lat="-37.86815" lon="145.3317">
    <ele>330.15000000000003</ele>
   </trkpt>
   <trkpt lat="-37.86838" lon="145.33186">
    <ele>331.3</ele>
   </trkpt>
   <trkpt lat="-37.86858" lon="145.33205">
    <ele>332.47</ele>
   </trkpt>
   <trkpt lat="-37.868840000000006" lon="145.33249">
    <ele>335.81000000000006</ele>
   </trkpt>
   <trkpt lat="-37.86891" lon="145.33268">
    <ele>335.81000000000006</ele>
   </trkpt>
   <trkpt lat="-37.86896" lon="145.33297000000002">
    <ele>339.03000000000003</ele>
   </trkpt>
   <trkpt lat="-37.86898" lon="145.33324000000002">
    <ele>339.68</ele>
   </trkpt>
   <trkpt lat="-37.868950000000005" lon="145.33355">
    <ele>341.42</ele>
   </trkpt>
   <trkpt lat="-37.86903" lon="145.33386000000002">
    <ele>340.93</ele>
   </trkpt>
   <trkpt lat="-37.86925" lon="145.33411">
    <ele>339.84000000000003</ele>
   </trkpt>
   <trkpt lat="-37.86959" lon="145.33418">
    <ele>339.02000000000004</ele>
   </trkpt>
   <trkpt lat="-37.86992" lon="145.3343">
    <ele>336.35</ele>
   </trkpt>
   <trkpt lat="-37.87022" lon="145.33425000000003">
    <ele>335.16</ele>
   </trkpt>
   <trkpt lat="-37.87024" lon="145.33442000000002">
    <ele>341.30000000000007</ele>
   </trkpt>
   <trkpt lat="-37.87026" lon="145.33449000000002">
    <ele>341.30000000000007</ele>
   </trkpt>
   <trkpt lat="-37.870450000000005" lon="145.33465">
    <ele>351.13000000000005</ele>
   </trkpt>
   <trkpt lat="-37.87055" lon="145.33518">
    <ele>361.6</ele>
   </trkpt>
   <trkpt lat="-37.87035" lon="145.3356">
    <ele>373.97</ele>
   </trkpt>
   <trkpt lat="-37.8701" lon="145.33595000000003">
    <ele>380.81</ele>
   </trkpt>
   <trkpt lat="-37.87001" lon="145.33628000000002">
    <ele>386.33</ele>
   </trkpt>
   <trkpt lat="-37.86983" lon="145.33668">
    <ele>393.33</ele>
   </trkpt>
   <trkpt lat="-37.86968" lon="145.33686">
    <ele>393.95</ele>
   </trkpt>
   <trkpt lat="-37.86927" lon="145.33711000000002">
    <ele>394.16</ele>
   </trkpt>
   <trkpt lat="-37.86914" lon="145.33722">
    <ele>396.15000000000003</ele>
   </trkpt>
   <trkpt lat="-37.86905" lon="145.33726000000001">
    <ele>396.77</ele>
   </trkpt>
   <trkpt lat="-37.86891" lon="145.33724">
    <ele>396.29</ele>
   </trkpt>
   <trkpt lat="-37.8686" lon="145.33698">
    <ele>393.42</ele>
   </trkpt>
   <trkpt lat="-37.86831" lon="145.3368">
    <ele>394.33</ele>
   </trkpt>
   <trkpt lat="-37.86813" lon="145.33664000000002">
    <ele>395.01000000000005</ele>
   </trkpt>
   <trkpt lat="-37.86807" lon="145.33656000000002">
    <ele>395.01000000000005</ele>
   </trkpt>
   <trkpt lat="-37.867900000000006" lon="145.33622000000003">
    <ele>396.17</ele>
   </trkpt>
   <trkpt lat="-37.86762" lon="145.33587">
    <ele>397.42</ele>
   </trkpt>
   <trkpt lat="-37.86753" lon="145.33573">
    <ele>398.07000000000005</ele>
   </trkpt>
   <trkpt lat="-37.86748" lon="145.33566000000002">
    <ele>398.08000000000004</ele>
   </trkpt>
   <trkpt lat="-37.86741" lon="145.33546">
    <ele>399.36</ele>
   </trkpt>
   <trkpt lat="-37.86735" lon="145.33513000000002">
    <ele>400.79</ele>
   </trkpt>
   <trkpt lat="-37.86735" lon="145.33496000000002">
    <ele>401.9800000000001</ele>
   </trkpt>
   <trkpt lat="-37.86744" lon="145.33422000000002">
    <ele>404.93</ele>
   </trkpt>
   <trkpt lat="-37.86741" lon="145.33403">
    <ele>407.58000000000004</ele>
   </trkpt>
   <trkpt lat="-37.86737" lon="145.33386000000002">
    <ele>407.58000000000004</ele>
   </trkpt>
   <trkpt lat="-37.8673" lon="145.33371000000002">
    <ele>409.2</ele>
   </trkpt>
   <trkpt lat="-37.867200000000004" lon="145.33355">
    <ele>409.81</ele>
   </trkpt>
   <trkpt lat="-37.86697" lon="145.33335000000002">
    <ele>407.39000000000004</ele>
   </trkpt>
   <trkpt lat="-37.86634" lon="145.33317000000002">
    <ele>403.71</ele>
   </trkpt>
   <trkpt lat="-37.86568000015063" lon="145.33300499853112">
    <ele>398.05</ele>
   </trkpt>
   <trkpt lat="-37.86502" lon="145.33284">
    <ele>392.93000000000006</ele>
   </trkpt>
   <trkpt lat="-37.86491" lon="145.33285">
    <ele>392.93000000000006</ele>
   </trkpt>
   <trkpt lat="-37.86482" lon="145.33287">
    <ele>391.96000000000004</ele>
   </trkpt>
   <trkpt lat="-37.86473" lon="145.33291">
    <ele>391.96000000000004</ele>
   </trkpt>
   <trkpt lat="-37.86464" lon="145.333">
    <ele>391.04</ele>
   </trkpt>
   <trkpt lat="-37.86451" lon="145.3332">
    <ele>389.38000000000005</ele>
   </trkpt>
   <trkpt lat="-37.86475" lon="145.33338">
    <ele>398.66</ele>
   </trkpt>
   <trkpt lat="-37.86493" lon="145.33347">
    <ele>405.4200000000001</ele>
   </trkpt>
   <trkpt lat="-37.86529" lon="145.33396000000002">
    <ele>417.05</ele>
   </trkpt>
   <trkpt lat="-37.8656" lon="145.33411">
    <ele>422.83000000000004</ele>
   </trkpt>
   <trkpt lat="-37.86576" lon="145.33428">
    <ele>425.81</ele>
   </trkpt>
   <trkpt lat="-37.86581500171866" lon="145.3349149996823">
    <ele>424.47</ele>
   </trkpt>
   <trkpt lat="-37.86587" lon="145.33555">
    <ele>420.35</ele>
   </trkpt>
   <trkpt lat="-37.86583" lon="145.33618">
    <ele>417.36</ele>
   </trkpt>
   <trkpt lat="-37.86562" lon="145.33726000000001">
    <ele>416.41</ele>
   </trkpt>
   <trkpt lat="-37.865465001196924" lon="145.3377950011717">
    <ele>416.04</ele>
   </trkpt>
   <trkpt lat="-37.86531" lon="145.33833">
    <ele>416.33000000000004</ele>
   </trkpt>
   <trkpt lat="-37.86506" lon="145.33889000000002">
    <ele>418.83000000000004</ele>
   </trkpt>
   <trkpt lat="-37.86495" lon="145.33935000000002">
    <ele>420.82</ele>
   </trkpt>
   <trkpt lat="-37.86486" lon="145.33964">
    <ele>421.32</ele>
   </trkpt>
   <trkpt lat="-37.86475" lon="145.33980000000003">
    <ele>422.84000000000003</ele>
   </trkpt>
   <trkpt lat="-37.86464" lon="145.33988000000002">
    <ele>425.69</ele>
   </trkpt>
   <trkpt lat="-37.8645" lon="145.33989000000003">
    <ele>426.96000000000004</ele>
   </trkpt>
   <trkpt lat="-37.8641" lon="145.33975">
    <ele>429.78000000000003</ele>
   </trkpt>
   <trkpt lat="-37.863780000000006" lon="145.33974">
    <ele>431.57</ele>
   </trkpt>
   <trkpt lat="-37.86354" lon="145.33979000000002">
    <ele>433.97</ele>
   </trkpt>
   <trkpt lat="-37.86318" lon="145.33996000000002">
    <ele>437.61000000000007</ele>
   </trkpt>
   <trkpt lat="-37.86307" lon="145.34006000000002">
    <ele>437.61000000000007</ele>
   </trkpt>
   <trkpt lat="-37.863060000000004" lon="145.34006000000002">
    <ele>437.64000000000004</ele>
   </trkpt>
   <trkpt lat="-37.862860000000005" lon="145.34025000000003">
    <ele>438.71000000000004</ele>
   </trkpt>
   <trkpt lat="-37.863360001222716" lon="145.34078999632519">
    <ele>454.77000000000004</ele>
   </trkpt>
   <trkpt lat="-37.86386" lon="145.34133">
    <ele>473.06</ele>
   </trkpt>
   <trkpt lat="-37.86406" lon="145.34144">
    <ele>477.35</ele>
   </trkpt>
   <trkpt lat="-37.86433" lon="145.34163">
    <ele>481.01000000000005</ele>
   </trkpt>
   <trkpt lat="-37.86457" lon="145.34162">
    <ele>482.54</ele>
   </trkpt>
   <trkpt lat="-37.86515" lon="145.3418">
    <ele>482.29</ele>
   </trkpt>
   <trkpt lat="-37.86567" lon="145.3417">
    <ele>481.57000000000005</ele>
   </trkpt>
   <trkpt lat="-37.86571" lon="145.34146">
    <ele>480.62000000000006</ele>
   </trkpt>
   <trkpt lat="-37.8658" lon="145.34115">
    <ele>478.84000000000003</ele>
   </trkpt>
   <trkpt lat="-37.86592" lon="145.34042000000002">
    <ele>469.54</ele>
   </trkpt>
   <trkpt lat="-37.866" lon="145.33999">
    <ele>466.86000000000007</ele>
   </trkpt>
   <trkpt lat="-37.86612" lon="145.33962000000002">
    <ele>464.46000000000004</ele>
   </trkpt>
   <trkpt lat="-37.86639" lon="145.33861000000002">
    <ele>453.70000000000005</ele>
   </trkpt>
   <trkpt lat="-37.86647" lon="145.33834000000002">
    <ele>452.82000000000005</ele>
   </trkpt>
   <trkpt lat="-37.86652" lon="145.33824">
    <ele>451.11</ele>
   </trkpt>
   <trkpt lat="-37.86663" lon="145.33813">
    <ele>449.32000000000005</ele>
   </trkpt>
   <trkpt lat="-37.8667" lon="145.33810000000003">
    <ele>449.32000000000005</ele>
   </trkpt>
   <trkpt lat="-37.86679" lon="145.33809000000002">
    <ele>448.33000000000004</ele>
   </trkpt>
   <trkpt lat="-37.867250000000006" lon="145.33818000000002">
    <ele>442.13</ele>
   </trkpt>
   <trkpt lat="-37.86755" lon="145.33847">
    <ele>442.40000000000003</ele>
   </trkpt>
   <trkpt lat="-37.86771" lon="145.33857">
    <ele>443.44000000000005</ele>
   </trkpt>
   <trkpt lat="-37.86786" lon="145.33862000000002">
    <ele>444.55000000000007</ele>
   </trkpt>
   <trkpt lat="-37.86822" lon="145.33868">
    <ele>448.6</ele>
   </trkpt>
   <trkpt lat="-37.86849" lon="145.33881000000002">
    <ele>450.29</ele>
   </trkpt>
   <trkpt lat="-37.86891" lon="145.33893">
    <ele>454.6</ele>
   </trkpt>
   <trkpt lat="-37.86918" lon="145.33896000000001">
    <ele>456.19000000000005</ele>
   </trkpt>
   <trkpt lat="-37.86961" lon="145.33892">
    <ele>459.11</ele>
   </trkpt>
   <trkpt lat="-37.86961" lon="145.33891">
    <ele>459.13000000000005</ele>
   </trkpt>
   <trkpt lat="-37.8701" lon="145.33884">
    <ele>460.3</ele>
   </trkpt>
   <trkpt lat="-37.87019" lon="145.33884">
    <ele>460.3</ele>
   </trkpt>
   <trkpt lat="-37.87026" lon="145.33888000000002">
    <ele>460.41</ele>
   </trkpt>
   <trkpt lat="-37.87035" lon="145.33879000000002">
    <ele>457.66</ele>
   </trkpt>
   <trkpt lat="-37.87046" lon="145.33875">
    <ele>455.15000000000003</ele>
   </trkpt>
   <trkpt lat="-37.87059" lon="145.33873">
    <ele>452.05000000000007</ele>
   </trkpt>
   <trkpt lat="-37.87075" lon="145.33874">
    <ele>449.98</ele>
   </trkpt>
   <trkpt lat="-37.87078" lon="145.33871000000002">
    <ele>449.98</ele>
   </trkpt>
   <trkpt lat="-37.87088" lon="145.33873">
    <ele>449.16</ele>
   </trkpt>
   <trkpt lat="-37.87115" lon="145.33883">
    <ele>448.07</ele>
   </trkpt>
   <trkpt lat="-37.871190000000006" lon="145.33881000000002">
    <ele>447.91</ele>
   </trkpt>
   <trkpt lat="-37.8712" lon="145.33881000000002">
    <ele>447.89</ele>
   </trkpt>
   <trkpt lat="-37.87135" lon="145.33871000000002">
    <ele>446.50000000000006</ele>
   </trkpt>
   <trkpt lat="-37.87154" lon="145.33861000000002">
    <ele>443.6</ele>
   </trkpt>
   <trkpt lat="-37.871550000000006" lon="145.3386">
    <ele>443.69</ele>
   </trkpt>
   <trkpt lat="-37.872130000000006" lon="145.33862000000002">
    <ele>445.57</ele>
   </trkpt>
   <trkpt lat="-37.87247" lon="145.33909">
    <ele>458.25000000000006</ele>
   </trkpt>
   <trkpt lat="-37.872960000000006" lon="145.33874">
    <ele>477.81</ele>
   </trkpt>
   <trkpt lat="-37.872980000000005" lon="145.33873">
    <ele>460.88</ele>
   </trkpt>
   <trkpt lat="-37.87299" lon="145.33862000000002">
    <ele>459.44</ele>
   </trkpt>
   <trkpt lat="-37.87360500007391" lon="145.33853500070362">
    <ele>488.14</ele>
   </trkpt>
   <trkpt lat="-37.87422" lon="145.33845000000002">
    <ele>489.92</ele>
   </trkpt>
   <trkpt lat="-37.874210000000005" lon="145.33841">
    <ele>489.92</ele>
   </trkpt>
   <trkpt lat="-37.874210000000005" lon="145.33842">
    <ele>497.35</ele>
   </trkpt>
   <trkpt lat="-37.874210000000005" lon="145.33816000000002">
    <ele>498.64000000000004</ele>
   </trkpt>
   <trkpt lat="-37.874210000000005" lon="145.33818000000002">
    <ele>498.58000000000004</ele>
   </trkpt>
   <trkpt lat="-37.8742" lon="145.33787">
    <ele>499.84000000000003</ele>
   </trkpt>
   <trkpt lat="-37.87417000000001" lon="145.33772000000002">
    <ele>499.89000000000004</ele>
   </trkpt>
   <trkpt lat="-37.87418" lon="145.33772000000002">
    <ele>493.93</ele>
   </trkpt>
   <trkpt lat="-37.874010000000006" lon="145.33712">
    <ele>497.12000000000006</ele>
   </trkpt>
   <trkpt lat="-37.87395" lon="145.33692000000002">
    <ele>492.25</ele>
   </trkpt>
   <trkpt lat="-37.87391" lon="145.33668">
    <ele>487.74000000000007</ele>
   </trkpt>
   <trkpt lat="-37.87393" lon="145.33620000000002">
    <ele>484.69000000000005</ele>
   </trkpt>
   <trkpt lat="-37.87406" lon="145.33561">
    <ele>479.11</ele>
   </trkpt>
   <trkpt lat="-37.87414000145162" lon="145.33503000041983">
    <ele>474.28000000000003</ele>
   </trkpt>
   <trkpt lat="-37.87422" lon="145.33445">
    <ele>470.07000000000005</ele>
   </trkpt>
   <trkpt lat="-37.87442500199419" lon="145.33376500187345">
    <ele>465.24</ele>
   </trkpt>
   <trkpt lat="-37.87463" lon="145.33308000000002">
    <ele>458.52000000000004</ele>
   </trkpt>
   <trkpt lat="-37.87489" lon="145.33247">
    <ele>451.63</ele>
   </trkpt>
   <trkpt lat="-37.87534" lon="145.33156000000002">
    <ele>438.97</ele>
   </trkpt>
   <trkpt lat="-37.87543" lon="145.33131">
    <ele>436.9</ele>
   </trkpt>
   <trkpt lat="-37.87545" lon="145.33118000000002">
    <ele>436.28000000000003</ele>
   </trkpt>
   <trkpt lat="-37.87543" lon="145.33104">
    <ele>436.11000000000007</ele>
   </trkpt>
   <trkpt lat="-37.87514" lon="145.33068">
    <ele>436.06000000000006</ele>
   </trkpt>
   <trkpt lat="-37.87491" lon="145.33029000000002">
    <ele>436.35</ele>
   </trkpt>
   <trkpt lat="-37.8748" lon="145.32998">
    <ele>436.29</ele>
   </trkpt>
   <trkpt lat="-37.87469" lon="145.32956000000001">
    <ele>437.29</ele>
   </trkpt>
   <trkpt lat="-37.87456" lon="145.32923000000002">
    <ele>439.63</ele>
   </trkpt>
   <trkpt lat="-37.87435" lon="145.32887000000002">
    <ele>443.57</ele>
   </trkpt>
   <trkpt lat="-37.87382" lon="145.32833000000002">
    <ele>449.40000000000003</ele>
   </trkpt>
   <trkpt lat="-37.87375" lon="145.3282">
    <ele>450.96000000000004</ele>
   </trkpt>
   <trkpt lat="-37.87368" lon="145.32803">
    <ele>453.36</ele>
   </trkpt>
   <trkpt lat="-37.87366" lon="145.32778000000002">
    <ele>459.14000000000004</ele>
   </trkpt>
   <trkpt lat="-37.87359" lon="145.32762000000002">
    <ele>462.1</ele>
   </trkpt>
   <trkpt lat="-37.87315500148315" lon="145.32701999640304">
    <ele>469.44</ele>
   </trkpt>
   <trkpt lat="-37.87272" lon="145.32642">
    <ele>477.6</ele>
   </trkpt>
   <trkpt lat="-37.87261" lon="145.32628000000003">
    <ele>478.93</ele>
   </trkpt>
   <trkpt lat="-37.87238" lon="145.32607000000002">
    <ele>480.69000000000005</ele>
   </trkpt>
   <trkpt lat="-37.87182" lon="145.3257">
    <ele>481.65000000000003</ele>
   </trkpt>
   <trkpt lat="-37.87171" lon="145.32548">
    <ele>482.14</ele>
   </trkpt>
   <trkpt lat="-37.87174" lon="145.32545000000002">
    <ele>482.33000000000004</ele>
   </trkpt>
   <trkpt lat="-37.87198" lon="145.32489">
    <ele>483.54</ele>
   </trkpt>
   <trkpt lat="-37.87245" lon="145.32441">
    <ele>484.03000000000003</ele>
   </trkpt>
   <trkpt lat="-37.87268" lon="145.32410000000002">
    <ele>482.06000000000006</ele>
   </trkpt>
   <trkpt lat="-37.87272" lon="145.32376000000002">
    <ele>476.74000000000007</ele>
   </trkpt>
   <trkpt lat="-37.87263" lon="145.32314000000002">
    <ele>472.96000000000004</ele>
   </trkpt>
   <trkpt lat="-37.87261" lon="145.32275">
    <ele>473.27000000000004</ele>
   </trkpt>
   <trkpt lat="-37.87256" lon="145.32222000000002">
    <ele>478.02000000000004</ele>
   </trkpt>
   <trkpt lat="-37.87259" lon="145.32189000000002">
    <ele>483.57000000000005</ele>
   </trkpt>
   <trkpt lat="-37.87272" lon="145.32133000000002">
    <ele>492.17</ele>
   </trkpt>
   <trkpt lat="-37.87272" lon="145.32123">
    <ele>494.05</ele>
   </trkpt>
   <trkpt lat="-37.87261" lon="145.32053000000002">
    <ele>504.75</ele>
   </trkpt>
   <trkpt lat="-37.872690000000006" lon="145.31993">
    <ele>512.71</ele>
   </trkpt>
   <trkpt lat="-37.872690000000006" lon="145.31992000000002">
    <ele>512.7700000000001</ele>
   </trkpt>
   <trkpt lat="-37.87272" lon="145.31971000000001">
    <ele>513.82</ele>
   </trkpt>
   <trkpt lat="-37.87275" lon="145.31964000000002">
    <ele>513.84</ele>
   </trkpt>
   <trkpt lat="-37.87303" lon="145.31965000000002">
    <ele>512.07</ele>
   </trkpt>
   <trkpt lat="-37.87328" lon="145.3197">
    <ele>510.50000000000006</ele>
   </trkpt>
   <trkpt lat="-37.87355" lon="145.31979">
    <ele>508.28000000000003</ele>
   </trkpt>
   <trkpt lat="-37.874" lon="145.32000000000002">
    <ele>503.51</ele>
   </trkpt>
   <trkpt lat="-37.87415" lon="145.32003">
    <ele>497.66</ele>
   </trkpt>
   <trkpt lat="-37.87442" lon="145.32003">
    <ele>497.66</ele>
   </trkpt>
   <trkpt lat="-37.87473" lon="145.32017000000002">
    <ele>493.2</ele>
   </trkpt>
   <trkpt lat="-37.87491" lon="145.3202">
    <ele>491.84000000000003</ele>
   </trkpt>
   <trkpt lat="-37.874970000000005" lon="145.32116000000002">
    <ele>488.77000000000004</ele>
   </trkpt>
   <trkpt lat="-37.87518" lon="145.32162000000002">
    <ele>490.09000000000003</ele>
   </trkpt>
   <trkpt lat="-37.87534" lon="145.32181">
    <ele>491.49</ele>
   </trkpt>
   <trkpt lat="-37.87541" lon="145.32191">
    <ele>491.49</ele>
   </trkpt>
   <trkpt lat="-37.87566" lon="145.32217">
    <ele>493.34000000000003</ele>
   </trkpt>
   <trkpt lat="-37.876205000213425" lon="145.32235499865456">
    <ele>493.74000000000007</ele>
   </trkpt>
   <trkpt lat="-37.87675" lon="145.32254">
    <ele>491.74000000000007</ele>
   </trkpt>
   <trkpt lat="-37.877" lon="145.32270000000003">
    <ele>493.25</ele>
   </trkpt>
   <trkpt lat="-37.87783" lon="145.32313000000002">
    <ele>496.00000000000006</ele>
   </trkpt>
   <trkpt lat="-37.8782" lon="145.32342">
    <ele>495.42</ele>
   </trkpt>
   <trkpt lat="-37.8787" lon="145.32406">
    <ele>496.40000000000003</ele>
   </trkpt>
   <trkpt lat="-37.87894" lon="145.32432">
    <ele>497.37</ele>
   </trkpt>
   <trkpt lat="-37.87932" lon="145.32488">
    <ele>495.46000000000004</ele>
   </trkpt>
   <trkpt lat="-37.87993" lon="145.32551">
    <ele>490.7</ele>
   </trkpt>
   <trkpt lat="-37.88067" lon="145.32611">
    <ele>482.88</ele>
   </trkpt>
   <trkpt lat="-37.88132" lon="145.32653000000002">
    <ele>476.98</ele>
   </trkpt>
   <trkpt lat="-37.88172" lon="145.32688000000002">
    <ele>471.9200000000001</ele>
   </trkpt>
   <trkpt lat="-37.88181" lon="145.32698000000002">
    <ele>470.76</ele>
   </trkpt>
   <trkpt lat="-37.88201" lon="145.32736">
    <ele>468.80000000000007</ele>
   </trkpt>
   <trkpt lat="-37.88223" lon="145.32806000000002">
    <ele>462.85</ele>
   </trkpt>
   <trkpt lat="-37.88241" lon="145.32832000000002">
    <ele>458.75000000000006</ele>
   </trkpt>
   <trkpt lat="-37.88264" lon="145.32853">
    <ele>452.3</ele>
   </trkpt>
   <trkpt lat="-37.88284" lon="145.32863">
    <ele>447.20000000000005</ele>
   </trkpt>
   <trkpt lat="-37.88311" lon="145.32864">
    <ele>443.1</ele>
   </trkpt>
   <trkpt lat="-37.88342" lon="145.32859000000002">
    <ele>436.8</ele>
   </trkpt>
   <trkpt lat="-37.88378" lon="145.32857">
    <ele>433.46</ele>
   </trkpt>
   <trkpt lat="-37.88407" lon="145.32862">
    <ele>427.74</ele>
   </trkpt>
   <trkpt lat="-37.88447" lon="145.32879">
    <ele>421.34000000000003</ele>
   </trkpt>
   <trkpt lat="-37.88499" lon="145.32899">
    <ele>409.02000000000004</ele>
   </trkpt>
   <trkpt lat="-37.88555" lon="145.32899">
    <ele>400.07000000000005</ele>
   </trkpt>
   <trkpt lat="-37.88584" lon="145.32891">
    <ele>393.25000000000006</ele>
   </trkpt>
   <trkpt lat="-37.88604" lon="145.32873">
    <ele>386.64000000000004</ele>
   </trkpt>
   <trkpt lat="-37.88624" lon="145.32841000000002">
    <ele>381.77000000000004</ele>
   </trkpt>
   <trkpt lat="-37.886390000000006" lon="145.32833000000002">
    <ele>380.51</ele>
   </trkpt>
   <trkpt lat="-37.88638" lon="145.32786000000002">
    <ele>377.07</ele>
   </trkpt>
   <trkpt lat="-37.88633" lon="145.32777000000002">
    <ele>376.63</ele>
   </trkpt>
   <trkpt lat="-37.88624" lon="145.32741000000001">
    <ele>374.95</ele>
   </trkpt>
   <trkpt lat="-37.886190000000006" lon="145.32696">
    <ele>374.01</ele>
   </trkpt>
   <trkpt lat="-37.88608" lon="145.32707000000002">
    <ele>372.3</ele>
   </trkpt>
   <trkpt lat="-37.8857" lon="145.3273">
    <ele>367.16</ele>
   </trkpt>
   <trkpt lat="-37.88559" lon="145.32723000000001">
    <ele>366.69</ele>
   </trkpt>
   <trkpt lat="-37.88555" lon="145.32716000000002">
    <ele>365.65000000000003</ele>
   </trkpt>
   <trkpt lat="-37.88546" lon="145.32689000000002">
    <ele>362.07</ele>
   </trkpt>
   <trkpt lat="-37.88539" lon="145.32682">
    <ele>362.07</ele>
   </trkpt>
   <trkpt lat="-37.88532" lon="145.32677">
    <ele>360.43</ele>
   </trkpt>
   <trkpt lat="-37.88517" lon="145.32679000000002">
    <ele>357.25</ele>
   </trkpt>
   <trkpt lat="-37.8851" lon="145.32674">
    <ele>357.25</ele>
   </trkpt>
   <trkpt lat="-37.88503" lon="145.32657">
    <ele>356.06000000000006</ele>
   </trkpt>
   <trkpt lat="-37.88501" lon="145.32641">
    <ele>353.55</ele>
   </trkpt>
   <trkpt lat="-37.88481" lon="145.32615">
    <ele>351.46999999999997</ele>
   </trkpt>
   <trkpt lat="-37.88472" lon="145.32611">
    <ele>349.34000000000003</ele>
   </trkpt>
   <trkpt lat="-37.8847" lon="145.32606">
    <ele>349.34000000000003</ele>
   </trkpt>
   <trkpt lat="-37.88467" lon="145.32594">
    <ele>348.36</ele>
   </trkpt>
   <trkpt lat="-37.88472" lon="145.32581000000002">
    <ele>346.39000000000004</ele>
   </trkpt>
   <trkpt lat="-37.88483" lon="145.32566">
    <ele>344.02000000000004</ele>
   </trkpt>
   <trkpt lat="-37.8849" lon="145.32534">
    <ele>340.26</ele>
   </trkpt>
   <trkpt lat="-37.88494" lon="145.32504">
    <ele>336.13000000000005</ele>
   </trkpt>
   <trkpt lat="-37.88494" lon="145.32475000000002">
    <ele>331.70000000000005</ele>
   </trkpt>
   <trkpt lat="-37.8849" lon="145.32459">
    <ele>331.70000000000005</ele>
   </trkpt>
   <trkpt lat="-37.88481" lon="145.32436">
    <ele>327.82</ele>
   </trkpt>
   <trkpt lat="-37.88481" lon="145.32417">
    <ele>325.05</ele>
   </trkpt>
   <trkpt lat="-37.88483" lon="145.32404000000002">
    <ele>323.97</ele>
   </trkpt>
   <trkpt lat="-37.88481" lon="145.32355">
    <ele>312.38000000000005</ele>
   </trkpt>
   <trkpt lat="-37.88485" lon="145.32347000000001">
    <ele>311.67</ele>
   </trkpt>
   <trkpt lat="-37.88485" lon="145.32346">
    <ele>311.64000000000004</ele>
   </trkpt>
   <trkpt lat="-37.8849" lon="145.32336">
    <ele>309.73</ele>
   </trkpt>
   <trkpt lat="-37.88488" lon="145.32315">
    <ele>306.84</ele>
   </trkpt>
   <trkpt lat="-37.88479" lon="145.32282">
    <ele>301.98</ele>
   </trkpt>
   <trkpt lat="-37.88456" lon="145.32247">
    <ele>298.24</ele>
   </trkpt>
   <trkpt lat="-37.88447" lon="145.32227">
    <ele>296.84000000000003</ele>
   </trkpt>
   <trkpt lat="-37.88443" lon="145.32186000000002">
    <ele>292.91</ele>
   </trkpt>
   <trkpt lat="-37.88432" lon="145.32141000000001">
    <ele>286.24000000000007</ele>
   </trkpt>
   <trkpt lat="-37.88423" lon="145.32127">
    <ele>285.03</ele>
   </trkpt>
   <trkpt lat="-37.88416" lon="145.3211">
    <ele>283.15000000000003</ele>
   </trkpt>
   <trkpt lat="-37.88416" lon="145.32099000000002">
    <ele>280.55</ele>
   </trkpt>
   <trkpt lat="-37.88425" lon="145.32069">
    <ele>278.76</ele>
   </trkpt>
   <trkpt lat="-37.88429" lon="145.32048">
    <ele>276.13000000000005</ele>
   </trkpt>
   <trkpt lat="-37.88425" lon="145.3202">
    <ele>273.3</ele>
   </trkpt>
   <trkpt lat="-37.88416" lon="145.31998000000002">
    <ele>271.55</ele>
   </trkpt>
   <trkpt lat="-37.88416" lon="145.31972000000002">
    <ele>270.01000000000005</ele>
   </trkpt>
   <trkpt lat="-37.88409" lon="145.31915">
    <ele>263.12</ele>
   </trkpt>
   <trkpt lat="-37.884" lon="145.31884000000002">
    <ele>260.95</ele>
   </trkpt>
   <trkpt lat="-37.88378" lon="145.31852">
    <ele>258.09000000000003</ele>
   </trkpt>
   <trkpt lat="-37.88373" lon="145.31835">
    <ele>256.17</ele>
   </trkpt>
   <trkpt lat="-37.88396" lon="145.31833">
    <ele>252.81000000000003</ele>
   </trkpt>
   <trkpt lat="-37.88429" lon="145.31839000000002">
    <ele>248.91000000000003</ele>
   </trkpt>
   <trkpt lat="-37.88477" lon="145.31835">
    <ele>239.72</ele>
   </trkpt>
   <trkpt lat="-37.88528" lon="145.31820000000002">
    <ele>231.69</ele>
   </trkpt>
   <trkpt lat="-37.88555" lon="145.31807">
    <ele>228.69000000000003</ele>
   </trkpt>
   <trkpt lat="-37.88611" lon="145.31784000000002">
    <ele>225.13000000000002</ele>
   </trkpt>
   <trkpt lat="-37.88669" lon="145.31744">
    <ele>225.09</ele>
   </trkpt>
   <trkpt lat="-37.886880000000005" lon="145.31755">
    <ele>222.56</ele>
   </trkpt>
   <trkpt lat="-37.88712" lon="145.31764">
    <ele>219.26000000000002</ele>
   </trkpt>
   <trkpt lat="-37.88725" lon="145.31765000000001">
    <ele>219.26000000000002</ele>
   </trkpt>
   <trkpt lat="-37.88761" lon="145.31761">
    <ele>213.50000000000003</ele>
   </trkpt>
   <trkpt lat="-37.88783" lon="145.31755">
    <ele>211.6</ele>
   </trkpt>
   <trkpt lat="-37.88799" lon="145.31761">
    <ele>209.52</ele>
   </trkpt>
   <trkpt lat="-37.88817" lon="145.31758000000002">
    <ele>207.89000000000001</ele>
   </trkpt>
   <trkpt lat="-37.88839" lon="145.31764">
    <ele>205.59000000000003</ele>
   </trkpt>
   <trkpt lat="-37.88846" lon="145.31753">
    <ele>204.58</ele>
   </trkpt>
   <trkpt lat="-37.88866" lon="145.31772">
    <ele>201.58</ele>
   </trkpt>
   <trkpt lat="-37.88929" lon="145.31777000000002">
    <ele>195.39000000000001</ele>
   </trkpt>
   <trkpt lat="-37.889410000000005" lon="145.31771">
    <ele>193.94000000000003</ele>
   </trkpt>
   <trkpt lat="-37.88962" lon="145.31768000000002">
    <ele>191.51000000000002</ele>
   </trkpt>
   <trkpt lat="-37.88973" lon="145.31761">
    <ele>190.11</ele>
   </trkpt>
   <trkpt lat="-37.88978" lon="145.31753">
    <ele>189.26000000000002</ele>
   </trkpt>
   <trkpt lat="-37.889920000000004" lon="145.31748000000002">
    <ele>188.10000000000002</ele>
   </trkpt>
   <trkpt lat="-37.890280000000004" lon="145.31739000000002">
    <ele>183.55</ele>
   </trkpt>
   <trkpt lat="-37.89043" lon="145.31745">
    <ele>182.4</ele>
   </trkpt>
   <trkpt lat="-37.89049" lon="145.31752">
    <ele>181.67000000000002</ele>
   </trkpt>
   <trkpt lat="-37.89058" lon="145.31753">
    <ele>181.25000000000003</ele>
   </trkpt>
   <trkpt lat="-37.89067" lon="145.31745">
    <ele>179.89000000000001</ele>
   </trkpt>
   <trkpt lat="-37.89074" lon="145.31744">
    <ele>178.94000000000003</ele>
   </trkpt>
   <trkpt lat="-37.890950000000004" lon="145.31733">
    <ele>176.66</ele>
   </trkpt>
  </trkseg>
 </trk>
</gpx>
