<?xml version="1.0" encoding="UTF-8"?>
<gpx creator="StravaGPX" version="1.1" xmlns="http://www.topografix.com/GPX/1/1" xmlns:xsi="http://www.w3.org/2001/XMLSchema-instance" xsi:schemaLocation="http://www.topografix.com/GPX/1/1 http://www.topografix.com/GPX/1/1/gpx.xsd">
 <metadata>
  <name>28th July 14k</name>
  <author>
   <name>john csorgo</name>
  </author>
  <copyright author="OpenStreetMap contributors">
   <year>2020</year>
   <license>https://www.openstreetmap.org/copyright</license>
  </copyright>
 </metadata>
 <trk>
  <name>28th July 14k</name>
  <link href=""/>
  <type>trail_running</type>
  <trkseg>
   <trkpt lat="-37.81743" lon="145.37927000000002">
    <ele>427.56000000000006</ele>
   </trkpt>
   <trkpt lat="-37.817550000000004" lon="145.37901000000002">
    <ele>431.72</ele>
   </trkpt>
   <trkpt lat="-37.81761" lon="145.37903">
    <ele>431.72</ele>
   </trkpt>
   <trkpt lat="-37.81772" lon="145.37898">
    <ele>425.44000000000005</ele>
   </trkpt>
   <trkpt lat="-37.81803" lon="145.37981000000002">
    <ele>425.14</ele>
   </trkpt>
   <trkpt lat="-37.81808" lon="145.38009000000002">
    <ele>424.42</ele>
   </trkpt>
   <trkpt lat="-37.81803" lon="145.38037">
    <ele>423.64</ele>
   </trkpt>
   <trkpt lat="-37.8183" lon="145.3804">
    <ele>422.96000000000004</ele>
   </trkpt>
   <trkpt lat="-37.8185" lon="145.38038">
    <ele>422.64</ele>
   </trkpt>
   <trkpt lat="-37.81879" lon="145.38031">
    <ele>422.50000000000006</ele>
   </trkpt>
   <trkpt lat="-37.81908" lon="145.38014">
    <ele>421.91</ele>
   </trkpt>
   <trkpt lat="-37.81915" lon="145.38008000000002">
    <ele>421.74000000000007</ele>
   </trkpt>
   <trkpt lat="-37.819210000000005" lon="145.37997000000001">
    <ele>421.19</ele>
   </trkpt>
   <trkpt lat="-37.81922" lon="145.37983">
    <ele>420.71000000000004</ele>
   </trkpt>
   <trkpt lat="-37.8192" lon="145.37965">
    <ele>419.31</ele>
   </trkpt>
   <trkpt lat="-37.818920000000006" lon="145.37861">
    <ele>415.11</ele>
   </trkpt>
   <trkpt lat="-37.81886" lon="145.37830000000002">
    <ele>414.83000000000004</ele>
   </trkpt>
   <trkpt lat="-37.81879250926805" lon="145.37744499762937">
    <ele>412.5</ele>
   </trkpt>
   <trkpt lat="-37.81872501235605" lon="145.3765899968223">
    <ele>409.87</ele>
   </trkpt>
   <trkpt lat="-37.81865750926405" lon="145.37573499757892">
    <ele>409.64000000000004</ele>
   </trkpt>
   <trkpt lat="-37.81859" lon="145.37488000000002">
    <ele>411.84000000000003</ele>
   </trkpt>
   <trkpt lat="-37.81873500262752" lon="145.37409000160918">
    <ele>412.74000000000007</ele>
   </trkpt>
   <trkpt lat="-37.81888" lon="145.3733">
    <ele>409.29</ele>
   </trkpt>
   <trkpt lat="-37.81877" lon="145.37244">
    <ele>407.15</ele>
   </trkpt>
   <trkpt lat="-37.81868" lon="145.37210000000002">
    <ele>408.89000000000004</ele>
   </trkpt>
   <trkpt lat="-37.818450000000006" lon="145.37159000000003">
    <ele>410.87</ele>
   </trkpt>
   <trkpt lat="-37.81819" lon="145.37114000000003">
    <ele>415.88</ele>
   </trkpt>
   <trkpt lat="-37.81821" lon="145.3708">
    <ele>417.80000000000007</ele>
   </trkpt>
   <trkpt lat="-37.81792" lon="145.36999">
    <ele>430.48</ele>
   </trkpt>
   <trkpt lat="-37.81792" lon="145.36966">
    <ele>431.38000000000005</ele>
   </trkpt>
   <trkpt lat="-37.81826" lon="145.36899000000003">
    <ele>424.15000000000003</ele>
   </trkpt>
   <trkpt lat="-37.81837" lon="145.36887000000002">
    <ele>422.25</ele>
   </trkpt>
   <trkpt lat="-37.81873" lon="145.36886">
    <ele>421.00000000000006</ele>
   </trkpt>
   <trkpt lat="-37.81897" lon="145.36854000000002">
    <ele>422.47</ele>
   </trkpt>
   <trkpt lat="-37.81907" lon="145.36847">
    <ele>421.19</ele>
   </trkpt>
   <trkpt lat="-37.818920000000006" lon="145.36813">
    <ele>429.63</ele>
   </trkpt>
   <trkpt lat="-37.81850500151429" lon="145.367529996616">
    <ele>441.66</ele>
   </trkpt>
   <trkpt lat="-37.818090000000005" lon="145.36693000000002">
    <ele>463.32000000000005</ele>
   </trkpt>
   <trkpt lat="-37.817980000000006" lon="145.36671">
    <ele>467.07000000000005</ele>
   </trkpt>
   <trkpt lat="-37.817840000000004" lon="145.36653">
    <ele>468.02000000000004</ele>
   </trkpt>
   <trkpt lat="-37.81776" lon="145.36664000000002">
    <ele>468.61</ele>
   </trkpt>
   <trkpt lat="-37.817750000000004" lon="145.36672000000002">
    <ele>468.61</ele>
   </trkpt>
   <trkpt lat="-37.81752" lon="145.36676">
    <ele>470.79</ele>
   </trkpt>
   <trkpt lat="-37.817530000000005" lon="145.36663000000001">
    <ele>471.63000000000005</ele>
   </trkpt>
   <trkpt lat="-37.81765" lon="145.36620000000002">
    <ele>473.03000000000003</ele>
   </trkpt>
   <trkpt lat="-37.81774" lon="145.36595">
    <ele>472.5</ele>
   </trkpt>
   <trkpt lat="-37.81774" lon="145.36581">
    <ele>472.17</ele>
   </trkpt>
   <trkpt lat="-37.8177" lon="145.36568000000003">
    <ele>470.66</ele>
   </trkpt>
   <trkpt lat="-37.817600000000006" lon="145.36507">
    <ele>467.20000000000005</ele>
   </trkpt>
   <trkpt lat="-37.817600000000006" lon="145.36438">
    <ele>465.52000000000004</ele>
   </trkpt>
   <trkpt lat="-37.817660000000004" lon="145.36395000000002">
    <ele>463.96000000000004</ele>
   </trkpt>
   <trkpt lat="-37.817660000000004" lon="145.36396000000002">
    <ele>463.96000000000004</ele>
   </trkpt>
   <trkpt lat="-37.81779" lon="145.36370000000002">
    <ele>463.82000000000005</ele>
   </trkpt>
   <trkpt lat="-37.817980000000006" lon="145.36344000000003">
    <ele>462.92</ele>
   </trkpt>
   <trkpt lat="-37.8183" lon="145.36328">
    <ele>463.07000000000005</ele>
   </trkpt>
   <trkpt lat="-37.81877" lon="145.36299000000002">
    <ele>468.59000000000003</ele>
   </trkpt>
   <trkpt lat="-37.81931" lon="145.36299000000002">
    <ele>485.58000000000004</ele>
   </trkpt>
   <trkpt lat="-37.81949" lon="145.36302">
    <ele>495.54</ele>
   </trkpt>
   <trkpt lat="-37.81958" lon="145.36325000000002">
    <ele>502.84000000000003</ele>
   </trkpt>
   <trkpt lat="-37.81969" lon="145.36317000000003">
    <ele>503.34</ele>
   </trkpt>
   <trkpt lat="-37.81976" lon="145.36298000000002">
    <ele>503.13000000000005</ele>
   </trkpt>
   <trkpt lat="-37.81996" lon="145.36259">
    <ele>505.99000000000007</ele>
   </trkpt>
   <trkpt lat="-37.82016" lon="145.36235000000002">
    <ele>511.65000000000003</ele>
   </trkpt>
   <trkpt lat="-37.82092" lon="145.36214">
    <ele>538.36</ele>
   </trkpt>
   <trkpt lat="-37.82114" lon="145.36204">
    <ele>545.35</ele>
   </trkpt>
   <trkpt lat="-37.82168" lon="145.36193">
    <ele>552.37</ele>
   </trkpt>
   <trkpt lat="-37.82186" lon="145.36196">
    <ele>552.89</ele>
   </trkpt>
   <trkpt lat="-37.82222" lon="145.36195">
    <ele>552.94</ele>
   </trkpt>
   <trkpt lat="-37.822390000000006" lon="145.36191000000002">
    <ele>552.51</ele>
   </trkpt>
   <trkpt lat="-37.82251" lon="145.36179">
    <ele>552.3800000000001</ele>
   </trkpt>
   <trkpt lat="-37.82278" lon="145.36161">
    <ele>551.7200000000001</ele>
   </trkpt>
   <trkpt lat="-37.82285" lon="145.36151">
    <ele>551.49</ele>
   </trkpt>
   <trkpt lat="-37.82287" lon="145.36139">
    <ele>551.22</ele>
   </trkpt>
   <trkpt lat="-37.82251" lon="145.36086">
    <ele>542.36</ele>
   </trkpt>
   <trkpt lat="-37.82247" lon="145.36068">
    <ele>539.6700000000001</ele>
   </trkpt>
   <trkpt lat="-37.82251" lon="145.36048000000002">
    <ele>538.52</ele>
   </trkpt>
   <trkpt lat="-37.82291" lon="145.35968000000003">
    <ele>542.49</ele>
   </trkpt>
   <trkpt lat="-37.82314" lon="145.35915">
    <ele>543.23</ele>
   </trkpt>
   <trkpt lat="-37.82334" lon="145.3588">
    <ele>549.3</ele>
   </trkpt>
   <trkpt lat="-37.8237" lon="145.35811">
    <ele>549.0</ele>
   </trkpt>
   <trkpt lat="-37.82405" lon="145.35753000000003">
    <ele>546.9900000000001</ele>
   </trkpt>
   <trkpt lat="-37.82419" lon="145.35738">
    <ele>547.06</ele>
   </trkpt>
   <trkpt lat="-37.82493" lon="145.35696000000002">
    <ele>557.71</ele>
   </trkpt>
   <trkpt lat="-37.82504" lon="145.35681000000002">
    <ele>561.1</ele>
   </trkpt>
   <trkpt lat="-37.82531" lon="145.35659">
    <ele>566.4100000000001</ele>
   </trkpt>
   <trkpt lat="-37.825320000000005" lon="145.35658">
    <ele>566.67</ele>
   </trkpt>
   <trkpt lat="-37.82526" lon="145.35688000000002">
    <ele>564.4300000000001</ele>
   </trkpt>
   <trkpt lat="-37.82524" lon="145.35717000000002">
    <ele>560.97</ele>
   </trkpt>
   <trkpt lat="-37.825250000000004" lon="145.35765">
    <ele>555.15</ele>
   </trkpt>
   <trkpt lat="-37.82531" lon="145.35758">
    <ele>551.95</ele>
   </trkpt>
   <trkpt lat="-37.82549" lon="145.35781">
    <ele>557.8100000000001</ele>
   </trkpt>
   <trkpt lat="-37.82555" lon="145.35802">
    <ele>553.84</ele>
   </trkpt>
   <trkpt lat="-37.82567" lon="145.35817">
    <ele>551.7</ele>
   </trkpt>
   <trkpt lat="-37.82587" lon="145.35828">
    <ele>549.2900000000001</ele>
   </trkpt>
   <trkpt lat="-37.82614" lon="145.35836">
    <ele>547.47</ele>
   </trkpt>
   <trkpt lat="-37.82645" lon="145.35860000000002">
    <ele>543.51</ele>
   </trkpt>
   <trkpt lat="-37.82667" lon="145.35872">
    <ele>541.8700000000001</ele>
   </trkpt>
   <trkpt lat="-37.82678000000001" lon="145.35874">
    <ele>540.91</ele>
   </trkpt>
   <trkpt lat="-37.82681" lon="145.35894000000002">
    <ele>537.61</ele>
   </trkpt>
   <trkpt lat="-37.82687" lon="145.35904000000002">
    <ele>536.25</ele>
   </trkpt>
   <trkpt lat="-37.82694" lon="145.35909">
    <ele>535.21</ele>
   </trkpt>
   <trkpt lat="-37.82705" lon="145.35911000000002">
    <ele>534.8000000000001</ele>
   </trkpt>
   <trkpt lat="-37.827180000000006" lon="145.35917">
    <ele>533.27</ele>
   </trkpt>
   <trkpt lat="-37.82728" lon="145.35929000000002">
    <ele>531.8900000000001</ele>
   </trkpt>
   <trkpt lat="-37.82772000000001" lon="145.35955">
    <ele>525.6</ele>
   </trkpt>
   <trkpt lat="-37.82786" lon="145.3596">
    <ele>522.02</ele>
   </trkpt>
   <trkpt lat="-37.82797" lon="145.35967000000002">
    <ele>514.35</ele>
   </trkpt>
   <trkpt lat="-37.82802" lon="145.35974000000002">
    <ele>510.8400000000001</ele>
   </trkpt>
   <trkpt lat="-37.828030000000005" lon="145.35981">
    <ele>509.25000000000006</ele>
   </trkpt>
   <trkpt lat="-37.82788" lon="145.35998">
    <ele>509.33000000000004</ele>
   </trkpt>
   <trkpt lat="-37.82802" lon="145.36015">
    <ele>507.73</ele>
   </trkpt>
   <trkpt lat="-37.828210000000006" lon="145.36029000000002">
    <ele>503.88</ele>
   </trkpt>
   <trkpt lat="-37.82833" lon="145.36049">
    <ele>502.09000000000003</ele>
   </trkpt>
   <trkpt lat="-37.82835" lon="145.36064000000002">
    <ele>500.94000000000005</ele>
   </trkpt>
   <trkpt lat="-37.82831" lon="145.36141">
    <ele>497.38000000000005</ele>
   </trkpt>
   <trkpt lat="-37.828340000000004" lon="145.36183000000003">
    <ele>499.08000000000004</ele>
   </trkpt>
   <trkpt lat="-37.8284" lon="145.36201">
    <ele>499.53000000000003</ele>
   </trkpt>
   <trkpt lat="-37.82842" lon="145.3622">
    <ele>500.2000000000001</ele>
   </trkpt>
   <trkpt lat="-37.8284" lon="145.36231">
    <ele>500.19</ele>
   </trkpt>
   <trkpt lat="-37.82842" lon="145.36245000000002">
    <ele>499.72</ele>
   </trkpt>
   <trkpt lat="-37.8286" lon="145.36275">
    <ele>498.93</ele>
   </trkpt>
   <trkpt lat="-37.82882" lon="145.36294">
    <ele>499.47</ele>
   </trkpt>
   <trkpt lat="-37.82945" lon="145.36360000000002">
    <ele>497.16</ele>
   </trkpt>
   <trkpt lat="-37.82967" lon="145.3639">
    <ele>494.31</ele>
   </trkpt>
   <trkpt lat="-37.83032" lon="145.36443">
    <ele>490.99</ele>
   </trkpt>
   <trkpt lat="-37.8305" lon="145.36452">
    <ele>490.76</ele>
   </trkpt>
   <trkpt lat="-37.83059" lon="145.36460000000002">
    <ele>490.50000000000006</ele>
   </trkpt>
   <trkpt lat="-37.8309" lon="145.36471">
    <ele>490.14</ele>
   </trkpt>
   <trkpt lat="-37.83113" lon="145.36475000000002">
    <ele>489.7</ele>
   </trkpt>
   <trkpt lat="-37.83126" lon="145.36482">
    <ele>488.76</ele>
   </trkpt>
   <trkpt lat="-37.83144" lon="145.36499">
    <ele>485.14</ele>
   </trkpt>
   <trkpt lat="-37.83151" lon="145.36502000000002">
    <ele>485.14</ele>
   </trkpt>
   <trkpt lat="-37.83164" lon="145.365">
    <ele>484.23</ele>
   </trkpt>
   <trkpt lat="-37.83196" lon="145.36511000000002">
    <ele>480.33000000000004</ele>
   </trkpt>
   <trkpt lat="-37.83207" lon="145.36518">
    <ele>477.19000000000005</ele>
   </trkpt>
   <trkpt lat="-37.8324" lon="145.36562">
    <ele>469.26000000000005</ele>
   </trkpt>
   <trkpt lat="-37.83252" lon="145.36566000000002">
    <ele>467.67</ele>
   </trkpt>
   <trkpt lat="-37.832710000000006" lon="145.36564">
    <ele>465.12</ele>
   </trkpt>
   <trkpt lat="-37.83276" lon="145.3656">
    <ele>464.49</ele>
   </trkpt>
   <trkpt lat="-37.833090000000006" lon="145.36562">
    <ele>460.33</ele>
   </trkpt>
   <trkpt lat="-37.83341" lon="145.3658">
    <ele>454.36</ele>
   </trkpt>
   <trkpt lat="-37.8337" lon="145.36607">
    <ele>450.32000000000005</ele>
   </trkpt>
   <trkpt lat="-37.83419" lon="145.36644">
    <ele>442.74</ele>
   </trkpt>
   <trkpt lat="-37.83431" lon="145.36658">
    <ele>439.76000000000005</ele>
   </trkpt>
   <trkpt lat="-37.8344" lon="145.36679">
    <ele>437.74</ele>
   </trkpt>
   <trkpt lat="-37.83469" lon="145.36711000000003">
    <ele>431.75</ele>
   </trkpt>
   <trkpt lat="-37.83482" lon="145.36722">
    <ele>430.02</ele>
   </trkpt>
   <trkpt lat="-37.83509" lon="145.3673">
    <ele>425.2</ele>
   </trkpt>
   <trkpt lat="-37.83518" lon="145.36738000000003">
    <ele>424.02</ele>
   </trkpt>
   <trkpt lat="-37.835280000000004" lon="145.3676">
    <ele>423.24000000000007</ele>
   </trkpt>
   <trkpt lat="-37.835280000000004" lon="145.36759">
    <ele>423.24000000000007</ele>
   </trkpt>
   <trkpt lat="-37.83536" lon="145.3684">
    <ele>424.04</ele>
   </trkpt>
   <trkpt lat="-37.83547" lon="145.36883">
    <ele>423.3</ele>
   </trkpt>
   <trkpt lat="-37.83558" lon="145.36916000000002">
    <ele>422.52000000000004</ele>
   </trkpt>
   <trkpt lat="-37.83572" lon="145.36931">
    <ele>420.85</ele>
   </trkpt>
   <trkpt lat="-37.83583" lon="145.36949">
    <ele>417.52000000000004</ele>
   </trkpt>
   <trkpt lat="-37.83583" lon="145.36973">
    <ele>416.69000000000005</ele>
   </trkpt>
   <trkpt lat="-37.83578" lon="145.37018">
    <ele>414.51000000000005</ele>
   </trkpt>
   <trkpt lat="-37.83576" lon="145.37064">
    <ele>407.97</ele>
   </trkpt>
   <trkpt lat="-37.83574" lon="145.37077000000002">
    <ele>407.03000000000003</ele>
   </trkpt>
   <trkpt lat="-37.8353700019093" lon="145.37141000290262">
    <ele>403.24</ele>
   </trkpt>
   <trkpt lat="-37.835" lon="145.37205">
    <ele>403.70000000000005</ele>
   </trkpt>
   <trkpt lat="-37.83491" lon="145.37243">
    <ele>404.73</ele>
   </trkpt>
   <trkpt lat="-37.83491" lon="145.37251">
    <ele>405.11</ele>
   </trkpt>
   <trkpt lat="-37.835" lon="145.37262">
    <ele>405.19000000000005</ele>
   </trkpt>
   <trkpt lat="-37.83525" lon="145.37281000000002">
    <ele>401.26</ele>
   </trkpt>
   <trkpt lat="-37.83529" lon="145.37287">
    <ele>401.04</ele>
   </trkpt>
   <trkpt lat="-37.83534" lon="145.37307">
    <ele>400.69000000000005</ele>
   </trkpt>
   <trkpt lat="-37.83534" lon="145.37347000000003">
    <ele>396.22</ele>
   </trkpt>
   <trkpt lat="-37.8352" lon="145.37391000000002">
    <ele>386.97</ele>
   </trkpt>
   <trkpt lat="-37.83516" lon="145.37397">
    <ele>386.1</ele>
   </trkpt>
   <trkpt lat="-37.835060000000006" lon="145.37404">
    <ele>383.84000000000003</ele>
   </trkpt>
   <trkpt lat="-37.83478" lon="145.37412">
    <ele>378.34</ele>
   </trkpt>
   <trkpt lat="-37.83442" lon="145.37417000000002">
    <ele>373.00000000000006</ele>
   </trkpt>
   <trkpt lat="-37.83413" lon="145.37428">
    <ele>362.59000000000003</ele>
   </trkpt>
   <trkpt lat="-37.83379" lon="145.3745">
    <ele>349.87</ele>
   </trkpt>
   <trkpt lat="-37.8337" lon="145.37454000000002">
    <ele>347.58000000000004</ele>
   </trkpt>
   <trkpt lat="-37.83357" lon="145.37456">
    <ele>345.2</ele>
   </trkpt>
   <trkpt lat="-37.83328" lon="145.37453000000002">
    <ele>341.24</ele>
   </trkpt>
   <trkpt lat="-37.83283" lon="145.37455">
    <ele>335.9200000000001</ele>
   </trkpt>
   <trkpt lat="-37.83261" lon="145.37459">
    <ele>331.47</ele>
   </trkpt>
   <trkpt lat="-37.83238" lon="145.37460000000002">
    <ele>328.26000000000005</ele>
   </trkpt>
   <trkpt lat="-37.83209" lon="145.37465">
    <ele>326.43000000000006</ele>
   </trkpt>
   <trkpt lat="-37.8316" lon="145.37477">
    <ele>325.27</ele>
   </trkpt>
   <trkpt lat="-37.83142" lon="145.37479000000002">
    <ele>324.73</ele>
   </trkpt>
   <trkpt lat="-37.83099" lon="145.37507000000002">
    <ele>318.5</ele>
   </trkpt>
   <trkpt lat="-37.8305" lon="145.3753">
    <ele>311.95</ele>
   </trkpt>
   <trkpt lat="-37.83019" lon="145.37533000000002">
    <ele>309.37</ele>
   </trkpt>
   <trkpt lat="-37.8299" lon="145.37518">
    <ele>304.71000000000004</ele>
   </trkpt>
   <trkpt lat="-37.8297" lon="145.37526000000003">
    <ele>300.50000000000006</ele>
   </trkpt>
   <trkpt lat="-37.82947" lon="145.37548">
    <ele>295.17</ele>
   </trkpt>
   <trkpt lat="-37.82934" lon="145.37553">
    <ele>293.95000000000005</ele>
   </trkpt>
   <trkpt lat="-37.82909" lon="145.37557">
    <ele>290.42</ele>
   </trkpt>
   <trkpt lat="-37.82898" lon="145.37562">
    <ele>288.2</ele>
   </trkpt>
   <trkpt lat="-37.82884" lon="145.37587000000002">
    <ele>283.83000000000004</ele>
   </trkpt>
   <trkpt lat="-37.82876" lon="145.37608">
    <ele>280.43</ele>
   </trkpt>
   <trkpt lat="-37.828880000000005" lon="145.37612000000001">
    <ele>280.74000000000007</ele>
   </trkpt>
   <trkpt lat="-37.828920000000004" lon="145.37623000000002">
    <ele>280.91</ele>
   </trkpt>
   <trkpt lat="-37.82893" lon="145.37641000000002">
    <ele>280.28000000000003</ele>
   </trkpt>
   <trkpt lat="-37.82887" lon="145.37672">
    <ele>279.19000000000005</ele>
   </trkpt>
   <trkpt lat="-37.82873" lon="145.37708">
    <ele>278.74</ele>
   </trkpt>
   <trkpt lat="-37.8286" lon="145.37732000000003">
    <ele>277.51000000000005</ele>
   </trkpt>
   <trkpt lat="-37.82824" lon="145.37775000000002">
    <ele>272.43</ele>
   </trkpt>
   <trkpt lat="-37.827920000000006" lon="145.37805">
    <ele>268.77</ele>
   </trkpt>
   <trkpt lat="-37.82799" lon="145.37812000000002">
    <ele>269.21</ele>
   </trkpt>
   <trkpt lat="-37.82799" lon="145.37820000000002">
    <ele>269.46000000000004</ele>
   </trkpt>
   <trkpt lat="-37.82793" lon="145.37837000000002">
    <ele>270.99</ele>
   </trkpt>
   <trkpt lat="-37.8279" lon="145.3785">
    <ele>272.17</ele>
   </trkpt>
   <trkpt lat="-37.82797" lon="145.37874000000002">
    <ele>276.06</ele>
   </trkpt>
   <trkpt lat="-37.828120000000006" lon="145.37881000000002">
    <ele>276.83000000000004</ele>
   </trkpt>
   <trkpt lat="-37.8282" lon="145.37878">
    <ele>276.83000000000004</ele>
   </trkpt>
   <trkpt lat="-37.82833" lon="145.37879">
    <ele>282.72</ele>
   </trkpt>
   <trkpt lat="-37.82882" lon="145.37863000000002">
    <ele>288.63</ele>
   </trkpt>
   <trkpt lat="-37.82907" lon="145.3786">
    <ele>296.48</ele>
   </trkpt>
   <trkpt lat="-37.82954" lon="145.37861">
    <ele>307.64000000000004</ele>
   </trkpt>
   <trkpt lat="-37.82981" lon="145.37858">
    <ele>315.46000000000004</ele>
   </trkpt>
   <trkpt lat="-37.8299" lon="145.37852">
    <ele>315.46000000000004</ele>
   </trkpt>
   <trkpt lat="-37.8301" lon="145.37836000000001">
    <ele>321.92</ele>
   </trkpt>
   <trkpt lat="-37.83032" lon="145.37802000000002">
    <ele>331.92</ele>
   </trkpt>
   <trkpt lat="-37.83088" lon="145.37755">
    <ele>351.64</ele>
   </trkpt>
   <trkpt lat="-37.83106" lon="145.37746">
    <ele>360.27000000000004</ele>
   </trkpt>
   <trkpt lat="-37.83131" lon="145.37743">
    <ele>365.29</ele>
   </trkpt>
   <trkpt lat="-37.83164" lon="145.37725">
    <ele>370.35</ele>
   </trkpt>
   <trkpt lat="-37.83187" lon="145.37702000000002">
    <ele>373.28000000000003</ele>
   </trkpt>
   <trkpt lat="-37.83202" lon="145.37691">
    <ele>374.50000000000006</ele>
   </trkpt>
   <trkpt lat="-37.83211" lon="145.37687000000003">
    <ele>375.66</ele>
   </trkpt>
   <trkpt lat="-37.8324" lon="145.37684000000002">
    <ele>381.1</ele>
   </trkpt>
   <trkpt lat="-37.83274" lon="145.37673">
    <ele>385.04</ele>
   </trkpt>
   <trkpt lat="-37.8329" lon="145.37657000000002">
    <ele>386.07</ele>
   </trkpt>
   <trkpt lat="-37.83314" lon="145.37650000000002">
    <ele>387.3</ele>
   </trkpt>
   <trkpt lat="-37.83343" lon="145.37653">
    <ele>389.81000000000006</ele>
   </trkpt>
   <trkpt lat="-37.83344" lon="145.37654">
    <ele>389.81000000000006</ele>
   </trkpt>
   <trkpt lat="-37.83388" lon="145.37678000000002">
    <ele>393.21000000000004</ele>
   </trkpt>
   <trkpt lat="-37.83408" lon="145.37692">
    <ele>396.34000000000003</ele>
   </trkpt>
   <trkpt lat="-37.83408" lon="145.37746">
    <ele>393.6</ele>
   </trkpt>
   <trkpt lat="-37.83415" lon="145.37768">
    <ele>392.85</ele>
   </trkpt>
   <trkpt lat="-37.83426" lon="145.37779">
    <ele>393.69000000000005</ele>
   </trkpt>
   <trkpt lat="-37.83433" lon="145.37794000000002">
    <ele>394.03000000000003</ele>
   </trkpt>
   <trkpt lat="-37.8344" lon="145.37819000000002">
    <ele>393.58000000000004</ele>
   </trkpt>
   <trkpt lat="-37.8344" lon="145.3784">
    <ele>391.90000000000003</ele>
   </trkpt>
   <trkpt lat="-37.83437" lon="145.37837000000002">
    <ele>391.49</ele>
   </trkpt>
   <trkpt lat="-37.83431" lon="145.37820000000002">
    <ele>390.51</ele>
   </trkpt>
   <trkpt lat="-37.83424" lon="145.37819000000002">
    <ele>390.1</ele>
   </trkpt>
   <trkpt lat="-37.83431" lon="145.37839000000002">
    <ele>388.55</ele>
   </trkpt>
   <trkpt lat="-37.83431" lon="145.37854000000002">
    <ele>387.71000000000004</ele>
   </trkpt>
   <trkpt lat="-37.83435" lon="145.37867">
    <ele>387.07</ele>
   </trkpt>
   <trkpt lat="-37.83444" lon="145.3788">
    <ele>387.43000000000006</ele>
   </trkpt>
   <trkpt lat="-37.83449" lon="145.37891000000002">
    <ele>388.25000000000006</ele>
   </trkpt>
   <trkpt lat="-37.834500000000006" lon="145.37906">
    <ele>389.16</ele>
   </trkpt>
   <trkpt lat="-37.83442" lon="145.37944000000002">
    <ele>388.03000000000003</ele>
   </trkpt>
   <trkpt lat="-37.83446" lon="145.37967">
    <ele>387.14000000000004</ele>
   </trkpt>
   <trkpt lat="-37.83444" lon="145.38021">
    <ele>384.26000000000005</ele>
   </trkpt>
   <trkpt lat="-37.83446" lon="145.38038">
    <ele>383.40000000000003</ele>
   </trkpt>
   <trkpt lat="-37.83464" lon="145.38086">
    <ele>383.36</ele>
   </trkpt>
   <trkpt lat="-37.8346" lon="145.38080000000002">
    <ele>383.36</ele>
   </trkpt>
   <trkpt lat="-37.83464" lon="145.38085">
    <ele>383.36</ele>
   </trkpt>
   <trkpt lat="-37.83458" lon="145.38077">
    <ele>382.48</ele>
   </trkpt>
   <trkpt lat="-37.83451" lon="145.38065">
    <ele>381.92</ele>
   </trkpt>
   <trkpt lat="-37.83435" lon="145.38021">
    <ele>381.11</ele>
   </trkpt>
   <trkpt lat="-37.83422" lon="145.37978">
    <ele>379.29</ele>
   </trkpt>
   <trkpt lat="-37.83413" lon="145.37958">
    <ele>377.13</ele>
   </trkpt>
   <trkpt lat="-37.83411" lon="145.37964000000002">
    <ele>377.13</ele>
   </trkpt>
   <trkpt lat="-37.83413" lon="145.37958">
    <ele>377.13</ele>
   </trkpt>
   <trkpt lat="-37.83408" lon="145.37972000000002">
    <ele>375.67</ele>
   </trkpt>
   <trkpt lat="-37.83413" lon="145.3805">
    <ele>371.35</ele>
   </trkpt>
   <trkpt lat="-37.83404" lon="145.38078000000002">
    <ele>366.81</ele>
   </trkpt>
   <trkpt lat="-37.83397" lon="145.38076">
    <ele>366.81</ele>
   </trkpt>
   <trkpt lat="-37.83393" lon="145.38078000000002">
    <ele>366.17</ele>
   </trkpt>
   <trkpt lat="-37.83393" lon="145.38093">
    <ele>364.40000000000003</ele>
   </trkpt>
   <trkpt lat="-37.8339" lon="145.38104">
    <ele>363.50000000000006</ele>
   </trkpt>
   <trkpt lat="-37.833850000000005" lon="145.38102">
    <ele>363.50000000000006</ele>
   </trkpt>
   <trkpt lat="-37.8339" lon="145.38103">
    <ele>363.50000000000006</ele>
   </trkpt>
   <trkpt lat="-37.83381" lon="145.38102">
    <ele>363.09000000000003</ele>
   </trkpt>
   <trkpt lat="-37.83379" lon="145.38095">
    <ele>360.91</ele>
   </trkpt>
   <trkpt lat="-37.83375" lon="145.38101">
    <ele>360.22</ele>
   </trkpt>
   <trkpt lat="-37.8337" lon="145.38096000000002">
    <ele>358.98</ele>
   </trkpt>
   <trkpt lat="-37.83355" lon="145.38059">
    <ele>356.07000000000005</ele>
   </trkpt>
   <trkpt lat="-37.83348" lon="145.38031">
    <ele>354.47</ele>
   </trkpt>
   <trkpt lat="-37.83339" lon="145.38015000000001">
    <ele>353.23</ele>
   </trkpt>
   <trkpt lat="-37.83332" lon="145.37994">
    <ele>350.41</ele>
   </trkpt>
   <trkpt lat="-37.8333" lon="145.37976">
    <ele>350.41</ele>
   </trkpt>
   <trkpt lat="-37.83328" lon="145.37975">
    <ele>348.5</ele>
   </trkpt>
   <trkpt lat="-37.83323" lon="145.37983">
    <ele>348.5</ele>
   </trkpt>
   <trkpt lat="-37.83321" lon="145.38043000000002">
    <ele>344.95000000000005</ele>
   </trkpt>
   <trkpt lat="-37.833180000000006" lon="145.38076">
    <ele>342.08000000000004</ele>
   </trkpt>
   <trkpt lat="-37.83312" lon="145.38080000000002">
    <ele>342.08000000000004</ele>
   </trkpt>
   <trkpt lat="-37.83301" lon="145.38045000000002">
    <ele>336.08000000000004</ele>
   </trkpt>
   <trkpt lat="-37.83294" lon="145.38052000000002">
    <ele>333.17</ele>
   </trkpt>
   <trkpt lat="-37.83283" lon="145.38043000000002">
    <ele>332.26</ele>
   </trkpt>
   <trkpt lat="-37.83272" lon="145.38021">
    <ele>328.94</ele>
   </trkpt>
   <trkpt lat="-37.83267" lon="145.38018000000002">
    <ele>327.0</ele>
   </trkpt>
   <trkpt lat="-37.832640000000005" lon="145.38024000000001">
    <ele>327.0</ele>
   </trkpt>
   <trkpt lat="-37.83267" lon="145.38018000000002">
    <ele>327.0</ele>
   </trkpt>
   <trkpt lat="-37.83258" lon="145.38037">
    <ele>324.01</ele>
   </trkpt>
   <trkpt lat="-37.832530000000006" lon="145.38095">
    <ele>319.5</ele>
   </trkpt>
   <trkpt lat="-37.832530000000006" lon="145.38113">
    <ele>318.48</ele>
   </trkpt>
   <trkpt lat="-37.83243" lon="145.38147">
    <ele>316.77000000000004</ele>
   </trkpt>
   <trkpt lat="-37.8324" lon="145.38189">
    <ele>317.16</ele>
   </trkpt>
   <trkpt lat="-37.83245" lon="145.38221000000001">
    <ele>317.47</ele>
   </trkpt>
   <trkpt lat="-37.83243" lon="145.38225">
    <ele>316.85</ele>
   </trkpt>
   <trkpt lat="-37.83238" lon="145.38223000000002">
    <ele>316.05000000000007</ele>
   </trkpt>
   <trkpt lat="-37.83229" lon="145.38207">
    <ele>312.49000000000007</ele>
   </trkpt>
   <trkpt lat="-37.83225" lon="145.38207">
    <ele>311.71000000000004</ele>
   </trkpt>
   <trkpt lat="-37.83216" lon="145.38223000000002">
    <ele>309.73</ele>
   </trkpt>
   <trkpt lat="-37.83211" lon="145.38240000000002">
    <ele>308.54</ele>
   </trkpt>
   <trkpt lat="-37.83207" lon="145.38281">
    <ele>306.57</ele>
   </trkpt>
   <trkpt lat="-37.832060000000006" lon="145.38286000000002">
    <ele>306.57</ele>
   </trkpt>
   <trkpt lat="-37.832" lon="145.38279">
    <ele>305.18</ele>
   </trkpt>
   <trkpt lat="-37.83189" lon="145.38274">
    <ele>301.70000000000005</ele>
   </trkpt>
   <trkpt lat="-37.83182" lon="145.38274">
    <ele>301.70000000000005</ele>
   </trkpt>
   <trkpt lat="-37.83171" lon="145.3828">
    <ele>299.35</ele>
   </trkpt>
   <trkpt lat="-37.83167" lon="145.38286000000002">
    <ele>298.73</ele>
   </trkpt>
   <trkpt lat="-37.83151" lon="145.38327">
    <ele>296.24</ele>
   </trkpt>
   <trkpt lat="-37.831480000000006" lon="145.38330000000002">
    <ele>295.7</ele>
   </trkpt>
   <trkpt lat="-37.83149" lon="145.38346">
    <ele>295.02</ele>
   </trkpt>
   <trkpt lat="-37.83144" lon="145.38354">
    <ele>293.86</ele>
   </trkpt>
   <trkpt lat="-37.83135" lon="145.38362">
    <ele>293.12000000000006</ele>
   </trkpt>
   <trkpt lat="-37.831100000000006" lon="145.38430000000002">
    <ele>290.71000000000004</ele>
   </trkpt>
   <trkpt lat="-37.83104" lon="145.38429000000002">
    <ele>290.71000000000004</ele>
   </trkpt>
   <trkpt lat="-37.830740000000006" lon="145.38428000000002">
    <ele>284.46000000000004</ele>
   </trkpt>
   <trkpt lat="-37.83023" lon="145.38435">
    <ele>279.59</ele>
   </trkpt>
   <trkpt lat="-37.82994" lon="145.38443">
    <ele>276.22</ele>
   </trkpt>
   <trkpt lat="-37.82981" lon="145.38442">
    <ele>270.2</ele>
   </trkpt>
   <trkpt lat="-37.82934" lon="145.38433">
    <ele>266.03000000000003</ele>
   </trkpt>
   <trkpt lat="-37.82898" lon="145.38407">
    <ele>262.17</ele>
   </trkpt>
   <trkpt lat="-37.82864" lon="145.38389">
    <ele>259.46000000000004</ele>
   </trkpt>
   <trkpt lat="-37.82849" lon="145.38387">
    <ele>258.19</ele>
   </trkpt>
   <trkpt lat="-37.82835" lon="145.3839">
    <ele>247.77</ele>
   </trkpt>
   <trkpt lat="-37.82828000000001" lon="145.38382000000001">
    <ele>247.77</ele>
   </trkpt>
   <trkpt lat="-37.82827" lon="145.38381">
    <ele>247.3</ele>
   </trkpt>
   <trkpt lat="-37.82831" lon="145.38432">
    <ele>248.31000000000003</ele>
   </trkpt>
   <trkpt lat="-37.82835" lon="145.38451">
    <ele>248.47000000000003</ele>
   </trkpt>
   <trkpt lat="-37.82861000127391" lon="145.3850499981829">
    <ele>249.01</ele>
   </trkpt>
   <trkpt lat="-37.82887" lon="145.38559">
    <ele>250.82999999999998</ele>
   </trkpt>
   <trkpt lat="-37.82898" lon="145.38607000000002">
    <ele>251.94</ele>
   </trkpt>
   <trkpt lat="-37.82931" lon="145.38711">
    <ele>255.79000000000002</ele>
   </trkpt>
   <trkpt lat="-37.82938" lon="145.38762">
    <ele>256.51</ele>
   </trkpt>
   <trkpt lat="-37.82938000674723" lon="145.388513333375">
    <ele>258.44</ele>
   </trkpt>
   <trkpt lat="-37.82938000674723" lon="145.3894066667501">
    <ele>259.42</ele>
   </trkpt>
   <trkpt lat="-37.82938" lon="145.39030000000002">
    <ele>258.67</ele>
   </trkpt>
   <trkpt lat="-37.829350000000005" lon="145.39053">
    <ele>258.93</ele>
   </trkpt>
   <trkpt lat="-37.82927" lon="145.39053">
    <ele>258.65000000000003</ele>
   </trkpt>
   <trkpt lat="-37.8292" lon="145.39066000000003">
    <ele>258.33</ele>
   </trkpt>
   <trkpt lat="-37.82909" lon="145.39100000000002">
    <ele>258.17</ele>
   </trkpt>
   <trkpt lat="-37.82902" lon="145.39116">
    <ele>258.24</ele>
   </trkpt>
   <trkpt lat="-37.82869" lon="145.39164000000002">
    <ele>258.32</ele>
   </trkpt>
   <trkpt lat="-37.8286" lon="145.39170000000001">
    <ele>258.25000000000006</ele>
   </trkpt>
   <trkpt lat="-37.82846" lon="145.39174">
    <ele>257.92</ele>
   </trkpt>
   <trkpt lat="-37.8282" lon="145.39166">
    <ele>257.17</ele>
   </trkpt>
   <trkpt lat="-37.828160000000004" lon="145.39166">
    <ele>257.14000000000004</ele>
   </trkpt>
   <trkpt lat="-37.82782" lon="145.39147">
    <ele>255.32999999999998</ele>
   </trkpt>
   <trkpt lat="-37.82728" lon="145.39110000000002">
    <ele>251.07000000000002</ele>
   </trkpt>
   <trkpt lat="-37.82701" lon="145.39096">
    <ele>249.14000000000001</ele>
   </trkpt>
   <trkpt lat="-37.82674" lon="145.39086">
    <ele>245.49</ele>
   </trkpt>
   <trkpt lat="-37.82661" lon="145.39093000000003">
    <ele>244.21</ele>
   </trkpt>
   <trkpt lat="-37.82647" lon="145.39103">
    <ele>243.37000000000003</ele>
   </trkpt>
   <trkpt lat="-37.82636" lon="145.3912">
    <ele>242.56000000000003</ele>
   </trkpt>
   <trkpt lat="-37.82614" lon="145.39172000000002">
    <ele>241.21</ele>
   </trkpt>
   <trkpt lat="-37.826060000000005" lon="145.39186">
    <ele>240.90000000000003</ele>
   </trkpt>
   <trkpt lat="-37.82587" lon="145.39213">
    <ele>240.79000000000002</ele>
   </trkpt>
   <trkpt lat="-37.82558" lon="145.39251000000002">
    <ele>242.02</ele>
   </trkpt>
   <trkpt lat="-37.82549" lon="145.39275">
    <ele>243.85</ele>
   </trkpt>
   <trkpt lat="-37.82528000000001" lon="145.39302">
    <ele>248.17000000000002</ele>
   </trkpt>
   <trkpt lat="-37.82515" lon="145.39312">
    <ele>249.38000000000002</ele>
   </trkpt>
   <trkpt lat="-37.82486" lon="145.39357">
    <ele>258.28000000000003</ele>
   </trkpt>
   <trkpt lat="-37.824740000000006" lon="145.39372">
    <ele>259.15000000000003</ele>
   </trkpt>
   <trkpt lat="-37.82417" lon="145.39417">
    <ele>274.22</ele>
   </trkpt>
   <trkpt lat="-37.823890000000006" lon="145.39452">
    <ele>279.81</ele>
   </trkpt>
   <trkpt lat="-37.82374" lon="145.39478000000003">
    <ele>283.07000000000005</ele>
   </trkpt>
   <trkpt lat="-37.82354" lon="145.39499">
    <ele>287.1</ele>
   </trkpt>
   <trkpt lat="-37.823240000000006" lon="145.39521000000002">
    <ele>289.98</ele>
   </trkpt>
   <trkpt lat="-37.82267" lon="145.39543">
    <ele>294.18</ele>
   </trkpt>
   <trkpt lat="-37.822590000000005" lon="145.39541">
    <ele>295.24</ele>
   </trkpt>
   <trkpt lat="-37.82235" lon="145.39530000000002">
    <ele>297.75</ele>
   </trkpt>
   <trkpt lat="-37.82222" lon="145.39527">
    <ele>299.28000000000003</ele>
   </trkpt>
   <trkpt lat="-37.82193" lon="145.39532">
    <ele>302.63</ele>
   </trkpt>
   <trkpt lat="-37.821450000000006" lon="145.39530000000002">
    <ele>307.70000000000005</ele>
   </trkpt>
   <trkpt lat="-37.82121" lon="145.39530000000002">
    <ele>310.34</ele>
   </trkpt>
   <trkpt lat="-37.82099" lon="145.39538000000002">
    <ele>314.78</ele>
   </trkpt>
   <trkpt lat="-37.8207" lon="145.39543">
    <ele>322.01</ele>
   </trkpt>
   <trkpt lat="-37.81998" lon="145.39567000000002">
    <ele>340.33000000000004</ele>
   </trkpt>
   <trkpt lat="-37.81976" lon="145.39572">
    <ele>342.96000000000004</ele>
   </trkpt>
   <trkpt lat="-37.81947" lon="145.39585000000002">
    <ele>348.05</ele>
   </trkpt>
   <trkpt lat="-37.81929" lon="145.39589">
    <ele>350.45000000000005</ele>
   </trkpt>
   <trkpt lat="-37.81897" lon="145.39602000000002">
    <ele>353.43</ele>
   </trkpt>
   <trkpt lat="-37.81864" lon="145.39611000000002">
    <ele>356.06000000000006</ele>
   </trkpt>
   <trkpt lat="-37.81855" lon="145.39604">
    <ele>357.51000000000005</ele>
   </trkpt>
   <trkpt lat="-37.818540000000006" lon="145.39603000000002">
    <ele>357.51000000000005</ele>
   </trkpt>
   <trkpt lat="-37.818490000000004" lon="145.39585000000002">
    <ele>359.79</ele>
   </trkpt>
   <trkpt lat="-37.81846" lon="145.39541">
    <ele>363.2900000000001</ele>
   </trkpt>
   <trkpt lat="-37.81855" lon="145.39498">
    <ele>365.47</ele>
   </trkpt>
   <trkpt lat="-37.81859" lon="145.39452">
    <ele>367.61</ele>
   </trkpt>
   <trkpt lat="-37.81857" lon="145.39418">
    <ele>369.6</ele>
   </trkpt>
   <trkpt lat="-37.81853" lon="145.39384">
    <ele>371.37</ele>
   </trkpt>
   <trkpt lat="-37.81828" lon="145.39347">
    <ele>373.76000000000005</ele>
   </trkpt>
   <trkpt lat="-37.8181" lon="145.39323000000002">
    <ele>377.13</ele>
   </trkpt>
   <trkpt lat="-37.81788" lon="145.39286">
    <ele>378.49000000000007</ele>
   </trkpt>
   <trkpt lat="-37.81752" lon="145.39257">
    <ele>382.35</ele>
   </trkpt>
   <trkpt lat="-37.81745" lon="145.39248">
    <ele>382.85</ele>
   </trkpt>
   <trkpt lat="-37.8173" lon="145.39221">
    <ele>384.51</ele>
   </trkpt>
   <trkpt lat="-37.81709" lon="145.39181000000002">
    <ele>387.05</ele>
   </trkpt>
   <trkpt lat="-37.81703" lon="145.39176">
    <ele>387.05</ele>
   </trkpt>
   <trkpt lat="-37.81662" lon="145.39136000000002">
    <ele>388.57</ele>
   </trkpt>
   <trkpt lat="-37.81633" lon="145.39091000000002">
    <ele>387.89</ele>
   </trkpt>
   <trkpt lat="-37.81602" lon="145.3906">
    <ele>387.58000000000004</ele>
   </trkpt>
   <trkpt lat="-37.81588" lon="145.39053">
    <ele>388.08000000000004</ele>
   </trkpt>
   <trkpt lat="-37.81555" lon="145.39025">
    <ele>390.14000000000004</ele>
   </trkpt>
   <trkpt lat="-37.81532" lon="145.39013">
    <ele>392.64000000000004</ele>
   </trkpt>
   <trkpt lat="-37.81519" lon="145.39003000000002">
    <ele>393.14000000000004</ele>
   </trkpt>
   <trkpt lat="-37.81499" lon="145.38979">
    <ele>392.04</ele>
   </trkpt>
   <trkpt lat="-37.81476" lon="145.38943">
    <ele>388.08000000000004</ele>
   </trkpt>
   <trkpt lat="-37.814730000000004" lon="145.38929000000002">
    <ele>384.75</ele>
   </trkpt>
   <trkpt lat="-37.814730000000004" lon="145.38927">
    <ele>384.75</ele>
   </trkpt>
   <trkpt lat="-37.81472" lon="145.38914000000003">
    <ele>382.97</ele>
   </trkpt>
   <trkpt lat="-37.814780000000006" lon="145.38887000000003">
    <ele>380.96000000000004</ele>
   </trkpt>
   <trkpt lat="-37.8149" lon="145.38855">
    <ele>378.8</ele>
   </trkpt>
   <trkpt lat="-37.81499" lon="145.38819">
    <ele>373.16</ele>
   </trkpt>
   <trkpt lat="-37.81501" lon="145.38777000000002">
    <ele>367.25</ele>
   </trkpt>
   <trkpt lat="-37.81499" lon="145.38769000000002">
    <ele>366.58</ele>
   </trkpt>
   <trkpt lat="-37.814910000000005" lon="145.38760000000002">
    <ele>365.35</ele>
   </trkpt>
   <trkpt lat="-37.81559" lon="145.38736">
    <ele>361.32000000000005</ele>
   </trkpt>
   <trkpt lat="-37.81568" lon="145.38728">
    <ele>360.67</ele>
   </trkpt>
   <trkpt lat="-37.8157" lon="145.38694">
    <ele>360.69</ele>
   </trkpt>
   <trkpt lat="-37.81566" lon="145.38664">
    <ele>361.59000000000003</ele>
   </trkpt>
   <trkpt lat="-37.81564" lon="145.38616000000002">
    <ele>363.79</ele>
   </trkpt>
   <trkpt lat="-37.81559" lon="145.38597000000001">
    <ele>364.50000000000006</ele>
   </trkpt>
   <trkpt lat="-37.81548" lon="145.38594">
    <ele>364.44000000000005</ele>
   </trkpt>
   <trkpt lat="-37.8153" lon="145.3853">
    <ele>365.70000000000005</ele>
   </trkpt>
   <trkpt lat="-37.81517" lon="145.38471">
    <ele>369.9</ele>
   </trkpt>
   <trkpt lat="-37.81562" lon="145.38453">
    <ele>378.77000000000004</ele>
   </trkpt>
   <trkpt lat="-37.81564" lon="145.38443">
    <ele>378.77000000000004</ele>
   </trkpt>
   <trkpt lat="-37.81564" lon="145.38433">
    <ele>382.27000000000004</ele>
   </trkpt>
   <trkpt lat="-37.81544000139864" lon="145.38374999836125">
    <ele>389.23</ele>
   </trkpt>
   <trkpt lat="-37.81524" lon="145.38317">
    <ele>394.63000000000005</ele>
   </trkpt>
   <trkpt lat="-37.8149" lon="145.38214000000002">
    <ele>397.94</ele>
   </trkpt>
   <trkpt lat="-37.814800000000005" lon="145.3813">
    <ele>401.20000000000005</ele>
   </trkpt>
   <trkpt lat="-37.81481" lon="145.38123000000002">
    <ele>401.99</ele>
   </trkpt>
   <trkpt lat="-37.81479" lon="145.38067">
    <ele>407.18</ele>
   </trkpt>
   <trkpt lat="-37.81503500216213" lon="145.37995000247477">
    <ele>413.78000000000003</ele>
   </trkpt>
   <trkpt lat="-37.81528" lon="145.37923">
    <ele>419.53000000000003</ele>
   </trkpt>
   <trkpt lat="-37.8153" lon="145.37861">
    <ele>425.44000000000005</ele>
   </trkpt>
   <trkpt lat="-37.815000000000005" lon="145.37812000000002">
    <ele>429.74</ele>
   </trkpt>
   <trkpt lat="-37.815000000000005" lon="145.37811000000002">
    <ele>429.74</ele>
   </trkpt>
   <trkpt lat="-37.81546" lon="145.37838000000002">
    <ele>430.65000000000003</ele>
   </trkpt>
   <trkpt lat="-37.81579" lon="145.3788">
    <ele>431.91</ele>
   </trkpt>
   <trkpt lat="-37.816" lon="145.37896">
    <ele>433.40000000000003</ele>
   </trkpt>
   <trkpt lat="-37.81613" lon="145.37887">
    <ele>434.52</ele>
   </trkpt>
   <trkpt lat="-37.8162" lon="145.37919000000002">
    <ele>434.77000000000004</ele>
   </trkpt>
   <trkpt lat="-37.81622" lon="145.37971000000002">
    <ele>435.98</ele>
   </trkpt>
   <trkpt lat="-37.81629" lon="145.37992">
    <ele>436.84000000000003</ele>
   </trkpt>
   <trkpt lat="-37.81642" lon="145.38000000000002">
    <ele>437.31</ele>
   </trkpt>
   <trkpt lat="-37.81701" lon="145.37994">
    <ele>436.13</ele>
   </trkpt>
   <trkpt lat="-37.81703" lon="145.37990000000002">
    <ele>435.85</ele>
   </trkpt>
  </trkseg>
 </trk>
</gpx>
