<?xml version="1.0" encoding="UTF-8"?>
<gpx creator="StravaGPX" version="1.1" xmlns="http://www.topografix.com/GPX/1/1" xmlns:xsi="http://www.w3.org/2001/XMLSchema-instance" xsi:schemaLocation="http://www.topografix.com/GPX/1/1 http://www.topografix.com/GPX/1/1/gpx.xsd">
 <metadata>
  <name>28 July 20k</name>
  <author>
   <name>john csorgo</name>
  </author>
  <copyright author="OpenStreetMap contributors">
   <year>2020</year>
   <license>https://www.openstreetmap.org/copyright</license>
  </copyright>
 </metadata>
 <trk>
  <name>28 July 20k</name>
  <link href=""/>
  <type>trail_running</type>
  <trkseg>
   <trkpt lat="-37.817420000000006" lon="145.37931">
    <ele>427.09000000000003</ele>
   </trkpt>
   <trkpt lat="-37.817550000000004" lon="145.37901000000002">
    <ele>431.72</ele>
   </trkpt>
   <trkpt lat="-37.81761" lon="145.37903">
    <ele>431.72</ele>
   </trkpt>
   <trkpt lat="-37.81772" lon="145.37898">
    <ele>425.44000000000005</ele>
   </trkpt>
   <trkpt lat="-37.81803" lon="145.37981000000002">
    <ele>425.14</ele>
   </trkpt>
   <trkpt lat="-37.81808" lon="145.38009000000002">
    <ele>424.42</ele>
   </trkpt>
   <trkpt lat="-37.81803" lon="145.38037">
    <ele>423.64</ele>
   </trkpt>
   <trkpt lat="-37.8183" lon="145.3804">
    <ele>422.96000000000004</ele>
   </trkpt>
   <trkpt lat="-37.8185" lon="145.38038">
    <ele>422.64</ele>
   </trkpt>
   <trkpt lat="-37.81879" lon="145.38031">
    <ele>422.50000000000006</ele>
   </trkpt>
   <trkpt lat="-37.81908" lon="145.38014">
    <ele>421.91</ele>
   </trkpt>
   <trkpt lat="-37.81915" lon="145.38008000000002">
    <ele>421.74000000000007</ele>
   </trkpt>
   <trkpt lat="-37.819210000000005" lon="145.37997000000001">
    <ele>421.19</ele>
   </trkpt>
   <trkpt lat="-37.81922" lon="145.37983">
    <ele>420.71000000000004</ele>
   </trkpt>
   <trkpt lat="-37.8192" lon="145.37965">
    <ele>419.31</ele>
   </trkpt>
   <trkpt lat="-37.818920000000006" lon="145.37861">
    <ele>415.11</ele>
   </trkpt>
   <trkpt lat="-37.81886" lon="145.37830000000002">
    <ele>414.83000000000004</ele>
   </trkpt>
   <trkpt lat="-37.81879250926805" lon="145.37744499762937">
    <ele>412.5</ele>
   </trkpt>
   <trkpt lat="-37.81872501235605" lon="145.3765899968223">
    <ele>409.87</ele>
   </trkpt>
   <trkpt lat="-37.81865750926405" lon="145.37573499757892">
    <ele>409.64000000000004</ele>
   </trkpt>
   <trkpt lat="-37.81859" lon="145.37488000000002">
    <ele>411.84000000000003</ele>
   </trkpt>
   <trkpt lat="-37.81873500262752" lon="145.37409000160918">
    <ele>412.74000000000007</ele>
   </trkpt>
   <trkpt lat="-37.81888" lon="145.3733">
    <ele>409.29</ele>
   </trkpt>
   <trkpt lat="-37.81877" lon="145.37244">
    <ele>407.15</ele>
   </trkpt>
   <trkpt lat="-37.81868" lon="145.37210000000002">
    <ele>408.89000000000004</ele>
   </trkpt>
   <trkpt lat="-37.818450000000006" lon="145.37159000000003">
    <ele>410.87</ele>
   </trkpt>
   <trkpt lat="-37.81819" lon="145.37114000000003">
    <ele>415.88</ele>
   </trkpt>
   <trkpt lat="-37.81821" lon="145.3708">
    <ele>417.80000000000007</ele>
   </trkpt>
   <trkpt lat="-37.81792" lon="145.36999">
    <ele>430.48</ele>
   </trkpt>
   <trkpt lat="-37.81792" lon="145.36966">
    <ele>431.38000000000005</ele>
   </trkpt>
   <trkpt lat="-37.81826" lon="145.36899000000003">
    <ele>424.15000000000003</ele>
   </trkpt>
   <trkpt lat="-37.81837" lon="145.36887000000002">
    <ele>422.25</ele>
   </trkpt>
   <trkpt lat="-37.81873" lon="145.36886">
    <ele>421.00000000000006</ele>
   </trkpt>
   <trkpt lat="-37.81897" lon="145.36854000000002">
    <ele>422.45000000000005</ele>
   </trkpt>
   <trkpt lat="-37.818520002526334" lon="145.36776999534047">
    <ele>436.91</ele>
   </trkpt>
   <trkpt lat="-37.818070000000006" lon="145.36700000000002">
    <ele>466.91</ele>
   </trkpt>
   <trkpt lat="-37.817910000000005" lon="145.36679">
    <ele>466.91</ele>
   </trkpt>
   <trkpt lat="-37.817820000000005" lon="145.36689">
    <ele>466.71</ele>
   </trkpt>
   <trkpt lat="-37.817750000000004" lon="145.36672000000002">
    <ele>468.61</ele>
   </trkpt>
   <trkpt lat="-37.81752" lon="145.36676">
    <ele>470.79</ele>
   </trkpt>
   <trkpt lat="-37.817530000000005" lon="145.36663000000001">
    <ele>471.63000000000005</ele>
   </trkpt>
   <trkpt lat="-37.81765" lon="145.36620000000002">
    <ele>473.03000000000003</ele>
   </trkpt>
   <trkpt lat="-37.81774" lon="145.36595">
    <ele>472.5</ele>
   </trkpt>
   <trkpt lat="-37.81774" lon="145.36581">
    <ele>472.17</ele>
   </trkpt>
   <trkpt lat="-37.8177" lon="145.36568000000003">
    <ele>470.66</ele>
   </trkpt>
   <trkpt lat="-37.817600000000006" lon="145.36507">
    <ele>467.20000000000005</ele>
   </trkpt>
   <trkpt lat="-37.817600000000006" lon="145.36438">
    <ele>465.52000000000004</ele>
   </trkpt>
   <trkpt lat="-37.817660000000004" lon="145.36395000000002">
    <ele>463.96000000000004</ele>
   </trkpt>
   <trkpt lat="-37.817660000000004" lon="145.36396000000002">
    <ele>463.96000000000004</ele>
   </trkpt>
   <trkpt lat="-37.81779" lon="145.36370000000002">
    <ele>463.82000000000005</ele>
   </trkpt>
   <trkpt lat="-37.817980000000006" lon="145.36344000000003">
    <ele>462.92</ele>
   </trkpt>
   <trkpt lat="-37.8183" lon="145.36328">
    <ele>463.07000000000005</ele>
   </trkpt>
   <trkpt lat="-37.81877" lon="145.36299000000002">
    <ele>468.59000000000003</ele>
   </trkpt>
   <trkpt lat="-37.81931" lon="145.36299000000002">
    <ele>485.58000000000004</ele>
   </trkpt>
   <trkpt lat="-37.81949" lon="145.36302">
    <ele>495.54</ele>
   </trkpt>
   <trkpt lat="-37.81958" lon="145.36325000000002">
    <ele>502.84000000000003</ele>
   </trkpt>
   <trkpt lat="-37.81969" lon="145.36317000000003">
    <ele>503.34</ele>
   </trkpt>
   <trkpt lat="-37.81976" lon="145.36298000000002">
    <ele>503.13000000000005</ele>
   </trkpt>
   <trkpt lat="-37.81996" lon="145.36259">
    <ele>505.99000000000007</ele>
   </trkpt>
   <trkpt lat="-37.82016" lon="145.36235000000002">
    <ele>511.65000000000003</ele>
   </trkpt>
   <trkpt lat="-37.82092" lon="145.36214">
    <ele>538.36</ele>
   </trkpt>
   <trkpt lat="-37.82114" lon="145.36204">
    <ele>545.35</ele>
   </trkpt>
   <trkpt lat="-37.82168" lon="145.36193">
    <ele>552.37</ele>
   </trkpt>
   <trkpt lat="-37.82186" lon="145.36196">
    <ele>552.89</ele>
   </trkpt>
   <trkpt lat="-37.82222" lon="145.36195">
    <ele>552.94</ele>
   </trkpt>
   <trkpt lat="-37.822390000000006" lon="145.36191000000002">
    <ele>552.51</ele>
   </trkpt>
   <trkpt lat="-37.82251" lon="145.36179">
    <ele>552.3800000000001</ele>
   </trkpt>
   <trkpt lat="-37.82278" lon="145.36161">
    <ele>551.7200000000001</ele>
   </trkpt>
   <trkpt lat="-37.82285" lon="145.36151">
    <ele>551.49</ele>
   </trkpt>
   <trkpt lat="-37.82287" lon="145.36139">
    <ele>551.22</ele>
   </trkpt>
   <trkpt lat="-37.82251" lon="145.36086">
    <ele>542.36</ele>
   </trkpt>
   <trkpt lat="-37.82247" lon="145.36068">
    <ele>539.6700000000001</ele>
   </trkpt>
   <trkpt lat="-37.82251" lon="145.36048000000002">
    <ele>538.52</ele>
   </trkpt>
   <trkpt lat="-37.82291" lon="145.35968000000003">
    <ele>542.49</ele>
   </trkpt>
   <trkpt lat="-37.82314" lon="145.35915">
    <ele>543.23</ele>
   </trkpt>
   <trkpt lat="-37.82334" lon="145.3588">
    <ele>549.3</ele>
   </trkpt>
   <trkpt lat="-37.8237" lon="145.35811">
    <ele>549.0</ele>
   </trkpt>
   <trkpt lat="-37.82405" lon="145.35753000000003">
    <ele>546.9900000000001</ele>
   </trkpt>
   <trkpt lat="-37.82419" lon="145.35738">
    <ele>547.06</ele>
   </trkpt>
   <trkpt lat="-37.82493" lon="145.35696000000002">
    <ele>557.71</ele>
   </trkpt>
   <trkpt lat="-37.82504" lon="145.35681000000002">
    <ele>561.1</ele>
   </trkpt>
   <trkpt lat="-37.82531" lon="145.35659">
    <ele>566.4100000000001</ele>
   </trkpt>
   <trkpt lat="-37.825320000000005" lon="145.35658">
    <ele>566.67</ele>
   </trkpt>
   <trkpt lat="-37.82526" lon="145.35688000000002">
    <ele>564.4300000000001</ele>
   </trkpt>
   <trkpt lat="-37.82524" lon="145.35717000000002">
    <ele>560.97</ele>
   </trkpt>
   <trkpt lat="-37.825250000000004" lon="145.35765">
    <ele>555.15</ele>
   </trkpt>
   <trkpt lat="-37.82531" lon="145.35758">
    <ele>551.95</ele>
   </trkpt>
   <trkpt lat="-37.82549" lon="145.35781">
    <ele>557.8100000000001</ele>
   </trkpt>
   <trkpt lat="-37.82555" lon="145.35802">
    <ele>553.84</ele>
   </trkpt>
   <trkpt lat="-37.82567" lon="145.35817">
    <ele>551.7</ele>
   </trkpt>
   <trkpt lat="-37.82587" lon="145.35828">
    <ele>549.2900000000001</ele>
   </trkpt>
   <trkpt lat="-37.82614" lon="145.35836">
    <ele>547.47</ele>
   </trkpt>
   <trkpt lat="-37.82645" lon="145.35860000000002">
    <ele>543.51</ele>
   </trkpt>
   <trkpt lat="-37.82667" lon="145.35872">
    <ele>541.8700000000001</ele>
   </trkpt>
   <trkpt lat="-37.82678000000001" lon="145.35874">
    <ele>540.91</ele>
   </trkpt>
   <trkpt lat="-37.82681" lon="145.35894000000002">
    <ele>537.61</ele>
   </trkpt>
   <trkpt lat="-37.82687" lon="145.35904000000002">
    <ele>536.25</ele>
   </trkpt>
   <trkpt lat="-37.82694" lon="145.35909">
    <ele>535.21</ele>
   </trkpt>
   <trkpt lat="-37.82705" lon="145.35911000000002">
    <ele>534.8000000000001</ele>
   </trkpt>
   <trkpt lat="-37.827180000000006" lon="145.35917">
    <ele>533.27</ele>
   </trkpt>
   <trkpt lat="-37.82728" lon="145.35929000000002">
    <ele>531.8900000000001</ele>
   </trkpt>
   <trkpt lat="-37.82772000000001" lon="145.35955">
    <ele>525.6</ele>
   </trkpt>
   <trkpt lat="-37.82786" lon="145.3596">
    <ele>522.02</ele>
   </trkpt>
   <trkpt lat="-37.82797" lon="145.35967000000002">
    <ele>514.35</ele>
   </trkpt>
   <trkpt lat="-37.82802" lon="145.35974000000002">
    <ele>510.8400000000001</ele>
   </trkpt>
   <trkpt lat="-37.828030000000005" lon="145.35981">
    <ele>509.25000000000006</ele>
   </trkpt>
   <trkpt lat="-37.82788" lon="145.35998">
    <ele>509.33000000000004</ele>
   </trkpt>
   <trkpt lat="-37.82802" lon="145.36015">
    <ele>507.73</ele>
   </trkpt>
   <trkpt lat="-37.828210000000006" lon="145.36029000000002">
    <ele>503.88</ele>
   </trkpt>
   <trkpt lat="-37.82833" lon="145.36049">
    <ele>502.09000000000003</ele>
   </trkpt>
   <trkpt lat="-37.82835" lon="145.36064000000002">
    <ele>500.94000000000005</ele>
   </trkpt>
   <trkpt lat="-37.82831" lon="145.36141">
    <ele>497.38000000000005</ele>
   </trkpt>
   <trkpt lat="-37.828340000000004" lon="145.36183000000003">
    <ele>499.08000000000004</ele>
   </trkpt>
   <trkpt lat="-37.8284" lon="145.36201">
    <ele>499.53000000000003</ele>
   </trkpt>
   <trkpt lat="-37.82842" lon="145.3622">
    <ele>500.2000000000001</ele>
   </trkpt>
   <trkpt lat="-37.8284" lon="145.36231">
    <ele>500.19</ele>
   </trkpt>
   <trkpt lat="-37.82842" lon="145.36245000000002">
    <ele>499.72</ele>
   </trkpt>
   <trkpt lat="-37.8286" lon="145.36275">
    <ele>498.93</ele>
   </trkpt>
   <trkpt lat="-37.82882" lon="145.36294">
    <ele>499.47</ele>
   </trkpt>
   <trkpt lat="-37.82945" lon="145.36360000000002">
    <ele>497.16</ele>
   </trkpt>
   <trkpt lat="-37.82967" lon="145.3639">
    <ele>494.31</ele>
   </trkpt>
   <trkpt lat="-37.83032" lon="145.36443">
    <ele>490.99</ele>
   </trkpt>
   <trkpt lat="-37.8305" lon="145.36452">
    <ele>490.76</ele>
   </trkpt>
   <trkpt lat="-37.83059" lon="145.36460000000002">
    <ele>490.50000000000006</ele>
   </trkpt>
   <trkpt lat="-37.8309" lon="145.36471">
    <ele>490.14</ele>
   </trkpt>
   <trkpt lat="-37.83113" lon="145.36475000000002">
    <ele>489.7</ele>
   </trkpt>
   <trkpt lat="-37.83126" lon="145.36482">
    <ele>488.76</ele>
   </trkpt>
   <trkpt lat="-37.83144" lon="145.36499">
    <ele>485.14</ele>
   </trkpt>
   <trkpt lat="-37.83151" lon="145.36502000000002">
    <ele>485.14</ele>
   </trkpt>
   <trkpt lat="-37.83164" lon="145.365">
    <ele>484.23</ele>
   </trkpt>
   <trkpt lat="-37.83196" lon="145.36511000000002">
    <ele>480.33000000000004</ele>
   </trkpt>
   <trkpt lat="-37.83207" lon="145.36518">
    <ele>477.19000000000005</ele>
   </trkpt>
   <trkpt lat="-37.8324" lon="145.36562">
    <ele>469.26000000000005</ele>
   </trkpt>
   <trkpt lat="-37.83252" lon="145.36566000000002">
    <ele>467.67</ele>
   </trkpt>
   <trkpt lat="-37.832710000000006" lon="145.36564">
    <ele>465.12</ele>
   </trkpt>
   <trkpt lat="-37.83276" lon="145.3656">
    <ele>464.49</ele>
   </trkpt>
   <trkpt lat="-37.833090000000006" lon="145.36562">
    <ele>460.33</ele>
   </trkpt>
   <trkpt lat="-37.83341" lon="145.3658">
    <ele>454.36</ele>
   </trkpt>
   <trkpt lat="-37.8337" lon="145.36607">
    <ele>450.32000000000005</ele>
   </trkpt>
   <trkpt lat="-37.83419" lon="145.36644">
    <ele>442.74</ele>
   </trkpt>
   <trkpt lat="-37.83431" lon="145.36658">
    <ele>439.76000000000005</ele>
   </trkpt>
   <trkpt lat="-37.8344" lon="145.36679">
    <ele>437.74</ele>
   </trkpt>
   <trkpt lat="-37.83469" lon="145.36711000000003">
    <ele>431.75</ele>
   </trkpt>
   <trkpt lat="-37.83482" lon="145.36722">
    <ele>430.02</ele>
   </trkpt>
   <trkpt lat="-37.83509" lon="145.3673">
    <ele>425.2</ele>
   </trkpt>
   <trkpt lat="-37.83518" lon="145.36738000000003">
    <ele>424.02</ele>
   </trkpt>
   <trkpt lat="-37.835280000000004" lon="145.3676">
    <ele>423.24000000000007</ele>
   </trkpt>
   <trkpt lat="-37.835280000000004" lon="145.36759">
    <ele>423.24000000000007</ele>
   </trkpt>
   <trkpt lat="-37.83536" lon="145.3684">
    <ele>424.04</ele>
   </trkpt>
   <trkpt lat="-37.83547" lon="145.36883">
    <ele>423.3</ele>
   </trkpt>
   <trkpt lat="-37.83558" lon="145.36916000000002">
    <ele>422.52000000000004</ele>
   </trkpt>
   <trkpt lat="-37.83572" lon="145.36931">
    <ele>420.85</ele>
   </trkpt>
   <trkpt lat="-37.83583" lon="145.36949">
    <ele>417.52000000000004</ele>
   </trkpt>
   <trkpt lat="-37.83583" lon="145.36973">
    <ele>416.69000000000005</ele>
   </trkpt>
   <trkpt lat="-37.83578" lon="145.37018">
    <ele>414.51000000000005</ele>
   </trkpt>
   <trkpt lat="-37.83576" lon="145.37064">
    <ele>407.97</ele>
   </trkpt>
   <trkpt lat="-37.83574" lon="145.37077000000002">
    <ele>407.03000000000003</ele>
   </trkpt>
   <trkpt lat="-37.8353700019093" lon="145.37141000290262">
    <ele>403.24</ele>
   </trkpt>
   <trkpt lat="-37.835" lon="145.37205">
    <ele>403.70000000000005</ele>
   </trkpt>
   <trkpt lat="-37.83491" lon="145.37243">
    <ele>404.73</ele>
   </trkpt>
   <trkpt lat="-37.83491" lon="145.37251">
    <ele>405.11</ele>
   </trkpt>
   <trkpt lat="-37.835" lon="145.37262">
    <ele>405.19000000000005</ele>
   </trkpt>
   <trkpt lat="-37.83525" lon="145.37281000000002">
    <ele>401.26</ele>
   </trkpt>
   <trkpt lat="-37.83529" lon="145.37287">
    <ele>401.04</ele>
   </trkpt>
   <trkpt lat="-37.83534" lon="145.37307">
    <ele>400.69000000000005</ele>
   </trkpt>
   <trkpt lat="-37.83534" lon="145.37347000000003">
    <ele>396.22</ele>
   </trkpt>
   <trkpt lat="-37.8352" lon="145.37391000000002">
    <ele>386.97</ele>
   </trkpt>
   <trkpt lat="-37.83516" lon="145.37397">
    <ele>386.1</ele>
   </trkpt>
   <trkpt lat="-37.835060000000006" lon="145.37404">
    <ele>383.84000000000003</ele>
   </trkpt>
   <trkpt lat="-37.83478" lon="145.37412">
    <ele>378.34</ele>
   </trkpt>
   <trkpt lat="-37.83442" lon="145.37417000000002">
    <ele>373.00000000000006</ele>
   </trkpt>
   <trkpt lat="-37.83413" lon="145.37428">
    <ele>362.59000000000003</ele>
   </trkpt>
   <trkpt lat="-37.83379" lon="145.3745">
    <ele>349.87</ele>
   </trkpt>
   <trkpt lat="-37.8337" lon="145.37454000000002">
    <ele>347.58000000000004</ele>
   </trkpt>
   <trkpt lat="-37.83357" lon="145.37456">
    <ele>345.2</ele>
   </trkpt>
   <trkpt lat="-37.83328" lon="145.37453000000002">
    <ele>341.24</ele>
   </trkpt>
   <trkpt lat="-37.83283" lon="145.37455">
    <ele>335.9200000000001</ele>
   </trkpt>
   <trkpt lat="-37.83261" lon="145.37459">
    <ele>331.47</ele>
   </trkpt>
   <trkpt lat="-37.83238" lon="145.37460000000002">
    <ele>328.26000000000005</ele>
   </trkpt>
   <trkpt lat="-37.83209" lon="145.37465">
    <ele>326.43000000000006</ele>
   </trkpt>
   <trkpt lat="-37.8316" lon="145.37477">
    <ele>325.27</ele>
   </trkpt>
   <trkpt lat="-37.83142" lon="145.37479000000002">
    <ele>324.73</ele>
   </trkpt>
   <trkpt lat="-37.83099" lon="145.37507000000002">
    <ele>318.5</ele>
   </trkpt>
   <trkpt lat="-37.8305" lon="145.3753">
    <ele>311.95</ele>
   </trkpt>
   <trkpt lat="-37.83019" lon="145.37533000000002">
    <ele>309.37</ele>
   </trkpt>
   <trkpt lat="-37.8299" lon="145.37518">
    <ele>304.71000000000004</ele>
   </trkpt>
   <trkpt lat="-37.8297" lon="145.37526000000003">
    <ele>300.50000000000006</ele>
   </trkpt>
   <trkpt lat="-37.82947" lon="145.37548">
    <ele>295.17</ele>
   </trkpt>
   <trkpt lat="-37.82934" lon="145.37553">
    <ele>293.95000000000005</ele>
   </trkpt>
   <trkpt lat="-37.82909" lon="145.37557">
    <ele>290.42</ele>
   </trkpt>
   <trkpt lat="-37.82898" lon="145.37562">
    <ele>288.2</ele>
   </trkpt>
   <trkpt lat="-37.82884" lon="145.37587000000002">
    <ele>283.83000000000004</ele>
   </trkpt>
   <trkpt lat="-37.82876" lon="145.37608">
    <ele>280.43</ele>
   </trkpt>
   <trkpt lat="-37.828880000000005" lon="145.37612000000001">
    <ele>280.74000000000007</ele>
   </trkpt>
   <trkpt lat="-37.828920000000004" lon="145.37623000000002">
    <ele>280.91</ele>
   </trkpt>
   <trkpt lat="-37.82893" lon="145.37641000000002">
    <ele>280.28000000000003</ele>
   </trkpt>
   <trkpt lat="-37.82887" lon="145.37672">
    <ele>279.19000000000005</ele>
   </trkpt>
   <trkpt lat="-37.82873" lon="145.37708">
    <ele>278.74</ele>
   </trkpt>
   <trkpt lat="-37.8286" lon="145.37732000000003">
    <ele>277.51000000000005</ele>
   </trkpt>
   <trkpt lat="-37.82824" lon="145.37775000000002">
    <ele>272.43</ele>
   </trkpt>
   <trkpt lat="-37.827920000000006" lon="145.37805">
    <ele>268.77</ele>
   </trkpt>
   <trkpt lat="-37.82799" lon="145.37812000000002">
    <ele>269.21</ele>
   </trkpt>
   <trkpt lat="-37.82799" lon="145.37820000000002">
    <ele>269.46000000000004</ele>
   </trkpt>
   <trkpt lat="-37.82793" lon="145.37837000000002">
    <ele>270.99</ele>
   </trkpt>
   <trkpt lat="-37.8279" lon="145.3785">
    <ele>272.17</ele>
   </trkpt>
   <trkpt lat="-37.82797" lon="145.37874000000002">
    <ele>276.06</ele>
   </trkpt>
   <trkpt lat="-37.828120000000006" lon="145.37881000000002">
    <ele>276.83000000000004</ele>
   </trkpt>
   <trkpt lat="-37.8282" lon="145.37878">
    <ele>276.83000000000004</ele>
   </trkpt>
   <trkpt lat="-37.82833" lon="145.37879">
    <ele>282.72</ele>
   </trkpt>
   <trkpt lat="-37.82882" lon="145.37863000000002">
    <ele>288.63</ele>
   </trkpt>
   <trkpt lat="-37.82907" lon="145.3786">
    <ele>296.48</ele>
   </trkpt>
   <trkpt lat="-37.82954" lon="145.37861">
    <ele>307.64000000000004</ele>
   </trkpt>
   <trkpt lat="-37.82981" lon="145.37858">
    <ele>315.46000000000004</ele>
   </trkpt>
   <trkpt lat="-37.8299" lon="145.37852">
    <ele>315.46000000000004</ele>
   </trkpt>
   <trkpt lat="-37.8301" lon="145.37836000000001">
    <ele>321.92</ele>
   </trkpt>
   <trkpt lat="-37.83032" lon="145.37802000000002">
    <ele>331.92</ele>
   </trkpt>
   <trkpt lat="-37.83088" lon="145.37755">
    <ele>351.64</ele>
   </trkpt>
   <trkpt lat="-37.83106" lon="145.37746">
    <ele>360.27000000000004</ele>
   </trkpt>
   <trkpt lat="-37.83131" lon="145.37743">
    <ele>365.29</ele>
   </trkpt>
   <trkpt lat="-37.83164" lon="145.37725">
    <ele>370.35</ele>
   </trkpt>
   <trkpt lat="-37.83187" lon="145.37702000000002">
    <ele>373.28000000000003</ele>
   </trkpt>
   <trkpt lat="-37.83202" lon="145.37691">
    <ele>374.50000000000006</ele>
   </trkpt>
   <trkpt lat="-37.83211" lon="145.37687000000003">
    <ele>375.66</ele>
   </trkpt>
   <trkpt lat="-37.8324" lon="145.37684000000002">
    <ele>381.1</ele>
   </trkpt>
   <trkpt lat="-37.83274" lon="145.37673">
    <ele>385.04</ele>
   </trkpt>
   <trkpt lat="-37.8329" lon="145.37657000000002">
    <ele>386.07</ele>
   </trkpt>
   <trkpt lat="-37.83314" lon="145.37650000000002">
    <ele>387.3</ele>
   </trkpt>
   <trkpt lat="-37.83343" lon="145.37653">
    <ele>389.81000000000006</ele>
   </trkpt>
   <trkpt lat="-37.83344" lon="145.37654">
    <ele>389.81000000000006</ele>
   </trkpt>
   <trkpt lat="-37.83388" lon="145.37678000000002">
    <ele>393.21000000000004</ele>
   </trkpt>
   <trkpt lat="-37.83408" lon="145.37692">
    <ele>396.34000000000003</ele>
   </trkpt>
   <trkpt lat="-37.83408" lon="145.37746">
    <ele>393.6</ele>
   </trkpt>
   <trkpt lat="-37.83415" lon="145.37768">
    <ele>392.85</ele>
   </trkpt>
   <trkpt lat="-37.83426" lon="145.37779">
    <ele>393.69000000000005</ele>
   </trkpt>
   <trkpt lat="-37.83433" lon="145.37794000000002">
    <ele>394.03000000000003</ele>
   </trkpt>
   <trkpt lat="-37.8344" lon="145.37819000000002">
    <ele>393.58000000000004</ele>
   </trkpt>
   <trkpt lat="-37.8344" lon="145.3784">
    <ele>391.90000000000003</ele>
   </trkpt>
   <trkpt lat="-37.83437" lon="145.37837000000002">
    <ele>391.49</ele>
   </trkpt>
   <trkpt lat="-37.83431" lon="145.37820000000002">
    <ele>390.51</ele>
   </trkpt>
   <trkpt lat="-37.83424" lon="145.37819000000002">
    <ele>390.1</ele>
   </trkpt>
   <trkpt lat="-37.83431" lon="145.37839000000002">
    <ele>388.55</ele>
   </trkpt>
   <trkpt lat="-37.83431" lon="145.37854000000002">
    <ele>387.71000000000004</ele>
   </trkpt>
   <trkpt lat="-37.83435" lon="145.37867">
    <ele>387.07</ele>
   </trkpt>
   <trkpt lat="-37.83444" lon="145.3788">
    <ele>387.43000000000006</ele>
   </trkpt>
   <trkpt lat="-37.83449" lon="145.37891000000002">
    <ele>388.25000000000006</ele>
   </trkpt>
   <trkpt lat="-37.834500000000006" lon="145.37906">
    <ele>389.16</ele>
   </trkpt>
   <trkpt lat="-37.83442" lon="145.37944000000002">
    <ele>388.03000000000003</ele>
   </trkpt>
   <trkpt lat="-37.83446" lon="145.37967">
    <ele>387.14000000000004</ele>
   </trkpt>
   <trkpt lat="-37.83444" lon="145.38021">
    <ele>384.26000000000005</ele>
   </trkpt>
   <trkpt lat="-37.83446" lon="145.38038">
    <ele>383.40000000000003</ele>
   </trkpt>
   <trkpt lat="-37.83464" lon="145.38086">
    <ele>383.36</ele>
   </trkpt>
   <trkpt lat="-37.8346" lon="145.38080000000002">
    <ele>383.36</ele>
   </trkpt>
   <trkpt lat="-37.83464" lon="145.38085">
    <ele>383.36</ele>
   </trkpt>
   <trkpt lat="-37.83458" lon="145.38077">
    <ele>382.48</ele>
   </trkpt>
   <trkpt lat="-37.83451" lon="145.38065">
    <ele>381.92</ele>
   </trkpt>
   <trkpt lat="-37.83435" lon="145.38021">
    <ele>381.11</ele>
   </trkpt>
   <trkpt lat="-37.83422" lon="145.37978">
    <ele>379.29</ele>
   </trkpt>
   <trkpt lat="-37.83413" lon="145.37958">
    <ele>377.45</ele>
   </trkpt>
   <trkpt lat="-37.83408" lon="145.37972000000002">
    <ele>375.67</ele>
   </trkpt>
   <trkpt lat="-37.83413" lon="145.3805">
    <ele>371.35</ele>
   </trkpt>
   <trkpt lat="-37.83404" lon="145.38078000000002">
    <ele>366.81</ele>
   </trkpt>
   <trkpt lat="-37.83397" lon="145.38076">
    <ele>366.81</ele>
   </trkpt>
   <trkpt lat="-37.83393" lon="145.38078000000002">
    <ele>366.17</ele>
   </trkpt>
   <trkpt lat="-37.83393" lon="145.38093">
    <ele>364.40000000000003</ele>
   </trkpt>
   <trkpt lat="-37.8339" lon="145.38104">
    <ele>363.09000000000003</ele>
   </trkpt>
   <trkpt lat="-37.83381" lon="145.38102">
    <ele>360.91</ele>
   </trkpt>
   <trkpt lat="-37.83379" lon="145.38095">
    <ele>360.91</ele>
   </trkpt>
   <trkpt lat="-37.83375" lon="145.38101">
    <ele>360.22</ele>
   </trkpt>
   <trkpt lat="-37.8337" lon="145.38096000000002">
    <ele>358.98</ele>
   </trkpt>
   <trkpt lat="-37.83355" lon="145.38059">
    <ele>356.07000000000005</ele>
   </trkpt>
   <trkpt lat="-37.83348" lon="145.38031">
    <ele>354.47</ele>
   </trkpt>
   <trkpt lat="-37.83339" lon="145.38015000000001">
    <ele>353.23</ele>
   </trkpt>
   <trkpt lat="-37.83332" lon="145.37994">
    <ele>350.41</ele>
   </trkpt>
   <trkpt lat="-37.8333" lon="145.37976">
    <ele>349.23</ele>
   </trkpt>
   <trkpt lat="-37.83328" lon="145.37975">
    <ele>349.23</ele>
   </trkpt>
   <trkpt lat="-37.83324" lon="145.37981000000002">
    <ele>349.23</ele>
   </trkpt>
   <trkpt lat="-37.833270000000006" lon="145.37975">
    <ele>349.23</ele>
   </trkpt>
   <trkpt lat="-37.83323" lon="145.37983">
    <ele>348.5</ele>
   </trkpt>
   <trkpt lat="-37.83321" lon="145.38043000000002">
    <ele>344.95000000000005</ele>
   </trkpt>
   <trkpt lat="-37.833180000000006" lon="145.38076">
    <ele>342.08000000000004</ele>
   </trkpt>
   <trkpt lat="-37.83312" lon="145.38080000000002">
    <ele>342.08000000000004</ele>
   </trkpt>
   <trkpt lat="-37.83301" lon="145.38045000000002">
    <ele>336.08000000000004</ele>
   </trkpt>
   <trkpt lat="-37.83294" lon="145.38052000000002">
    <ele>333.17</ele>
   </trkpt>
   <trkpt lat="-37.83283" lon="145.38043000000002">
    <ele>331.40000000000003</ele>
   </trkpt>
   <trkpt lat="-37.83272" lon="145.38021">
    <ele>328.94</ele>
   </trkpt>
   <trkpt lat="-37.83267" lon="145.38018000000002">
    <ele>325.53000000000003</ele>
   </trkpt>
   <trkpt lat="-37.83258" lon="145.38037">
    <ele>324.01</ele>
   </trkpt>
   <trkpt lat="-37.832530000000006" lon="145.38095">
    <ele>319.21999999999997</ele>
   </trkpt>
   <trkpt lat="-37.832530000000006" lon="145.38113">
    <ele>318.48</ele>
   </trkpt>
   <trkpt lat="-37.83243" lon="145.38147">
    <ele>316.77000000000004</ele>
   </trkpt>
   <trkpt lat="-37.8324" lon="145.38176">
    <ele>316.67</ele>
   </trkpt>
   <trkpt lat="-37.8324" lon="145.38189">
    <ele>317.16</ele>
   </trkpt>
   <trkpt lat="-37.83245" lon="145.38221000000001">
    <ele>317.47</ele>
   </trkpt>
   <trkpt lat="-37.83243" lon="145.38225">
    <ele>316.85</ele>
   </trkpt>
   <trkpt lat="-37.83238" lon="145.38223000000002">
    <ele>316.05000000000007</ele>
   </trkpt>
   <trkpt lat="-37.83229" lon="145.38207">
    <ele>312.49000000000007</ele>
   </trkpt>
   <trkpt lat="-37.83225" lon="145.38207">
    <ele>311.71000000000004</ele>
   </trkpt>
   <trkpt lat="-37.83216" lon="145.38223000000002">
    <ele>309.73</ele>
   </trkpt>
   <trkpt lat="-37.83211" lon="145.38240000000002">
    <ele>308.54</ele>
   </trkpt>
   <trkpt lat="-37.83207" lon="145.38281">
    <ele>306.57</ele>
   </trkpt>
   <trkpt lat="-37.832060000000006" lon="145.38286000000002">
    <ele>305.93</ele>
   </trkpt>
   <trkpt lat="-37.832" lon="145.38279">
    <ele>305.18</ele>
   </trkpt>
   <trkpt lat="-37.83189" lon="145.38274">
    <ele>301.70000000000005</ele>
   </trkpt>
   <trkpt lat="-37.83182" lon="145.38274">
    <ele>300.86</ele>
   </trkpt>
   <trkpt lat="-37.83171" lon="145.3828">
    <ele>299.35</ele>
   </trkpt>
   <trkpt lat="-37.83167" lon="145.38286000000002">
    <ele>298.23</ele>
   </trkpt>
   <trkpt lat="-37.83151" lon="145.38327">
    <ele>296.24</ele>
   </trkpt>
   <trkpt lat="-37.83146" lon="145.38333">
    <ele>294.94000000000005</ele>
   </trkpt>
   <trkpt lat="-37.83135" lon="145.38339000000002">
    <ele>294.24</ele>
   </trkpt>
   <trkpt lat="-37.83113" lon="145.38346">
    <ele>289.18000000000006</ele>
   </trkpt>
   <trkpt lat="-37.83099" lon="145.38348000000002">
    <ele>286.87</ele>
   </trkpt>
   <trkpt lat="-37.83084" lon="145.38343">
    <ele>283.67</ele>
   </trkpt>
   <trkpt lat="-37.83068" lon="145.38333">
    <ele>281.16</ele>
   </trkpt>
   <trkpt lat="-37.83059" lon="145.38335">
    <ele>280.49</ele>
   </trkpt>
   <trkpt lat="-37.83048" lon="145.38344">
    <ele>279.87</ele>
   </trkpt>
   <trkpt lat="-37.83046" lon="145.38359">
    <ele>279.42</ele>
   </trkpt>
   <trkpt lat="-37.83039" lon="145.38364">
    <ele>278.87</ele>
   </trkpt>
   <trkpt lat="-37.83037" lon="145.38371">
    <ele>278.13000000000005</ele>
   </trkpt>
   <trkpt lat="-37.8303" lon="145.38377">
    <ele>277.22</ele>
   </trkpt>
   <trkpt lat="-37.83023" lon="145.38377">
    <ele>277.22</ele>
   </trkpt>
   <trkpt lat="-37.83017" lon="145.38361">
    <ele>274.71</ele>
   </trkpt>
   <trkpt lat="-37.8301" lon="145.38357000000002">
    <ele>274.71</ele>
   </trkpt>
   <trkpt lat="-37.82996" lon="145.38356000000002">
    <ele>272.90000000000003</ele>
   </trkpt>
   <trkpt lat="-37.82992" lon="145.38342">
    <ele>271.24</ele>
   </trkpt>
   <trkpt lat="-37.82983" lon="145.38335">
    <ele>270.84000000000003</ele>
   </trkpt>
   <trkpt lat="-37.82976" lon="145.38340000000002">
    <ele>270.18</ele>
   </trkpt>
   <trkpt lat="-37.8297" lon="145.38374000000002">
    <ele>269.37</ele>
   </trkpt>
   <trkpt lat="-37.82963" lon="145.3838">
    <ele>268.89</ele>
   </trkpt>
   <trkpt lat="-37.82938" lon="145.38395">
    <ele>266.06</ele>
   </trkpt>
   <trkpt lat="-37.82905" lon="145.38407">
    <ele>262.17</ele>
   </trkpt>
   <trkpt lat="-37.82898" lon="145.38407">
    <ele>261.03999999999996</ele>
   </trkpt>
   <trkpt lat="-37.82864" lon="145.38389">
    <ele>258.19</ele>
   </trkpt>
   <trkpt lat="-37.82849" lon="145.38387">
    <ele>258.19</ele>
   </trkpt>
   <trkpt lat="-37.82835" lon="145.3839">
    <ele>247.77</ele>
   </trkpt>
   <trkpt lat="-37.82828000000001" lon="145.38382000000001">
    <ele>247.77</ele>
   </trkpt>
   <trkpt lat="-37.82827" lon="145.38381">
    <ele>247.3</ele>
   </trkpt>
   <trkpt lat="-37.82831" lon="145.38432">
    <ele>248.31000000000003</ele>
   </trkpt>
   <trkpt lat="-37.82835" lon="145.38451">
    <ele>248.47000000000003</ele>
   </trkpt>
   <trkpt lat="-37.82861000127391" lon="145.3850499981829">
    <ele>249.01</ele>
   </trkpt>
   <trkpt lat="-37.82887" lon="145.38559">
    <ele>250.82999999999998</ele>
   </trkpt>
   <trkpt lat="-37.82898" lon="145.38607000000002">
    <ele>251.94</ele>
   </trkpt>
   <trkpt lat="-37.82931" lon="145.38711">
    <ele>255.79000000000002</ele>
   </trkpt>
   <trkpt lat="-37.82938" lon="145.38762">
    <ele>256.51</ele>
   </trkpt>
   <trkpt lat="-37.82938000674723" lon="145.388513333375">
    <ele>258.44</ele>
   </trkpt>
   <trkpt lat="-37.82938000674723" lon="145.3894066667501">
    <ele>259.42</ele>
   </trkpt>
   <trkpt lat="-37.82938" lon="145.39030000000002">
    <ele>258.67</ele>
   </trkpt>
   <trkpt lat="-37.829350000000005" lon="145.39053">
    <ele>258.93</ele>
   </trkpt>
   <trkpt lat="-37.82927" lon="145.39053">
    <ele>258.65000000000003</ele>
   </trkpt>
   <trkpt lat="-37.8292" lon="145.39066000000003">
    <ele>258.33</ele>
   </trkpt>
   <trkpt lat="-37.82909" lon="145.39100000000002">
    <ele>258.17</ele>
   </trkpt>
   <trkpt lat="-37.82902" lon="145.39116">
    <ele>258.17</ele>
   </trkpt>
   <trkpt lat="-37.82869" lon="145.39164000000002">
    <ele>258.32</ele>
   </trkpt>
   <trkpt lat="-37.8286" lon="145.39170000000001">
    <ele>258.25000000000006</ele>
   </trkpt>
   <trkpt lat="-37.82846" lon="145.39174">
    <ele>257.92</ele>
   </trkpt>
   <trkpt lat="-37.8282" lon="145.39166">
    <ele>257.17</ele>
   </trkpt>
   <trkpt lat="-37.828160000000004" lon="145.39166">
    <ele>257.14000000000004</ele>
   </trkpt>
   <trkpt lat="-37.82782" lon="145.39147">
    <ele>255.32999999999998</ele>
   </trkpt>
   <trkpt lat="-37.82728" lon="145.39110000000002">
    <ele>251.07000000000002</ele>
   </trkpt>
   <trkpt lat="-37.82701" lon="145.39096">
    <ele>249.14000000000001</ele>
   </trkpt>
   <trkpt lat="-37.82674" lon="145.39086">
    <ele>245.49</ele>
   </trkpt>
   <trkpt lat="-37.82661" lon="145.39093000000003">
    <ele>244.21</ele>
   </trkpt>
   <trkpt lat="-37.82647" lon="145.39103">
    <ele>243.37000000000003</ele>
   </trkpt>
   <trkpt lat="-37.82636" lon="145.3912">
    <ele>242.56000000000003</ele>
   </trkpt>
   <trkpt lat="-37.82614" lon="145.39172000000002">
    <ele>241.21</ele>
   </trkpt>
   <trkpt lat="-37.82587" lon="145.39213">
    <ele>240.76000000000002</ele>
   </trkpt>
   <trkpt lat="-37.82558" lon="145.39251000000002">
    <ele>242.02</ele>
   </trkpt>
   <trkpt lat="-37.82549" lon="145.39275">
    <ele>243.85</ele>
   </trkpt>
   <trkpt lat="-37.82528000000001" lon="145.39302">
    <ele>248.17000000000002</ele>
   </trkpt>
   <trkpt lat="-37.82535" lon="145.39318">
    <ele>247.9</ele>
   </trkpt>
   <trkpt lat="-37.82596" lon="145.39401">
    <ele>244.23000000000002</ele>
   </trkpt>
   <trkpt lat="-37.82658" lon="145.39459000000002">
    <ele>242.81000000000003</ele>
   </trkpt>
   <trkpt lat="-37.82683" lon="145.3949">
    <ele>243.70000000000002</ele>
   </trkpt>
   <trkpt lat="-37.82699" lon="145.39524">
    <ele>243.58</ele>
   </trkpt>
   <trkpt lat="-37.8271" lon="145.39566000000002">
    <ele>243.13</ele>
   </trkpt>
   <trkpt lat="-37.82708" lon="145.39584000000002">
    <ele>243.13</ele>
   </trkpt>
   <trkpt lat="-37.82674" lon="145.39683000000002">
    <ele>240.15000000000003</ele>
   </trkpt>
   <trkpt lat="-37.826710000000006" lon="145.39722">
    <ele>240.26000000000002</ele>
   </trkpt>
   <trkpt lat="-37.82687" lon="145.3976">
    <ele>239.65000000000003</ele>
   </trkpt>
   <trkpt lat="-37.82717" lon="145.39794">
    <ele>238.91</ele>
   </trkpt>
   <trkpt lat="-37.8277" lon="145.39822">
    <ele>237.97</ele>
   </trkpt>
   <trkpt lat="-37.82786" lon="145.39827000000002">
    <ele>237.52</ele>
   </trkpt>
   <trkpt lat="-37.82797" lon="145.39835000000002">
    <ele>237.10000000000002</ele>
   </trkpt>
   <trkpt lat="-37.82802" lon="145.39844000000002">
    <ele>237.10000000000002</ele>
   </trkpt>
   <trkpt lat="-37.82808" lon="145.39864">
    <ele>236.35000000000002</ele>
   </trkpt>
   <trkpt lat="-37.828070000000004" lon="145.39876">
    <ele>236.35000000000002</ele>
   </trkpt>
   <trkpt lat="-37.82806" lon="145.39877">
    <ele>236.35000000000002</ele>
   </trkpt>
   <trkpt lat="-37.828" lon="145.39888000000002">
    <ele>236.16</ele>
   </trkpt>
   <trkpt lat="-37.82786" lon="145.39904">
    <ele>235.95000000000002</ele>
   </trkpt>
   <trkpt lat="-37.82721" lon="145.39939">
    <ele>234.48000000000002</ele>
   </trkpt>
   <trkpt lat="-37.82665" lon="145.39974">
    <ele>232.5</ele>
   </trkpt>
   <trkpt lat="-37.82636" lon="145.39988000000002">
    <ele>232.02000000000004</ele>
   </trkpt>
   <trkpt lat="-37.82558" lon="145.40035">
    <ele>229.94</ele>
   </trkpt>
   <trkpt lat="-37.825185000439255" lon="145.40062500138868">
    <ele>228.53</ele>
   </trkpt>
   <trkpt lat="-37.82479" lon="145.4009">
    <ele>227.34</ele>
   </trkpt>
   <trkpt lat="-37.82448" lon="145.40115">
    <ele>226.8</ele>
   </trkpt>
   <trkpt lat="-37.824310000000004" lon="145.40124">
    <ele>227.10000000000002</ele>
   </trkpt>
   <trkpt lat="-37.82381" lon="145.40116">
    <ele>230.78</ele>
   </trkpt>
   <trkpt lat="-37.82329" lon="145.40123">
    <ele>233.04000000000002</ele>
   </trkpt>
   <trkpt lat="-37.82267" lon="145.40126">
    <ele>234.49000000000004</ele>
   </trkpt>
   <trkpt lat="-37.82222" lon="145.40137000000001">
    <ele>236.45000000000002</ele>
   </trkpt>
   <trkpt lat="-37.82172499981792" lon="145.40138500010616">
    <ele>236.96000000000004</ele>
   </trkpt>
   <trkpt lat="-37.82123" lon="145.40140000000002">
    <ele>238.1</ele>
   </trkpt>
   <trkpt lat="-37.82065" lon="145.40118">
    <ele>241.13</ele>
   </trkpt>
   <trkpt lat="-37.81978" lon="145.40107">
    <ele>241.6</ele>
   </trkpt>
   <trkpt lat="-37.81958" lon="145.40109">
    <ele>241.34000000000003</ele>
   </trkpt>
   <trkpt lat="-37.8194" lon="145.40109">
    <ele>240.06000000000003</ele>
   </trkpt>
   <trkpt lat="-37.81893" lon="145.40123">
    <ele>234.68000000000004</ele>
   </trkpt>
   <trkpt lat="-37.81886" lon="145.40130000000002">
    <ele>234.11</ele>
   </trkpt>
   <trkpt lat="-37.81864" lon="145.4016">
    <ele>231.3</ele>
   </trkpt>
   <trkpt lat="-37.81841" lon="145.40176000000002">
    <ele>229.23000000000002</ele>
   </trkpt>
   <trkpt lat="-37.81823" lon="145.40184000000002">
    <ele>226.36</ele>
   </trkpt>
   <trkpt lat="-37.818000000000005" lon="145.4019">
    <ele>223.76000000000002</ele>
   </trkpt>
   <trkpt lat="-37.81743" lon="145.40201000000002">
    <ele>222.35000000000002</ele>
   </trkpt>
   <trkpt lat="-37.81664" lon="145.40208">
    <ele>223.72000000000003</ele>
   </trkpt>
   <trkpt lat="-37.81611499975979" lon="145.40206499988642">
    <ele>222.35000000000002</ele>
   </trkpt>
   <trkpt lat="-37.81559" lon="145.40205">
    <ele>223.94000000000003</ele>
   </trkpt>
   <trkpt lat="-37.81514500004861" lon="145.40196999952167">
    <ele>223.65</ele>
   </trkpt>
   <trkpt lat="-37.8147" lon="145.40189">
    <ele>223.8</ele>
   </trkpt>
   <trkpt lat="-37.81445" lon="145.40187">
    <ele>225.38000000000002</ele>
   </trkpt>
   <trkpt lat="-37.81373500008655" lon="145.40175999894015">
    <ele>226.65</ele>
   </trkpt>
   <trkpt lat="-37.81302" lon="145.40165000000002">
    <ele>226.70000000000002</ele>
   </trkpt>
   <trkpt lat="-37.81245500017712" lon="145.4014899987951">
    <ele>227.91000000000003</ele>
   </trkpt>
   <trkpt lat="-37.811890000000005" lon="145.40133">
    <ele>229.85000000000002</ele>
   </trkpt>
   <trkpt lat="-37.81181" lon="145.40122000000002">
    <ele>230.39000000000001</ele>
   </trkpt>
   <trkpt lat="-37.811600000000006" lon="145.40082">
    <ele>229.71</ele>
   </trkpt>
   <trkpt lat="-37.811550002177384" lon="145.40010499975315">
    <ele>226.44000000000003</ele>
   </trkpt>
   <trkpt lat="-37.8115" lon="145.39939">
    <ele>222.77</ele>
   </trkpt>
   <trkpt lat="-37.81127000328111" lon="145.39850499713037">
    <ele>216.50000000000003</ele>
   </trkpt>
   <trkpt lat="-37.811040000000006" lon="145.39762000000002">
    <ele>210.67000000000002</ele>
   </trkpt>
   <trkpt lat="-37.81114" lon="145.39716">
    <ele>211.57</ele>
   </trkpt>
   <trkpt lat="-37.811170000000004" lon="145.39678">
    <ele>213.48000000000002</ele>
   </trkpt>
   <trkpt lat="-37.811040000000006" lon="145.3965">
    <ele>213.16000000000003</ele>
   </trkpt>
   <trkpt lat="-37.81082" lon="145.39620000000002">
    <ele>211.52</ele>
   </trkpt>
   <trkpt lat="-37.81038" lon="145.39556000000002">
    <ele>206.35</ele>
   </trkpt>
   <trkpt lat="-37.81004" lon="145.39517">
    <ele>212.63</ele>
   </trkpt>
   <trkpt lat="-37.809610000000006" lon="145.39489">
    <ele>214.08</ele>
   </trkpt>
   <trkpt lat="-37.80885000081996" lon="145.39442999522055">
    <ele>215.34000000000003</ele>
   </trkpt>
   <trkpt lat="-37.80809" lon="145.39397000000002">
    <ele>219.94000000000003</ele>
   </trkpt>
   <trkpt lat="-37.80769" lon="145.3938">
    <ele>223.31</ele>
   </trkpt>
   <trkpt lat="-37.80699750232883" lon="145.39336998789338">
    <ele>224.8</ele>
   </trkpt>
   <trkpt lat="-37.80630500309463" lon="145.39293998385162">
    <ele>225.23000000000002</ele>
   </trkpt>
   <trkpt lat="-37.80561250229747" lon="145.39250998787432">
    <ele>221.81</ele>
   </trkpt>
   <trkpt lat="-37.80492" lon="145.39208000000002">
    <ele>214.52</ele>
   </trkpt>
   <trkpt lat="-37.80456" lon="145.39142">
    <ele>213.41000000000003</ele>
   </trkpt>
   <trkpt lat="-37.80413" lon="145.39108000000002">
    <ele>214.63000000000002</ele>
   </trkpt>
   <trkpt lat="-37.80357" lon="145.39089">
    <ele>219.94000000000003</ele>
   </trkpt>
   <trkpt lat="-37.80333" lon="145.39082000000002">
    <ele>220.77</ele>
   </trkpt>
   <trkpt lat="-37.80303" lon="145.39067">
    <ele>222.64</ele>
   </trkpt>
   <trkpt lat="-37.80268" lon="145.39028000000002">
    <ele>223.10000000000002</ele>
   </trkpt>
   <trkpt lat="-37.80241" lon="145.38983000000002">
    <ele>222.4</ele>
   </trkpt>
   <trkpt lat="-37.802310000000006" lon="145.38959">
    <ele>221.79000000000002</ele>
   </trkpt>
   <trkpt lat="-37.802310000000006" lon="145.38957000000002">
    <ele>221.79000000000002</ele>
   </trkpt>
   <trkpt lat="-37.80221" lon="145.38911000000002">
    <ele>219.01000000000002</ele>
   </trkpt>
   <trkpt lat="-37.802200000000006" lon="145.38854">
    <ele>213.09000000000003</ele>
   </trkpt>
   <trkpt lat="-37.80243" lon="145.38933">
    <ele>226.61</ele>
   </trkpt>
   <trkpt lat="-37.802580000000006" lon="145.38963">
    <ele>230.97</ele>
   </trkpt>
   <trkpt lat="-37.80263" lon="145.38952">
    <ele>231.96000000000004</ele>
   </trkpt>
   <trkpt lat="-37.80268" lon="145.38948000000002">
    <ele>232.59</ele>
   </trkpt>
   <trkpt lat="-37.80272" lon="145.38946">
    <ele>233.32000000000002</ele>
   </trkpt>
   <trkpt lat="-37.8031" lon="145.38961">
    <ele>240.89000000000001</ele>
   </trkpt>
   <trkpt lat="-37.803430000000006" lon="145.38959">
    <ele>245.3</ele>
   </trkpt>
   <trkpt lat="-37.80362" lon="145.38951">
    <ele>247.66000000000003</ele>
   </trkpt>
   <trkpt lat="-37.80384" lon="145.38932">
    <ele>249.37</ele>
   </trkpt>
   <trkpt lat="-37.80411" lon="145.38901">
    <ele>254.92000000000004</ele>
   </trkpt>
   <trkpt lat="-37.80442" lon="145.38840000000002">
    <ele>267.32</ele>
   </trkpt>
   <trkpt lat="-37.80465" lon="145.38811">
    <ele>276.95000000000005</ele>
   </trkpt>
   <trkpt lat="-37.8048" lon="145.38797000000002">
    <ele>280.09</ele>
   </trkpt>
   <trkpt lat="-37.80491" lon="145.38793">
    <ele>281.42</ele>
   </trkpt>
   <trkpt lat="-37.80509" lon="145.38794000000001">
    <ele>282.93</ele>
   </trkpt>
   <trkpt lat="-37.80525" lon="145.388">
    <ele>283.23</ele>
   </trkpt>
   <trkpt lat="-37.80561" lon="145.38825">
    <ele>280.84000000000003</ele>
   </trkpt>
   <trkpt lat="-37.80579" lon="145.38858000000002">
    <ele>277.42</ele>
   </trkpt>
   <trkpt lat="-37.80583" lon="145.38891">
    <ele>276.78000000000003</ele>
   </trkpt>
   <trkpt lat="-37.8059" lon="145.38919">
    <ele>276.62</ele>
   </trkpt>
   <trkpt lat="-37.80599" lon="145.38936">
    <ele>276.18</ele>
   </trkpt>
   <trkpt lat="-37.80628" lon="145.38969">
    <ele>280.53</ele>
   </trkpt>
   <trkpt lat="-37.80675" lon="145.39037000000002">
    <ele>293.44000000000005</ele>
   </trkpt>
   <trkpt lat="-37.80691" lon="145.39068">
    <ele>294.63</ele>
   </trkpt>
   <trkpt lat="-37.80695" lon="145.39072000000002">
    <ele>294.52</ele>
   </trkpt>
   <trkpt lat="-37.8072" lon="145.3908">
    <ele>292.09000000000003</ele>
   </trkpt>
   <trkpt lat="-37.80747" lon="145.39085">
    <ele>290.44</ele>
   </trkpt>
   <trkpt lat="-37.807840000000006" lon="145.39083000000002">
    <ele>288.79</ele>
   </trkpt>
   <trkpt lat="-37.80828000004263" lon="145.39066500101035">
    <ele>290.37</ele>
   </trkpt>
   <trkpt lat="-37.80872" lon="145.3905">
    <ele>295.02</ele>
   </trkpt>
   <trkpt lat="-37.80897" lon="145.39046000000002">
    <ele>297.54</ele>
   </trkpt>
   <trkpt lat="-37.80953" lon="145.39024">
    <ele>308.48</ele>
   </trkpt>
   <trkpt lat="-37.809985000140664" lon="145.390095000877">
    <ele>315.65000000000003</ele>
   </trkpt>
   <trkpt lat="-37.81044" lon="145.38995">
    <ele>328.41</ele>
   </trkpt>
   <trkpt lat="-37.81098" lon="145.38993000000002">
    <ele>330.68</ele>
   </trkpt>
   <trkpt lat="-37.8115" lon="145.38977">
    <ele>333.33</ele>
   </trkpt>
   <trkpt lat="-37.811890000000005" lon="145.38958000000002">
    <ele>338.4200000000001</ele>
   </trkpt>
   <trkpt lat="-37.81194" lon="145.3898">
    <ele>337.71</ele>
   </trkpt>
   <trkpt lat="-37.81223" lon="145.38973000000001">
    <ele>342.75000000000006</ele>
   </trkpt>
   <trkpt lat="-37.81264" lon="145.38971">
    <ele>349.57000000000005</ele>
   </trkpt>
   <trkpt lat="-37.81282" lon="145.38982000000001">
    <ele>351.98</ele>
   </trkpt>
   <trkpt lat="-37.81295" lon="145.38976000000002">
    <ele>353.22</ele>
   </trkpt>
   <trkpt lat="-37.81311" lon="145.38965000000002">
    <ele>357.2</ele>
   </trkpt>
   <trkpt lat="-37.81331" lon="145.38975000000002">
    <ele>361.54</ele>
   </trkpt>
   <trkpt lat="-37.813480000000006" lon="145.38977">
    <ele>362.23</ele>
   </trkpt>
   <trkpt lat="-37.81367" lon="145.38961">
    <ele>367.26000000000005</ele>
   </trkpt>
   <trkpt lat="-37.81396" lon="145.38953">
    <ele>373.56</ele>
   </trkpt>
   <trkpt lat="-37.81416" lon="145.38962">
    <ele>377.67</ele>
   </trkpt>
   <trkpt lat="-37.81441" lon="145.38985000000002">
    <ele>381.99000000000007</ele>
   </trkpt>
   <trkpt lat="-37.81467" lon="145.38997">
    <ele>388.84000000000003</ele>
   </trkpt>
   <trkpt lat="-37.81515" lon="145.38996">
    <ele>393.49</ele>
   </trkpt>
   <trkpt lat="-37.81499" lon="145.38979">
    <ele>392.04</ele>
   </trkpt>
   <trkpt lat="-37.81476" lon="145.38943">
    <ele>388.08000000000004</ele>
   </trkpt>
   <trkpt lat="-37.81472" lon="145.38927">
    <ele>384.92</ele>
   </trkpt>
   <trkpt lat="-37.81472" lon="145.38914000000003">
    <ele>383.53000000000003</ele>
   </trkpt>
   <trkpt lat="-37.814780000000006" lon="145.38887000000003">
    <ele>380.96000000000004</ele>
   </trkpt>
   <trkpt lat="-37.8149" lon="145.38855">
    <ele>378.8</ele>
   </trkpt>
   <trkpt lat="-37.81499" lon="145.38819">
    <ele>373.16</ele>
   </trkpt>
   <trkpt lat="-37.81501" lon="145.38777000000002">
    <ele>367.25</ele>
   </trkpt>
   <trkpt lat="-37.81499" lon="145.38769000000002">
    <ele>367.25</ele>
   </trkpt>
   <trkpt lat="-37.814910000000005" lon="145.38760000000002">
    <ele>365.35</ele>
   </trkpt>
   <trkpt lat="-37.81467" lon="145.38699000000003">
    <ele>353.64</ele>
   </trkpt>
   <trkpt lat="-37.81454" lon="145.38670000000002">
    <ele>347.08000000000004</ele>
   </trkpt>
   <trkpt lat="-37.81429" lon="145.38623">
    <ele>341.96000000000004</ele>
   </trkpt>
   <trkpt lat="-37.81416" lon="145.38590000000002">
    <ele>338.9200000000001</ele>
   </trkpt>
   <trkpt lat="-37.81412" lon="145.38552">
    <ele>338.9200000000001</ele>
   </trkpt>
   <trkpt lat="-37.81407" lon="145.38541">
    <ele>339.15</ele>
   </trkpt>
   <trkpt lat="-37.81394" lon="145.38521">
    <ele>339.4200000000001</ele>
   </trkpt>
   <trkpt lat="-37.81376" lon="145.38503">
    <ele>339.57000000000005</ele>
   </trkpt>
   <trkpt lat="-37.813570000000006" lon="145.38469">
    <ele>340.90000000000003</ele>
   </trkpt>
   <trkpt lat="-37.81338" lon="145.38455000000002">
    <ele>339.27</ele>
   </trkpt>
   <trkpt lat="-37.81315" lon="145.3845">
    <ele>337.45000000000005</ele>
   </trkpt>
   <trkpt lat="-37.81295" lon="145.38453">
    <ele>335.31000000000006</ele>
   </trkpt>
   <trkpt lat="-37.81264" lon="145.38471">
    <ele>328.63000000000005</ele>
   </trkpt>
   <trkpt lat="-37.81235" lon="145.38498">
    <ele>323.93000000000006</ele>
   </trkpt>
   <trkpt lat="-37.81221" lon="145.38514">
    <ele>313.34</ele>
   </trkpt>
   <trkpt lat="-37.81212" lon="145.38468">
    <ele>317.1</ele>
   </trkpt>
   <trkpt lat="-37.81212" lon="145.38423">
    <ele>321.62</ele>
   </trkpt>
   <trkpt lat="-37.812160000000006" lon="145.38382000000001">
    <ele>325.72</ele>
   </trkpt>
   <trkpt lat="-37.81212" lon="145.38356000000002">
    <ele>327.0</ele>
   </trkpt>
   <trkpt lat="-37.81212" lon="145.38327">
    <ele>328.25000000000006</ele>
   </trkpt>
   <trkpt lat="-37.81208" lon="145.38254">
    <ele>334.51000000000005</ele>
   </trkpt>
   <trkpt lat="-37.81197" lon="145.38242000000002">
    <ele>335.84000000000003</ele>
   </trkpt>
   <trkpt lat="-37.81179" lon="145.38250000000002">
    <ele>337.78000000000003</ele>
   </trkpt>
   <trkpt lat="-37.81096" lon="145.38266000000002">
    <ele>343.2</ele>
   </trkpt>
   <trkpt lat="-37.81051" lon="145.38276000000002">
    <ele>349.14</ele>
   </trkpt>
   <trkpt lat="-37.81094" lon="145.38252">
    <ele>350.90000000000003</ele>
   </trkpt>
   <trkpt lat="-37.81147" lon="145.38206000000002">
    <ele>356.43</ele>
   </trkpt>
   <trkpt lat="-37.81217" lon="145.38137">
    <ele>364.86</ele>
   </trkpt>
   <trkpt lat="-37.812495000876105" lon="145.3809150020014">
    <ele>368.94000000000005</ele>
   </trkpt>
   <trkpt lat="-37.81282" lon="145.38046">
    <ele>372.62</ele>
   </trkpt>
   <trkpt lat="-37.81315" lon="145.37985">
    <ele>379.07</ele>
   </trkpt>
   <trkpt lat="-37.81338" lon="145.3797">
    <ele>380.21000000000004</ele>
   </trkpt>
   <trkpt lat="-37.813370000000006" lon="145.3797">
    <ele>380.21000000000004</ele>
   </trkpt>
   <trkpt lat="-37.8136" lon="145.37974">
    <ele>381.17</ele>
   </trkpt>
   <trkpt lat="-37.81369" lon="145.37996">
    <ele>382.01</ele>
   </trkpt>
   <trkpt lat="-37.81369" lon="145.38058">
    <ele>383.42</ele>
   </trkpt>
   <trkpt lat="-37.81374" lon="145.38134000000002">
    <ele>386.77000000000004</ele>
   </trkpt>
   <trkpt lat="-37.81391" lon="145.381">
    <ele>387.75000000000006</ele>
   </trkpt>
   <trkpt lat="-37.81412500262657" lon="145.3802100023424">
    <ele>391.18</ele>
   </trkpt>
   <trkpt lat="-37.81434" lon="145.37942">
    <ele>393.34000000000003</ele>
   </trkpt>
   <trkpt lat="-37.81443" lon="145.37976">
    <ele>394.49</ele>
   </trkpt>
   <trkpt lat="-37.81456" lon="145.38073">
    <ele>399.22</ele>
   </trkpt>
   <trkpt lat="-37.81463" lon="145.38094">
    <ele>399.67</ele>
   </trkpt>
   <trkpt lat="-37.814800000000005" lon="145.38129">
    <ele>401.17</ele>
   </trkpt>
   <trkpt lat="-37.814800000000005" lon="145.3813">
    <ele>401.17</ele>
   </trkpt>
   <trkpt lat="-37.81481" lon="145.38123000000002">
    <ele>401.57000000000005</ele>
   </trkpt>
   <trkpt lat="-37.81479" lon="145.38067">
    <ele>407.18</ele>
   </trkpt>
   <trkpt lat="-37.81503500216213" lon="145.37995000247477">
    <ele>412.11</ele>
   </trkpt>
   <trkpt lat="-37.81528" lon="145.37923">
    <ele>418.56000000000006</ele>
   </trkpt>
   <trkpt lat="-37.8153" lon="145.37861">
    <ele>424.38000000000005</ele>
   </trkpt>
   <trkpt lat="-37.815000000000005" lon="145.37811000000002">
    <ele>429.8</ele>
   </trkpt>
   <trkpt lat="-37.81450000127363" lon="145.3775549962098">
    <ele>434.6700000000001</ele>
   </trkpt>
   <trkpt lat="-37.814" lon="145.377">
    <ele>441.37</ele>
   </trkpt>
   <trkpt lat="-37.81394" lon="145.37682">
    <ele>443.8</ele>
   </trkpt>
   <trkpt lat="-37.8138" lon="145.37578000000002">
    <ele>449.28000000000003</ele>
   </trkpt>
   <trkpt lat="-37.81362" lon="145.37471000000002">
    <ele>460.91</ele>
   </trkpt>
   <trkpt lat="-37.814153335978204" lon="145.37526665865033">
    <ele>465.9800000000001</ele>
   </trkpt>
   <trkpt lat="-37.814686669336886" lon="145.37582332534333">
    <ele>467.54</ele>
   </trkpt>
   <trkpt lat="-37.815220000000004" lon="145.37638">
    <ele>462.95000000000005</ele>
   </trkpt>
   <trkpt lat="-37.8156800010041" lon="145.3768449971937">
    <ele>456.23</ele>
   </trkpt>
   <trkpt lat="-37.816140000000004" lon="145.37731000000002">
    <ele>448.31000000000006</ele>
   </trkpt>
   <trkpt lat="-37.81617" lon="145.37745">
    <ele>446.77000000000004</ele>
   </trkpt>
   <trkpt lat="-37.81675000109514" lon="145.37795499604727">
    <ele>438.85</ele>
   </trkpt>
   <trkpt lat="-37.817330000000005" lon="145.37846000000002">
    <ele>433.3</ele>
   </trkpt>
   <trkpt lat="-37.81727" lon="145.37852">
    <ele>433.47</ele>
   </trkpt>
   <trkpt lat="-37.81738" lon="145.37866000000002">
    <ele>432.66</ele>
   </trkpt>
  </trkseg>
 </trk>
</gpx>
