<?xml version="1.0" encoding="UTF-8"?>
<gpx creator="StravaGPX" version="1.1" xmlns="http://www.topografix.com/GPX/1/1" xmlns:xsi="http://www.w3.org/2001/XMLSchema-instance" xsi:schemaLocation="http://www.topografix.com/GPX/1/1 http://www.topografix.com/GPX/1/1/gpx.xsd">
 <metadata>
  <name>DTR Sassafras 14k 29th June</name>
  <author>
   <name>john csorgo</name>
  </author>
  <copyright author="OpenStreetMap contributors">
   <year>2020</year>
   <license>https://www.openstreetmap.org/copyright</license>
  </copyright>
 </metadata>
 <trk>
  <name>DTR Sassafras 14k 29th June</name>
  <link href=""/>
  <type>running</type>
  <trkseg>
   <trkpt lat="-37.862750000000005" lon="145.35344">
    <ele>479.85</ele>
   </trkpt>
   <trkpt lat="-37.86256" lon="145.353">
    <ele>476.89000000000004</ele>
   </trkpt>
   <trkpt lat="-37.86253" lon="145.35292">
    <ele>476.89000000000004</ele>
   </trkpt>
   <trkpt lat="-37.86253" lon="145.35285000000002">
    <ele>476.88</ele>
   </trkpt>
   <trkpt lat="-37.86242" lon="145.35278000000002">
    <ele>477.78000000000003</ele>
   </trkpt>
   <trkpt lat="-37.86222" lon="145.35236">
    <ele>473.61</ele>
   </trkpt>
   <trkpt lat="-37.86216" lon="145.35208">
    <ele>470.58000000000004</ele>
   </trkpt>
   <trkpt lat="-37.86215" lon="145.35175">
    <ele>469.09000000000003</ele>
   </trkpt>
   <trkpt lat="-37.86222" lon="145.3514">
    <ele>465.89000000000004</ele>
   </trkpt>
   <trkpt lat="-37.862730000000006" lon="145.35069000000001">
    <ele>458.03000000000003</ele>
   </trkpt>
   <trkpt lat="-37.86285" lon="145.35058">
    <ele>453.28000000000003</ele>
   </trkpt>
   <trkpt lat="-37.863150000000005" lon="145.34997">
    <ele>447.97</ele>
   </trkpt>
   <trkpt lat="-37.86321" lon="145.3496">
    <ele>444.50000000000006</ele>
   </trkpt>
   <trkpt lat="-37.86323" lon="145.3494">
    <ele>443.33000000000004</ele>
   </trkpt>
   <trkpt lat="-37.86318" lon="145.34895">
    <ele>436.96</ele>
   </trkpt>
   <trkpt lat="-37.86316" lon="145.34836">
    <ele>431.00000000000006</ele>
   </trkpt>
   <trkpt lat="-37.86312" lon="145.34826">
    <ele>430.04</ele>
   </trkpt>
   <trkpt lat="-37.86296" lon="145.34810000000002">
    <ele>429.33000000000004</ele>
   </trkpt>
   <trkpt lat="-37.86256" lon="145.34787">
    <ele>424.97</ele>
   </trkpt>
   <trkpt lat="-37.86245" lon="145.34777000000003">
    <ele>423.09000000000003</ele>
   </trkpt>
   <trkpt lat="-37.8622" lon="145.34749000000002">
    <ele>420.38</ele>
   </trkpt>
   <trkpt lat="-37.86206" lon="145.34726">
    <ele>412.39000000000004</ele>
   </trkpt>
   <trkpt lat="-37.86202" lon="145.34712000000002">
    <ele>412.39000000000004</ele>
   </trkpt>
   <trkpt lat="-37.86193" lon="145.34642000000002">
    <ele>406.75000000000006</ele>
   </trkpt>
   <trkpt lat="-37.86186" lon="145.34658000000002">
    <ele>406.82</ele>
   </trkpt>
   <trkpt lat="-37.861790000000006" lon="145.34698">
    <ele>407.27000000000004</ele>
   </trkpt>
   <trkpt lat="-37.86186" lon="145.34747000000002">
    <ele>407.48</ele>
   </trkpt>
   <trkpt lat="-37.862115001274674" lon="145.34800999821977">
    <ele>406.82</ele>
   </trkpt>
   <trkpt lat="-37.862370000000006" lon="145.34855000000002">
    <ele>412.22</ele>
   </trkpt>
   <trkpt lat="-37.86238" lon="145.34883000000002">
    <ele>413.77000000000004</ele>
   </trkpt>
   <trkpt lat="-37.86236" lon="145.34893000000002">
    <ele>414.94</ele>
   </trkpt>
   <trkpt lat="-37.86224" lon="145.34912">
    <ele>419.25</ele>
   </trkpt>
   <trkpt lat="-37.86182" lon="145.34959">
    <ele>426.94000000000005</ele>
   </trkpt>
   <trkpt lat="-37.86166" lon="145.34982000000002">
    <ele>430.88000000000005</ele>
   </trkpt>
   <trkpt lat="-37.86135" lon="145.35045000000002">
    <ele>438.50000000000006</ele>
   </trkpt>
   <trkpt lat="-37.86115" lon="145.3511">
    <ele>446.15000000000003</ele>
   </trkpt>
   <trkpt lat="-37.86104" lon="145.35133000000002">
    <ele>447.94000000000005</ele>
   </trkpt>
   <trkpt lat="-37.860960000000006" lon="145.35146">
    <ele>450.19</ele>
   </trkpt>
   <trkpt lat="-37.860490000000006" lon="145.35181">
    <ele>460.14000000000004</ele>
   </trkpt>
   <trkpt lat="-37.86023" lon="145.35196000000002">
    <ele>462.22</ele>
   </trkpt>
   <trkpt lat="-37.85994" lon="145.35221">
    <ele>469.08000000000004</ele>
   </trkpt>
   <trkpt lat="-37.8596" lon="145.35241000000002">
    <ele>473.26</ele>
   </trkpt>
   <trkpt lat="-37.85945" lon="145.35244">
    <ele>475.12</ele>
   </trkpt>
   <trkpt lat="-37.8592" lon="145.35248">
    <ele>478.63000000000005</ele>
   </trkpt>
   <trkpt lat="-37.85851" lon="145.35268000000002">
    <ele>490.16</ele>
   </trkpt>
   <trkpt lat="-37.85835" lon="145.3527">
    <ele>490.16</ele>
   </trkpt>
   <trkpt lat="-37.858360000000005" lon="145.3527">
    <ele>490.1</ele>
   </trkpt>
   <trkpt lat="-37.85815" lon="145.35273">
    <ele>493.97</ele>
   </trkpt>
   <trkpt lat="-37.857635000010575" lon="145.35270499982573">
    <ele>498.88000000000005</ele>
   </trkpt>
   <trkpt lat="-37.85712" lon="145.35268000000002">
    <ele>503.83</ele>
   </trkpt>
   <trkpt lat="-37.85701" lon="145.35266000000001">
    <ele>506.55000000000007</ele>
   </trkpt>
   <trkpt lat="-37.85683" lon="145.35260000000002">
    <ele>507.4000000000001</ele>
   </trkpt>
   <trkpt lat="-37.85636" lon="145.35252">
    <ele>509.21000000000004</ele>
   </trkpt>
   <trkpt lat="-37.85622" lon="145.35247">
    <ele>508.19</ele>
   </trkpt>
   <trkpt lat="-37.85614" lon="145.35240000000002">
    <ele>507.14000000000004</ele>
   </trkpt>
   <trkpt lat="-37.85580500091417" lon="145.35193999793628">
    <ele>497.90000000000003</ele>
   </trkpt>
   <trkpt lat="-37.855470000000004" lon="145.35148">
    <ele>490.84000000000003</ele>
   </trkpt>
   <trkpt lat="-37.85528" lon="145.35168000000002">
    <ele>488.03000000000003</ele>
   </trkpt>
   <trkpt lat="-37.85526" lon="145.35179000000002">
    <ele>487.63000000000005</ele>
   </trkpt>
   <trkpt lat="-37.85521" lon="145.35193">
    <ele>486.47</ele>
   </trkpt>
   <trkpt lat="-37.855140000000006" lon="145.35198000000003">
    <ele>484.79</ele>
   </trkpt>
   <trkpt lat="-37.85486" lon="145.3523">
    <ele>476.14000000000004</ele>
   </trkpt>
   <trkpt lat="-37.85472" lon="145.3527">
    <ele>471.9200000000001</ele>
   </trkpt>
   <trkpt lat="-37.85466" lon="145.35276000000002">
    <ele>468.83000000000004</ele>
   </trkpt>
   <trkpt lat="-37.85461" lon="145.35294000000002">
    <ele>467.45000000000005</ele>
   </trkpt>
   <trkpt lat="-37.85461" lon="145.35309">
    <ele>466.27</ele>
   </trkpt>
   <trkpt lat="-37.854580000000006" lon="145.35319">
    <ele>464.67</ele>
   </trkpt>
   <trkpt lat="-37.85452" lon="145.35320000000002">
    <ele>464.09000000000003</ele>
   </trkpt>
   <trkpt lat="-37.85439" lon="145.35299">
    <ele>460.92</ele>
   </trkpt>
   <trkpt lat="-37.854350000000004" lon="145.35299">
    <ele>460.40000000000003</ele>
   </trkpt>
   <trkpt lat="-37.854110000000006" lon="145.35328">
    <ele>457.52000000000004</ele>
   </trkpt>
   <trkpt lat="-37.85396" lon="145.35339000000002">
    <ele>454.31000000000006</ele>
   </trkpt>
   <trkpt lat="-37.85342" lon="145.35415">
    <ele>447.35</ele>
   </trkpt>
   <trkpt lat="-37.85331" lon="145.35443">
    <ele>444.22</ele>
   </trkpt>
   <trkpt lat="-37.853" lon="145.35505">
    <ele>443.64000000000004</ele>
   </trkpt>
   <trkpt lat="-37.85298" lon="145.3556">
    <ele>446.54</ele>
   </trkpt>
   <trkpt lat="-37.85289" lon="145.35602">
    <ele>447.25</ele>
   </trkpt>
   <trkpt lat="-37.85284" lon="145.3561">
    <ele>447.1</ele>
   </trkpt>
   <trkpt lat="-37.8526" lon="145.35617000000002">
    <ele>442.76000000000005</ele>
   </trkpt>
   <trkpt lat="-37.85195" lon="145.35605">
    <ele>425.07000000000005</ele>
   </trkpt>
   <trkpt lat="-37.85147999996115" lon="145.35608500022641">
    <ele>419.81</ele>
   </trkpt>
   <trkpt lat="-37.85101" lon="145.35612">
    <ele>420.1</ele>
   </trkpt>
   <trkpt lat="-37.85083" lon="145.35617000000002">
    <ele>420.46000000000004</ele>
   </trkpt>
   <trkpt lat="-37.85054" lon="145.35639">
    <ele>420.57000000000005</ele>
   </trkpt>
   <trkpt lat="-37.85009" lon="145.35676">
    <ele>416.71000000000004</ele>
   </trkpt>
   <trkpt lat="-37.84998" lon="145.35682">
    <ele>417.27000000000004</ele>
   </trkpt>
   <trkpt lat="-37.849700000000006" lon="145.35709">
    <ele>422.99</ele>
   </trkpt>
   <trkpt lat="-37.84951" lon="145.35711">
    <ele>428.08</ele>
   </trkpt>
   <trkpt lat="-37.84895" lon="145.35702">
    <ele>436.51</ele>
   </trkpt>
   <trkpt lat="-37.84886" lon="145.35699000000002">
    <ele>440.19</ele>
   </trkpt>
   <trkpt lat="-37.84877" lon="145.35692">
    <ele>441.72</ele>
   </trkpt>
   <trkpt lat="-37.84872" lon="145.35680000000002">
    <ele>442.85</ele>
   </trkpt>
   <trkpt lat="-37.8487" lon="145.35663000000002">
    <ele>443.40000000000003</ele>
   </trkpt>
   <trkpt lat="-37.84866" lon="145.35649">
    <ele>444.02000000000004</ele>
   </trkpt>
   <trkpt lat="-37.84859" lon="145.35638">
    <ele>444.42</ele>
   </trkpt>
   <trkpt lat="-37.84821" lon="145.35601">
    <ele>447.29</ele>
   </trkpt>
   <trkpt lat="-37.84814" lon="145.35590000000002">
    <ele>446.02000000000004</ele>
   </trkpt>
   <trkpt lat="-37.84812" lon="145.35582000000002">
    <ele>446.02000000000004</ele>
   </trkpt>
   <trkpt lat="-37.84814" lon="145.3557">
    <ele>445.26000000000005</ele>
   </trkpt>
   <trkpt lat="-37.84839" lon="145.35525">
    <ele>447.43000000000006</ele>
   </trkpt>
   <trkpt lat="-37.84852" lon="145.35456000000002">
    <ele>452.78000000000003</ele>
   </trkpt>
   <trkpt lat="-37.84863" lon="145.35433">
    <ele>451.93000000000006</ele>
   </trkpt>
   <trkpt lat="-37.84881" lon="145.35385000000002">
    <ele>447.55000000000007</ele>
   </trkpt>
   <trkpt lat="-37.84883000000001" lon="145.35375000000002">
    <ele>446.75</ele>
   </trkpt>
   <trkpt lat="-37.84883000000001" lon="145.35374000000002">
    <ele>446.73</ele>
   </trkpt>
   <trkpt lat="-37.84877" lon="145.35304000000002">
    <ele>442.89000000000004</ele>
   </trkpt>
   <trkpt lat="-37.848670000000006" lon="145.35243">
    <ele>438.15000000000003</ele>
   </trkpt>
   <trkpt lat="-37.8485" lon="145.35187000000002">
    <ele>432.31</ele>
   </trkpt>
   <trkpt lat="-37.84845" lon="145.35175">
    <ele>431.64</ele>
   </trkpt>
   <trkpt lat="-37.84819" lon="145.35123000000002">
    <ele>427.09000000000003</ele>
   </trkpt>
   <trkpt lat="-37.84792" lon="145.35087000000001">
    <ele>423.96000000000004</ele>
   </trkpt>
   <trkpt lat="-37.84767" lon="145.35063000000002">
    <ele>423.51000000000005</ele>
   </trkpt>
   <trkpt lat="-37.8472" lon="145.35029">
    <ele>419.82</ele>
   </trkpt>
   <trkpt lat="-37.84695" lon="145.35014">
    <ele>418.07000000000005</ele>
   </trkpt>
   <trkpt lat="-37.84678" lon="145.35007000000002">
    <ele>417.99</ele>
   </trkpt>
   <trkpt lat="-37.84653" lon="145.35004">
    <ele>419.38</ele>
   </trkpt>
   <trkpt lat="-37.845980000089995" lon="145.35005500010948">
    <ele>425.19</ele>
   </trkpt>
   <trkpt lat="-37.84543" lon="145.35007000000002">
    <ele>426.19</ele>
   </trkpt>
   <trkpt lat="-37.844934999841115" lon="145.35014000049526">
    <ele>430.1</ele>
   </trkpt>
   <trkpt lat="-37.844440000000006" lon="145.35021">
    <ele>435.37</ele>
   </trkpt>
   <trkpt lat="-37.84409" lon="145.35022">
    <ele>437.14000000000004</ele>
   </trkpt>
   <trkpt lat="-37.84355" lon="145.35018000000002">
    <ele>440.07</ele>
   </trkpt>
   <trkpt lat="-37.84306" lon="145.35005">
    <ele>443.12</ele>
   </trkpt>
   <trkpt lat="-37.84262500001824" lon="145.3498699988892">
    <ele>446.03000000000003</ele>
   </trkpt>
   <trkpt lat="-37.84219" lon="145.34969">
    <ele>449.97</ele>
   </trkpt>
   <trkpt lat="-37.84196" lon="145.34958">
    <ele>451.98</ele>
   </trkpt>
   <trkpt lat="-37.84189000000001" lon="145.34952">
    <ele>452.26000000000005</ele>
   </trkpt>
   <trkpt lat="-37.84179" lon="145.34944000000002">
    <ele>452.29</ele>
   </trkpt>
   <trkpt lat="-37.84176" lon="145.34928000000002">
    <ele>447.44000000000005</ele>
   </trkpt>
   <trkpt lat="-37.84185" lon="145.34889">
    <ele>441.22</ele>
   </trkpt>
   <trkpt lat="-37.84183" lon="145.34872000000001">
    <ele>441.73</ele>
   </trkpt>
   <trkpt lat="-37.84194" lon="145.34835">
    <ele>442.58000000000004</ele>
   </trkpt>
   <trkpt lat="-37.84201" lon="145.34824">
    <ele>442.79</ele>
   </trkpt>
   <trkpt lat="-37.84219" lon="145.34804000000003">
    <ele>443.74</ele>
   </trkpt>
   <trkpt lat="-37.84225" lon="145.34794000000002">
    <ele>444.27000000000004</ele>
   </trkpt>
   <trkpt lat="-37.8423" lon="145.34775000000002">
    <ele>445.47</ele>
   </trkpt>
   <trkpt lat="-37.8423" lon="145.34731000000002">
    <ele>447.99000000000007</ele>
   </trkpt>
   <trkpt lat="-37.84228" lon="145.3468">
    <ele>450.04</ele>
   </trkpt>
   <trkpt lat="-37.8423" lon="145.34661">
    <ele>450.68</ele>
   </trkpt>
   <trkpt lat="-37.84239" lon="145.34612">
    <ele>452.14000000000004</ele>
   </trkpt>
   <trkpt lat="-37.84241" lon="145.34594">
    <ele>452.94000000000005</ele>
   </trkpt>
   <trkpt lat="-37.84239" lon="145.34554">
    <ele>454.58000000000004</ele>
   </trkpt>
   <trkpt lat="-37.8423" lon="145.34518">
    <ele>455.56</ele>
   </trkpt>
   <trkpt lat="-37.84221" lon="145.34493">
    <ele>456.18</ele>
   </trkpt>
   <trkpt lat="-37.842040000000004" lon="145.34463000000002">
    <ele>456.59000000000003</ele>
   </trkpt>
   <trkpt lat="-37.84183" lon="145.34441">
    <ele>456.93000000000006</ele>
   </trkpt>
   <trkpt lat="-37.84163" lon="145.34426000000002">
    <ele>458.28000000000003</ele>
   </trkpt>
   <trkpt lat="-37.84125" lon="145.34408000000002">
    <ele>461.12</ele>
   </trkpt>
   <trkpt lat="-37.84091" lon="145.34394">
    <ele>463.36</ele>
   </trkpt>
   <trkpt lat="-37.84057" lon="145.34386">
    <ele>465.93</ele>
   </trkpt>
   <trkpt lat="-37.84006" lon="145.34384">
    <ele>467.29</ele>
   </trkpt>
   <trkpt lat="-37.83966" lon="145.34384">
    <ele>468.49</ele>
   </trkpt>
   <trkpt lat="-37.8391" lon="145.34374000000003">
    <ele>470.63000000000005</ele>
   </trkpt>
   <trkpt lat="-37.83874" lon="145.34358">
    <ele>473.85</ele>
   </trkpt>
   <trkpt lat="-37.83854" lon="145.34353000000002">
    <ele>475.03000000000003</ele>
   </trkpt>
   <trkpt lat="-37.8384" lon="145.34348">
    <ele>474.9200000000001</ele>
   </trkpt>
   <trkpt lat="-37.83818" lon="145.34336000000002">
    <ele>473.32</ele>
   </trkpt>
   <trkpt lat="-37.83807" lon="145.34326000000001">
    <ele>471.58000000000004</ele>
   </trkpt>
   <trkpt lat="-37.83789" lon="145.34306">
    <ele>466.85</ele>
   </trkpt>
   <trkpt lat="-37.8376" lon="145.34282000000002">
    <ele>461.21000000000004</ele>
   </trkpt>
   <trkpt lat="-37.83746" lon="145.34274000000002">
    <ele>460.08000000000004</ele>
   </trkpt>
   <trkpt lat="-37.83713" lon="145.34259">
    <ele>454.23</ele>
   </trkpt>
   <trkpt lat="-37.83682" lon="145.34251">
    <ele>450.88000000000005</ele>
   </trkpt>
   <trkpt lat="-37.83677" lon="145.34259">
    <ele>450.29</ele>
   </trkpt>
   <trkpt lat="-37.83666" lon="145.34268">
    <ele>449.07</ele>
   </trkpt>
   <trkpt lat="-37.83659" lon="145.34271">
    <ele>448.52000000000004</ele>
   </trkpt>
   <trkpt lat="-37.8361" lon="145.34279">
    <ele>444.77000000000004</ele>
   </trkpt>
   <trkpt lat="-37.83578" lon="145.34279">
    <ele>441.79</ele>
   </trkpt>
   <trkpt lat="-37.8354" lon="145.34276">
    <ele>434.55</ele>
   </trkpt>
   <trkpt lat="-37.835" lon="145.34276">
    <ele>429.2900000000001</ele>
   </trkpt>
   <trkpt lat="-37.83471" lon="145.34282000000002">
    <ele>424.89000000000004</ele>
   </trkpt>
   <trkpt lat="-37.83449" lon="145.34293000000002">
    <ele>422.15000000000003</ele>
   </trkpt>
   <trkpt lat="-37.83428" lon="145.34307">
    <ele>420.55</ele>
   </trkpt>
   <trkpt lat="-37.83408" lon="145.34327000000002">
    <ele>417.56000000000006</ele>
   </trkpt>
   <trkpt lat="-37.8339" lon="145.34354000000002">
    <ele>415.79</ele>
   </trkpt>
   <trkpt lat="-37.83381" lon="145.34364000000002">
    <ele>414.51000000000005</ele>
   </trkpt>
   <trkpt lat="-37.83375" lon="145.34368">
    <ele>413.98</ele>
   </trkpt>
   <trkpt lat="-37.83359" lon="145.34372000000002">
    <ele>411.62</ele>
   </trkpt>
   <trkpt lat="-37.83361" lon="145.34372000000002">
    <ele>411.88</ele>
   </trkpt>
   <trkpt lat="-37.83334" lon="145.34378">
    <ele>408.4200000000001</ele>
   </trkpt>
   <trkpt lat="-37.833180000000006" lon="145.34378">
    <ele>406.30000000000007</ele>
   </trkpt>
   <trkpt lat="-37.83272" lon="145.3436">
    <ele>392.83</ele>
   </trkpt>
   <trkpt lat="-37.83258" lon="145.34358">
    <ele>388.09000000000003</ele>
   </trkpt>
   <trkpt lat="-37.8324" lon="145.34352">
    <ele>384.37000000000006</ele>
   </trkpt>
   <trkpt lat="-37.83243" lon="145.34364000000002">
    <ele>386.95</ele>
   </trkpt>
   <trkpt lat="-37.83225" lon="145.34394">
    <ele>394.56</ele>
   </trkpt>
   <trkpt lat="-37.83223" lon="145.34437">
    <ele>404.71</ele>
   </trkpt>
   <trkpt lat="-37.831880000000005" lon="145.34494">
    <ele>412.33000000000004</ele>
   </trkpt>
   <trkpt lat="-37.83189" lon="145.34494">
    <ele>412.22</ele>
   </trkpt>
   <trkpt lat="-37.8318" lon="145.34508000000002">
    <ele>416.26</ele>
   </trkpt>
   <trkpt lat="-37.83182" lon="145.34544000000002">
    <ele>430.36</ele>
   </trkpt>
   <trkpt lat="-37.8318" lon="145.34557">
    <ele>434.83000000000004</ele>
   </trkpt>
   <trkpt lat="-37.83187" lon="145.34579000000002">
    <ele>447.05000000000007</ele>
   </trkpt>
   <trkpt lat="-37.83193" lon="145.3462">
    <ele>461.29</ele>
   </trkpt>
   <trkpt lat="-37.83211" lon="145.34667000000002">
    <ele>478.54</ele>
   </trkpt>
   <trkpt lat="-37.83220000216956" lon="145.34738499919436">
    <ele>523.17</ele>
   </trkpt>
   <trkpt lat="-37.83229" lon="145.34810000000002">
    <ele>543.83</ele>
   </trkpt>
   <trkpt lat="-37.83245" lon="145.34872000000001">
    <ele>563.6300000000001</ele>
   </trkpt>
   <trkpt lat="-37.832620000000006" lon="145.34914">
    <ele>576.33</ele>
   </trkpt>
   <trkpt lat="-37.83269000000001" lon="145.34922">
    <ele>580.44</ele>
   </trkpt>
   <trkpt lat="-37.83281" lon="145.34934">
    <ele>585.31</ele>
   </trkpt>
   <trkpt lat="-37.83274" lon="145.34954000000002">
    <ele>586.59</ele>
   </trkpt>
   <trkpt lat="-37.83267" lon="145.34969">
    <ele>585.86</ele>
   </trkpt>
   <trkpt lat="-37.83231" lon="145.35010000000003">
    <ele>577.46</ele>
   </trkpt>
   <trkpt lat="-37.83196" lon="145.35046">
    <ele>570.3100000000001</ele>
   </trkpt>
   <trkpt lat="-37.83162" lon="145.35071000000002">
    <ele>562.0200000000001</ele>
   </trkpt>
   <trkpt lat="-37.83122" lon="145.35091">
    <ele>556.69</ele>
   </trkpt>
   <trkpt lat="-37.83093" lon="145.35097000000002">
    <ele>556.88</ele>
   </trkpt>
   <trkpt lat="-37.83066" lon="145.35092">
    <ele>558.9300000000001</ele>
   </trkpt>
   <trkpt lat="-37.830290000000005" lon="145.35067">
    <ele>561.12</ele>
   </trkpt>
   <trkpt lat="-37.82999" lon="145.35055">
    <ele>563.95</ele>
   </trkpt>
   <trkpt lat="-37.82963" lon="145.35047">
    <ele>567.1700000000001</ele>
   </trkpt>
   <trkpt lat="-37.82943" lon="145.35047">
    <ele>569.06</ele>
   </trkpt>
   <trkpt lat="-37.82911" lon="145.35060000000001">
    <ele>575.5400000000001</ele>
   </trkpt>
   <trkpt lat="-37.828629999903704" lon="145.35060500003354">
    <ele>577.45</ele>
   </trkpt>
   <trkpt lat="-37.82815" lon="145.35061000000002">
    <ele>574.67</ele>
   </trkpt>
   <trkpt lat="-37.82813" lon="145.35087000000001">
    <ele>580.19</ele>
   </trkpt>
   <trkpt lat="-37.8282" lon="145.35105000000001">
    <ele>592.5600000000001</ele>
   </trkpt>
   <trkpt lat="-37.8282" lon="145.35129">
    <ele>605.75</ele>
   </trkpt>
   <trkpt lat="-37.82815" lon="145.35159000000002">
    <ele>611.41</ele>
   </trkpt>
   <trkpt lat="-37.82817" lon="145.35169000000002">
    <ele>614.5200000000001</ele>
   </trkpt>
   <trkpt lat="-37.8282" lon="145.35202">
    <ele>621.69</ele>
   </trkpt>
   <trkpt lat="-37.8279" lon="145.35191">
    <ele>622.4200000000001</ele>
   </trkpt>
   <trkpt lat="-37.82768" lon="145.35192">
    <ele>621.48</ele>
   </trkpt>
   <trkpt lat="-37.82768" lon="145.35202">
    <ele>621.48</ele>
   </trkpt>
   <trkpt lat="-37.82746" lon="145.3521">
    <ele>620.62</ele>
   </trkpt>
   <trkpt lat="-37.827450000000006" lon="145.35201">
    <ele>621.36</ele>
   </trkpt>
   <trkpt lat="-37.8271" lon="145.35215000000002">
    <ele>621.6600000000001</ele>
   </trkpt>
   <trkpt lat="-37.82692" lon="145.35225">
    <ele>621.8800000000001</ele>
   </trkpt>
   <trkpt lat="-37.82679" lon="145.35243">
    <ele>622.26</ele>
   </trkpt>
   <trkpt lat="-37.8267" lon="145.35262">
    <ele>622.26</ele>
   </trkpt>
   <trkpt lat="-37.82663" lon="145.3528">
    <ele>622.6</ele>
   </trkpt>
   <trkpt lat="-37.82661" lon="145.35296000000002">
    <ele>622.77</ele>
   </trkpt>
   <trkpt lat="-37.826440000000005" lon="145.35302000000001">
    <ele>622.46</ele>
   </trkpt>
   <trkpt lat="-37.826440000000005" lon="145.35314000000002">
    <ele>620.86</ele>
   </trkpt>
   <trkpt lat="-37.82618" lon="145.35318">
    <ele>611.9100000000001</ele>
   </trkpt>
   <trkpt lat="-37.82602" lon="145.35317">
    <ele>606.92</ele>
   </trkpt>
   <trkpt lat="-37.82589" lon="145.35312000000002">
    <ele>594.77</ele>
   </trkpt>
   <trkpt lat="-37.8258" lon="145.35314000000002">
    <ele>594.77</ele>
   </trkpt>
   <trkpt lat="-37.82565" lon="145.35313000000002">
    <ele>590.83</ele>
   </trkpt>
   <trkpt lat="-37.8256" lon="145.35319">
    <ele>588.6300000000001</ele>
   </trkpt>
   <trkpt lat="-37.825520000000004" lon="145.35319">
    <ele>586.4100000000001</ele>
   </trkpt>
   <trkpt lat="-37.82555" lon="145.35337">
    <ele>585.35</ele>
   </trkpt>
   <trkpt lat="-37.82544" lon="145.35431">
    <ele>578.0600000000001</ele>
   </trkpt>
   <trkpt lat="-37.82535" lon="145.35486">
    <ele>574.04</ele>
   </trkpt>
   <trkpt lat="-37.82531" lon="145.35505">
    <ele>573.0500000000001</ele>
   </trkpt>
   <trkpt lat="-37.82529" lon="145.35529000000002">
    <ele>572.55</ele>
   </trkpt>
   <trkpt lat="-37.82529" lon="145.35569">
    <ele>571.88</ele>
   </trkpt>
   <trkpt lat="-37.82536" lon="145.35629">
    <ele>568.52</ele>
   </trkpt>
   <trkpt lat="-37.82526" lon="145.35688000000002">
    <ele>564.23</ele>
   </trkpt>
   <trkpt lat="-37.82524" lon="145.35717000000002">
    <ele>561.49</ele>
   </trkpt>
   <trkpt lat="-37.825250000000004" lon="145.35765">
    <ele>555.5400000000001</ele>
   </trkpt>
   <trkpt lat="-37.82531" lon="145.35758">
    <ele>552.34</ele>
   </trkpt>
   <trkpt lat="-37.82549" lon="145.35781">
    <ele>558.52</ele>
   </trkpt>
   <trkpt lat="-37.82555" lon="145.35802">
    <ele>554.57</ele>
   </trkpt>
   <trkpt lat="-37.82567" lon="145.35817">
    <ele>552.48</ele>
   </trkpt>
   <trkpt lat="-37.82587" lon="145.35828">
    <ele>550.1600000000001</ele>
   </trkpt>
   <trkpt lat="-37.82614" lon="145.35836">
    <ele>548.39</ele>
   </trkpt>
   <trkpt lat="-37.82645" lon="145.35860000000002">
    <ele>544.4300000000001</ele>
   </trkpt>
   <trkpt lat="-37.82667" lon="145.35872">
    <ele>542.84</ele>
   </trkpt>
   <trkpt lat="-37.82678000000001" lon="145.35874">
    <ele>542.0200000000001</ele>
   </trkpt>
   <trkpt lat="-37.82681" lon="145.35894000000002">
    <ele>538.6500000000001</ele>
   </trkpt>
   <trkpt lat="-37.82687" lon="145.35904000000002">
    <ele>537.1600000000001</ele>
   </trkpt>
   <trkpt lat="-37.82694" lon="145.35909">
    <ele>536.0200000000001</ele>
   </trkpt>
   <trkpt lat="-37.82705" lon="145.35911000000002">
    <ele>535.18</ele>
   </trkpt>
   <trkpt lat="-37.827180000000006" lon="145.35917">
    <ele>534.08</ele>
   </trkpt>
   <trkpt lat="-37.82728" lon="145.35929000000002">
    <ele>532.74</ele>
   </trkpt>
   <trkpt lat="-37.82735" lon="145.35933">
    <ele>531.83</ele>
   </trkpt>
   <trkpt lat="-37.82772000000001" lon="145.35955">
    <ele>526.37</ele>
   </trkpt>
   <trkpt lat="-37.82786" lon="145.3596">
    <ele>522.7</ele>
   </trkpt>
   <trkpt lat="-37.82797" lon="145.35967000000002">
    <ele>514.84</ele>
   </trkpt>
   <trkpt lat="-37.82802" lon="145.35974000000002">
    <ele>511.36</ele>
   </trkpt>
   <trkpt lat="-37.828030000000005" lon="145.35981">
    <ele>509.81000000000006</ele>
   </trkpt>
   <trkpt lat="-37.82788" lon="145.35998">
    <ele>509.87000000000006</ele>
   </trkpt>
   <trkpt lat="-37.82802" lon="145.36015">
    <ele>508.05</ele>
   </trkpt>
   <trkpt lat="-37.828210000000006" lon="145.36029000000002">
    <ele>505.33000000000004</ele>
   </trkpt>
   <trkpt lat="-37.82833" lon="145.36049">
    <ele>500.72</ele>
   </trkpt>
   <trkpt lat="-37.82835" lon="145.36064000000002">
    <ele>499.08000000000004</ele>
   </trkpt>
   <trkpt lat="-37.82831" lon="145.36141">
    <ele>493.42</ele>
   </trkpt>
   <trkpt lat="-37.828340000000004" lon="145.36183000000003">
    <ele>494.40000000000003</ele>
   </trkpt>
   <trkpt lat="-37.8284" lon="145.36201">
    <ele>495.05</ele>
   </trkpt>
   <trkpt lat="-37.82842" lon="145.3622">
    <ele>496.01000000000005</ele>
   </trkpt>
   <trkpt lat="-37.8284" lon="145.36231">
    <ele>496.28000000000003</ele>
   </trkpt>
   <trkpt lat="-37.82842" lon="145.36245000000002">
    <ele>496.06000000000006</ele>
   </trkpt>
   <trkpt lat="-37.8286" lon="145.36275">
    <ele>496.04</ele>
   </trkpt>
   <trkpt lat="-37.82882" lon="145.36294">
    <ele>497.58</ele>
   </trkpt>
   <trkpt lat="-37.82945" lon="145.36360000000002">
    <ele>495.33000000000004</ele>
   </trkpt>
   <trkpt lat="-37.82967" lon="145.3639">
    <ele>493.16</ele>
   </trkpt>
   <trkpt lat="-37.83032" lon="145.36443">
    <ele>489.8500000000001</ele>
   </trkpt>
   <trkpt lat="-37.8305" lon="145.36452">
    <ele>489.79</ele>
   </trkpt>
   <trkpt lat="-37.83059" lon="145.36460000000002">
    <ele>489.53000000000003</ele>
   </trkpt>
   <trkpt lat="-37.8309" lon="145.36471">
    <ele>489.46000000000004</ele>
   </trkpt>
   <trkpt lat="-37.83113" lon="145.36475000000002">
    <ele>488.8</ele>
   </trkpt>
   <trkpt lat="-37.83126" lon="145.36482">
    <ele>487.57000000000005</ele>
   </trkpt>
   <trkpt lat="-37.83144" lon="145.36499">
    <ele>485.48</ele>
   </trkpt>
   <trkpt lat="-37.83151" lon="145.36502000000002">
    <ele>484.11</ele>
   </trkpt>
   <trkpt lat="-37.83164" lon="145.365">
    <ele>482.71000000000004</ele>
   </trkpt>
   <trkpt lat="-37.83196" lon="145.36511000000002">
    <ele>479.59000000000003</ele>
   </trkpt>
   <trkpt lat="-37.83207" lon="145.36518">
    <ele>476.54</ele>
   </trkpt>
   <trkpt lat="-37.8324" lon="145.36562">
    <ele>469.45000000000005</ele>
   </trkpt>
   <trkpt lat="-37.83252" lon="145.36566000000002">
    <ele>467.41</ele>
   </trkpt>
   <trkpt lat="-37.832710000000006" lon="145.36564">
    <ele>465.97</ele>
   </trkpt>
   <trkpt lat="-37.83276" lon="145.3656">
    <ele>464.71</ele>
   </trkpt>
   <trkpt lat="-37.833090000000006" lon="145.36562">
    <ele>459.5400000000001</ele>
   </trkpt>
   <trkpt lat="-37.83341" lon="145.3658">
    <ele>454.44</ele>
   </trkpt>
   <trkpt lat="-37.8337" lon="145.36607">
    <ele>451.09000000000003</ele>
   </trkpt>
   <trkpt lat="-37.83419" lon="145.36644">
    <ele>443.04</ele>
   </trkpt>
   <trkpt lat="-37.83431" lon="145.36658">
    <ele>440.88000000000005</ele>
   </trkpt>
   <trkpt lat="-37.8344" lon="145.36679">
    <ele>438.84000000000003</ele>
   </trkpt>
   <trkpt lat="-37.83469" lon="145.36711000000003">
    <ele>433.25</ele>
   </trkpt>
   <trkpt lat="-37.83482" lon="145.36722">
    <ele>430.88000000000005</ele>
   </trkpt>
   <trkpt lat="-37.83507" lon="145.36729000000003">
    <ele>427.26000000000005</ele>
   </trkpt>
   <trkpt lat="-37.83518" lon="145.36738000000003">
    <ele>425.97</ele>
   </trkpt>
   <trkpt lat="-37.83522" lon="145.36747000000003">
    <ele>425.47</ele>
   </trkpt>
   <trkpt lat="-37.83531" lon="145.36742">
    <ele>425.16</ele>
   </trkpt>
   <trkpt lat="-37.8354" lon="145.36739">
    <ele>425.06000000000006</ele>
   </trkpt>
   <trkpt lat="-37.83552" lon="145.36745000000002">
    <ele>425.44000000000005</ele>
   </trkpt>
   <trkpt lat="-37.83594" lon="145.36824000000001">
    <ele>429.74</ele>
   </trkpt>
   <trkpt lat="-37.83631000105445" lon="145.3687299975945">
    <ele>433.56000000000006</ele>
   </trkpt>
   <trkpt lat="-37.83668" lon="145.36922">
    <ele>437.88000000000005</ele>
   </trkpt>
   <trkpt lat="-37.8369" lon="145.36942000000002">
    <ele>442.31</ele>
   </trkpt>
   <trkpt lat="-37.83708" lon="145.36950000000002">
    <ele>443.56</ele>
   </trkpt>
   <trkpt lat="-37.83719" lon="145.36952000000002">
    <ele>444.02000000000004</ele>
   </trkpt>
   <trkpt lat="-37.83719" lon="145.36971">
    <ele>442.59000000000003</ele>
   </trkpt>
   <trkpt lat="-37.83706" lon="145.3701">
    <ele>438.12</ele>
   </trkpt>
   <trkpt lat="-37.83701000000001" lon="145.37063">
    <ele>434.3</ele>
   </trkpt>
   <trkpt lat="-37.83737" lon="145.37053">
    <ele>433.75</ele>
   </trkpt>
   <trkpt lat="-37.83769" lon="145.37040000000002">
    <ele>430.07</ele>
   </trkpt>
   <trkpt lat="-37.83798" lon="145.37023000000002">
    <ele>430.25</ele>
   </trkpt>
   <trkpt lat="-37.83849" lon="145.36997000000002">
    <ele>436.51</ele>
   </trkpt>
   <trkpt lat="-37.83869" lon="145.36991">
    <ele>440.19</ele>
   </trkpt>
   <trkpt lat="-37.83885" lon="145.3698">
    <ele>442.6</ele>
   </trkpt>
   <trkpt lat="-37.8391" lon="145.36968000000002">
    <ele>445.00000000000006</ele>
   </trkpt>
   <trkpt lat="-37.839560000000006" lon="145.36941000000002">
    <ele>452.59000000000003</ele>
   </trkpt>
   <trkpt lat="-37.83975" lon="145.36926000000003">
    <ele>455.48</ele>
   </trkpt>
   <trkpt lat="-37.839940000000006" lon="145.36906000000002">
    <ele>459.96000000000004</ele>
   </trkpt>
   <trkpt lat="-37.83999" lon="145.36903">
    <ele>460.45</ele>
   </trkpt>
   <trkpt lat="-37.84022" lon="145.36902">
    <ele>462.71</ele>
   </trkpt>
   <trkpt lat="-37.84057" lon="145.36894">
    <ele>467.84000000000003</ele>
   </trkpt>
   <trkpt lat="-37.84087" lon="145.36892">
    <ele>472.13000000000005</ele>
   </trkpt>
   <trkpt lat="-37.84093" lon="145.36848">
    <ele>474.39000000000004</ele>
   </trkpt>
   <trkpt lat="-37.84093" lon="145.36847">
    <ele>474.49</ele>
   </trkpt>
   <trkpt lat="-37.84093" lon="145.36841">
    <ele>474.67</ele>
   </trkpt>
   <trkpt lat="-37.84091" lon="145.36816000000002">
    <ele>475.7</ele>
   </trkpt>
   <trkpt lat="-37.84135999986439" lon="145.36817499990394">
    <ele>480.37</ele>
   </trkpt>
   <trkpt lat="-37.84181" lon="145.36819">
    <ele>485.96000000000004</ele>
   </trkpt>
   <trkpt lat="-37.84223" lon="145.36838">
    <ele>492.13000000000005</ele>
   </trkpt>
   <trkpt lat="-37.84237" lon="145.36848">
    <ele>493.68000000000006</ele>
   </trkpt>
   <trkpt lat="-37.84299500170934" lon="145.3690999948293">
    <ele>502.17</ele>
   </trkpt>
   <trkpt lat="-37.84362" lon="145.36972">
    <ele>513.6700000000001</ele>
   </trkpt>
   <trkpt lat="-37.8438" lon="145.37016">
    <ele>516.84</ele>
   </trkpt>
   <trkpt lat="-37.84429" lon="145.37084000000002">
    <ele>520.44</ele>
   </trkpt>
   <trkpt lat="-37.84436" lon="145.37089">
    <ele>520.7700000000001</ele>
   </trkpt>
   <trkpt lat="-37.84447" lon="145.37095000000002">
    <ele>521.0</ele>
   </trkpt>
   <trkpt lat="-37.84518500013734" lon="145.37115499800083">
    <ele>521.33</ele>
   </trkpt>
   <trkpt lat="-37.8459" lon="145.37136">
    <ele>522.0799999999999</ele>
   </trkpt>
   <trkpt lat="-37.84639000034853" lon="145.37145499942892">
    <ele>522.64</ele>
   </trkpt>
   <trkpt lat="-37.846880000000006" lon="145.37155">
    <ele>523.75</ele>
   </trkpt>
   <trkpt lat="-37.84756000008286" lon="145.37166666450938">
    <ele>526.15</ele>
   </trkpt>
   <trkpt lat="-37.84824000005061" lon="145.3717833311705">
    <ele>531.94</ele>
   </trkpt>
   <trkpt lat="-37.84892" lon="145.3719">
    <ele>538.88</ele>
   </trkpt>
   <trkpt lat="-37.84904" lon="145.37184000000002">
    <ele>540.1400000000001</ele>
   </trkpt>
   <trkpt lat="-37.84915" lon="145.37173">
    <ele>541.1600000000001</ele>
   </trkpt>
   <trkpt lat="-37.849430001263556" lon="145.37117500218451">
    <ele>541.76</ele>
   </trkpt>
   <trkpt lat="-37.84971" lon="145.37062">
    <ele>542.6500000000001</ele>
   </trkpt>
   <trkpt lat="-37.84984" lon="145.37028">
    <ele>544.1600000000001</ele>
   </trkpt>
   <trkpt lat="-37.85004" lon="145.37006000000002">
    <ele>546.4300000000001</ele>
   </trkpt>
   <trkpt lat="-37.85038" lon="145.37003">
    <ele>549.5699999999999</ele>
   </trkpt>
   <trkpt lat="-37.850640000000006" lon="145.36993">
    <ele>552.1</ele>
   </trkpt>
   <trkpt lat="-37.85083" lon="145.3698">
    <ele>554.95</ele>
   </trkpt>
   <trkpt lat="-37.85107" lon="145.36952000000002">
    <ele>558.76</ele>
   </trkpt>
   <trkpt lat="-37.85141500104047" lon="145.36905500200578">
    <ele>563.35</ele>
   </trkpt>
   <trkpt lat="-37.851760000000006" lon="145.36859">
    <ele>566.11</ele>
   </trkpt>
   <trkpt lat="-37.852070000000005" lon="145.36833000000001">
    <ele>569.64</ele>
   </trkpt>
   <trkpt lat="-37.85228" lon="145.36824000000001">
    <ele>571.3100000000001</ele>
   </trkpt>
   <trkpt lat="-37.85264" lon="145.36819">
    <ele>574.74</ele>
   </trkpt>
   <trkpt lat="-37.85295" lon="145.36823">
    <ele>577.37</ele>
   </trkpt>
   <trkpt lat="-37.85314" lon="145.36833000000001">
    <ele>578.2</ele>
   </trkpt>
   <trkpt lat="-37.853660000000005" lon="145.36857">
    <ele>578.8199999999999</ele>
   </trkpt>
   <trkpt lat="-37.85409000000001" lon="145.36882">
    <ele>575.8100000000001</ele>
   </trkpt>
   <trkpt lat="-37.85441" lon="145.36911">
    <ele>572.38</ele>
   </trkpt>
   <trkpt lat="-37.85445" lon="145.36905000000002">
    <ele>572.38</ele>
   </trkpt>
   <trkpt lat="-37.854580000000006" lon="145.36896000000002">
    <ele>572.2400000000001</ele>
   </trkpt>
   <trkpt lat="-37.85499" lon="145.36845000000002">
    <ele>572.58</ele>
   </trkpt>
   <trkpt lat="-37.8551" lon="145.36824000000001">
    <ele>573.22</ele>
   </trkpt>
   <trkpt lat="-37.85519" lon="145.36803">
    <ele>573.46</ele>
   </trkpt>
   <trkpt lat="-37.85536751067608" lon="145.36711250663902">
    <ele>573.71</ele>
   </trkpt>
   <trkpt lat="-37.855545014233364" lon="145.36619500885953">
    <ele>573.19</ele>
   </trkpt>
   <trkpt lat="-37.85572251067177" lon="145.36527750666164">
    <ele>571.38</ele>
   </trkpt>
   <trkpt lat="-37.855900000000005" lon="145.36436">
    <ele>571.6600000000001</ele>
   </trkpt>
   <trkpt lat="-37.856010000000005" lon="145.36439000000001">
    <ele>572.3600000000001</ele>
   </trkpt>
   <trkpt lat="-37.856010000000005" lon="145.36421">
    <ele>573.69</ele>
   </trkpt>
   <trkpt lat="-37.85605" lon="145.36415000000002">
    <ele>573.69</ele>
   </trkpt>
   <trkpt lat="-37.85606000000001" lon="145.36398">
    <ele>574.22</ele>
   </trkpt>
   <trkpt lat="-37.85624" lon="145.36303">
    <ele>578.8000000000001</ele>
   </trkpt>
   <trkpt lat="-37.85629" lon="145.36248">
    <ele>582.0500000000001</ele>
   </trkpt>
   <trkpt lat="-37.856460001943994" lon="145.36179500174123">
    <ele>588.07</ele>
   </trkpt>
   <trkpt lat="-37.85663" lon="145.36111000000002">
    <ele>596.69</ele>
   </trkpt>
   <trkpt lat="-37.856680000000004" lon="145.36065000000002">
    <ele>601.08</ele>
   </trkpt>
   <trkpt lat="-37.85687" lon="145.35989">
    <ele>599.35</ele>
   </trkpt>
   <trkpt lat="-37.85700500328331" lon="145.35901000155405">
    <ele>589.1200000000001</ele>
   </trkpt>
   <trkpt lat="-37.85714" lon="145.35813000000002">
    <ele>578.13</ele>
   </trkpt>
   <trkpt lat="-37.857240000000004" lon="145.35770000000002">
    <ele>576.37</ele>
   </trkpt>
   <trkpt lat="-37.857220000000005" lon="145.35777000000002">
    <ele>576.61</ele>
   </trkpt>
   <trkpt lat="-37.85748" lon="145.35684">
    <ele>575.7500000000001</ele>
   </trkpt>
   <trkpt lat="-37.85752" lon="145.35645000000002">
    <ele>575.59</ele>
   </trkpt>
   <trkpt lat="-37.85745" lon="145.35598000000002">
    <ele>574.7500000000001</ele>
   </trkpt>
   <trkpt lat="-37.85756000000001" lon="145.35572000000002">
    <ele>575.1700000000001</ele>
   </trkpt>
   <trkpt lat="-37.85765" lon="145.35573000000002">
    <ele>574.79</ele>
   </trkpt>
   <trkpt lat="-37.85774" lon="145.3557">
    <ele>574.2</ele>
   </trkpt>
   <trkpt lat="-37.85792" lon="145.35547000000003">
    <ele>569.52</ele>
   </trkpt>
   <trkpt lat="-37.85826" lon="145.35524">
    <ele>560.6300000000001</ele>
   </trkpt>
   <trkpt lat="-37.85846" lon="145.35508000000002">
    <ele>557.3299999999999</ele>
   </trkpt>
   <trkpt lat="-37.85866" lon="145.35498">
    <ele>550.34</ele>
   </trkpt>
   <trkpt lat="-37.85877" lon="145.35487">
    <ele>545.7800000000001</ele>
   </trkpt>
   <trkpt lat="-37.85889" lon="145.35466000000002">
    <ele>542.07</ele>
   </trkpt>
   <trkpt lat="-37.85915" lon="145.35439000000002">
    <ele>531.34</ele>
   </trkpt>
   <trkpt lat="-37.85942" lon="145.35421000000002">
    <ele>521.11</ele>
   </trkpt>
   <trkpt lat="-37.85969" lon="145.35411000000002">
    <ele>514.61</ele>
   </trkpt>
   <trkpt lat="-37.85981" lon="145.35401000000002">
    <ele>512.6500000000001</ele>
   </trkpt>
   <trkpt lat="-37.860130000000005" lon="145.35449">
    <ele>513.47</ele>
   </trkpt>
   <trkpt lat="-37.86059" lon="145.35531">
    <ele>511.17</ele>
   </trkpt>
   <trkpt lat="-37.86061" lon="145.35545000000002">
    <ele>508.50000000000006</ele>
   </trkpt>
   <trkpt lat="-37.86059" lon="145.35592000000003">
    <ele>494.43</ele>
   </trkpt>
   <trkpt lat="-37.860640000000004" lon="145.35598000000002">
    <ele>494.43</ele>
   </trkpt>
   <trkpt lat="-37.86072" lon="145.35566">
    <ele>492.88000000000005</ele>
   </trkpt>
   <trkpt lat="-37.86081" lon="145.35551">
    <ele>492.88000000000005</ele>
   </trkpt>
   <trkpt lat="-37.861260001004666" lon="145.35500000322173">
    <ele>490.03000000000003</ele>
   </trkpt>
   <trkpt lat="-37.86171" lon="145.35449">
    <ele>486.45000000000005</ele>
   </trkpt>
   <trkpt lat="-37.86202" lon="145.35420000000002">
    <ele>484.22</ele>
   </trkpt>
  </trkseg>
 </trk>
</gpx>
