<?xml version="1.0" encoding="UTF-8"?>
<gpx creator="StravaGPX" version="1.1" xmlns="http://www.topografix.com/GPX/1/1" xmlns:xsi="http://www.w3.org/2001/XMLSchema-instance" xsi:schemaLocation="http://www.topografix.com/GPX/1/1 http://www.topografix.com/GPX/1/1/gpx.xsd">
 <metadata>
  <name>Sunday 23 June 2024 - 14 km Twisted Little Sister</name>
  <author>
   <name>john csorgo</name>
  </author>
  <copyright author="OpenStreetMap contributors">
   <year>2020</year>
   <license>https://www.openstreetmap.org/copyright</license>
  </copyright>
 </metadata>
 <trk>
  <name>Sunday 23 June 2024 - 14 km Twisted Little Sister</name>
  <link href=""/>
  <type>running</type>
  <trkseg>
   <trkpt lat="-37.85228" lon="145.36824000000001">
    <ele>568.7500000000001</ele>
   </trkpt>
   <trkpt lat="-37.85208" lon="145.36833000000001">
    <ele>565.33</ele>
   </trkpt>
   <trkpt lat="-37.851760000000006" lon="145.36859">
    <ele>563.6000000000001</ele>
   </trkpt>
   <trkpt lat="-37.85141500078801" lon="145.36905500234604">
    <ele>561.09</ele>
   </trkpt>
   <trkpt lat="-37.85107" lon="145.36952000000002">
    <ele>556.82</ele>
   </trkpt>
   <trkpt lat="-37.85083" lon="145.3698">
    <ele>553.12</ele>
   </trkpt>
   <trkpt lat="-37.850640000000006" lon="145.36993">
    <ele>550.2900000000001</ele>
   </trkpt>
   <trkpt lat="-37.85038" lon="145.37003">
    <ele>547.7700000000001</ele>
   </trkpt>
   <trkpt lat="-37.85004" lon="145.37006000000002">
    <ele>544.62</ele>
   </trkpt>
   <trkpt lat="-37.84984" lon="145.37028">
    <ele>542.2</ele>
   </trkpt>
   <trkpt lat="-37.84971" lon="145.37062">
    <ele>540.71</ele>
   </trkpt>
   <trkpt lat="-37.84943000134118" lon="145.37117500203067">
    <ele>539.79</ele>
   </trkpt>
   <trkpt lat="-37.84915" lon="145.37173">
    <ele>539.0500000000001</ele>
   </trkpt>
   <trkpt lat="-37.84904" lon="145.37184000000002">
    <ele>538.13</ele>
   </trkpt>
   <trkpt lat="-37.84892" lon="145.3719">
    <ele>537.25</ele>
   </trkpt>
   <trkpt lat="-37.84816500021006" lon="145.37176499584945">
    <ele>529.0100000000001</ele>
   </trkpt>
   <trkpt lat="-37.84741000026599" lon="145.3716299944635">
    <ele>524.39</ele>
   </trkpt>
   <trkpt lat="-37.84665500016783" lon="145.37149499584203">
    <ele>521.7700000000001</ele>
   </trkpt>
   <trkpt lat="-37.8459" lon="145.37136">
    <ele>520.4100000000001</ele>
   </trkpt>
   <trkpt lat="-37.84518500021802" lon="145.371154998024">
    <ele>519.5600000000001</ele>
   </trkpt>
   <trkpt lat="-37.84447" lon="145.37095000000002">
    <ele>519.26</ele>
   </trkpt>
   <trkpt lat="-37.84436" lon="145.37089">
    <ele>518.98</ele>
   </trkpt>
   <trkpt lat="-37.84429" lon="145.37084000000002">
    <ele>518.76</ele>
   </trkpt>
   <trkpt lat="-37.8438" lon="145.37016">
    <ele>514.7700000000001</ele>
   </trkpt>
   <trkpt lat="-37.84362" lon="145.36972">
    <ele>510.94000000000005</ele>
   </trkpt>
   <trkpt lat="-37.843005001620455" lon="145.36910499489295">
    <ele>500.29</ele>
   </trkpt>
   <trkpt lat="-37.84239" lon="145.36849">
    <ele>490.52000000000004</ele>
   </trkpt>
   <trkpt lat="-37.84223" lon="145.36838">
    <ele>488.97</ele>
   </trkpt>
   <trkpt lat="-37.84181" lon="145.36819">
    <ele>484.06000000000006</ele>
   </trkpt>
   <trkpt lat="-37.84136000013753" lon="145.36817499991304">
    <ele>479.15000000000003</ele>
   </trkpt>
   <trkpt lat="-37.84091" lon="145.36816000000002">
    <ele>474.1</ele>
   </trkpt>
   <trkpt lat="-37.84093" lon="145.36841">
    <ele>473.46000000000004</ele>
   </trkpt>
   <trkpt lat="-37.84087" lon="145.36892">
    <ele>471.36000000000007</ele>
   </trkpt>
   <trkpt lat="-37.84057" lon="145.36894">
    <ele>468.11</ele>
   </trkpt>
   <trkpt lat="-37.84022" lon="145.36902">
    <ele>462.77</ele>
   </trkpt>
   <trkpt lat="-37.83999" lon="145.36903">
    <ele>460.70000000000005</ele>
   </trkpt>
   <trkpt lat="-37.839940000000006" lon="145.36906000000002">
    <ele>460.19000000000005</ele>
   </trkpt>
   <trkpt lat="-37.83975" lon="145.36926000000003">
    <ele>455.62</ele>
   </trkpt>
   <trkpt lat="-37.839560000000006" lon="145.36941000000002">
    <ele>453.52000000000004</ele>
   </trkpt>
   <trkpt lat="-37.8391" lon="145.36968000000002">
    <ele>446.36</ele>
   </trkpt>
   <trkpt lat="-37.83885" lon="145.3698">
    <ele>442.82000000000005</ele>
   </trkpt>
   <trkpt lat="-37.83869" lon="145.36991">
    <ele>439.71000000000004</ele>
   </trkpt>
   <trkpt lat="-37.83849" lon="145.36997000000002">
    <ele>436.16</ele>
   </trkpt>
   <trkpt lat="-37.83834" lon="145.37004000000002">
    <ele>434.64000000000004</ele>
   </trkpt>
   <trkpt lat="-37.83798" lon="145.37023000000002">
    <ele>431.00000000000006</ele>
   </trkpt>
   <trkpt lat="-37.83769" lon="145.37040000000002">
    <ele>430.90000000000003</ele>
   </trkpt>
   <trkpt lat="-37.83737" lon="145.37053">
    <ele>434.2300000000001</ele>
   </trkpt>
   <trkpt lat="-37.83701000000001" lon="145.37063">
    <ele>435.13</ele>
   </trkpt>
   <trkpt lat="-37.837030000000006" lon="145.37094000000002">
    <ele>432.26000000000005</ele>
   </trkpt>
   <trkpt lat="-37.83699" lon="145.37133">
    <ele>430.37</ele>
   </trkpt>
   <trkpt lat="-37.837030000000006" lon="145.3719">
    <ele>428.04</ele>
   </trkpt>
   <trkpt lat="-37.83699" lon="145.37235">
    <ele>424.62000000000006</ele>
   </trkpt>
   <trkpt lat="-37.83708" lon="145.37326000000002">
    <ele>414.5</ele>
   </trkpt>
   <trkpt lat="-37.83708" lon="145.37328000000002">
    <ele>414.5</ele>
   </trkpt>
   <trkpt lat="-37.83719" lon="145.37388">
    <ele>410.47</ele>
   </trkpt>
   <trkpt lat="-37.83719" lon="145.37407000000002">
    <ele>409.41</ele>
   </trkpt>
   <trkpt lat="-37.83738" lon="145.37475">
    <ele>408.27000000000004</ele>
   </trkpt>
   <trkpt lat="-37.83731" lon="145.37496000000002">
    <ele>408.01000000000005</ele>
   </trkpt>
   <trkpt lat="-37.83728" lon="145.37513">
    <ele>407.98</ele>
   </trkpt>
   <trkpt lat="-37.83724" lon="145.37557">
    <ele>409.7</ele>
   </trkpt>
   <trkpt lat="-37.83715" lon="145.37563">
    <ele>409.08000000000004</ele>
   </trkpt>
   <trkpt lat="-37.83699" lon="145.37567">
    <ele>406.89000000000004</ele>
   </trkpt>
   <trkpt lat="-37.83693" lon="145.37572">
    <ele>406.89000000000004</ele>
   </trkpt>
   <trkpt lat="-37.83637" lon="145.37625">
    <ele>398.23</ele>
   </trkpt>
   <trkpt lat="-37.83623" lon="145.37646">
    <ele>398.51000000000005</ele>
   </trkpt>
   <trkpt lat="-37.836240000000004" lon="145.37645">
    <ele>398.4800000000001</ele>
   </trkpt>
   <trkpt lat="-37.83621" lon="145.37649000000002">
    <ele>398.4800000000001</ele>
   </trkpt>
   <trkpt lat="-37.83601" lon="145.37661">
    <ele>399.23</ele>
   </trkpt>
   <trkpt lat="-37.83538" lon="145.37683">
    <ele>404.0</ele>
   </trkpt>
   <trkpt lat="-37.83527" lon="145.37682">
    <ele>403.65</ele>
   </trkpt>
   <trkpt lat="-37.83502" lon="145.37668000000002">
    <ele>401.46000000000004</ele>
   </trkpt>
   <trkpt lat="-37.83451" lon="145.37656">
    <ele>397.77</ele>
   </trkpt>
   <trkpt lat="-37.83442" lon="145.37657000000002">
    <ele>397.62</ele>
   </trkpt>
   <trkpt lat="-37.83437" lon="145.37660000000002">
    <ele>397.67</ele>
   </trkpt>
   <trkpt lat="-37.83413" lon="145.37681">
    <ele>397.62</ele>
   </trkpt>
   <trkpt lat="-37.83408" lon="145.37692">
    <ele>397.13000000000005</ele>
   </trkpt>
   <trkpt lat="-37.83408" lon="145.37746">
    <ele>394.32000000000005</ele>
   </trkpt>
   <trkpt lat="-37.83415" lon="145.37768">
    <ele>394.1</ele>
   </trkpt>
   <trkpt lat="-37.83426" lon="145.37779">
    <ele>394.64000000000004</ele>
   </trkpt>
   <trkpt lat="-37.83433" lon="145.37794000000002">
    <ele>394.88</ele>
   </trkpt>
   <trkpt lat="-37.8344" lon="145.37819000000002">
    <ele>394.08000000000004</ele>
   </trkpt>
   <trkpt lat="-37.8344" lon="145.3784">
    <ele>392.45</ele>
   </trkpt>
   <trkpt lat="-37.83437" lon="145.37837000000002">
    <ele>392.45</ele>
   </trkpt>
   <trkpt lat="-37.83431" lon="145.37820000000002">
    <ele>391.3</ele>
   </trkpt>
   <trkpt lat="-37.83424" lon="145.37819000000002">
    <ele>390.13000000000005</ele>
   </trkpt>
   <trkpt lat="-37.83431" lon="145.37839000000002">
    <ele>389.48</ele>
   </trkpt>
   <trkpt lat="-37.83431" lon="145.37854000000002">
    <ele>388.53000000000003</ele>
   </trkpt>
   <trkpt lat="-37.83435" lon="145.37867">
    <ele>388.36</ele>
   </trkpt>
   <trkpt lat="-37.83444" lon="145.3788">
    <ele>388.86</ele>
   </trkpt>
   <trkpt lat="-37.83449" lon="145.37891000000002">
    <ele>389.59000000000003</ele>
   </trkpt>
   <trkpt lat="-37.834500000000006" lon="145.37906">
    <ele>390.24</ele>
   </trkpt>
   <trkpt lat="-37.83442" lon="145.37944000000002">
    <ele>388.64000000000004</ele>
   </trkpt>
   <trkpt lat="-37.83446" lon="145.37967">
    <ele>388.01</ele>
   </trkpt>
   <trkpt lat="-37.83444" lon="145.38021">
    <ele>384.90000000000003</ele>
   </trkpt>
   <trkpt lat="-37.83446" lon="145.38038">
    <ele>384.44</ele>
   </trkpt>
   <trkpt lat="-37.83464" lon="145.38086">
    <ele>384.24</ele>
   </trkpt>
   <trkpt lat="-37.83458" lon="145.38077">
    <ele>383.3</ele>
   </trkpt>
   <trkpt lat="-37.83451" lon="145.38065">
    <ele>382.84000000000003</ele>
   </trkpt>
   <trkpt lat="-37.83435" lon="145.38021">
    <ele>382.04</ele>
   </trkpt>
   <trkpt lat="-37.83422" lon="145.37978">
    <ele>380.08000000000004</ele>
   </trkpt>
   <trkpt lat="-37.83413" lon="145.37958">
    <ele>378.66</ele>
   </trkpt>
   <trkpt lat="-37.83408" lon="145.37972000000002">
    <ele>376.37</ele>
   </trkpt>
   <trkpt lat="-37.83413" lon="145.3805">
    <ele>371.98</ele>
   </trkpt>
   <trkpt lat="-37.83404" lon="145.38078000000002">
    <ele>368.06000000000006</ele>
   </trkpt>
   <trkpt lat="-37.83397" lon="145.38076">
    <ele>368.06000000000006</ele>
   </trkpt>
   <trkpt lat="-37.83393" lon="145.38078000000002">
    <ele>368.06000000000006</ele>
   </trkpt>
   <trkpt lat="-37.83393" lon="145.38093">
    <ele>364.9</ele>
   </trkpt>
   <trkpt lat="-37.8339" lon="145.38104">
    <ele>363.53000000000003</ele>
   </trkpt>
   <trkpt lat="-37.83381" lon="145.38102">
    <ele>361.37</ele>
   </trkpt>
   <trkpt lat="-37.83379" lon="145.38095">
    <ele>361.37</ele>
   </trkpt>
   <trkpt lat="-37.83375" lon="145.38101">
    <ele>360.68000000000006</ele>
   </trkpt>
   <trkpt lat="-37.8337" lon="145.38096000000002">
    <ele>359.49</ele>
   </trkpt>
   <trkpt lat="-37.83355" lon="145.38059">
    <ele>356.92</ele>
   </trkpt>
   <trkpt lat="-37.83352" lon="145.38048">
    <ele>356.92</ele>
   </trkpt>
   <trkpt lat="-37.83348" lon="145.38031">
    <ele>355.05</ele>
   </trkpt>
   <trkpt lat="-37.83339" lon="145.38015000000001">
    <ele>354.22</ele>
   </trkpt>
   <trkpt lat="-37.83332" lon="145.37994">
    <ele>350.34000000000003</ele>
   </trkpt>
   <trkpt lat="-37.8333" lon="145.37976">
    <ele>350.34000000000003</ele>
   </trkpt>
   <trkpt lat="-37.83328" lon="145.37975">
    <ele>350.34000000000003</ele>
   </trkpt>
   <trkpt lat="-37.83323" lon="145.37983">
    <ele>349.40000000000003</ele>
   </trkpt>
   <trkpt lat="-37.83321" lon="145.38043000000002">
    <ele>345.71000000000004</ele>
   </trkpt>
   <trkpt lat="-37.833180000000006" lon="145.38076">
    <ele>343.0</ele>
   </trkpt>
   <trkpt lat="-37.83312" lon="145.38080000000002">
    <ele>342.43</ele>
   </trkpt>
   <trkpt lat="-37.83301" lon="145.38045000000002">
    <ele>337.02000000000004</ele>
   </trkpt>
   <trkpt lat="-37.83294" lon="145.38052000000002">
    <ele>334.20000000000005</ele>
   </trkpt>
   <trkpt lat="-37.83283" lon="145.38043000000002">
    <ele>332.45</ele>
   </trkpt>
   <trkpt lat="-37.83272" lon="145.38021">
    <ele>330.01</ele>
   </trkpt>
   <trkpt lat="-37.83267" lon="145.38018000000002">
    <ele>326.57</ele>
   </trkpt>
   <trkpt lat="-37.832620000000006" lon="145.3803">
    <ele>325.74</ele>
   </trkpt>
   <trkpt lat="-37.83258" lon="145.38037">
    <ele>324.98</ele>
   </trkpt>
   <trkpt lat="-37.832530000000006" lon="145.38095">
    <ele>319.99000000000007</ele>
   </trkpt>
   <trkpt lat="-37.832530000000006" lon="145.38113">
    <ele>319.24</ele>
   </trkpt>
   <trkpt lat="-37.83243" lon="145.38147">
    <ele>317.59000000000003</ele>
   </trkpt>
   <trkpt lat="-37.8324" lon="145.38176">
    <ele>317.51</ele>
   </trkpt>
   <trkpt lat="-37.8324" lon="145.38189">
    <ele>318.43000000000006</ele>
   </trkpt>
   <trkpt lat="-37.83245" lon="145.38221000000001">
    <ele>318.01</ele>
   </trkpt>
   <trkpt lat="-37.83243" lon="145.38225">
    <ele>317.38000000000005</ele>
   </trkpt>
   <trkpt lat="-37.83238" lon="145.38223000000002">
    <ele>316.59000000000003</ele>
   </trkpt>
   <trkpt lat="-37.83229" lon="145.38207">
    <ele>313.15000000000003</ele>
   </trkpt>
   <trkpt lat="-37.83225" lon="145.38207">
    <ele>312.39</ele>
   </trkpt>
   <trkpt lat="-37.83216" lon="145.38223000000002">
    <ele>310.5</ele>
   </trkpt>
   <trkpt lat="-37.83211" lon="145.38240000000002">
    <ele>309.37</ele>
   </trkpt>
   <trkpt lat="-37.83207" lon="145.38281">
    <ele>307.12</ele>
   </trkpt>
   <trkpt lat="-37.832060000000006" lon="145.38286000000002">
    <ele>306.46</ele>
   </trkpt>
   <trkpt lat="-37.832" lon="145.38279">
    <ele>305.73</ele>
   </trkpt>
   <trkpt lat="-37.83189" lon="145.38274">
    <ele>304.93</ele>
   </trkpt>
   <trkpt lat="-37.83182" lon="145.38274">
    <ele>301.58</ele>
   </trkpt>
   <trkpt lat="-37.83171" lon="145.3828">
    <ele>300.12</ele>
   </trkpt>
   <trkpt lat="-37.83167" lon="145.38286000000002">
    <ele>299.05</ele>
   </trkpt>
   <trkpt lat="-37.83151" lon="145.38327">
    <ele>296.99</ele>
   </trkpt>
   <trkpt lat="-37.831480000000006" lon="145.38330000000002">
    <ele>296.39000000000004</ele>
   </trkpt>
   <trkpt lat="-37.83149" lon="145.38346">
    <ele>294.93</ele>
   </trkpt>
   <trkpt lat="-37.83144" lon="145.38354">
    <ele>294.93</ele>
   </trkpt>
   <trkpt lat="-37.83135" lon="145.38362">
    <ele>294.24</ele>
   </trkpt>
   <trkpt lat="-37.831100000000006" lon="145.38430000000002">
    <ele>291.17</ele>
   </trkpt>
   <trkpt lat="-37.831120000000006" lon="145.38464000000002">
    <ele>291.89000000000004</ele>
   </trkpt>
   <trkpt lat="-37.83111" lon="145.38491000000002">
    <ele>292.67</ele>
   </trkpt>
   <trkpt lat="-37.83113" lon="145.38503">
    <ele>293.19</ele>
   </trkpt>
   <trkpt lat="-37.83113" lon="145.38517000000002">
    <ele>293.47</ele>
   </trkpt>
   <trkpt lat="-37.83099" lon="145.38559">
    <ele>292.89000000000004</ele>
   </trkpt>
   <trkpt lat="-37.83086" lon="145.38617000000002">
    <ele>290.25</ele>
   </trkpt>
   <trkpt lat="-37.83086" lon="145.38623">
    <ele>290.25</ele>
   </trkpt>
   <trkpt lat="-37.83086" lon="145.38622">
    <ele>290.02</ele>
   </trkpt>
   <trkpt lat="-37.83086" lon="145.38631">
    <ele>289.13</ele>
   </trkpt>
   <trkpt lat="-37.83093" lon="145.38652000000002">
    <ele>288.87</ele>
   </trkpt>
   <trkpt lat="-37.83102" lon="145.38695">
    <ele>286.46000000000004</ele>
   </trkpt>
   <trkpt lat="-37.83095" lon="145.38712">
    <ele>284.90000000000003</ele>
   </trkpt>
   <trkpt lat="-37.83099" lon="145.38748">
    <ele>283.05</ele>
   </trkpt>
   <trkpt lat="-37.83111" lon="145.38769000000002">
    <ele>282.12</ele>
   </trkpt>
   <trkpt lat="-37.83115" lon="145.3879">
    <ele>281.06</ele>
   </trkpt>
   <trkpt lat="-37.83115" lon="145.38805000000002">
    <ele>280.14</ele>
   </trkpt>
   <trkpt lat="-37.83111" lon="145.38816">
    <ele>279.05</ele>
   </trkpt>
   <trkpt lat="-37.83104" lon="145.38823000000002">
    <ele>278.72</ele>
   </trkpt>
   <trkpt lat="-37.83093" lon="145.38823000000002">
    <ele>278.18</ele>
   </trkpt>
   <trkpt lat="-37.8309" lon="145.38821000000002">
    <ele>277.99</ele>
   </trkpt>
   <trkpt lat="-37.83077" lon="145.38794000000001">
    <ele>277.47</ele>
   </trkpt>
   <trkpt lat="-37.83073" lon="145.38796000000002">
    <ele>277.30000000000007</ele>
   </trkpt>
   <trkpt lat="-37.83068" lon="145.38806000000002">
    <ele>277.09</ele>
   </trkpt>
   <trkpt lat="-37.83079" lon="145.38856">
    <ele>275.3</ele>
   </trkpt>
   <trkpt lat="-37.83077" lon="145.38869000000003">
    <ele>275.02000000000004</ele>
   </trkpt>
   <trkpt lat="-37.830740000000006" lon="145.38878000000003">
    <ele>274.58000000000004</ele>
   </trkpt>
   <trkpt lat="-37.830740000000006" lon="145.38883">
    <ele>274.58000000000004</ele>
   </trkpt>
   <trkpt lat="-37.83066" lon="145.38888">
    <ele>273.98</ele>
   </trkpt>
   <trkpt lat="-37.83057" lon="145.38882">
    <ele>273.98</ele>
   </trkpt>
   <trkpt lat="-37.83055" lon="145.38873">
    <ele>272.01000000000005</ele>
   </trkpt>
   <trkpt lat="-37.83048" lon="145.3887">
    <ele>272.01000000000005</ele>
   </trkpt>
   <trkpt lat="-37.83041" lon="145.38875000000002">
    <ele>272.01000000000005</ele>
   </trkpt>
   <trkpt lat="-37.83028" lon="145.38908">
    <ele>269.46000000000004</ele>
   </trkpt>
   <trkpt lat="-37.83028" lon="145.38918">
    <ele>269.46000000000004</ele>
   </trkpt>
   <trkpt lat="-37.83034" lon="145.38929000000002">
    <ele>269.01000000000005</ele>
   </trkpt>
   <trkpt lat="-37.83034" lon="145.38941">
    <ele>268.64000000000004</ele>
   </trkpt>
   <trkpt lat="-37.83032" lon="145.3895">
    <ele>268.40000000000003</ele>
   </trkpt>
   <trkpt lat="-37.83023" lon="145.3897">
    <ele>267.55</ele>
   </trkpt>
   <trkpt lat="-37.83024" lon="145.38969">
    <ele>267.33</ele>
   </trkpt>
   <trkpt lat="-37.83019" lon="145.38986">
    <ele>266.53000000000003</ele>
   </trkpt>
   <trkpt lat="-37.83021" lon="145.38999">
    <ele>266.32</ele>
   </trkpt>
   <trkpt lat="-37.83019" lon="145.39006">
    <ele>265.76</ele>
   </trkpt>
   <trkpt lat="-37.83003" lon="145.39012000000002">
    <ele>264.36</ele>
   </trkpt>
   <trkpt lat="-37.82994" lon="145.39013">
    <ele>264.05</ele>
   </trkpt>
   <trkpt lat="-37.82985" lon="145.39006">
    <ele>263.59000000000003</ele>
   </trkpt>
   <trkpt lat="-37.82974" lon="145.38993000000002">
    <ele>262.92</ele>
   </trkpt>
   <trkpt lat="-37.82963" lon="145.3899">
    <ele>262.17</ele>
   </trkpt>
   <trkpt lat="-37.829530000000005" lon="145.38993000000002">
    <ele>262.17</ele>
   </trkpt>
   <trkpt lat="-37.82954" lon="145.38993000000002">
    <ele>262.03999999999996</ele>
   </trkpt>
   <trkpt lat="-37.829440000000005" lon="145.38996">
    <ele>261.84000000000003</ele>
   </trkpt>
   <trkpt lat="-37.82943" lon="145.39028000000002">
    <ele>262.0</ele>
   </trkpt>
   <trkpt lat="-37.82943" lon="145.39027000000002">
    <ele>262.0</ele>
   </trkpt>
   <trkpt lat="-37.829370000000004" lon="145.39042">
    <ele>261.59000000000003</ele>
   </trkpt>
   <trkpt lat="-37.82936" lon="145.39042">
    <ele>258.57</ele>
   </trkpt>
   <trkpt lat="-37.829350000000005" lon="145.39053">
    <ele>258.62</ele>
   </trkpt>
   <trkpt lat="-37.82927" lon="145.39053">
    <ele>258.32</ele>
   </trkpt>
   <trkpt lat="-37.8292" lon="145.39066000000003">
    <ele>258.09999999999997</ele>
   </trkpt>
   <trkpt lat="-37.82909" lon="145.39100000000002">
    <ele>257.96000000000004</ele>
   </trkpt>
   <trkpt lat="-37.82902" lon="145.39116">
    <ele>258.01</ele>
   </trkpt>
   <trkpt lat="-37.82869" lon="145.39164000000002">
    <ele>258.38</ele>
   </trkpt>
   <trkpt lat="-37.8286" lon="145.39170000000001">
    <ele>258.37000000000006</ele>
   </trkpt>
   <trkpt lat="-37.82846" lon="145.39174">
    <ele>258.11</ele>
   </trkpt>
   <trkpt lat="-37.8282" lon="145.39166">
    <ele>257.15999999999997</ele>
   </trkpt>
   <trkpt lat="-37.828160000000004" lon="145.39166">
    <ele>257.13</ele>
   </trkpt>
   <trkpt lat="-37.82782" lon="145.39147">
    <ele>254.75000000000003</ele>
   </trkpt>
   <trkpt lat="-37.82728" lon="145.39110000000002">
    <ele>250.60999999999999</ele>
   </trkpt>
   <trkpt lat="-37.82701" lon="145.39096">
    <ele>249.00000000000003</ele>
   </trkpt>
   <trkpt lat="-37.82674" lon="145.39086">
    <ele>245.44000000000003</ele>
   </trkpt>
   <trkpt lat="-37.82661" lon="145.39093000000003">
    <ele>244.79</ele>
   </trkpt>
   <trkpt lat="-37.82647" lon="145.39103">
    <ele>243.64000000000001</ele>
   </trkpt>
   <trkpt lat="-37.82636" lon="145.3912">
    <ele>242.99</ele>
   </trkpt>
   <trkpt lat="-37.82614" lon="145.39172000000002">
    <ele>241.16</ele>
   </trkpt>
   <trkpt lat="-37.82587" lon="145.39213">
    <ele>240.87000000000003</ele>
   </trkpt>
   <trkpt lat="-37.82558" lon="145.39251000000002">
    <ele>242.05</ele>
   </trkpt>
   <trkpt lat="-37.82549" lon="145.39275">
    <ele>244.14000000000001</ele>
   </trkpt>
   <trkpt lat="-37.82537000000001" lon="145.39291">
    <ele>246.43</ele>
   </trkpt>
   <trkpt lat="-37.82537000000001" lon="145.39289000000002">
    <ele>246.33</ele>
   </trkpt>
   <trkpt lat="-37.82528000000001" lon="145.39302">
    <ele>248.23000000000002</ele>
   </trkpt>
   <trkpt lat="-37.82535" lon="145.39318">
    <ele>247.76</ele>
   </trkpt>
   <trkpt lat="-37.82596" lon="145.39401">
    <ele>243.64000000000001</ele>
   </trkpt>
   <trkpt lat="-37.82658" lon="145.39459000000002">
    <ele>243.32</ele>
   </trkpt>
   <trkpt lat="-37.82683" lon="145.3949">
    <ele>243.82</ele>
   </trkpt>
   <trkpt lat="-37.82699" lon="145.39524">
    <ele>243.76000000000002</ele>
   </trkpt>
   <trkpt lat="-37.8271" lon="145.39566000000002">
    <ele>243.24</ele>
   </trkpt>
   <trkpt lat="-37.82708" lon="145.39584000000002">
    <ele>243.24</ele>
   </trkpt>
   <trkpt lat="-37.82674" lon="145.39683000000002">
    <ele>240.02</ele>
   </trkpt>
   <trkpt lat="-37.826710000000006" lon="145.39722">
    <ele>240.03000000000003</ele>
   </trkpt>
   <trkpt lat="-37.82679" lon="145.39742">
    <ele>239.52</ele>
   </trkpt>
   <trkpt lat="-37.82687" lon="145.3976">
    <ele>239.19</ele>
   </trkpt>
   <trkpt lat="-37.82717" lon="145.39794">
    <ele>238.49</ele>
   </trkpt>
   <trkpt lat="-37.8277" lon="145.39822">
    <ele>237.78</ele>
   </trkpt>
   <trkpt lat="-37.82786" lon="145.39827000000002">
    <ele>237.15000000000003</ele>
   </trkpt>
   <trkpt lat="-37.82797" lon="145.39835000000002">
    <ele>236.70000000000002</ele>
   </trkpt>
   <trkpt lat="-37.82802" lon="145.39844000000002">
    <ele>236.70000000000002</ele>
   </trkpt>
   <trkpt lat="-37.82808" lon="145.39864">
    <ele>236.24</ele>
   </trkpt>
   <trkpt lat="-37.82806" lon="145.39877">
    <ele>236.09</ele>
   </trkpt>
   <trkpt lat="-37.828" lon="145.39888000000002">
    <ele>236.01000000000002</ele>
   </trkpt>
   <trkpt lat="-37.82786" lon="145.39904">
    <ele>235.89000000000001</ele>
   </trkpt>
   <trkpt lat="-37.82719" lon="145.3994">
    <ele>234.27</ele>
   </trkpt>
   <trkpt lat="-37.827200000000005" lon="145.3994">
    <ele>234.29000000000002</ele>
   </trkpt>
   <trkpt lat="-37.82686" lon="145.39961000000002">
    <ele>233.04000000000002</ele>
   </trkpt>
   <trkpt lat="-37.82692" lon="145.39973">
    <ele>232.96000000000004</ele>
   </trkpt>
   <trkpt lat="-37.82699" lon="145.39978000000002">
    <ele>232.89000000000001</ele>
   </trkpt>
   <trkpt lat="-37.827000000000005" lon="145.39981">
    <ele>232.84</ele>
   </trkpt>
   <trkpt lat="-37.82714" lon="145.39978000000002">
    <ele>233.26000000000002</ele>
   </trkpt>
   <trkpt lat="-37.82732" lon="145.39971">
    <ele>233.49000000000004</ele>
   </trkpt>
   <trkpt lat="-37.82741" lon="145.39962">
    <ele>233.72</ele>
   </trkpt>
   <trkpt lat="-37.82777" lon="145.39955">
    <ele>235.87000000000003</ele>
   </trkpt>
   <trkpt lat="-37.82795" lon="145.39947">
    <ele>237.26000000000002</ele>
   </trkpt>
   <trkpt lat="-37.82824" lon="145.39944">
    <ele>240.92000000000002</ele>
   </trkpt>
   <trkpt lat="-37.82833" lon="145.39941000000002">
    <ele>240.72</ele>
   </trkpt>
   <trkpt lat="-37.82837" lon="145.39937">
    <ele>239.75</ele>
   </trkpt>
   <trkpt lat="-37.8284" lon="145.39929">
    <ele>238.46000000000004</ele>
   </trkpt>
   <trkpt lat="-37.82833" lon="145.39913">
    <ele>237.01000000000002</ele>
   </trkpt>
   <trkpt lat="-37.82833" lon="145.39909">
    <ele>237.01000000000002</ele>
   </trkpt>
   <trkpt lat="-37.82855" lon="145.39870000000002">
    <ele>235.24000000000004</ele>
   </trkpt>
   <trkpt lat="-37.82871" lon="145.39852000000002">
    <ele>235.35000000000002</ele>
   </trkpt>
   <trkpt lat="-37.82882" lon="145.39857">
    <ele>235.65000000000003</ele>
   </trkpt>
   <trkpt lat="-37.82898" lon="145.39888000000002">
    <ele>236.55</ele>
   </trkpt>
   <trkpt lat="-37.828810000000004" lon="145.39942000000002">
    <ele>237.86</ele>
   </trkpt>
   <trkpt lat="-37.82891" lon="145.39976000000001">
    <ele>242.19</ele>
   </trkpt>
   <trkpt lat="-37.82905" lon="145.39988000000002">
    <ele>245.01000000000002</ele>
   </trkpt>
   <trkpt lat="-37.82947" lon="145.39998">
    <ele>253.4</ele>
   </trkpt>
   <trkpt lat="-37.829620000000006" lon="145.40005000000002">
    <ele>261.62</ele>
   </trkpt>
   <trkpt lat="-37.829820000000005" lon="145.40018">
    <ele>262.81000000000006</ele>
   </trkpt>
   <trkpt lat="-37.83055000090638" lon="145.4006499953323">
    <ele>284.06</ele>
   </trkpt>
   <trkpt lat="-37.83128" lon="145.40112000000002">
    <ele>294.44000000000005</ele>
   </trkpt>
   <trkpt lat="-37.83184" lon="145.40143">
    <ele>305.6</ele>
   </trkpt>
   <trkpt lat="-37.83196" lon="145.40146000000001">
    <ele>306.4</ele>
   </trkpt>
   <trkpt lat="-37.83227" lon="145.40142">
    <ele>311.07</ele>
   </trkpt>
   <trkpt lat="-37.83249" lon="145.40141">
    <ele>312.73</ele>
   </trkpt>
   <trkpt lat="-37.83287" lon="145.40134">
    <ele>316.96000000000004</ele>
   </trkpt>
   <trkpt lat="-37.83319" lon="145.40121000000002">
    <ele>319.35</ele>
   </trkpt>
   <trkpt lat="-37.83381" lon="145.40107">
    <ele>319.56</ele>
   </trkpt>
   <trkpt lat="-37.83399" lon="145.40106">
    <ele>319.56</ele>
   </trkpt>
   <trkpt lat="-37.83419" lon="145.40102000000002">
    <ele>318.93000000000006</ele>
   </trkpt>
   <trkpt lat="-37.83433" lon="145.40105">
    <ele>318.31000000000006</ele>
   </trkpt>
   <trkpt lat="-37.83449" lon="145.40113000000002">
    <ele>317.14000000000004</ele>
   </trkpt>
   <trkpt lat="-37.83484" lon="145.40141">
    <ele>312.83000000000004</ele>
   </trkpt>
   <trkpt lat="-37.835" lon="145.4015">
    <ele>311.12</ele>
   </trkpt>
   <trkpt lat="-37.83536" lon="145.40165000000002">
    <ele>309.81</ele>
   </trkpt>
   <trkpt lat="-37.83576" lon="145.40176000000002">
    <ele>311.89</ele>
   </trkpt>
   <trkpt lat="-37.83616" lon="145.40175000000002">
    <ele>312.98</ele>
   </trkpt>
   <trkpt lat="-37.836330000000004" lon="145.40171">
    <ele>313.52000000000004</ele>
   </trkpt>
   <trkpt lat="-37.83634" lon="145.40171">
    <ele>313.57</ele>
   </trkpt>
   <trkpt lat="-37.836560000000006" lon="145.40167000000002">
    <ele>314.63</ele>
   </trkpt>
   <trkpt lat="-37.83684" lon="145.40167000000002">
    <ele>315.5</ele>
   </trkpt>
   <trkpt lat="-37.83755" lon="145.40191000000002">
    <ele>319.5</ele>
   </trkpt>
   <trkpt lat="-37.83771" lon="145.40193000000002">
    <ele>320.26000000000005</ele>
   </trkpt>
   <trkpt lat="-37.83827" lon="145.40192000000002">
    <ele>326.47</ele>
   </trkpt>
   <trkpt lat="-37.83869" lon="145.40181">
    <ele>330.65</ele>
   </trkpt>
   <trkpt lat="-37.8389" lon="145.40179">
    <ele>334.74</ele>
   </trkpt>
   <trkpt lat="-37.83934" lon="145.40165000000002">
    <ele>339.35</ele>
   </trkpt>
   <trkpt lat="-37.83997" lon="145.4015">
    <ele>350.05</ele>
   </trkpt>
   <trkpt lat="-37.8406" lon="145.40145">
    <ele>359.52</ele>
   </trkpt>
   <trkpt lat="-37.84084" lon="145.40148000000002">
    <ele>361.43</ele>
   </trkpt>
   <trkpt lat="-37.84107" lon="145.4016">
    <ele>362.48</ele>
   </trkpt>
   <trkpt lat="-37.84145" lon="145.40198">
    <ele>364.46</ele>
   </trkpt>
   <trkpt lat="-37.8421" lon="145.40249">
    <ele>365.85</ele>
   </trkpt>
   <trkpt lat="-37.8425" lon="145.40276">
    <ele>364.49</ele>
   </trkpt>
   <trkpt lat="-37.84301" lon="145.40322">
    <ele>360.58</ele>
   </trkpt>
   <trkpt lat="-37.84366" lon="145.4036">
    <ele>352.2</ele>
   </trkpt>
   <trkpt lat="-37.84389" lon="145.40371000000002">
    <ele>350.27000000000004</ele>
   </trkpt>
   <trkpt lat="-37.84398" lon="145.40373000000002">
    <ele>346.82</ele>
   </trkpt>
   <trkpt lat="-37.84409" lon="145.40373000000002">
    <ele>346.82</ele>
   </trkpt>
   <trkpt lat="-37.8444" lon="145.40363000000002">
    <ele>342.74</ele>
   </trkpt>
   <trkpt lat="-37.84469" lon="145.40369">
    <ele>337.84000000000003</ele>
   </trkpt>
   <trkpt lat="-37.84501" lon="145.40368">
    <ele>332.9800000000001</ele>
   </trkpt>
   <trkpt lat="-37.84584" lon="145.40354000000002">
    <ele>323.25000000000006</ele>
   </trkpt>
   <trkpt lat="-37.84608" lon="145.40344000000002">
    <ele>321.90000000000003</ele>
   </trkpt>
   <trkpt lat="-37.846360000000004" lon="145.40341">
    <ele>321.78000000000003</ele>
   </trkpt>
   <trkpt lat="-37.84673" lon="145.40333">
    <ele>323.26000000000005</ele>
   </trkpt>
   <trkpt lat="-37.84673" lon="145.40332">
    <ele>323.31000000000006</ele>
   </trkpt>
   <trkpt lat="-37.847170000000006" lon="145.40322">
    <ele>327.20000000000005</ele>
   </trkpt>
   <trkpt lat="-37.84749" lon="145.40317000000002">
    <ele>330.98</ele>
   </trkpt>
   <trkpt lat="-37.84794" lon="145.40304">
    <ele>334.0</ele>
   </trkpt>
   <trkpt lat="-37.84841" lon="145.40299000000002">
    <ele>336.68</ele>
   </trkpt>
   <trkpt lat="-37.84924" lon="145.40299000000002">
    <ele>347.62</ele>
   </trkpt>
   <trkpt lat="-37.84946" lon="145.40290000000002">
    <ele>350.27000000000004</ele>
   </trkpt>
   <trkpt lat="-37.8498" lon="145.40269">
    <ele>353.89000000000004</ele>
   </trkpt>
   <trkpt lat="-37.85018" lon="145.40238000000002">
    <ele>355.05</ele>
   </trkpt>
   <trkpt lat="-37.85036" lon="145.40219000000002">
    <ele>354.40000000000003</ele>
   </trkpt>
   <trkpt lat="-37.8504" lon="145.40211000000002">
    <ele>353.92</ele>
   </trkpt>
   <trkpt lat="-37.85047" lon="145.40185000000002">
    <ele>352.03000000000003</ele>
   </trkpt>
   <trkpt lat="-37.85045" lon="145.40128">
    <ele>348.90000000000003</ele>
   </trkpt>
   <trkpt lat="-37.85033" lon="145.40046">
    <ele>346.36</ele>
   </trkpt>
   <trkpt lat="-37.85017500190039" lon="145.39978499846757">
    <ele>348.23</ele>
   </trkpt>
   <trkpt lat="-37.85002" lon="145.39911">
    <ele>353.99</ele>
   </trkpt>
   <trkpt lat="-37.84993" lon="145.39878000000002">
    <ele>358.71000000000004</ele>
   </trkpt>
   <trkpt lat="-37.84974000132641" lon="145.39822499864007">
    <ele>365.58</ele>
   </trkpt>
   <trkpt lat="-37.84955" lon="145.39767">
    <ele>376.75</ele>
   </trkpt>
   <trkpt lat="-37.849320000000006" lon="145.39689">
    <ele>390.99000000000007</ele>
   </trkpt>
   <trkpt lat="-37.84881" lon="145.39606">
    <ele>402.45000000000005</ele>
   </trkpt>
   <trkpt lat="-37.84879" lon="145.39585000000002">
    <ele>402.41</ele>
   </trkpt>
   <trkpt lat="-37.84892" lon="145.39520000000002">
    <ele>396.92</ele>
   </trkpt>
   <trkpt lat="-37.84892" lon="145.39519">
    <ele>396.93</ele>
   </trkpt>
   <trkpt lat="-37.84904" lon="145.39468000000002">
    <ele>392.51</ele>
   </trkpt>
   <trkpt lat="-37.849140000000006" lon="145.39422000000002">
    <ele>387.70000000000005</ele>
   </trkpt>
   <trkpt lat="-37.849230000000006" lon="145.39391">
    <ele>386.28000000000003</ele>
   </trkpt>
   <trkpt lat="-37.84933" lon="145.39366">
    <ele>385.06</ele>
   </trkpt>
   <trkpt lat="-37.84944" lon="145.39347">
    <ele>384.68</ele>
   </trkpt>
   <trkpt lat="-37.8498" lon="145.39302">
    <ele>381.66</ele>
   </trkpt>
   <trkpt lat="-37.85005" lon="145.39260000000002">
    <ele>381.91</ele>
   </trkpt>
   <trkpt lat="-37.85050333584764" lon="145.39205667332658">
    <ele>389.28000000000003</ele>
   </trkpt>
   <trkpt lat="-37.850956669198915" lon="145.39151333997182">
    <ele>403.0</ele>
   </trkpt>
   <trkpt lat="-37.85141" lon="145.39097">
    <ele>414.78000000000003</ele>
   </trkpt>
   <trkpt lat="-37.85188" lon="145.39036000000002">
    <ele>434.51000000000005</ele>
   </trkpt>
   <trkpt lat="-37.85215" lon="145.39008">
    <ele>440.16</ele>
   </trkpt>
   <trkpt lat="-37.85244" lon="145.3897">
    <ele>446.99000000000007</ele>
   </trkpt>
   <trkpt lat="-37.85248" lon="145.38957000000002">
    <ele>448.15000000000003</ele>
   </trkpt>
   <trkpt lat="-37.85264" lon="145.38929000000002">
    <ele>450.59000000000003</ele>
   </trkpt>
   <trkpt lat="-37.85314000034086" lon="145.38913000101067">
    <ele>454.86</ele>
   </trkpt>
   <trkpt lat="-37.853640000000006" lon="145.38897">
    <ele>459.52000000000004</ele>
   </trkpt>
   <trkpt lat="-37.8538" lon="145.38889">
    <ele>461.19000000000005</ele>
   </trkpt>
   <trkpt lat="-37.85394" lon="145.38887000000003">
    <ele>461.19000000000005</ele>
   </trkpt>
   <trkpt lat="-37.85436" lon="145.3889">
    <ele>463.06</ele>
   </trkpt>
   <trkpt lat="-37.85499" lon="145.38891">
    <ele>468.18</ele>
   </trkpt>
   <trkpt lat="-37.85519" lon="145.38903000000002">
    <ele>468.18</ele>
   </trkpt>
   <trkpt lat="-37.85546" lon="145.38912000000002">
    <ele>469.87000000000006</ele>
   </trkpt>
   <trkpt lat="-37.85555" lon="145.38912000000002">
    <ele>471.4800000000001</ele>
   </trkpt>
   <trkpt lat="-37.85577" lon="145.38920000000002">
    <ele>472.34000000000003</ele>
   </trkpt>
   <trkpt lat="-37.85658" lon="145.38924">
    <ele>479.43</ele>
   </trkpt>
   <trkpt lat="-37.856930000000006" lon="145.38930000000002">
    <ele>483.4700000000001</ele>
   </trkpt>
   <trkpt lat="-37.85739" lon="145.38942">
    <ele>490.49</ele>
   </trkpt>
   <trkpt lat="-37.85814499994305" lon="145.3894249999484">
    <ele>500.83</ele>
   </trkpt>
   <trkpt lat="-37.858900000000006" lon="145.38943">
    <ele>513.0</ele>
   </trkpt>
   <trkpt lat="-37.8594" lon="145.38932">
    <ele>516.72</ele>
   </trkpt>
   <trkpt lat="-37.85994" lon="145.38885000000002">
    <ele>520.08</ele>
   </trkpt>
   <trkpt lat="-37.86036" lon="145.38852">
    <ele>521.27</ele>
   </trkpt>
   <trkpt lat="-37.86036" lon="145.38851000000003">
    <ele>521.2800000000001</ele>
   </trkpt>
   <trkpt lat="-37.86054" lon="145.38838">
    <ele>521.6200000000001</ele>
   </trkpt>
   <trkpt lat="-37.86086" lon="145.38804000000002">
    <ele>521.3000000000001</ele>
   </trkpt>
   <trkpt lat="-37.860870000000006" lon="145.38786000000002">
    <ele>520.3800000000001</ele>
   </trkpt>
   <trkpt lat="-37.86084000430899" lon="145.38684999943638">
    <ele>512.58</ele>
   </trkpt>
   <trkpt lat="-37.86081" lon="145.38584">
    <ele>505.4200000000001</ele>
   </trkpt>
   <trkpt lat="-37.86079" lon="145.38541">
    <ele>503.9</ele>
   </trkpt>
   <trkpt lat="-37.860580000000006" lon="145.38432">
    <ele>503.58000000000004</ele>
   </trkpt>
   <trkpt lat="-37.860460001716454" lon="145.38367999887507">
    <ele>507.45000000000005</ele>
   </trkpt>
   <trkpt lat="-37.86034" lon="145.38304000000002">
    <ele>512.73</ele>
   </trkpt>
   <trkpt lat="-37.86028" lon="145.38278000000003">
    <ele>514.36</ele>
   </trkpt>
   <trkpt lat="-37.86021" lon="145.38277000000002">
    <ele>514.63</ele>
   </trkpt>
   <trkpt lat="-37.86009" lon="145.3827">
    <ele>514.76</ele>
   </trkpt>
   <trkpt lat="-37.86005" lon="145.38256">
    <ele>514.85</ele>
   </trkpt>
   <trkpt lat="-37.86005" lon="145.38204000000002">
    <ele>515.44</ele>
   </trkpt>
   <trkpt lat="-37.86012" lon="145.38148">
    <ele>516.39</ele>
   </trkpt>
   <trkpt lat="-37.86014" lon="145.38135000000003">
    <ele>516.69</ele>
   </trkpt>
   <trkpt lat="-37.86021" lon="145.38127">
    <ele>516.87</ele>
   </trkpt>
   <trkpt lat="-37.86007" lon="145.38119">
    <ele>522.02</ele>
   </trkpt>
   <trkpt lat="-37.86014" lon="145.38105000000002">
    <ele>522.4300000000001</ele>
   </trkpt>
   <trkpt lat="-37.86014" lon="145.38104">
    <ele>522.47</ele>
   </trkpt>
   <trkpt lat="-37.86007" lon="145.38119">
    <ele>522.02</ele>
   </trkpt>
   <trkpt lat="-37.86021" lon="145.38127">
    <ele>516.87</ele>
   </trkpt>
   <trkpt lat="-37.86028" lon="145.38117000000003">
    <ele>517.1</ele>
   </trkpt>
   <trkpt lat="-37.86032" lon="145.38089000000002">
    <ele>517.7700000000001</ele>
   </trkpt>
   <trkpt lat="-37.860330000000005" lon="145.38052000000002">
    <ele>519.12</ele>
   </trkpt>
   <trkpt lat="-37.86027" lon="145.38038">
    <ele>520.1300000000001</ele>
   </trkpt>
   <trkpt lat="-37.859935000757986" lon="145.37999499840095">
    <ele>524.1600000000001</ele>
   </trkpt>
   <trkpt lat="-37.8596" lon="145.37961">
    <ele>528.07</ele>
   </trkpt>
   <trkpt lat="-37.85918" lon="145.37899000000002">
    <ele>531.2</ele>
   </trkpt>
   <trkpt lat="-37.85884333708155" lon="145.37832666066046">
    <ele>539.4100000000001</ele>
   </trkpt>
   <trkpt lat="-37.858506670441926" lon="145.37766332738047">
    <ele>544.8700000000001</ele>
   </trkpt>
   <trkpt lat="-37.85817" lon="145.377">
    <ele>550.21</ele>
   </trkpt>
   <trkpt lat="-37.8579" lon="145.37639000000001">
    <ele>556.85</ele>
   </trkpt>
   <trkpt lat="-37.85743" lon="145.37563">
    <ele>564.58</ele>
   </trkpt>
   <trkpt lat="-37.85714" lon="145.37533000000002">
    <ele>568.8000000000001</ele>
   </trkpt>
   <trkpt lat="-37.85669" lon="145.37504">
    <ele>572.5</ele>
   </trkpt>
   <trkpt lat="-37.856260000000006" lon="145.37480000000002">
    <ele>574.74</ele>
   </trkpt>
   <trkpt lat="-37.856" lon="145.37456">
    <ele>577.8199999999999</ele>
   </trkpt>
   <trkpt lat="-37.8556750005453" lon="145.37416499811948">
    <ele>579.1800000000001</ele>
   </trkpt>
   <trkpt lat="-37.85535" lon="145.37377">
    <ele>579.0000000000001</ele>
   </trkpt>
   <trkpt lat="-37.85515" lon="145.37389000000002">
    <ele>578.7500000000001</ele>
   </trkpt>
   <trkpt lat="-37.85492" lon="145.37389000000002">
    <ele>578.49</ele>
   </trkpt>
   <trkpt lat="-37.85479" lon="145.37378">
    <ele>578.2400000000001</ele>
   </trkpt>
   <trkpt lat="-37.85472" lon="145.37377">
    <ele>578.2400000000001</ele>
   </trkpt>
   <trkpt lat="-37.85454" lon="145.37361">
    <ele>578.61</ele>
   </trkpt>
   <trkpt lat="-37.854240000000004" lon="145.37345000000002">
    <ele>578.9300000000001</ele>
   </trkpt>
   <trkpt lat="-37.8541" lon="145.37316">
    <ele>578.7800000000001</ele>
   </trkpt>
   <trkpt lat="-37.85404000143142" lon="145.3725699991222">
    <ele>578.95</ele>
   </trkpt>
   <trkpt lat="-37.85398" lon="145.37198">
    <ele>578.71</ele>
   </trkpt>
   <trkpt lat="-37.85392" lon="145.37179">
    <ele>578.8100000000001</ele>
   </trkpt>
   <trkpt lat="-37.854020000000006" lon="145.37171">
    <ele>579.55</ele>
   </trkpt>
   <trkpt lat="-37.854040000000005" lon="145.37130000000002">
    <ele>579.13</ele>
   </trkpt>
   <trkpt lat="-37.85412500394389" lon="145.37033500103993">
    <ele>575.73</ele>
   </trkpt>
   <trkpt lat="-37.85421" lon="145.36937">
    <ele>572.5300000000001</ele>
   </trkpt>
   <trkpt lat="-37.85441" lon="145.36911">
    <ele>573.1400000000001</ele>
   </trkpt>
   <trkpt lat="-37.85409000000001" lon="145.36882">
    <ele>576.9000000000001</ele>
   </trkpt>
   <trkpt lat="-37.853660000000005" lon="145.36857">
    <ele>578.5400000000001</ele>
   </trkpt>
   <trkpt lat="-37.85314" lon="145.36833000000001">
    <ele>577.11</ele>
   </trkpt>
   <trkpt lat="-37.85295" lon="145.36822">
    <ele>575.8199999999999</ele>
   </trkpt>
   <trkpt lat="-37.85287" lon="145.36821">
    <ele>575.8199999999999</ele>
   </trkpt>
  </trkseg>
 </trk>
</gpx>
