<?xml version="1.0" encoding="UTF-8"?>
<gpx creator="StravaGPX" version="1.1" xmlns="http://www.topografix.com/GPX/1/1" xmlns:xsi="http://www.w3.org/2001/XMLSchema-instance" xsi:schemaLocation="http://www.topografix.com/GPX/1/1 http://www.topografix.com/GPX/1/1/gpx.xsd">
 <metadata>
  <name>DTR Sassafras 20k 29th June</name>
  <author>
   <name>john csorgo</name>
  </author>
  <copyright author="OpenStreetMap contributors">
   <year>2020</year>
   <license>https://www.openstreetmap.org/copyright</license>
  </copyright>
 </metadata>
 <trk>
  <name>DTR Sassafras 20k 29th June</name>
  <link href=""/>
  <type>running</type>
  <trkseg>
   <trkpt lat="-37.862750000000005" lon="145.35344">
    <ele>479.85</ele>
   </trkpt>
   <trkpt lat="-37.86256" lon="145.353">
    <ele>476.89000000000004</ele>
   </trkpt>
   <trkpt lat="-37.86253" lon="145.35292">
    <ele>476.89000000000004</ele>
   </trkpt>
   <trkpt lat="-37.86253" lon="145.35285000000002">
    <ele>476.88</ele>
   </trkpt>
   <trkpt lat="-37.86242" lon="145.35278000000002">
    <ele>477.78000000000003</ele>
   </trkpt>
   <trkpt lat="-37.86222" lon="145.35236">
    <ele>473.61</ele>
   </trkpt>
   <trkpt lat="-37.86216" lon="145.35208">
    <ele>470.58000000000004</ele>
   </trkpt>
   <trkpt lat="-37.86215" lon="145.35175">
    <ele>469.09000000000003</ele>
   </trkpt>
   <trkpt lat="-37.86222" lon="145.3514">
    <ele>465.89000000000004</ele>
   </trkpt>
   <trkpt lat="-37.862730000000006" lon="145.35069000000001">
    <ele>458.03000000000003</ele>
   </trkpt>
   <trkpt lat="-37.86285" lon="145.35058">
    <ele>453.28000000000003</ele>
   </trkpt>
   <trkpt lat="-37.863150000000005" lon="145.34997">
    <ele>447.97</ele>
   </trkpt>
   <trkpt lat="-37.86321" lon="145.3496">
    <ele>444.50000000000006</ele>
   </trkpt>
   <trkpt lat="-37.86323" lon="145.3494">
    <ele>443.33000000000004</ele>
   </trkpt>
   <trkpt lat="-37.86318" lon="145.34895">
    <ele>436.96</ele>
   </trkpt>
   <trkpt lat="-37.86316" lon="145.34836">
    <ele>431.00000000000006</ele>
   </trkpt>
   <trkpt lat="-37.86312" lon="145.34826">
    <ele>430.04</ele>
   </trkpt>
   <trkpt lat="-37.86296" lon="145.34810000000002">
    <ele>429.33000000000004</ele>
   </trkpt>
   <trkpt lat="-37.86256" lon="145.34787">
    <ele>424.97</ele>
   </trkpt>
   <trkpt lat="-37.86245" lon="145.34777000000003">
    <ele>423.09000000000003</ele>
   </trkpt>
   <trkpt lat="-37.8622" lon="145.34749000000002">
    <ele>420.38</ele>
   </trkpt>
   <trkpt lat="-37.86206" lon="145.34726">
    <ele>412.39000000000004</ele>
   </trkpt>
   <trkpt lat="-37.86202" lon="145.34712000000002">
    <ele>412.39000000000004</ele>
   </trkpt>
   <trkpt lat="-37.86193" lon="145.34642000000002">
    <ele>406.75000000000006</ele>
   </trkpt>
   <trkpt lat="-37.86186" lon="145.34658000000002">
    <ele>406.82</ele>
   </trkpt>
   <trkpt lat="-37.861790000000006" lon="145.34698">
    <ele>407.27000000000004</ele>
   </trkpt>
   <trkpt lat="-37.86186" lon="145.34747000000002">
    <ele>407.48</ele>
   </trkpt>
   <trkpt lat="-37.862115001274674" lon="145.34800999821977">
    <ele>406.82</ele>
   </trkpt>
   <trkpt lat="-37.862370000000006" lon="145.34855000000002">
    <ele>412.22</ele>
   </trkpt>
   <trkpt lat="-37.86238" lon="145.34883000000002">
    <ele>413.77000000000004</ele>
   </trkpt>
   <trkpt lat="-37.86236" lon="145.34893000000002">
    <ele>414.94</ele>
   </trkpt>
   <trkpt lat="-37.86224" lon="145.34912">
    <ele>419.25</ele>
   </trkpt>
   <trkpt lat="-37.86182" lon="145.34959">
    <ele>426.94000000000005</ele>
   </trkpt>
   <trkpt lat="-37.86166" lon="145.34982000000002">
    <ele>430.88000000000005</ele>
   </trkpt>
   <trkpt lat="-37.86135" lon="145.35045000000002">
    <ele>438.50000000000006</ele>
   </trkpt>
   <trkpt lat="-37.86115" lon="145.3511">
    <ele>446.15000000000003</ele>
   </trkpt>
   <trkpt lat="-37.86104" lon="145.35133000000002">
    <ele>447.94000000000005</ele>
   </trkpt>
   <trkpt lat="-37.860960000000006" lon="145.35146">
    <ele>450.19</ele>
   </trkpt>
   <trkpt lat="-37.860490000000006" lon="145.35181">
    <ele>460.14000000000004</ele>
   </trkpt>
   <trkpt lat="-37.86023" lon="145.35196000000002">
    <ele>462.22</ele>
   </trkpt>
   <trkpt lat="-37.85994" lon="145.35221">
    <ele>469.08000000000004</ele>
   </trkpt>
   <trkpt lat="-37.8596" lon="145.35241000000002">
    <ele>473.26</ele>
   </trkpt>
   <trkpt lat="-37.85945" lon="145.35244">
    <ele>475.12</ele>
   </trkpt>
   <trkpt lat="-37.8592" lon="145.35248">
    <ele>478.63000000000005</ele>
   </trkpt>
   <trkpt lat="-37.85851" lon="145.35268000000002">
    <ele>490.16</ele>
   </trkpt>
   <trkpt lat="-37.85835" lon="145.3527">
    <ele>490.16</ele>
   </trkpt>
   <trkpt lat="-37.858360000000005" lon="145.3527">
    <ele>490.1</ele>
   </trkpt>
   <trkpt lat="-37.85815" lon="145.35273">
    <ele>493.97</ele>
   </trkpt>
   <trkpt lat="-37.857635000010575" lon="145.35270499982573">
    <ele>498.88000000000005</ele>
   </trkpt>
   <trkpt lat="-37.85712" lon="145.35268000000002">
    <ele>503.83</ele>
   </trkpt>
   <trkpt lat="-37.85701" lon="145.35266000000001">
    <ele>506.55000000000007</ele>
   </trkpt>
   <trkpt lat="-37.85683" lon="145.35260000000002">
    <ele>507.4000000000001</ele>
   </trkpt>
   <trkpt lat="-37.85636" lon="145.35252">
    <ele>509.21000000000004</ele>
   </trkpt>
   <trkpt lat="-37.85622" lon="145.35247">
    <ele>508.19</ele>
   </trkpt>
   <trkpt lat="-37.85614" lon="145.35240000000002">
    <ele>507.14000000000004</ele>
   </trkpt>
   <trkpt lat="-37.85580500091417" lon="145.35193999793628">
    <ele>497.90000000000003</ele>
   </trkpt>
   <trkpt lat="-37.855470000000004" lon="145.35148">
    <ele>490.84000000000003</ele>
   </trkpt>
   <trkpt lat="-37.85528" lon="145.35168000000002">
    <ele>488.03000000000003</ele>
   </trkpt>
   <trkpt lat="-37.85526" lon="145.35179000000002">
    <ele>487.63000000000005</ele>
   </trkpt>
   <trkpt lat="-37.85521" lon="145.35193">
    <ele>486.47</ele>
   </trkpt>
   <trkpt lat="-37.855140000000006" lon="145.35198000000003">
    <ele>484.79</ele>
   </trkpt>
   <trkpt lat="-37.85486" lon="145.3523">
    <ele>476.14000000000004</ele>
   </trkpt>
   <trkpt lat="-37.85472" lon="145.3527">
    <ele>471.9200000000001</ele>
   </trkpt>
   <trkpt lat="-37.85466" lon="145.35276000000002">
    <ele>468.83000000000004</ele>
   </trkpt>
   <trkpt lat="-37.85461" lon="145.35294000000002">
    <ele>467.45000000000005</ele>
   </trkpt>
   <trkpt lat="-37.85461" lon="145.35309">
    <ele>466.27</ele>
   </trkpt>
   <trkpt lat="-37.854580000000006" lon="145.35319">
    <ele>464.67</ele>
   </trkpt>
   <trkpt lat="-37.85452" lon="145.35320000000002">
    <ele>464.09000000000003</ele>
   </trkpt>
   <trkpt lat="-37.85439" lon="145.35299">
    <ele>460.92</ele>
   </trkpt>
   <trkpt lat="-37.854350000000004" lon="145.35299">
    <ele>460.40000000000003</ele>
   </trkpt>
   <trkpt lat="-37.854110000000006" lon="145.35328">
    <ele>457.52000000000004</ele>
   </trkpt>
   <trkpt lat="-37.85396" lon="145.35339000000002">
    <ele>454.31000000000006</ele>
   </trkpt>
   <trkpt lat="-37.85342" lon="145.35415">
    <ele>447.35</ele>
   </trkpt>
   <trkpt lat="-37.85331" lon="145.35443">
    <ele>444.22</ele>
   </trkpt>
   <trkpt lat="-37.853" lon="145.35505">
    <ele>443.64000000000004</ele>
   </trkpt>
   <trkpt lat="-37.85298" lon="145.3556">
    <ele>446.54</ele>
   </trkpt>
   <trkpt lat="-37.85289" lon="145.35602">
    <ele>447.25</ele>
   </trkpt>
   <trkpt lat="-37.85284" lon="145.3561">
    <ele>447.1</ele>
   </trkpt>
   <trkpt lat="-37.8526" lon="145.35617000000002">
    <ele>442.76000000000005</ele>
   </trkpt>
   <trkpt lat="-37.85195" lon="145.35605">
    <ele>425.07000000000005</ele>
   </trkpt>
   <trkpt lat="-37.85147999996115" lon="145.35608500022641">
    <ele>419.81</ele>
   </trkpt>
   <trkpt lat="-37.85101" lon="145.35612">
    <ele>420.1</ele>
   </trkpt>
   <trkpt lat="-37.85083" lon="145.35617000000002">
    <ele>420.46000000000004</ele>
   </trkpt>
   <trkpt lat="-37.85054" lon="145.35639">
    <ele>420.57000000000005</ele>
   </trkpt>
   <trkpt lat="-37.85009" lon="145.35676">
    <ele>416.71000000000004</ele>
   </trkpt>
   <trkpt lat="-37.84998" lon="145.35682">
    <ele>417.27000000000004</ele>
   </trkpt>
   <trkpt lat="-37.849700000000006" lon="145.35709">
    <ele>422.99</ele>
   </trkpt>
   <trkpt lat="-37.84951" lon="145.35711">
    <ele>428.08</ele>
   </trkpt>
   <trkpt lat="-37.84895" lon="145.35702">
    <ele>436.51</ele>
   </trkpt>
   <trkpt lat="-37.84886" lon="145.35699000000002">
    <ele>440.19</ele>
   </trkpt>
   <trkpt lat="-37.84877" lon="145.35692">
    <ele>441.72</ele>
   </trkpt>
   <trkpt lat="-37.84872" lon="145.35680000000002">
    <ele>442.85</ele>
   </trkpt>
   <trkpt lat="-37.8487" lon="145.35663000000002">
    <ele>443.40000000000003</ele>
   </trkpt>
   <trkpt lat="-37.84866" lon="145.35649">
    <ele>444.02000000000004</ele>
   </trkpt>
   <trkpt lat="-37.84859" lon="145.35638">
    <ele>444.42</ele>
   </trkpt>
   <trkpt lat="-37.84821" lon="145.35601">
    <ele>447.29</ele>
   </trkpt>
   <trkpt lat="-37.84814" lon="145.35590000000002">
    <ele>446.02000000000004</ele>
   </trkpt>
   <trkpt lat="-37.84812" lon="145.35582000000002">
    <ele>446.02000000000004</ele>
   </trkpt>
   <trkpt lat="-37.84814" lon="145.3557">
    <ele>445.26000000000005</ele>
   </trkpt>
   <trkpt lat="-37.84839" lon="145.35525">
    <ele>447.43000000000006</ele>
   </trkpt>
   <trkpt lat="-37.84852" lon="145.35456000000002">
    <ele>452.78000000000003</ele>
   </trkpt>
   <trkpt lat="-37.84863" lon="145.35433">
    <ele>451.93000000000006</ele>
   </trkpt>
   <trkpt lat="-37.84881" lon="145.35385000000002">
    <ele>447.55000000000007</ele>
   </trkpt>
   <trkpt lat="-37.84883000000001" lon="145.35375000000002">
    <ele>446.75</ele>
   </trkpt>
   <trkpt lat="-37.84883000000001" lon="145.35374000000002">
    <ele>446.73</ele>
   </trkpt>
   <trkpt lat="-37.84877" lon="145.35304000000002">
    <ele>442.89000000000004</ele>
   </trkpt>
   <trkpt lat="-37.848670000000006" lon="145.35243">
    <ele>438.15000000000003</ele>
   </trkpt>
   <trkpt lat="-37.8485" lon="145.35187000000002">
    <ele>432.31</ele>
   </trkpt>
   <trkpt lat="-37.84845" lon="145.35175">
    <ele>431.64</ele>
   </trkpt>
   <trkpt lat="-37.84819" lon="145.35123000000002">
    <ele>427.09000000000003</ele>
   </trkpt>
   <trkpt lat="-37.84792" lon="145.35087000000001">
    <ele>423.96000000000004</ele>
   </trkpt>
   <trkpt lat="-37.84767" lon="145.35063000000002">
    <ele>423.51000000000005</ele>
   </trkpt>
   <trkpt lat="-37.8472" lon="145.35029">
    <ele>419.82</ele>
   </trkpt>
   <trkpt lat="-37.84695" lon="145.35014">
    <ele>418.07000000000005</ele>
   </trkpt>
   <trkpt lat="-37.84678" lon="145.35007000000002">
    <ele>417.99</ele>
   </trkpt>
   <trkpt lat="-37.84653" lon="145.35004">
    <ele>419.38</ele>
   </trkpt>
   <trkpt lat="-37.845980000089995" lon="145.35005500010948">
    <ele>425.19</ele>
   </trkpt>
   <trkpt lat="-37.84543" lon="145.35007000000002">
    <ele>426.19</ele>
   </trkpt>
   <trkpt lat="-37.844934999841115" lon="145.35014000049526">
    <ele>430.1</ele>
   </trkpt>
   <trkpt lat="-37.844440000000006" lon="145.35021">
    <ele>435.37</ele>
   </trkpt>
   <trkpt lat="-37.84409" lon="145.35022">
    <ele>437.14000000000004</ele>
   </trkpt>
   <trkpt lat="-37.84355" lon="145.35018000000002">
    <ele>440.07</ele>
   </trkpt>
   <trkpt lat="-37.84306" lon="145.35005">
    <ele>443.12</ele>
   </trkpt>
   <trkpt lat="-37.84262500001824" lon="145.3498699988892">
    <ele>446.03000000000003</ele>
   </trkpt>
   <trkpt lat="-37.84219" lon="145.34969">
    <ele>449.97</ele>
   </trkpt>
   <trkpt lat="-37.84196" lon="145.34958">
    <ele>451.98</ele>
   </trkpt>
   <trkpt lat="-37.84189000000001" lon="145.34952">
    <ele>452.26000000000005</ele>
   </trkpt>
   <trkpt lat="-37.84179" lon="145.34944000000002">
    <ele>452.29</ele>
   </trkpt>
   <trkpt lat="-37.84176" lon="145.34928000000002">
    <ele>447.44000000000005</ele>
   </trkpt>
   <trkpt lat="-37.84185" lon="145.34889">
    <ele>441.22</ele>
   </trkpt>
   <trkpt lat="-37.84183" lon="145.34872000000001">
    <ele>441.73</ele>
   </trkpt>
   <trkpt lat="-37.84194" lon="145.34835">
    <ele>442.58000000000004</ele>
   </trkpt>
   <trkpt lat="-37.84201" lon="145.34824">
    <ele>442.79</ele>
   </trkpt>
   <trkpt lat="-37.84219" lon="145.34804000000003">
    <ele>443.74</ele>
   </trkpt>
   <trkpt lat="-37.84225" lon="145.34794000000002">
    <ele>444.27000000000004</ele>
   </trkpt>
   <trkpt lat="-37.8423" lon="145.34775000000002">
    <ele>445.47</ele>
   </trkpt>
   <trkpt lat="-37.8423" lon="145.34731000000002">
    <ele>447.99000000000007</ele>
   </trkpt>
   <trkpt lat="-37.84228" lon="145.3468">
    <ele>450.04</ele>
   </trkpt>
   <trkpt lat="-37.8423" lon="145.34661">
    <ele>450.68</ele>
   </trkpt>
   <trkpt lat="-37.84239" lon="145.34612">
    <ele>452.14000000000004</ele>
   </trkpt>
   <trkpt lat="-37.84241" lon="145.34594">
    <ele>452.94000000000005</ele>
   </trkpt>
   <trkpt lat="-37.84239" lon="145.34554">
    <ele>454.58000000000004</ele>
   </trkpt>
   <trkpt lat="-37.8423" lon="145.34518">
    <ele>455.56</ele>
   </trkpt>
   <trkpt lat="-37.84221" lon="145.34493">
    <ele>456.18</ele>
   </trkpt>
   <trkpt lat="-37.842040000000004" lon="145.34463000000002">
    <ele>456.59000000000003</ele>
   </trkpt>
   <trkpt lat="-37.84183" lon="145.34441">
    <ele>456.93000000000006</ele>
   </trkpt>
   <trkpt lat="-37.84163" lon="145.34426000000002">
    <ele>458.28000000000003</ele>
   </trkpt>
   <trkpt lat="-37.84125" lon="145.34408000000002">
    <ele>461.12</ele>
   </trkpt>
   <trkpt lat="-37.84091" lon="145.34394">
    <ele>463.36</ele>
   </trkpt>
   <trkpt lat="-37.84057" lon="145.34386">
    <ele>465.93</ele>
   </trkpt>
   <trkpt lat="-37.84006" lon="145.34384">
    <ele>467.29</ele>
   </trkpt>
   <trkpt lat="-37.83966" lon="145.34384">
    <ele>468.49</ele>
   </trkpt>
   <trkpt lat="-37.8391" lon="145.34374000000003">
    <ele>470.63000000000005</ele>
   </trkpt>
   <trkpt lat="-37.83874" lon="145.34358">
    <ele>473.85</ele>
   </trkpt>
   <trkpt lat="-37.83854" lon="145.34353000000002">
    <ele>475.03000000000003</ele>
   </trkpt>
   <trkpt lat="-37.8384" lon="145.34348">
    <ele>474.9200000000001</ele>
   </trkpt>
   <trkpt lat="-37.83818" lon="145.34336000000002">
    <ele>473.32</ele>
   </trkpt>
   <trkpt lat="-37.83807" lon="145.34326000000001">
    <ele>471.58000000000004</ele>
   </trkpt>
   <trkpt lat="-37.83789" lon="145.34306">
    <ele>466.85</ele>
   </trkpt>
   <trkpt lat="-37.8376" lon="145.34282000000002">
    <ele>461.21000000000004</ele>
   </trkpt>
   <trkpt lat="-37.83746" lon="145.34274000000002">
    <ele>460.08000000000004</ele>
   </trkpt>
   <trkpt lat="-37.83713" lon="145.34259">
    <ele>454.23</ele>
   </trkpt>
   <trkpt lat="-37.83682" lon="145.34251">
    <ele>450.88000000000005</ele>
   </trkpt>
   <trkpt lat="-37.83677" lon="145.34259">
    <ele>450.29</ele>
   </trkpt>
   <trkpt lat="-37.83666" lon="145.34268">
    <ele>449.07</ele>
   </trkpt>
   <trkpt lat="-37.83659" lon="145.34271">
    <ele>448.52000000000004</ele>
   </trkpt>
   <trkpt lat="-37.8361" lon="145.34279">
    <ele>444.77000000000004</ele>
   </trkpt>
   <trkpt lat="-37.83578" lon="145.34279">
    <ele>441.79</ele>
   </trkpt>
   <trkpt lat="-37.8354" lon="145.34276">
    <ele>434.55</ele>
   </trkpt>
   <trkpt lat="-37.835" lon="145.34276">
    <ele>429.2900000000001</ele>
   </trkpt>
   <trkpt lat="-37.83471" lon="145.34282000000002">
    <ele>424.89000000000004</ele>
   </trkpt>
   <trkpt lat="-37.83449" lon="145.34293000000002">
    <ele>422.15000000000003</ele>
   </trkpt>
   <trkpt lat="-37.83428" lon="145.34307">
    <ele>420.55</ele>
   </trkpt>
   <trkpt lat="-37.83408" lon="145.34327000000002">
    <ele>417.56000000000006</ele>
   </trkpt>
   <trkpt lat="-37.8339" lon="145.34354000000002">
    <ele>415.79</ele>
   </trkpt>
   <trkpt lat="-37.83381" lon="145.34364000000002">
    <ele>414.51000000000005</ele>
   </trkpt>
   <trkpt lat="-37.83375" lon="145.34368">
    <ele>413.98</ele>
   </trkpt>
   <trkpt lat="-37.83359" lon="145.34372000000002">
    <ele>411.62</ele>
   </trkpt>
   <trkpt lat="-37.83361" lon="145.34372000000002">
    <ele>411.88</ele>
   </trkpt>
   <trkpt lat="-37.83334" lon="145.34378">
    <ele>408.4200000000001</ele>
   </trkpt>
   <trkpt lat="-37.833180000000006" lon="145.34378">
    <ele>406.30000000000007</ele>
   </trkpt>
   <trkpt lat="-37.83272" lon="145.3436">
    <ele>392.83</ele>
   </trkpt>
   <trkpt lat="-37.83258" lon="145.34358">
    <ele>388.09000000000003</ele>
   </trkpt>
   <trkpt lat="-37.8324" lon="145.34352">
    <ele>384.37000000000006</ele>
   </trkpt>
   <trkpt lat="-37.83243" lon="145.34364000000002">
    <ele>386.95</ele>
   </trkpt>
   <trkpt lat="-37.83225" lon="145.34394">
    <ele>394.56</ele>
   </trkpt>
   <trkpt lat="-37.83223" lon="145.34437">
    <ele>404.71</ele>
   </trkpt>
   <trkpt lat="-37.831880000000005" lon="145.34494">
    <ele>412.33000000000004</ele>
   </trkpt>
   <trkpt lat="-37.83189" lon="145.34494">
    <ele>412.22</ele>
   </trkpt>
   <trkpt lat="-37.8318" lon="145.34508000000002">
    <ele>416.26</ele>
   </trkpt>
   <trkpt lat="-37.83182" lon="145.34544000000002">
    <ele>430.36</ele>
   </trkpt>
   <trkpt lat="-37.8318" lon="145.34557">
    <ele>434.83000000000004</ele>
   </trkpt>
   <trkpt lat="-37.83187" lon="145.34579000000002">
    <ele>447.05000000000007</ele>
   </trkpt>
   <trkpt lat="-37.83193" lon="145.3462">
    <ele>461.29</ele>
   </trkpt>
   <trkpt lat="-37.83211" lon="145.34667000000002">
    <ele>478.54</ele>
   </trkpt>
   <trkpt lat="-37.83220000216956" lon="145.34738499919436">
    <ele>523.17</ele>
   </trkpt>
   <trkpt lat="-37.83229" lon="145.34810000000002">
    <ele>543.83</ele>
   </trkpt>
   <trkpt lat="-37.83245" lon="145.34872000000001">
    <ele>563.6300000000001</ele>
   </trkpt>
   <trkpt lat="-37.832620000000006" lon="145.34914">
    <ele>576.33</ele>
   </trkpt>
   <trkpt lat="-37.83269000000001" lon="145.34922">
    <ele>580.44</ele>
   </trkpt>
   <trkpt lat="-37.83281" lon="145.34934">
    <ele>585.31</ele>
   </trkpt>
   <trkpt lat="-37.83274" lon="145.34954000000002">
    <ele>586.59</ele>
   </trkpt>
   <trkpt lat="-37.83267" lon="145.34969">
    <ele>585.86</ele>
   </trkpt>
   <trkpt lat="-37.83231" lon="145.35010000000003">
    <ele>577.46</ele>
   </trkpt>
   <trkpt lat="-37.83196" lon="145.35046">
    <ele>570.3100000000001</ele>
   </trkpt>
   <trkpt lat="-37.83162" lon="145.35071000000002">
    <ele>562.0200000000001</ele>
   </trkpt>
   <trkpt lat="-37.83122" lon="145.35091">
    <ele>556.69</ele>
   </trkpt>
   <trkpt lat="-37.83093" lon="145.35097000000002">
    <ele>556.88</ele>
   </trkpt>
   <trkpt lat="-37.83066" lon="145.35092">
    <ele>558.9300000000001</ele>
   </trkpt>
   <trkpt lat="-37.830290000000005" lon="145.35067">
    <ele>561.12</ele>
   </trkpt>
   <trkpt lat="-37.82999" lon="145.35055">
    <ele>563.95</ele>
   </trkpt>
   <trkpt lat="-37.82963" lon="145.35047">
    <ele>567.1700000000001</ele>
   </trkpt>
   <trkpt lat="-37.82943" lon="145.35047">
    <ele>569.06</ele>
   </trkpt>
   <trkpt lat="-37.82911" lon="145.35060000000001">
    <ele>575.5400000000001</ele>
   </trkpt>
   <trkpt lat="-37.828629999903704" lon="145.35060500003354">
    <ele>577.45</ele>
   </trkpt>
   <trkpt lat="-37.82815" lon="145.35061000000002">
    <ele>574.67</ele>
   </trkpt>
   <trkpt lat="-37.82813" lon="145.35087000000001">
    <ele>580.19</ele>
   </trkpt>
   <trkpt lat="-37.8282" lon="145.35105000000001">
    <ele>592.5600000000001</ele>
   </trkpt>
   <trkpt lat="-37.8282" lon="145.35129">
    <ele>605.75</ele>
   </trkpt>
   <trkpt lat="-37.82815" lon="145.35159000000002">
    <ele>611.41</ele>
   </trkpt>
   <trkpt lat="-37.82817" lon="145.35169000000002">
    <ele>614.5200000000001</ele>
   </trkpt>
   <trkpt lat="-37.8282" lon="145.35202">
    <ele>621.69</ele>
   </trkpt>
   <trkpt lat="-37.8279" lon="145.35191">
    <ele>622.4200000000001</ele>
   </trkpt>
   <trkpt lat="-37.82768" lon="145.35192">
    <ele>621.48</ele>
   </trkpt>
   <trkpt lat="-37.82768" lon="145.35202">
    <ele>621.48</ele>
   </trkpt>
   <trkpt lat="-37.82746" lon="145.3521">
    <ele>620.62</ele>
   </trkpt>
   <trkpt lat="-37.827470000000005" lon="145.3521">
    <ele>620.62</ele>
   </trkpt>
   <trkpt lat="-37.82712" lon="145.35225">
    <ele>621.07</ele>
   </trkpt>
   <trkpt lat="-37.82696" lon="145.35237">
    <ele>621.2800000000001</ele>
   </trkpt>
   <trkpt lat="-37.82681" lon="145.35257000000001">
    <ele>623.24</ele>
   </trkpt>
   <trkpt lat="-37.826730000000005" lon="145.35275000000001">
    <ele>624.17</ele>
   </trkpt>
   <trkpt lat="-37.826710000000006" lon="145.35296000000002">
    <ele>623.39</ele>
   </trkpt>
   <trkpt lat="-37.826620000000005" lon="145.3529">
    <ele>622.84</ele>
   </trkpt>
   <trkpt lat="-37.82661" lon="145.35296000000002">
    <ele>622.77</ele>
   </trkpt>
   <trkpt lat="-37.82663" lon="145.35322000000002">
    <ele>622.5</ele>
   </trkpt>
   <trkpt lat="-37.8267" lon="145.35343">
    <ele>622.41</ele>
   </trkpt>
   <trkpt lat="-37.82674" lon="145.35355">
    <ele>622.41</ele>
   </trkpt>
   <trkpt lat="-37.82683" lon="145.35363">
    <ele>622.41</ele>
   </trkpt>
   <trkpt lat="-37.82692" lon="145.35366000000002">
    <ele>622.48</ele>
   </trkpt>
   <trkpt lat="-37.826980000000006" lon="145.35382">
    <ele>620.86</ele>
   </trkpt>
   <trkpt lat="-37.82692" lon="145.35366000000002">
    <ele>622.48</ele>
   </trkpt>
   <trkpt lat="-37.826980000000006" lon="145.35382">
    <ele>619.4300000000001</ele>
   </trkpt>
   <trkpt lat="-37.82705" lon="145.35386000000003">
    <ele>619.4300000000001</ele>
   </trkpt>
   <trkpt lat="-37.82714" lon="145.35408">
    <ele>617.44</ele>
   </trkpt>
   <trkpt lat="-37.8273" lon="145.35427">
    <ele>614.1600000000001</ele>
   </trkpt>
   <trkpt lat="-37.827270000000006" lon="145.35436">
    <ele>614.2800000000001</ele>
   </trkpt>
   <trkpt lat="-37.82712" lon="145.35435">
    <ele>614.97</ele>
   </trkpt>
   <trkpt lat="-37.82676" lon="145.35426">
    <ele>616.1300000000001</ele>
   </trkpt>
   <trkpt lat="-37.826550000000005" lon="145.35452">
    <ele>611.51</ele>
   </trkpt>
   <trkpt lat="-37.826550000000005" lon="145.35451">
    <ele>611.6600000000001</ele>
   </trkpt>
   <trkpt lat="-37.82647" lon="145.35462">
    <ele>609.4200000000001</ele>
   </trkpt>
   <trkpt lat="-37.82636" lon="145.35471">
    <ele>605.26</ele>
   </trkpt>
   <trkpt lat="-37.82598" lon="145.35515">
    <ele>595.16</ele>
   </trkpt>
   <trkpt lat="-37.82573" lon="145.35558">
    <ele>585.1200000000001</ele>
   </trkpt>
   <trkpt lat="-37.82562" lon="145.35584">
    <ele>579.1800000000001</ele>
   </trkpt>
   <trkpt lat="-37.82536" lon="145.35629">
    <ele>568.52</ele>
   </trkpt>
   <trkpt lat="-37.825320000000005" lon="145.35658">
    <ele>566.33</ele>
   </trkpt>
   <trkpt lat="-37.825030000000005" lon="145.35682">
    <ele>559.9000000000001</ele>
   </trkpt>
   <trkpt lat="-37.82504" lon="145.35682">
    <ele>560.0200000000001</ele>
   </trkpt>
   <trkpt lat="-37.82493" lon="145.35696000000002">
    <ele>557.11</ele>
   </trkpt>
   <trkpt lat="-37.82419" lon="145.35738">
    <ele>546.46</ele>
   </trkpt>
   <trkpt lat="-37.82405" lon="145.35753000000003">
    <ele>546.8900000000001</ele>
   </trkpt>
   <trkpt lat="-37.8237" lon="145.35811">
    <ele>549.5500000000001</ele>
   </trkpt>
   <trkpt lat="-37.82334" lon="145.3588">
    <ele>547.9900000000001</ele>
   </trkpt>
   <trkpt lat="-37.82314" lon="145.35915">
    <ele>542.19</ele>
   </trkpt>
   <trkpt lat="-37.82291" lon="145.35968000000003">
    <ele>541.6700000000001</ele>
   </trkpt>
   <trkpt lat="-37.82251" lon="145.36048000000002">
    <ele>538.1600000000001</ele>
   </trkpt>
   <trkpt lat="-37.82247" lon="145.36068">
    <ele>539.5300000000001</ele>
   </trkpt>
   <trkpt lat="-37.82251" lon="145.36086">
    <ele>544.62</ele>
   </trkpt>
   <trkpt lat="-37.82265" lon="145.36107">
    <ele>547.59</ele>
   </trkpt>
   <trkpt lat="-37.82287" lon="145.36139">
    <ele>550.71</ele>
   </trkpt>
   <trkpt lat="-37.82285" lon="145.36146000000002">
    <ele>550.84</ele>
   </trkpt>
   <trkpt lat="-37.82278" lon="145.36162000000002">
    <ele>551.03</ele>
   </trkpt>
   <trkpt lat="-37.82251" lon="145.36179">
    <ele>551.54</ele>
   </trkpt>
   <trkpt lat="-37.822390000000006" lon="145.36191000000002">
    <ele>551.84</ele>
   </trkpt>
   <trkpt lat="-37.82222" lon="145.36195">
    <ele>552.0</ele>
   </trkpt>
   <trkpt lat="-37.82204" lon="145.36197">
    <ele>552.37</ele>
   </trkpt>
   <trkpt lat="-37.82168" lon="145.36193">
    <ele>551.4499999999999</ele>
   </trkpt>
   <trkpt lat="-37.82114" lon="145.36204">
    <ele>543.6800000000001</ele>
   </trkpt>
   <trkpt lat="-37.82092" lon="145.36214">
    <ele>537.6800000000001</ele>
   </trkpt>
   <trkpt lat="-37.82016" lon="145.36235000000002">
    <ele>511.3500000000001</ele>
   </trkpt>
   <trkpt lat="-37.81996" lon="145.36259">
    <ele>505.74000000000007</ele>
   </trkpt>
   <trkpt lat="-37.81976" lon="145.36298000000002">
    <ele>502.57000000000005</ele>
   </trkpt>
   <trkpt lat="-37.81969" lon="145.36317000000003">
    <ele>502.65000000000003</ele>
   </trkpt>
   <trkpt lat="-37.81958" lon="145.36325000000002">
    <ele>502.41</ele>
   </trkpt>
   <trkpt lat="-37.81949" lon="145.36302">
    <ele>495.19</ele>
   </trkpt>
   <trkpt lat="-37.81931" lon="145.36299000000002">
    <ele>485.32</ele>
   </trkpt>
   <trkpt lat="-37.81877" lon="145.36299000000002">
    <ele>468.41</ele>
   </trkpt>
   <trkpt lat="-37.8183" lon="145.36328">
    <ele>462.31000000000006</ele>
   </trkpt>
   <trkpt lat="-37.817980000000006" lon="145.36344000000003">
    <ele>461.94</ele>
   </trkpt>
   <trkpt lat="-37.81779" lon="145.36370000000002">
    <ele>462.70000000000005</ele>
   </trkpt>
   <trkpt lat="-37.81765" lon="145.36397000000002">
    <ele>462.8</ele>
   </trkpt>
   <trkpt lat="-37.817600000000006" lon="145.36438">
    <ele>464.17</ele>
   </trkpt>
   <trkpt lat="-37.817600000000006" lon="145.36507">
    <ele>467.21</ele>
   </trkpt>
   <trkpt lat="-37.8177" lon="145.36568000000003">
    <ele>469.61</ele>
   </trkpt>
   <trkpt lat="-37.81774" lon="145.36581">
    <ele>471.03000000000003</ele>
   </trkpt>
   <trkpt lat="-37.81774" lon="145.36595">
    <ele>471.36000000000007</ele>
   </trkpt>
   <trkpt lat="-37.81765" lon="145.36620000000002">
    <ele>472.02000000000004</ele>
   </trkpt>
   <trkpt lat="-37.817530000000005" lon="145.36663000000001">
    <ele>471.01000000000005</ele>
   </trkpt>
   <trkpt lat="-37.81752" lon="145.36676">
    <ele>470.28000000000003</ele>
   </trkpt>
   <trkpt lat="-37.81743" lon="145.36671">
    <ele>470.0</ele>
   </trkpt>
   <trkpt lat="-37.81745" lon="145.36571">
    <ele>458.44</ele>
   </trkpt>
   <trkpt lat="-37.81736" lon="145.36494000000002">
    <ele>450.54</ele>
   </trkpt>
   <trkpt lat="-37.81723" lon="145.36425">
    <ele>439.77000000000004</ele>
   </trkpt>
   <trkpt lat="-37.81721" lon="145.36373">
    <ele>435.08000000000004</ele>
   </trkpt>
   <trkpt lat="-37.81734" lon="145.36311">
    <ele>425.50000000000006</ele>
   </trkpt>
   <trkpt lat="-37.8177" lon="145.36251000000001">
    <ele>416.12000000000006</ele>
   </trkpt>
   <trkpt lat="-37.8181" lon="145.36234000000002">
    <ele>410.78000000000003</ele>
   </trkpt>
   <trkpt lat="-37.81828" lon="145.36215">
    <ele>407.29</ele>
   </trkpt>
   <trkpt lat="-37.81861" lon="145.36159">
    <ele>398.34000000000003</ele>
   </trkpt>
   <trkpt lat="-37.8187" lon="145.36124">
    <ele>394.52000000000004</ele>
   </trkpt>
   <trkpt lat="-37.8187" lon="145.36094">
    <ele>388.6</ele>
   </trkpt>
   <trkpt lat="-37.81857" lon="145.36003000000002">
    <ele>379.29</ele>
   </trkpt>
   <trkpt lat="-37.81864" lon="145.35987">
    <ele>379.53000000000003</ele>
   </trkpt>
   <trkpt lat="-37.81866" lon="145.35975000000002">
    <ele>380.06</ele>
   </trkpt>
   <trkpt lat="-37.81893" lon="145.35938000000002">
    <ele>380.77000000000004</ele>
   </trkpt>
   <trkpt lat="-37.819355000739364" lon="145.35900000207263">
    <ele>380.57</ele>
   </trkpt>
   <trkpt lat="-37.81978" lon="145.35862">
    <ele>380.93000000000006</ele>
   </trkpt>
   <trkpt lat="-37.82005" lon="145.35831000000002">
    <ele>380.88000000000005</ele>
   </trkpt>
   <trkpt lat="-37.82011" lon="145.35802">
    <ele>381.05000000000007</ele>
   </trkpt>
   <trkpt lat="-37.82011" lon="145.35786000000002">
    <ele>381.32000000000005</ele>
   </trkpt>
   <trkpt lat="-37.82007" lon="145.35739">
    <ele>381.24</ele>
   </trkpt>
   <trkpt lat="-37.82009" lon="145.35717000000002">
    <ele>381.22</ele>
   </trkpt>
   <trkpt lat="-37.82014" lon="145.35699000000002">
    <ele>381.41</ele>
   </trkpt>
   <trkpt lat="-37.82021" lon="145.35685">
    <ele>381.55000000000007</ele>
   </trkpt>
   <trkpt lat="-37.82034" lon="145.35669000000001">
    <ele>381.52000000000004</ele>
   </trkpt>
   <trkpt lat="-37.82081" lon="145.35627000000002">
    <ele>380.59000000000003</ele>
   </trkpt>
   <trkpt lat="-37.82101" lon="145.35605">
    <ele>380.67</ele>
   </trkpt>
   <trkpt lat="-37.82123" lon="145.35564000000002">
    <ele>380.66</ele>
   </trkpt>
   <trkpt lat="-37.82152" lon="145.35504">
    <ele>380.72</ele>
   </trkpt>
   <trkpt lat="-37.82159" lon="145.3548">
    <ele>381.24</ele>
   </trkpt>
   <trkpt lat="-37.82155" lon="145.35462">
    <ele>381.24</ele>
   </trkpt>
   <trkpt lat="-37.8215" lon="145.3545">
    <ele>381.32000000000005</ele>
   </trkpt>
   <trkpt lat="-37.821450000000006" lon="145.35441">
    <ele>381.37000000000006</ele>
   </trkpt>
   <trkpt lat="-37.82101" lon="145.35419000000002">
    <ele>380.87000000000006</ele>
   </trkpt>
   <trkpt lat="-37.82063" lon="145.35363">
    <ele>381.04</ele>
   </trkpt>
   <trkpt lat="-37.82052" lon="145.35340000000002">
    <ele>380.94000000000005</ele>
   </trkpt>
   <trkpt lat="-37.82047" lon="145.35327">
    <ele>380.6</ele>
   </trkpt>
   <trkpt lat="-37.82047" lon="145.35311000000002">
    <ele>380.48</ele>
   </trkpt>
   <trkpt lat="-37.82052" lon="145.35284000000001">
    <ele>380.33000000000004</ele>
   </trkpt>
   <trkpt lat="-37.82088" lon="145.35202">
    <ele>379.75</ele>
   </trkpt>
   <trkpt lat="-37.820980000000006" lon="145.35155">
    <ele>379.86</ele>
   </trkpt>
   <trkpt lat="-37.82103" lon="145.35089000000002">
    <ele>378.01</ele>
   </trkpt>
   <trkpt lat="-37.82103" lon="145.35074">
    <ele>377.36</ele>
   </trkpt>
   <trkpt lat="-37.82101" lon="145.35052000000002">
    <ele>374.92</ele>
   </trkpt>
   <trkpt lat="-37.82103" lon="145.34965000000003">
    <ele>365.29</ele>
   </trkpt>
   <trkpt lat="-37.82108" lon="145.3493">
    <ele>359.81</ele>
   </trkpt>
   <trkpt lat="-37.82126" lon="145.34882000000002">
    <ele>353.74000000000007</ele>
   </trkpt>
   <trkpt lat="-37.82166" lon="145.34824">
    <ele>344.11</ele>
   </trkpt>
   <trkpt lat="-37.82204" lon="145.3479">
    <ele>339.26</ele>
   </trkpt>
   <trkpt lat="-37.82244" lon="145.3478">
    <ele>336.07000000000005</ele>
   </trkpt>
   <trkpt lat="-37.82253" lon="145.34774000000002">
    <ele>334.85</ele>
   </trkpt>
   <trkpt lat="-37.82255" lon="145.34759000000003">
    <ele>333.58000000000004</ele>
   </trkpt>
   <trkpt lat="-37.82253" lon="145.34733">
    <ele>329.64000000000004</ele>
   </trkpt>
   <trkpt lat="-37.82253" lon="145.34703000000002">
    <ele>326.77</ele>
   </trkpt>
   <trkpt lat="-37.8226" lon="145.34677000000002">
    <ele>322.84000000000003</ele>
   </trkpt>
   <trkpt lat="-37.82267" lon="145.34663">
    <ele>319.46000000000004</ele>
   </trkpt>
   <trkpt lat="-37.822770000000006" lon="145.34649000000002">
    <ele>318.84000000000003</ele>
   </trkpt>
   <trkpt lat="-37.822950000000006" lon="145.34635">
    <ele>316.92</ele>
   </trkpt>
   <trkpt lat="-37.823380000081364" lon="145.3461150014523">
    <ele>317.09000000000003</ele>
   </trkpt>
   <trkpt lat="-37.82381" lon="145.34588000000002">
    <ele>315.79</ele>
   </trkpt>
   <trkpt lat="-37.82408" lon="145.34560000000002">
    <ele>312.93</ele>
   </trkpt>
   <trkpt lat="-37.82428" lon="145.34546">
    <ele>309.64000000000004</ele>
   </trkpt>
   <trkpt lat="-37.82446" lon="145.34535000000002">
    <ele>306.32000000000005</ele>
   </trkpt>
   <trkpt lat="-37.82488" lon="145.34525000000002">
    <ele>303.66</ele>
   </trkpt>
   <trkpt lat="-37.82538" lon="145.34456">
    <ele>304.9</ele>
   </trkpt>
   <trkpt lat="-37.82555" lon="145.34439">
    <ele>304.33000000000004</ele>
   </trkpt>
   <trkpt lat="-37.82573" lon="145.34427000000002">
    <ele>303.9</ele>
   </trkpt>
   <trkpt lat="-37.82607" lon="145.34413">
    <ele>302.37</ele>
   </trkpt>
   <trkpt lat="-37.82638" lon="145.34404">
    <ele>301.28000000000003</ele>
   </trkpt>
   <trkpt lat="-37.82681" lon="145.34403">
    <ele>299.15000000000003</ele>
   </trkpt>
   <trkpt lat="-37.82692" lon="145.34395">
    <ele>298.46</ele>
   </trkpt>
   <trkpt lat="-37.82705" lon="145.34382000000002">
    <ele>296.49</ele>
   </trkpt>
   <trkpt lat="-37.8273" lon="145.34364000000002">
    <ele>294.19</ele>
   </trkpt>
   <trkpt lat="-37.82755" lon="145.34356000000002">
    <ele>292.05</ele>
   </trkpt>
   <trkpt lat="-37.82782" lon="145.34341">
    <ele>290.95000000000005</ele>
   </trkpt>
   <trkpt lat="-37.82831" lon="145.34295">
    <ele>289.12000000000006</ele>
   </trkpt>
   <trkpt lat="-37.82878" lon="145.34246000000002">
    <ele>290.29</ele>
   </trkpt>
   <trkpt lat="-37.828950000000006" lon="145.34237000000002">
    <ele>290.29</ele>
   </trkpt>
   <trkpt lat="-37.829240000000006" lon="145.34232">
    <ele>290.46000000000004</ele>
   </trkpt>
   <trkpt lat="-37.82943" lon="145.34233">
    <ele>291.00000000000006</ele>
   </trkpt>
   <trkpt lat="-37.82985" lon="145.34249">
    <ele>289.25</ele>
   </trkpt>
   <trkpt lat="-37.82999" lon="145.34251">
    <ele>287.89000000000004</ele>
   </trkpt>
   <trkpt lat="-37.8301" lon="145.34242">
    <ele>287.12000000000006</ele>
   </trkpt>
   <trkpt lat="-37.83019" lon="145.34220000000002">
    <ele>286.84000000000003</ele>
   </trkpt>
   <trkpt lat="-37.83019" lon="145.34219000000002">
    <ele>286.84000000000003</ele>
   </trkpt>
   <trkpt lat="-37.8303" lon="145.34166000000002">
    <ele>287.71000000000004</ele>
   </trkpt>
   <trkpt lat="-37.830450000000006" lon="145.34136">
    <ele>288.38</ele>
   </trkpt>
   <trkpt lat="-37.83084" lon="145.34093000000001">
    <ele>288.69</ele>
   </trkpt>
   <trkpt lat="-37.83126" lon="145.34062">
    <ele>286.83000000000004</ele>
   </trkpt>
   <trkpt lat="-37.83187" lon="145.34027">
    <ele>282.24000000000007</ele>
   </trkpt>
   <trkpt lat="-37.832060000000006" lon="145.3401">
    <ele>282.18000000000006</ele>
   </trkpt>
   <trkpt lat="-37.83212" lon="145.34007000000003">
    <ele>282.18000000000006</ele>
   </trkpt>
   <trkpt lat="-37.832240000000006" lon="145.34091">
    <ele>298.37</ele>
   </trkpt>
   <trkpt lat="-37.83225" lon="145.34114000000002">
    <ele>306.15000000000003</ele>
   </trkpt>
   <trkpt lat="-37.83238" lon="145.34191">
    <ele>329.03000000000003</ele>
   </trkpt>
   <trkpt lat="-37.8327" lon="145.34184000000002">
    <ele>326.76000000000005</ele>
   </trkpt>
   <trkpt lat="-37.83301" lon="145.34152">
    <ele>329.68</ele>
   </trkpt>
   <trkpt lat="-37.83323" lon="145.34098">
    <ele>329.93</ele>
   </trkpt>
   <trkpt lat="-37.83337" lon="145.34082">
    <ele>331.03000000000003</ele>
   </trkpt>
   <trkpt lat="-37.83357" lon="145.34077000000002">
    <ele>334.26</ele>
   </trkpt>
   <trkpt lat="-37.83397" lon="145.34079">
    <ele>344.42</ele>
   </trkpt>
   <trkpt lat="-37.83415" lon="145.34074">
    <ele>348.15000000000003</ele>
   </trkpt>
   <trkpt lat="-37.83442" lon="145.34049000000002">
    <ele>343.42</ele>
   </trkpt>
   <trkpt lat="-37.83475" lon="145.34023000000002">
    <ele>340.11</ele>
   </trkpt>
   <trkpt lat="-37.835150000000006" lon="145.33989000000003">
    <ele>345.5</ele>
   </trkpt>
   <trkpt lat="-37.83543" lon="145.33977000000002">
    <ele>351.22</ele>
   </trkpt>
   <trkpt lat="-37.83576" lon="145.33959000000002">
    <ele>357.18000000000006</ele>
   </trkpt>
   <trkpt lat="-37.83625" lon="145.33926000000002">
    <ele>360.81</ele>
   </trkpt>
   <trkpt lat="-37.83677" lon="145.339">
    <ele>359.97</ele>
   </trkpt>
   <trkpt lat="-37.83719" lon="145.33865">
    <ele>354.66</ele>
   </trkpt>
   <trkpt lat="-37.837250000000004" lon="145.33857">
    <ele>354.66</ele>
   </trkpt>
   <trkpt lat="-37.83766" lon="145.33823">
    <ele>345.95000000000005</ele>
   </trkpt>
   <trkpt lat="-37.83809" lon="145.33800000000002">
    <ele>337.03000000000003</ele>
   </trkpt>
   <trkpt lat="-37.83847" lon="145.33802">
    <ele>333.24</ele>
   </trkpt>
   <trkpt lat="-37.83885" lon="145.33808000000002">
    <ele>333.29</ele>
   </trkpt>
   <trkpt lat="-37.83919" lon="145.33819000000003">
    <ele>336.11</ele>
   </trkpt>
   <trkpt lat="-37.83928" lon="145.33822">
    <ele>336.74</ele>
   </trkpt>
   <trkpt lat="-37.83876" lon="145.33791000000002">
    <ele>327.93</ele>
   </trkpt>
   <trkpt lat="-37.83845" lon="145.33756000000002">
    <ele>321.58000000000004</ele>
   </trkpt>
   <trkpt lat="-37.83825" lon="145.33732">
    <ele>316.16</ele>
   </trkpt>
   <trkpt lat="-37.83816" lon="145.33717000000001">
    <ele>312.73</ele>
   </trkpt>
   <trkpt lat="-37.83813" lon="145.33708000000001">
    <ele>310.76000000000005</ele>
   </trkpt>
   <trkpt lat="-37.83805" lon="145.33651">
    <ele>300.61</ele>
   </trkpt>
   <trkpt lat="-37.83789" lon="145.33617">
    <ele>296.33000000000004</ele>
   </trkpt>
   <trkpt lat="-37.83731" lon="145.33561">
    <ele>280.38</ele>
   </trkpt>
   <trkpt lat="-37.83706" lon="145.33556000000002">
    <ele>277.72</ele>
   </trkpt>
   <trkpt lat="-37.83652" lon="145.33563">
    <ele>271.45000000000005</ele>
   </trkpt>
   <trkpt lat="-37.83616" lon="145.33564">
    <ele>263.73</ele>
   </trkpt>
   <trkpt lat="-37.8359" lon="145.33574000000002">
    <ele>259.63</ele>
   </trkpt>
   <trkpt lat="-37.83574" lon="145.33575000000002">
    <ele>251.68</ele>
   </trkpt>
   <trkpt lat="-37.83561" lon="145.33572">
    <ele>251.68</ele>
   </trkpt>
   <trkpt lat="-37.83538" lon="145.33562">
    <ele>243.95000000000002</ele>
   </trkpt>
   <trkpt lat="-37.835150000000006" lon="145.33555">
    <ele>240.88</ele>
   </trkpt>
   <trkpt lat="-37.834970000000006" lon="145.33549000000002">
    <ele>238.06000000000003</ele>
   </trkpt>
   <trkpt lat="-37.83498" lon="145.33540000000002">
    <ele>238.06000000000003</ele>
   </trkpt>
   <trkpt lat="-37.83502" lon="145.33532000000002">
    <ele>238.05</ele>
   </trkpt>
   <trkpt lat="-37.83516" lon="145.33518">
    <ele>238.77</ele>
   </trkpt>
   <trkpt lat="-37.835440000000006" lon="145.33481">
    <ele>239.24</ele>
   </trkpt>
   <trkpt lat="-37.835750000000004" lon="145.33454">
    <ele>239.71</ele>
   </trkpt>
   <trkpt lat="-37.83628" lon="145.33443000000003">
    <ele>239.45000000000002</ele>
   </trkpt>
   <trkpt lat="-37.83677" lon="145.33428">
    <ele>238.36</ele>
   </trkpt>
   <trkpt lat="-37.83722" lon="145.33425000000003">
    <ele>237.74</ele>
   </trkpt>
   <trkpt lat="-37.83782" lon="145.33411">
    <ele>232.63000000000002</ele>
   </trkpt>
   <trkpt lat="-37.83803" lon="145.33407000000003">
    <ele>230.59</ele>
   </trkpt>
   <trkpt lat="-37.83825" lon="145.33406000000002">
    <ele>229.35000000000002</ele>
   </trkpt>
   <trkpt lat="-37.83901" lon="145.33413000000002">
    <ele>226.3</ele>
   </trkpt>
   <trkpt lat="-37.83954000000001" lon="145.33409">
    <ele>228.71</ele>
   </trkpt>
   <trkpt lat="-37.84004" lon="145.3341">
    <ele>230.86</ele>
   </trkpt>
   <trkpt lat="-37.84055" lon="145.33406000000002">
    <ele>232.26000000000002</ele>
   </trkpt>
   <trkpt lat="-37.841120000000004" lon="145.33404000000002">
    <ele>233.37</ele>
   </trkpt>
   <trkpt lat="-37.84176" lon="145.3339">
    <ele>232.20000000000002</ele>
   </trkpt>
   <trkpt lat="-37.84243" lon="145.33378000000002">
    <ele>226.16000000000003</ele>
   </trkpt>
   <trkpt lat="-37.84295" lon="145.33379000000002">
    <ele>219.47000000000003</ele>
   </trkpt>
   <trkpt lat="-37.84313" lon="145.33376">
    <ele>217.97000000000003</ele>
   </trkpt>
   <trkpt lat="-37.84353" lon="145.33365">
    <ele>210.54</ele>
   </trkpt>
   <trkpt lat="-37.84371" lon="145.33363">
    <ele>209.00000000000003</ele>
   </trkpt>
   <trkpt lat="-37.84389" lon="145.33365">
    <ele>208.21</ele>
   </trkpt>
   <trkpt lat="-37.84431" lon="145.33359000000002">
    <ele>205.29000000000002</ele>
   </trkpt>
   <trkpt lat="-37.84432" lon="145.33359000000002">
    <ele>205.26000000000002</ele>
   </trkpt>
   <trkpt lat="-37.84451" lon="145.33359000000002">
    <ele>203.0</ele>
   </trkpt>
   <trkpt lat="-37.84463" lon="145.33361000000002">
    <ele>202.68000000000004</ele>
   </trkpt>
   <trkpt lat="-37.84485" lon="145.33372">
    <ele>201.96000000000004</ele>
   </trkpt>
   <trkpt lat="-37.84545" lon="145.33419">
    <ele>207.23000000000002</ele>
   </trkpt>
   <trkpt lat="-37.84566" lon="145.33428">
    <ele>210.11</ele>
   </trkpt>
   <trkpt lat="-37.84586" lon="145.33431000000002">
    <ele>213.3</ele>
   </trkpt>
   <trkpt lat="-37.84593" lon="145.33428">
    <ele>214.4</ele>
   </trkpt>
   <trkpt lat="-37.84599" lon="145.33424000000002">
    <ele>214.83</ele>
   </trkpt>
   <trkpt lat="-37.84664" lon="145.33361000000002">
    <ele>218.73</ele>
   </trkpt>
   <trkpt lat="-37.84713" lon="145.33309">
    <ele>222.51000000000002</ele>
   </trkpt>
   <trkpt lat="-37.84731" lon="145.33297000000002">
    <ele>224.32000000000002</ele>
   </trkpt>
   <trkpt lat="-37.847390000000004" lon="145.33296">
    <ele>225.13000000000002</ele>
   </trkpt>
   <trkpt lat="-37.847460000000005" lon="145.33297000000002">
    <ele>225.53</ele>
   </trkpt>
   <trkpt lat="-37.84754" lon="145.3331">
    <ele>227.34</ele>
   </trkpt>
   <trkpt lat="-37.8476" lon="145.33334000000002">
    <ele>231.19</ele>
   </trkpt>
   <trkpt lat="-37.84767" lon="145.33385">
    <ele>234.14000000000001</ele>
   </trkpt>
   <trkpt lat="-37.84772" lon="145.33393">
    <ele>236.77</ele>
   </trkpt>
   <trkpt lat="-37.84778" lon="145.33398000000003">
    <ele>237.97</ele>
   </trkpt>
   <trkpt lat="-37.84792" lon="145.33391">
    <ele>237.97</ele>
   </trkpt>
   <trkpt lat="-37.84839" lon="145.33338">
    <ele>242.86</ele>
   </trkpt>
   <trkpt lat="-37.84848" lon="145.3333">
    <ele>243.46</ele>
   </trkpt>
   <trkpt lat="-37.84857" lon="145.33327">
    <ele>244.25000000000003</ele>
   </trkpt>
   <trkpt lat="-37.848670000000006" lon="145.33328">
    <ele>245.29</ele>
   </trkpt>
   <trkpt lat="-37.848800000000004" lon="145.33329">
    <ele>246.76</ele>
   </trkpt>
   <trkpt lat="-37.84899" lon="145.33313">
    <ele>245.3</ele>
   </trkpt>
   <trkpt lat="-37.849140000000006" lon="145.33307000000002">
    <ele>245.3</ele>
   </trkpt>
   <trkpt lat="-37.84926" lon="145.33305000000001">
    <ele>243.01000000000002</ele>
   </trkpt>
   <trkpt lat="-37.84975" lon="145.33316000000002">
    <ele>240.28000000000003</ele>
   </trkpt>
   <trkpt lat="-37.84989" lon="145.33313">
    <ele>240.28000000000003</ele>
   </trkpt>
   <trkpt lat="-37.85004" lon="145.333">
    <ele>238.64000000000001</ele>
   </trkpt>
   <trkpt lat="-37.8502" lon="145.33283">
    <ele>238.04000000000002</ele>
   </trkpt>
   <trkpt lat="-37.85036" lon="145.33271000000002">
    <ele>238.04000000000002</ele>
   </trkpt>
   <trkpt lat="-37.850860000000004" lon="145.33241">
    <ele>232.58</ele>
   </trkpt>
   <trkpt lat="-37.85085" lon="145.33266">
    <ele>242.09000000000003</ele>
   </trkpt>
   <trkpt lat="-37.85076" lon="145.33294">
    <ele>249.76</ele>
   </trkpt>
   <trkpt lat="-37.8508" lon="145.33325000000002">
    <ele>253.91000000000003</ele>
   </trkpt>
   <trkpt lat="-37.85078" lon="145.33346">
    <ele>256.06</ele>
   </trkpt>
   <trkpt lat="-37.85064500158185" lon="145.33407000107826">
    <ele>271.32</ele>
   </trkpt>
   <trkpt lat="-37.85051" lon="145.33468000000002">
    <ele>285.17</ele>
   </trkpt>
   <trkpt lat="-37.85051" lon="145.33530000000002">
    <ele>295.42</ele>
   </trkpt>
   <trkpt lat="-37.85063" lon="145.33599">
    <ele>308.35</ele>
   </trkpt>
   <trkpt lat="-37.85074" lon="145.33634">
    <ele>312.71000000000004</ele>
   </trkpt>
   <trkpt lat="-37.85085" lon="145.33637000000002">
    <ele>312.89</ele>
   </trkpt>
   <trkpt lat="-37.85096" lon="145.33634">
    <ele>312.73</ele>
   </trkpt>
   <trkpt lat="-37.85107" lon="145.33634">
    <ele>312.67</ele>
   </trkpt>
   <trkpt lat="-37.85139" lon="145.33696">
    <ele>317.76000000000005</ele>
   </trkpt>
   <trkpt lat="-37.85168" lon="145.33735000000001">
    <ele>319.13</ele>
   </trkpt>
   <trkpt lat="-37.85172" lon="145.33751">
    <ele>320.15000000000003</ele>
   </trkpt>
   <trkpt lat="-37.85177" lon="145.33761">
    <ele>320.32000000000005</ele>
   </trkpt>
   <trkpt lat="-37.8519" lon="145.33773000000002">
    <ele>319.97</ele>
   </trkpt>
   <trkpt lat="-37.85206" lon="145.33798000000002">
    <ele>319.93000000000006</ele>
   </trkpt>
   <trkpt lat="-37.85215" lon="145.33823">
    <ele>320.1</ele>
   </trkpt>
   <trkpt lat="-37.85233" lon="145.33851">
    <ele>317.97</ele>
   </trkpt>
   <trkpt lat="-37.8524" lon="145.33854000000002">
    <ele>317.03000000000003</ele>
   </trkpt>
   <trkpt lat="-37.85242" lon="145.33856">
    <ele>316.01</ele>
   </trkpt>
   <trkpt lat="-37.85293" lon="145.33818000000002">
    <ele>297.87</ele>
   </trkpt>
   <trkpt lat="-37.85304" lon="145.33812">
    <ele>293.98</ele>
   </trkpt>
   <trkpt lat="-37.85313" lon="145.33813">
    <ele>292.12000000000006</ele>
   </trkpt>
   <trkpt lat="-37.85327" lon="145.33823">
    <ele>291.16</ele>
   </trkpt>
   <trkpt lat="-37.85333" lon="145.33833">
    <ele>292.34999999999997</ele>
   </trkpt>
   <trkpt lat="-37.85333" lon="145.33871000000002">
    <ele>296.46</ele>
   </trkpt>
   <trkpt lat="-37.8534" lon="145.33894">
    <ele>298.24</ele>
   </trkpt>
   <trkpt lat="-37.853460000000005" lon="145.33943000000002">
    <ele>301.46</ele>
   </trkpt>
   <trkpt lat="-37.85358" lon="145.33991">
    <ele>302.57</ele>
   </trkpt>
   <trkpt lat="-37.85365" lon="145.34067000000002">
    <ele>312.37</ele>
   </trkpt>
   <trkpt lat="-37.85374" lon="145.34099">
    <ele>315.83</ele>
   </trkpt>
   <trkpt lat="-37.85387" lon="145.34123000000002">
    <ele>314.45</ele>
   </trkpt>
   <trkpt lat="-37.85419" lon="145.34158000000002">
    <ele>312.07</ele>
   </trkpt>
   <trkpt lat="-37.85448" lon="145.34206">
    <ele>323.70000000000005</ele>
   </trkpt>
   <trkpt lat="-37.85468" lon="145.34225">
    <ele>332.93</ele>
   </trkpt>
   <trkpt lat="-37.85472" lon="145.34233">
    <ele>334.20000000000005</ele>
   </trkpt>
   <trkpt lat="-37.85474" lon="145.3426">
    <ele>339.04</ele>
   </trkpt>
   <trkpt lat="-37.85492" lon="145.34293000000002">
    <ele>343.67</ele>
   </trkpt>
   <trkpt lat="-37.85488" lon="145.34337000000002">
    <ele>350.72</ele>
   </trkpt>
   <trkpt lat="-37.8549" lon="145.34348">
    <ele>351.43</ele>
   </trkpt>
   <trkpt lat="-37.85492" lon="145.34354000000002">
    <ele>351.43</ele>
   </trkpt>
   <trkpt lat="-37.855050000000006" lon="145.34368">
    <ele>355.07000000000005</ele>
   </trkpt>
   <trkpt lat="-37.8551" lon="145.34404">
    <ele>358.13</ele>
   </trkpt>
   <trkpt lat="-37.85515" lon="145.34415">
    <ele>359.44000000000005</ele>
   </trkpt>
   <trkpt lat="-37.85528" lon="145.34457">
    <ele>359.84000000000003</ele>
   </trkpt>
   <trkpt lat="-37.85535" lon="145.34470000000002">
    <ele>358.82</ele>
   </trkpt>
   <trkpt lat="-37.85553" lon="145.34492">
    <ele>357.94000000000005</ele>
   </trkpt>
   <trkpt lat="-37.85562" lon="145.34508000000002">
    <ele>357.77000000000004</ele>
   </trkpt>
   <trkpt lat="-37.85607" lon="145.34561000000002">
    <ele>352.18000000000006</ele>
   </trkpt>
   <trkpt lat="-37.85616" lon="145.34582">
    <ele>348.69000000000005</ele>
   </trkpt>
   <trkpt lat="-37.85629" lon="145.34596000000002">
    <ele>345.33000000000004</ele>
   </trkpt>
   <trkpt lat="-37.85638" lon="145.34613000000002">
    <ele>340.99</ele>
   </trkpt>
   <trkpt lat="-37.8566" lon="145.34635">
    <ele>337.85</ele>
   </trkpt>
   <trkpt lat="-37.85687" lon="145.34644">
    <ele>335.34000000000003</ele>
   </trkpt>
   <trkpt lat="-37.85696" lon="145.34644">
    <ele>335.53000000000003</ele>
   </trkpt>
   <trkpt lat="-37.85703" lon="145.34650000000002">
    <ele>335.93</ele>
   </trkpt>
   <trkpt lat="-37.85727" lon="145.34652">
    <ele>337.55</ele>
   </trkpt>
   <trkpt lat="-37.85743" lon="145.34651000000002">
    <ele>338.79</ele>
   </trkpt>
   <trkpt lat="-37.857580000000006" lon="145.34655">
    <ele>343.01000000000005</ele>
   </trkpt>
   <trkpt lat="-37.85765" lon="145.34672">
    <ele>344.36000000000007</ele>
   </trkpt>
   <trkpt lat="-37.857960000000006" lon="145.34694000000002">
    <ele>347.02000000000004</ele>
   </trkpt>
   <trkpt lat="-37.85819" lon="145.34719">
    <ele>349.52000000000004</ele>
   </trkpt>
   <trkpt lat="-37.85833" lon="145.34725">
    <ele>351.79</ele>
   </trkpt>
   <trkpt lat="-37.85853" lon="145.34743">
    <ele>355.83000000000004</ele>
   </trkpt>
   <trkpt lat="-37.85855" lon="145.34749000000002">
    <ele>355.83000000000004</ele>
   </trkpt>
   <trkpt lat="-37.8586" lon="145.34761">
    <ele>356.84000000000003</ele>
   </trkpt>
   <trkpt lat="-37.85918" lon="145.3476">
    <ele>352.85</ele>
   </trkpt>
   <trkpt lat="-37.85931" lon="145.34758000000002">
    <ele>351.33000000000004</ele>
   </trkpt>
   <trkpt lat="-37.859370000000006" lon="145.34754">
    <ele>350.63000000000005</ele>
   </trkpt>
   <trkpt lat="-37.85942" lon="145.34772">
    <ele>365.00000000000006</ele>
   </trkpt>
   <trkpt lat="-37.859500000000004" lon="145.34782">
    <ele>365.00000000000006</ele>
   </trkpt>
   <trkpt lat="-37.86027" lon="145.34776000000002">
    <ele>372.62</ele>
   </trkpt>
   <trkpt lat="-37.86027" lon="145.34757000000002">
    <ele>371.87</ele>
   </trkpt>
   <trkpt lat="-37.86027" lon="145.34755">
    <ele>371.8</ele>
   </trkpt>
   <trkpt lat="-37.86027" lon="145.34776000000002">
    <ele>372.62</ele>
   </trkpt>
   <trkpt lat="-37.86032" lon="145.34775000000002">
    <ele>372.62</ele>
   </trkpt>
   <trkpt lat="-37.86068" lon="145.34759000000003">
    <ele>378.79</ele>
   </trkpt>
   <trkpt lat="-37.86097" lon="145.34757000000002">
    <ele>384.27000000000004</ele>
   </trkpt>
   <trkpt lat="-37.86101" lon="145.34763">
    <ele>385.65000000000003</ele>
   </trkpt>
   <trkpt lat="-37.86101" lon="145.34771">
    <ele>386.22</ele>
   </trkpt>
   <trkpt lat="-37.86097" lon="145.34788">
    <ele>387.59000000000003</ele>
   </trkpt>
   <trkpt lat="-37.86097" lon="145.34804000000003">
    <ele>388.78000000000003</ele>
   </trkpt>
   <trkpt lat="-37.86104" lon="145.34814">
    <ele>390.35</ele>
   </trkpt>
   <trkpt lat="-37.861140000000006" lon="145.34822">
    <ele>392.05</ele>
   </trkpt>
   <trkpt lat="-37.86121" lon="145.34824">
    <ele>392.23</ele>
   </trkpt>
   <trkpt lat="-37.86128" lon="145.34822">
    <ele>395.02000000000004</ele>
   </trkpt>
   <trkpt lat="-37.86159" lon="145.34802000000002">
    <ele>398.63000000000005</ele>
   </trkpt>
   <trkpt lat="-37.86164" lon="145.34794000000002">
    <ele>399.31000000000006</ele>
   </trkpt>
   <trkpt lat="-37.86168" lon="145.34779">
    <ele>399.91</ele>
   </trkpt>
   <trkpt lat="-37.86162" lon="145.34753">
    <ele>402.07000000000005</ele>
   </trkpt>
   <trkpt lat="-37.86162" lon="145.34737">
    <ele>403.04</ele>
   </trkpt>
   <trkpt lat="-37.861790000000006" lon="145.34698">
    <ele>407.27000000000004</ele>
   </trkpt>
   <trkpt lat="-37.86186" lon="145.34658000000002">
    <ele>406.82</ele>
   </trkpt>
   <trkpt lat="-37.86193" lon="145.34642000000002">
    <ele>406.75000000000006</ele>
   </trkpt>
   <trkpt lat="-37.86202" lon="145.34712000000002">
    <ele>412.39000000000004</ele>
   </trkpt>
   <trkpt lat="-37.86206" lon="145.34726">
    <ele>412.39000000000004</ele>
   </trkpt>
   <trkpt lat="-37.8622" lon="145.34749000000002">
    <ele>420.38</ele>
   </trkpt>
   <trkpt lat="-37.86245" lon="145.34777000000003">
    <ele>424.07000000000005</ele>
   </trkpt>
   <trkpt lat="-37.86256" lon="145.34787">
    <ele>424.97</ele>
   </trkpt>
   <trkpt lat="-37.86296" lon="145.34810000000002">
    <ele>429.33000000000004</ele>
   </trkpt>
   <trkpt lat="-37.86312" lon="145.34826">
    <ele>431.00000000000006</ele>
   </trkpt>
   <trkpt lat="-37.86316" lon="145.34836">
    <ele>431.36</ele>
   </trkpt>
   <trkpt lat="-37.86318" lon="145.34895">
    <ele>436.96</ele>
   </trkpt>
   <trkpt lat="-37.86323" lon="145.3494">
    <ele>443.33000000000004</ele>
   </trkpt>
   <trkpt lat="-37.86321" lon="145.3496">
    <ele>444.50000000000006</ele>
   </trkpt>
   <trkpt lat="-37.863150000000005" lon="145.34997">
    <ele>447.97</ele>
   </trkpt>
   <trkpt lat="-37.86285" lon="145.35058">
    <ele>453.28000000000003</ele>
   </trkpt>
   <trkpt lat="-37.862730000000006" lon="145.35069000000001">
    <ele>458.03000000000003</ele>
   </trkpt>
   <trkpt lat="-37.86222" lon="145.3514">
    <ele>465.89000000000004</ele>
   </trkpt>
   <trkpt lat="-37.86215" lon="145.35175">
    <ele>469.09000000000003</ele>
   </trkpt>
   <trkpt lat="-37.86216" lon="145.35208">
    <ele>470.58000000000004</ele>
   </trkpt>
   <trkpt lat="-37.86222" lon="145.35236">
    <ele>473.61</ele>
   </trkpt>
   <trkpt lat="-37.86242" lon="145.35278000000002">
    <ele>477.78000000000003</ele>
   </trkpt>
   <trkpt lat="-37.86253" lon="145.35285000000002">
    <ele>476.88</ele>
   </trkpt>
   <trkpt lat="-37.86253" lon="145.35292">
    <ele>476.89000000000004</ele>
   </trkpt>
   <trkpt lat="-37.862640000000006" lon="145.35320000000002">
    <ele>478.72</ele>
   </trkpt>
  </trkseg>
 </trk>
</gpx>
