<?xml version="1.0" encoding="UTF-8"?>
<gpx creator="StravaGPX" version="1.1" xmlns="http://www.topografix.com/GPX/1/1" xmlns:xsi="http://www.w3.org/2001/XMLSchema-instance" xsi:schemaLocation="http://www.topografix.com/GPX/1/1 http://www.topografix.com/GPX/1/1/gpx.xsd">
 <metadata>
  <name>11 Feb 2024</name>
  <author>
   <name>john csorgo</name>
  </author>
  <copyright author="OpenStreetMap contributors">
   <year>2020</year>
   <license>https://www.openstreetmap.org/copyright</license>
  </copyright>
 </metadata>
 <trk>
  <name>11 Feb 2024</name>
  <link href=""/>
  <type>running</type>
  <trkseg>
   <trkpt lat="-37.8628" lon="145.35358000000002">
    <ele>479.03000000000003</ele>
   </trkpt>
   <trkpt lat="-37.86263" lon="145.35319">
    <ele>477.43</ele>
   </trkpt>
   <trkpt lat="-37.86256" lon="145.353">
    <ele>475.37</ele>
   </trkpt>
   <trkpt lat="-37.86253" lon="145.35281">
    <ele>474.71000000000004</ele>
   </trkpt>
   <trkpt lat="-37.862460000000006" lon="145.35279">
    <ele>474.37</ele>
   </trkpt>
   <trkpt lat="-37.8624" lon="145.35274">
    <ele>473.91</ele>
   </trkpt>
   <trkpt lat="-37.862190000000005" lon="145.3522">
    <ele>470.96000000000004</ele>
   </trkpt>
   <trkpt lat="-37.86218" lon="145.35177000000002">
    <ele>467.94</ele>
   </trkpt>
   <trkpt lat="-37.8622" lon="145.3514">
    <ele>465.11</ele>
   </trkpt>
   <trkpt lat="-37.86256" lon="145.35098000000002">
    <ele>460.0400000000001</ele>
   </trkpt>
   <trkpt lat="-37.86258" lon="145.35084">
    <ele>458.88</ele>
   </trkpt>
   <trkpt lat="-37.862730000000006" lon="145.35069000000001">
    <ele>455.29</ele>
   </trkpt>
   <trkpt lat="-37.86233" lon="145.35036000000002">
    <ele>444.49000000000007</ele>
   </trkpt>
   <trkpt lat="-37.86234" lon="145.35036000000002">
    <ele>444.49000000000007</ele>
   </trkpt>
   <trkpt lat="-37.86218" lon="145.35036000000002">
    <ele>444.6</ele>
   </trkpt>
   <trkpt lat="-37.86175" lon="145.35062000000002">
    <ele>448.17</ele>
   </trkpt>
   <trkpt lat="-37.86157" lon="145.35075">
    <ele>448.8</ele>
   </trkpt>
   <trkpt lat="-37.86144" lon="145.35096000000001">
    <ele>448.43000000000006</ele>
   </trkpt>
   <trkpt lat="-37.86104" lon="145.35133000000002">
    <ele>448.16</ele>
   </trkpt>
   <trkpt lat="-37.860960000000006" lon="145.35146">
    <ele>451.27000000000004</ele>
   </trkpt>
   <trkpt lat="-37.860490000000006" lon="145.35181">
    <ele>459.93000000000006</ele>
   </trkpt>
   <trkpt lat="-37.86023" lon="145.35196000000002">
    <ele>464.68</ele>
   </trkpt>
   <trkpt lat="-37.85994" lon="145.35221">
    <ele>469.54</ele>
   </trkpt>
   <trkpt lat="-37.8596" lon="145.35241000000002">
    <ele>473.83000000000004</ele>
   </trkpt>
   <trkpt lat="-37.85945" lon="145.35244">
    <ele>475.72</ele>
   </trkpt>
   <trkpt lat="-37.8592" lon="145.35248">
    <ele>479.68000000000006</ele>
   </trkpt>
   <trkpt lat="-37.85851" lon="145.35268000000002">
    <ele>487.98</ele>
   </trkpt>
   <trkpt lat="-37.85815" lon="145.35273">
    <ele>494.53000000000003</ele>
   </trkpt>
   <trkpt lat="-37.857635000010575" lon="145.35270499982573">
    <ele>499.39000000000004</ele>
   </trkpt>
   <trkpt lat="-37.85712" lon="145.35268000000002">
    <ele>504.27</ele>
   </trkpt>
   <trkpt lat="-37.85701" lon="145.35266000000001">
    <ele>506.6</ele>
   </trkpt>
   <trkpt lat="-37.85683" lon="145.35260000000002">
    <ele>508.6400000000001</ele>
   </trkpt>
   <trkpt lat="-37.85636" lon="145.35252">
    <ele>509.68</ele>
   </trkpt>
   <trkpt lat="-37.85622" lon="145.35247">
    <ele>508.71</ele>
   </trkpt>
   <trkpt lat="-37.85614" lon="145.35240000000002">
    <ele>507.72</ele>
   </trkpt>
   <trkpt lat="-37.85580500091417" lon="145.35193999793628">
    <ele>499.11000000000007</ele>
   </trkpt>
   <trkpt lat="-37.855470000000004" lon="145.35148">
    <ele>494.54</ele>
   </trkpt>
   <trkpt lat="-37.855340000000005" lon="145.35162000000003">
    <ele>489.76</ele>
   </trkpt>
   <trkpt lat="-37.855470000000004" lon="145.35148">
    <ele>491.38000000000005</ele>
   </trkpt>
   <trkpt lat="-37.85507500121872" lon="145.3509249969086">
    <ele>483.16</ele>
   </trkpt>
   <trkpt lat="-37.85468" lon="145.35037">
    <ele>469.96000000000004</ele>
   </trkpt>
   <trkpt lat="-37.85419" lon="145.34983000000003">
    <ele>458.75000000000006</ele>
   </trkpt>
   <trkpt lat="-37.85378" lon="145.34931">
    <ele>452.45</ele>
   </trkpt>
   <trkpt lat="-37.85349" lon="145.34869">
    <ele>447.1</ele>
   </trkpt>
   <trkpt lat="-37.85347" lon="145.34849">
    <ele>437.6</ele>
   </trkpt>
   <trkpt lat="-37.85349" lon="145.34832">
    <ele>437.13</ele>
   </trkpt>
   <trkpt lat="-37.85329" lon="145.34838000000002">
    <ele>434.36</ele>
   </trkpt>
   <trkpt lat="-37.85298" lon="145.34869">
    <ele>427.2900000000001</ele>
   </trkpt>
   <trkpt lat="-37.85284" lon="145.34871">
    <ele>422.61</ele>
   </trkpt>
   <trkpt lat="-37.85262" lon="145.34889">
    <ele>416.91</ele>
   </trkpt>
   <trkpt lat="-37.85246" lon="145.34893000000002">
    <ele>411.7</ele>
   </trkpt>
   <trkpt lat="-37.85195" lon="145.34931">
    <ele>393.17</ele>
   </trkpt>
   <trkpt lat="-37.85116" lon="145.34979">
    <ele>365.71000000000004</ele>
   </trkpt>
   <trkpt lat="-37.851060000000004" lon="145.34977">
    <ele>363.16</ele>
   </trkpt>
   <trkpt lat="-37.85098" lon="145.34968">
    <ele>357.98</ele>
   </trkpt>
   <trkpt lat="-37.8508" lon="145.34936000000002">
    <ele>349.06</ele>
   </trkpt>
   <trkpt lat="-37.8506" lon="145.34881000000001">
    <ele>342.61</ele>
   </trkpt>
   <trkpt lat="-37.85033500134351" lon="145.34822999774286">
    <ele>334.01000000000005</ele>
   </trkpt>
   <trkpt lat="-37.85007" lon="145.34765000000002">
    <ele>322.78000000000003</ele>
   </trkpt>
   <trkpt lat="-37.84975" lon="145.34712000000002">
    <ele>316.27000000000004</ele>
   </trkpt>
   <trkpt lat="-37.84964" lon="145.34674">
    <ele>312.66</ele>
   </trkpt>
   <trkpt lat="-37.84937" lon="145.34567">
    <ele>303.36</ele>
   </trkpt>
   <trkpt lat="-37.8491" lon="145.34499000000002">
    <ele>292.78000000000003</ele>
   </trkpt>
   <trkpt lat="-37.84895" lon="145.34452000000002">
    <ele>284.25</ele>
   </trkpt>
   <trkpt lat="-37.84886" lon="145.34412">
    <ele>276.57000000000005</ele>
   </trkpt>
   <trkpt lat="-37.848760000000006" lon="145.34363000000002">
    <ele>272.39000000000004</ele>
   </trkpt>
   <trkpt lat="-37.84875" lon="145.34361">
    <ele>272.39000000000004</ele>
   </trkpt>
   <trkpt lat="-37.84868" lon="145.34415">
    <ele>273.01000000000005</ele>
   </trkpt>
   <trkpt lat="-37.84861" lon="145.34492">
    <ele>274.40000000000003</ele>
   </trkpt>
   <trkpt lat="-37.848600001896216" lon="145.34559000020948">
    <ele>277.05</ele>
   </trkpt>
   <trkpt lat="-37.84859" lon="145.34626">
    <ele>281.28000000000003</ele>
   </trkpt>
   <trkpt lat="-37.84857" lon="145.34640000000002">
    <ele>282.87</ele>
   </trkpt>
   <trkpt lat="-37.84855" lon="145.34642000000002">
    <ele>282.87</ele>
   </trkpt>
   <trkpt lat="-37.84848" lon="145.34639">
    <ele>283.92</ele>
   </trkpt>
   <trkpt lat="-37.848200000000006" lon="145.3459">
    <ele>288.03000000000003</ele>
   </trkpt>
   <trkpt lat="-37.84798" lon="145.34563">
    <ele>290.14</ele>
   </trkpt>
   <trkpt lat="-37.84789" lon="145.34557">
    <ele>290.73</ele>
   </trkpt>
   <trkpt lat="-37.84781" lon="145.34555">
    <ele>291.27000000000004</ele>
   </trkpt>
   <trkpt lat="-37.84756" lon="145.34556">
    <ele>292.39000000000004</ele>
   </trkpt>
   <trkpt lat="-37.84745" lon="145.34555">
    <ele>292.67</ele>
   </trkpt>
   <trkpt lat="-37.84731" lon="145.34550000000002">
    <ele>292.84000000000003</ele>
   </trkpt>
   <trkpt lat="-37.84722" lon="145.34541000000002">
    <ele>292.84000000000003</ele>
   </trkpt>
   <trkpt lat="-37.847170000000006" lon="145.34528">
    <ele>292.77000000000004</ele>
   </trkpt>
   <trkpt lat="-37.84707" lon="145.34496000000001">
    <ele>292.28000000000003</ele>
   </trkpt>
   <trkpt lat="-37.84707" lon="145.34472000000002">
    <ele>292.34999999999997</ele>
   </trkpt>
   <trkpt lat="-37.8472" lon="145.34408000000002">
    <ele>295.41</ele>
   </trkpt>
   <trkpt lat="-37.84718" lon="145.34387">
    <ele>297.03000000000003</ele>
   </trkpt>
   <trkpt lat="-37.847170000000006" lon="145.34381000000002">
    <ele>297.03000000000003</ele>
   </trkpt>
   <trkpt lat="-37.84709" lon="145.34374000000003">
    <ele>297.33000000000004</ele>
   </trkpt>
   <trkpt lat="-37.84702" lon="145.34371000000002">
    <ele>297.66</ele>
   </trkpt>
   <trkpt lat="-37.84691" lon="145.34377">
    <ele>298.9</ele>
   </trkpt>
   <trkpt lat="-37.84666" lon="145.3442">
    <ele>304.56</ele>
   </trkpt>
   <trkpt lat="-37.84657" lon="145.34428">
    <ele>305.91</ele>
   </trkpt>
   <trkpt lat="-37.84642" lon="145.34432">
    <ele>305.91</ele>
   </trkpt>
   <trkpt lat="-37.84599" lon="145.34422">
    <ele>315.14000000000004</ele>
   </trkpt>
   <trkpt lat="-37.84579" lon="145.34413">
    <ele>318.04</ele>
   </trkpt>
   <trkpt lat="-37.84568" lon="145.34411">
    <ele>320.32000000000005</ele>
   </trkpt>
   <trkpt lat="-37.8457" lon="145.34397">
    <ele>321.42</ele>
   </trkpt>
   <trkpt lat="-37.8457" lon="145.34371000000002">
    <ele>324.18</ele>
   </trkpt>
   <trkpt lat="-37.84561" lon="145.34342">
    <ele>325.84000000000003</ele>
   </trkpt>
   <trkpt lat="-37.8455" lon="145.34315">
    <ele>327.17</ele>
   </trkpt>
   <trkpt lat="-37.84532" lon="145.34259">
    <ele>326.98</ele>
   </trkpt>
   <trkpt lat="-37.8451" lon="145.34224">
    <ele>324.87000000000006</ele>
   </trkpt>
   <trkpt lat="-37.84496" lon="145.34209">
    <ele>324.27</ele>
   </trkpt>
   <trkpt lat="-37.84451500060959" lon="145.3417299978776">
    <ele>323.03000000000003</ele>
   </trkpt>
   <trkpt lat="-37.84407" lon="145.34137">
    <ele>321.1</ele>
   </trkpt>
   <trkpt lat="-37.8438" lon="145.34104000000002">
    <ele>320.02000000000004</ele>
   </trkpt>
   <trkpt lat="-37.84369" lon="145.34098">
    <ele>320.02000000000004</ele>
   </trkpt>
   <trkpt lat="-37.84348" lon="145.34089">
    <ele>319.38000000000005</ele>
   </trkpt>
   <trkpt lat="-37.84297" lon="145.34079">
    <ele>318.44</ele>
   </trkpt>
   <trkpt lat="-37.84275" lon="145.3407">
    <ele>318.06</ele>
   </trkpt>
   <trkpt lat="-37.84252" lon="145.34050000000002">
    <ele>316.12</ele>
   </trkpt>
   <trkpt lat="-37.84225" lon="145.34014000000002">
    <ele>312.05000000000007</ele>
   </trkpt>
   <trkpt lat="-37.8421" lon="145.33983">
    <ele>311.4</ele>
   </trkpt>
   <trkpt lat="-37.841950000000004" lon="145.33969000000002">
    <ele>310.93</ele>
   </trkpt>
   <trkpt lat="-37.84178" lon="145.33959000000002">
    <ele>311.02000000000004</ele>
   </trkpt>
   <trkpt lat="-37.8416" lon="145.33959000000002">
    <ele>311.87</ele>
   </trkpt>
   <trkpt lat="-37.84143" lon="145.33965">
    <ele>313.39</ele>
   </trkpt>
   <trkpt lat="-37.84098" lon="145.33985">
    <ele>319.06</ele>
   </trkpt>
   <trkpt lat="-37.84069" lon="145.33977000000002">
    <ele>320.93000000000006</ele>
   </trkpt>
   <trkpt lat="-37.84042" lon="145.33958">
    <ele>323.13</ele>
   </trkpt>
   <trkpt lat="-37.84015" lon="145.33934000000002">
    <ele>328.1</ele>
   </trkpt>
   <trkpt lat="-37.83977" lon="145.33871000000002">
    <ele>336.51000000000005</ele>
   </trkpt>
   <trkpt lat="-37.83961" lon="145.33852000000002">
    <ele>337.73</ele>
   </trkpt>
   <trkpt lat="-37.839290000000005" lon="145.33823">
    <ele>337.20000000000005</ele>
   </trkpt>
   <trkpt lat="-37.83928" lon="145.33822">
    <ele>337.20000000000005</ele>
   </trkpt>
   <trkpt lat="-37.83885" lon="145.33808000000002">
    <ele>333.96000000000004</ele>
   </trkpt>
   <trkpt lat="-37.83847" lon="145.33802">
    <ele>334.19000000000005</ele>
   </trkpt>
   <trkpt lat="-37.83809" lon="145.33800000000002">
    <ele>338.08000000000004</ele>
   </trkpt>
   <trkpt lat="-37.83766" lon="145.33823">
    <ele>347.02000000000004</ele>
   </trkpt>
   <trkpt lat="-37.837250000000004" lon="145.33857">
    <ele>355.79</ele>
   </trkpt>
   <trkpt lat="-37.83719" lon="145.33865">
    <ele>357.18000000000006</ele>
   </trkpt>
   <trkpt lat="-37.8369" lon="145.33888000000002">
    <ele>359.89000000000004</ele>
   </trkpt>
   <trkpt lat="-37.83677" lon="145.339">
    <ele>360.79</ele>
   </trkpt>
   <trkpt lat="-37.83625" lon="145.33926000000002">
    <ele>361.76</ele>
   </trkpt>
   <trkpt lat="-37.83576" lon="145.33959000000002">
    <ele>358.05</ele>
   </trkpt>
   <trkpt lat="-37.83543" lon="145.33977000000002">
    <ele>353.75</ele>
   </trkpt>
   <trkpt lat="-37.835150000000006" lon="145.33989000000003">
    <ele>348.76</ele>
   </trkpt>
   <trkpt lat="-37.83475" lon="145.34023000000002">
    <ele>341.39000000000004</ele>
   </trkpt>
   <trkpt lat="-37.83442" lon="145.34049000000002">
    <ele>346.73</ele>
   </trkpt>
   <trkpt lat="-37.83415" lon="145.34074">
    <ele>349.24000000000007</ele>
   </trkpt>
   <trkpt lat="-37.83397" lon="145.34079">
    <ele>345.93</ele>
   </trkpt>
   <trkpt lat="-37.83357" lon="145.34077000000002">
    <ele>335.56</ele>
   </trkpt>
   <trkpt lat="-37.83337" lon="145.34081">
    <ele>332.06</ele>
   </trkpt>
   <trkpt lat="-37.83337" lon="145.34082">
    <ele>332.06</ele>
   </trkpt>
   <trkpt lat="-37.83323" lon="145.34098">
    <ele>330.92</ele>
   </trkpt>
   <trkpt lat="-37.83301" lon="145.34152">
    <ele>330.73</ele>
   </trkpt>
   <trkpt lat="-37.8327" lon="145.34184000000002">
    <ele>328.01</ele>
   </trkpt>
   <trkpt lat="-37.83238" lon="145.34191">
    <ele>330.24</ele>
   </trkpt>
   <trkpt lat="-37.83178" lon="145.34217">
    <ele>332.58000000000004</ele>
   </trkpt>
   <trkpt lat="-37.83164" lon="145.34225">
    <ele>332.44</ele>
   </trkpt>
   <trkpt lat="-37.83169" lon="145.34243">
    <ele>338.47</ele>
   </trkpt>
   <trkpt lat="-37.83162" lon="145.34344000000002">
    <ele>353.29</ele>
   </trkpt>
   <trkpt lat="-37.8316" lon="145.34351">
    <ele>353.29</ele>
   </trkpt>
   <trkpt lat="-37.83142" lon="145.34377">
    <ele>356.6</ele>
   </trkpt>
   <trkpt lat="-37.83144" lon="145.34383000000003">
    <ele>357.56000000000006</ele>
   </trkpt>
   <trkpt lat="-37.83151" lon="145.34382000000002">
    <ele>360.56000000000006</ele>
   </trkpt>
   <trkpt lat="-37.83175" lon="145.34362000000002">
    <ele>365.79</ele>
   </trkpt>
   <trkpt lat="-37.83202" lon="145.34352">
    <ele>374.29</ele>
   </trkpt>
   <trkpt lat="-37.832240000000006" lon="145.34348">
    <ele>382.90000000000003</ele>
   </trkpt>
   <trkpt lat="-37.8324" lon="145.34352">
    <ele>385.71000000000004</ele>
   </trkpt>
   <trkpt lat="-37.83243" lon="145.34364000000002">
    <ele>389.26000000000005</ele>
   </trkpt>
   <trkpt lat="-37.83225" lon="145.34394">
    <ele>395.5</ele>
   </trkpt>
   <trkpt lat="-37.83223" lon="145.34437">
    <ele>405.18</ele>
   </trkpt>
   <trkpt lat="-37.8318" lon="145.34508000000002">
    <ele>419.50000000000006</ele>
   </trkpt>
   <trkpt lat="-37.83182" lon="145.34544000000002">
    <ele>431.75</ele>
   </trkpt>
   <trkpt lat="-37.8318" lon="145.34557">
    <ele>438.65000000000003</ele>
   </trkpt>
   <trkpt lat="-37.83187" lon="145.34579000000002">
    <ele>448.29</ele>
   </trkpt>
   <trkpt lat="-37.83193" lon="145.3462">
    <ele>467.52000000000004</ele>
   </trkpt>
   <trkpt lat="-37.83211" lon="145.34667000000002">
    <ele>495.37</ele>
   </trkpt>
   <trkpt lat="-37.83220000216956" lon="145.34738499919436">
    <ele>523.63</ele>
   </trkpt>
   <trkpt lat="-37.83229" lon="145.34810000000002">
    <ele>551.49</ele>
   </trkpt>
   <trkpt lat="-37.83245" lon="145.34872000000001">
    <ele>568.64</ele>
   </trkpt>
   <trkpt lat="-37.832620000000006" lon="145.34914">
    <ele>578.48</ele>
   </trkpt>
   <trkpt lat="-37.83279" lon="145.34939">
    <ele>587.37</ele>
   </trkpt>
   <trkpt lat="-37.83274" lon="145.34954000000002">
    <ele>588.04</ele>
   </trkpt>
   <trkpt lat="-37.83267" lon="145.34969">
    <ele>587.5</ele>
   </trkpt>
   <trkpt lat="-37.83268" lon="145.34968">
    <ele>587.5</ele>
   </trkpt>
   <trkpt lat="-37.83231" lon="145.35010000000003">
    <ele>579.13</ele>
   </trkpt>
   <trkpt lat="-37.83196" lon="145.35046">
    <ele>571.98</ele>
   </trkpt>
   <trkpt lat="-37.83162" lon="145.35071000000002">
    <ele>563.0</ele>
   </trkpt>
   <trkpt lat="-37.83122" lon="145.35091">
    <ele>557.9200000000001</ele>
   </trkpt>
   <trkpt lat="-37.83093" lon="145.35097000000002">
    <ele>557.97</ele>
   </trkpt>
   <trkpt lat="-37.83066" lon="145.35092">
    <ele>559.71</ele>
   </trkpt>
   <trkpt lat="-37.83032" lon="145.35069000000001">
    <ele>561.9000000000001</ele>
   </trkpt>
   <trkpt lat="-37.82999" lon="145.35055">
    <ele>565.1700000000001</ele>
   </trkpt>
   <trkpt lat="-37.82963" lon="145.35047">
    <ele>568.08</ele>
   </trkpt>
   <trkpt lat="-37.82943" lon="145.35047">
    <ele>570.01</ele>
   </trkpt>
   <trkpt lat="-37.82911" lon="145.35060000000001">
    <ele>576.5100000000001</ele>
   </trkpt>
   <trkpt lat="-37.828629999903704" lon="145.35060500003354">
    <ele>578.55</ele>
   </trkpt>
   <trkpt lat="-37.82815" lon="145.35061000000002">
    <ele>576.0300000000001</ele>
   </trkpt>
   <trkpt lat="-37.82758000003291" lon="145.35072500089296">
    <ele>577.2700000000001</ele>
   </trkpt>
   <trkpt lat="-37.82701" lon="145.35084">
    <ele>578.95</ele>
   </trkpt>
   <trkpt lat="-37.82658" lon="145.35101">
    <ele>578.21</ele>
   </trkpt>
   <trkpt lat="-37.82625" lon="145.35122">
    <ele>580.21</ele>
   </trkpt>
   <trkpt lat="-37.82596" lon="145.35162000000003">
    <ele>583.1700000000001</ele>
   </trkpt>
   <trkpt lat="-37.82558" lon="145.35231000000002">
    <ele>585.96</ele>
   </trkpt>
   <trkpt lat="-37.82551" lon="145.35260000000002">
    <ele>586.82</ele>
   </trkpt>
   <trkpt lat="-37.82547" lon="145.35287000000002">
    <ele>587.19</ele>
   </trkpt>
   <trkpt lat="-37.825520000000004" lon="145.35319">
    <ele>587.71</ele>
   </trkpt>
   <trkpt lat="-37.8256" lon="145.35319">
    <ele>590.23</ele>
   </trkpt>
   <trkpt lat="-37.82564" lon="145.35313000000002">
    <ele>591.61</ele>
   </trkpt>
   <trkpt lat="-37.8258" lon="145.35314000000002">
    <ele>594.6800000000001</ele>
   </trkpt>
   <trkpt lat="-37.82589" lon="145.35312000000002">
    <ele>604.87</ele>
   </trkpt>
   <trkpt lat="-37.82602" lon="145.35317">
    <ele>604.87</ele>
   </trkpt>
   <trkpt lat="-37.82618" lon="145.35317">
    <ele>613.33</ele>
   </trkpt>
   <trkpt lat="-37.82661" lon="145.3531">
    <ele>622.6400000000001</ele>
   </trkpt>
   <trkpt lat="-37.826620000000005" lon="145.3529">
    <ele>620.19</ele>
   </trkpt>
   <trkpt lat="-37.82661" lon="145.3531">
    <ele>622.6400000000001</ele>
   </trkpt>
   <trkpt lat="-37.82663" lon="145.35322000000002">
    <ele>622.58</ele>
   </trkpt>
   <trkpt lat="-37.82674" lon="145.35355">
    <ele>622.57</ele>
   </trkpt>
   <trkpt lat="-37.82683" lon="145.35363">
    <ele>622.6700000000001</ele>
   </trkpt>
   <trkpt lat="-37.82692" lon="145.35366000000002">
    <ele>622.8100000000001</ele>
   </trkpt>
   <trkpt lat="-37.826980000000006" lon="145.35382">
    <ele>621.12</ele>
   </trkpt>
   <trkpt lat="-37.82705" lon="145.35386000000003">
    <ele>621.12</ele>
   </trkpt>
   <trkpt lat="-37.8271" lon="145.35397">
    <ele>618.7600000000001</ele>
   </trkpt>
   <trkpt lat="-37.82699" lon="145.35414">
    <ele>618.1000000000001</ele>
   </trkpt>
   <trkpt lat="-37.82692" lon="145.35419000000002">
    <ele>617.92</ele>
   </trkpt>
   <trkpt lat="-37.82683" lon="145.35421000000002">
    <ele>617.92</ele>
   </trkpt>
   <trkpt lat="-37.82676" lon="145.35426">
    <ele>618.0000000000001</ele>
   </trkpt>
   <trkpt lat="-37.82647" lon="145.35462">
    <ele>610.9</ele>
   </trkpt>
   <trkpt lat="-37.82636" lon="145.35471">
    <ele>607.72</ele>
   </trkpt>
   <trkpt lat="-37.82598" lon="145.35515">
    <ele>596.69</ele>
   </trkpt>
   <trkpt lat="-37.82573" lon="145.35558">
    <ele>584.43</ele>
   </trkpt>
   <trkpt lat="-37.82562" lon="145.35584">
    <ele>579.3100000000001</ele>
   </trkpt>
   <trkpt lat="-37.82536" lon="145.35629">
    <ele>569.45</ele>
   </trkpt>
   <trkpt lat="-37.82526" lon="145.35688000000002">
    <ele>565.07</ele>
   </trkpt>
   <trkpt lat="-37.82524" lon="145.35717000000002">
    <ele>558.9900000000001</ele>
   </trkpt>
   <trkpt lat="-37.825250000000004" lon="145.35763">
    <ele>555.24</ele>
   </trkpt>
   <trkpt lat="-37.825250000000004" lon="145.35765">
    <ele>555.24</ele>
   </trkpt>
   <trkpt lat="-37.82531" lon="145.35758">
    <ele>551.5300000000001</ele>
   </trkpt>
   <trkpt lat="-37.82549" lon="145.35781">
    <ele>557.76</ele>
   </trkpt>
   <trkpt lat="-37.82555" lon="145.35802">
    <ele>554.37</ele>
   </trkpt>
   <trkpt lat="-37.82567" lon="145.35817">
    <ele>551.39</ele>
   </trkpt>
   <trkpt lat="-37.82587" lon="145.35828">
    <ele>549.01</ele>
   </trkpt>
   <trkpt lat="-37.82614" lon="145.35836">
    <ele>547.0200000000001</ele>
   </trkpt>
   <trkpt lat="-37.82645" lon="145.35860000000002">
    <ele>543.1700000000001</ele>
   </trkpt>
   <trkpt lat="-37.82667" lon="145.35872">
    <ele>540.84</ele>
   </trkpt>
   <trkpt lat="-37.82678000000001" lon="145.35874">
    <ele>540.1</ele>
   </trkpt>
   <trkpt lat="-37.82681" lon="145.35894000000002">
    <ele>537.12</ele>
   </trkpt>
   <trkpt lat="-37.82687" lon="145.35904000000002">
    <ele>535.94</ele>
   </trkpt>
   <trkpt lat="-37.82694" lon="145.35909">
    <ele>535.0400000000001</ele>
   </trkpt>
   <trkpt lat="-37.82705" lon="145.35911000000002">
    <ele>534.6800000000001</ele>
   </trkpt>
   <trkpt lat="-37.827180000000006" lon="145.35917">
    <ele>533.36</ele>
   </trkpt>
   <trkpt lat="-37.82728" lon="145.35929000000002">
    <ele>532.1800000000001</ele>
   </trkpt>
   <trkpt lat="-37.82772000000001" lon="145.35955">
    <ele>526.63</ele>
   </trkpt>
   <trkpt lat="-37.82786" lon="145.3596">
    <ele>522.58</ele>
   </trkpt>
   <trkpt lat="-37.82797" lon="145.35967000000002">
    <ele>514.0600000000001</ele>
   </trkpt>
   <trkpt lat="-37.828030000000005" lon="145.35974000000002">
    <ele>510.65999999999997</ele>
   </trkpt>
   <trkpt lat="-37.82802" lon="145.35973">
    <ele>510.65999999999997</ele>
   </trkpt>
   <trkpt lat="-37.828030000000005" lon="145.35981">
    <ele>508.61</ele>
   </trkpt>
   <trkpt lat="-37.82777" lon="145.36011000000002">
    <ele>508.8</ele>
   </trkpt>
   <trkpt lat="-37.82757" lon="145.36023">
    <ele>509.01000000000005</ele>
   </trkpt>
   <trkpt lat="-37.82737" lon="145.36029000000002">
    <ele>508.95</ele>
   </trkpt>
   <trkpt lat="-37.82692" lon="145.36034">
    <ele>508.38000000000005</ele>
   </trkpt>
   <trkpt lat="-37.82658" lon="145.36033">
    <ele>507.45000000000005</ele>
   </trkpt>
   <trkpt lat="-37.826460000000004" lon="145.36035">
    <ele>507.09999999999997</ele>
   </trkpt>
   <trkpt lat="-37.82627" lon="145.36042">
    <ele>506.73</ele>
   </trkpt>
   <trkpt lat="-37.82609" lon="145.36055000000002">
    <ele>506.55000000000007</ele>
   </trkpt>
   <trkpt lat="-37.82587" lon="145.36095">
    <ele>506.6400000000001</ele>
   </trkpt>
   <trkpt lat="-37.82573" lon="145.36152">
    <ele>507.28000000000003</ele>
   </trkpt>
   <trkpt lat="-37.82571" lon="145.36205">
    <ele>508.58000000000004</ele>
   </trkpt>
   <trkpt lat="-37.82586500163043" lon="145.36267999848428">
    <ele>510.31000000000006</ele>
   </trkpt>
   <trkpt lat="-37.82602" lon="145.36331">
    <ele>511.51</ele>
   </trkpt>
   <trkpt lat="-37.826" lon="145.36357">
    <ele>511.87000000000006</ele>
   </trkpt>
   <trkpt lat="-37.82591" lon="145.36387000000002">
    <ele>511.75</ele>
   </trkpt>
   <trkpt lat="-37.82669571955849" lon="145.36432568517512">
    <ele>510.06000000000006</ele>
   </trkpt>
   <trkpt lat="-37.827481437361385" lon="145.364781380054">
    <ele>504.87</ele>
   </trkpt>
   <trkpt lat="-37.82826715340857" lon="145.36523708463724">
    <ele>498.63</ele>
   </trkpt>
   <trkpt lat="-37.829052867699986" lon="145.36569279892524">
    <ele>494.82000000000005</ele>
   </trkpt>
   <trkpt lat="-37.82983858023553" lon="145.36614852291845">
    <ele>493.47</ele>
   </trkpt>
   <trkpt lat="-37.83062429101513" lon="145.36660425661736">
    <ele>487.58</ele>
   </trkpt>
   <trkpt lat="-37.831410000000005" lon="145.36706">
    <ele>475.27000000000004</ele>
   </trkpt>
   <trkpt lat="-37.83216500091277" lon="145.36748999567442">
    <ele>463.81000000000006</ele>
   </trkpt>
   <trkpt lat="-37.83292" lon="145.36792">
    <ele>454.04</ele>
   </trkpt>
   <trkpt lat="-37.833250003703235" lon="145.36857999413616">
    <ele>446.40000000000003</ele>
   </trkpt>
   <trkpt lat="-37.83358000372351" lon="145.36923999417667">
    <ele>439.58000000000004</ele>
   </trkpt>
   <trkpt lat="-37.83391" lon="145.3699">
    <ele>436.00000000000006</ele>
   </trkpt>
   <trkpt lat="-37.83422" lon="145.37019">
    <ele>450.07</ele>
   </trkpt>
   <trkpt lat="-37.83428" lon="145.37013000000002">
    <ele>450.07</ele>
   </trkpt>
   <trkpt lat="-37.8344" lon="145.37046">
    <ele>446.93000000000006</ele>
   </trkpt>
   <trkpt lat="-37.83428" lon="145.37124">
    <ele>439.00000000000006</ele>
   </trkpt>
   <trkpt lat="-37.83442" lon="145.37212000000002">
    <ele>422.62000000000006</ele>
   </trkpt>
   <trkpt lat="-37.83464" lon="145.37268">
    <ele>415.51000000000005</ele>
   </trkpt>
   <trkpt lat="-37.8348" lon="145.37302000000003">
    <ele>411.51000000000005</ele>
   </trkpt>
   <trkpt lat="-37.83534" lon="145.37321">
    <ele>400.36</ele>
   </trkpt>
   <trkpt lat="-37.83534" lon="145.37347000000003">
    <ele>397.18</ele>
   </trkpt>
   <trkpt lat="-37.83534" lon="145.37346000000002">
    <ele>397.18</ele>
   </trkpt>
   <trkpt lat="-37.8352" lon="145.37391000000002">
    <ele>387.22</ele>
   </trkpt>
   <trkpt lat="-37.83516" lon="145.37397">
    <ele>386.45</ele>
   </trkpt>
   <trkpt lat="-37.835060000000006" lon="145.37404">
    <ele>385.25000000000006</ele>
   </trkpt>
   <trkpt lat="-37.83478" lon="145.37412">
    <ele>381.34000000000003</ele>
   </trkpt>
   <trkpt lat="-37.83442" lon="145.37417000000002">
    <ele>373.23</ele>
   </trkpt>
   <trkpt lat="-37.83413" lon="145.37428">
    <ele>361.85</ele>
   </trkpt>
   <trkpt lat="-37.83379" lon="145.3745">
    <ele>350.99</ele>
   </trkpt>
   <trkpt lat="-37.8337" lon="145.37454000000002">
    <ele>348.68000000000006</ele>
   </trkpt>
   <trkpt lat="-37.83357" lon="145.37456">
    <ele>346.11</ele>
   </trkpt>
   <trkpt lat="-37.83328" lon="145.37453000000002">
    <ele>342.59</ele>
   </trkpt>
   <trkpt lat="-37.83283" lon="145.37455">
    <ele>336.85</ele>
   </trkpt>
   <trkpt lat="-37.83261" lon="145.37459">
    <ele>332.79</ele>
   </trkpt>
   <trkpt lat="-37.83238" lon="145.37460000000002">
    <ele>329.66</ele>
   </trkpt>
   <trkpt lat="-37.83209" lon="145.37465">
    <ele>327.75000000000006</ele>
   </trkpt>
   <trkpt lat="-37.8316" lon="145.37477">
    <ele>326.53000000000003</ele>
   </trkpt>
   <trkpt lat="-37.83142" lon="145.37479000000002">
    <ele>326.20000000000005</ele>
   </trkpt>
   <trkpt lat="-37.83099" lon="145.37507000000002">
    <ele>320.44</ele>
   </trkpt>
   <trkpt lat="-37.8305" lon="145.3753">
    <ele>313.82000000000005</ele>
   </trkpt>
   <trkpt lat="-37.83019" lon="145.37533000000002">
    <ele>311.37</ele>
   </trkpt>
   <trkpt lat="-37.8299" lon="145.37518">
    <ele>304.93</ele>
   </trkpt>
   <trkpt lat="-37.8297" lon="145.37526000000003">
    <ele>300.89000000000004</ele>
   </trkpt>
   <trkpt lat="-37.82947" lon="145.37548">
    <ele>294.52</ele>
   </trkpt>
   <trkpt lat="-37.82934" lon="145.37553">
    <ele>293.00000000000006</ele>
   </trkpt>
   <trkpt lat="-37.82909" lon="145.37557">
    <ele>288.55</ele>
   </trkpt>
   <trkpt lat="-37.82898" lon="145.37562">
    <ele>285.90999999999997</ele>
   </trkpt>
   <trkpt lat="-37.82884" lon="145.37587000000002">
    <ele>280.75</ele>
   </trkpt>
   <trkpt lat="-37.82876" lon="145.37608">
    <ele>276.85</ele>
   </trkpt>
   <trkpt lat="-37.828880000000005" lon="145.37612000000001">
    <ele>277.46000000000004</ele>
   </trkpt>
   <trkpt lat="-37.828920000000004" lon="145.37623000000002">
    <ele>277.61</ele>
   </trkpt>
   <trkpt lat="-37.82893" lon="145.37641000000002">
    <ele>277.15</ele>
   </trkpt>
   <trkpt lat="-37.82887" lon="145.37672">
    <ele>276.06</ele>
   </trkpt>
   <trkpt lat="-37.82873" lon="145.37708">
    <ele>275.58000000000004</ele>
   </trkpt>
   <trkpt lat="-37.8286" lon="145.37732000000003">
    <ele>274.76</ele>
   </trkpt>
   <trkpt lat="-37.82824" lon="145.37775000000002">
    <ele>269.64000000000004</ele>
   </trkpt>
   <trkpt lat="-37.827920000000006" lon="145.37805">
    <ele>266.67</ele>
   </trkpt>
   <trkpt lat="-37.82799" lon="145.37812000000002">
    <ele>267.33</ele>
   </trkpt>
   <trkpt lat="-37.82799" lon="145.37820000000002">
    <ele>267.59</ele>
   </trkpt>
   <trkpt lat="-37.82793" lon="145.37837000000002">
    <ele>268.64000000000004</ele>
   </trkpt>
   <trkpt lat="-37.8279" lon="145.3785">
    <ele>270.39</ele>
   </trkpt>
   <trkpt lat="-37.82797" lon="145.37873000000002">
    <ele>273.19000000000005</ele>
   </trkpt>
   <trkpt lat="-37.828120000000006" lon="145.37881000000002">
    <ele>275.91</ele>
   </trkpt>
   <trkpt lat="-37.8282" lon="145.37878">
    <ele>275.91</ele>
   </trkpt>
   <trkpt lat="-37.82833" lon="145.37879">
    <ele>279.7</ele>
   </trkpt>
   <trkpt lat="-37.82882" lon="145.37863000000002">
    <ele>291.65000000000003</ele>
   </trkpt>
   <trkpt lat="-37.82907" lon="145.3786">
    <ele>295.63</ele>
   </trkpt>
   <trkpt lat="-37.82954" lon="145.37861">
    <ele>306.23</ele>
   </trkpt>
   <trkpt lat="-37.82981" lon="145.37858">
    <ele>311.89</ele>
   </trkpt>
   <trkpt lat="-37.8299" lon="145.37852">
    <ele>311.89</ele>
   </trkpt>
   <trkpt lat="-37.8301" lon="145.37836000000001">
    <ele>320.47</ele>
   </trkpt>
   <trkpt lat="-37.83032" lon="145.37802000000002">
    <ele>329.36</ele>
   </trkpt>
   <trkpt lat="-37.83088" lon="145.37755">
    <ele>349.99</ele>
   </trkpt>
   <trkpt lat="-37.83106" lon="145.37746">
    <ele>358.85</ele>
   </trkpt>
   <trkpt lat="-37.83131" lon="145.37743">
    <ele>364.16</ele>
   </trkpt>
   <trkpt lat="-37.83164" lon="145.37725">
    <ele>369.8</ele>
   </trkpt>
   <trkpt lat="-37.83187" lon="145.37702000000002">
    <ele>373.56</ele>
   </trkpt>
   <trkpt lat="-37.83202" lon="145.37691">
    <ele>374.38000000000005</ele>
   </trkpt>
   <trkpt lat="-37.83211" lon="145.37687000000003">
    <ele>375.46000000000004</ele>
   </trkpt>
   <trkpt lat="-37.8324" lon="145.37684000000002">
    <ele>380.85</ele>
   </trkpt>
   <trkpt lat="-37.83274" lon="145.37673">
    <ele>385.42</ele>
   </trkpt>
   <trkpt lat="-37.8329" lon="145.37657000000002">
    <ele>386.27000000000004</ele>
   </trkpt>
   <trkpt lat="-37.83314" lon="145.37650000000002">
    <ele>387.92</ele>
   </trkpt>
   <trkpt lat="-37.83343" lon="145.37654">
    <ele>390.33</ele>
   </trkpt>
   <trkpt lat="-37.83388" lon="145.37678000000002">
    <ele>393.92</ele>
   </trkpt>
   <trkpt lat="-37.83408" lon="145.37692">
    <ele>397.13000000000005</ele>
   </trkpt>
   <trkpt lat="-37.83413" lon="145.37681">
    <ele>397.62</ele>
   </trkpt>
   <trkpt lat="-37.83442" lon="145.37657000000002">
    <ele>397.62</ele>
   </trkpt>
   <trkpt lat="-37.83451" lon="145.37656">
    <ele>397.77</ele>
   </trkpt>
   <trkpt lat="-37.83502" lon="145.37668000000002">
    <ele>401.75000000000006</ele>
   </trkpt>
   <trkpt lat="-37.83527" lon="145.37682">
    <ele>403.90000000000003</ele>
   </trkpt>
   <trkpt lat="-37.83538" lon="145.37683">
    <ele>404.0</ele>
   </trkpt>
   <trkpt lat="-37.83601" lon="145.37661">
    <ele>399.23</ele>
   </trkpt>
   <trkpt lat="-37.83621" lon="145.37649000000002">
    <ele>398.65000000000003</ele>
   </trkpt>
   <trkpt lat="-37.83637" lon="145.37625">
    <ele>398.23</ele>
   </trkpt>
   <trkpt lat="-37.83693" lon="145.37572">
    <ele>406.89000000000004</ele>
   </trkpt>
   <trkpt lat="-37.83699" lon="145.37567">
    <ele>406.89000000000004</ele>
   </trkpt>
   <trkpt lat="-37.83715" lon="145.37563">
    <ele>409.08000000000004</ele>
   </trkpt>
   <trkpt lat="-37.83724" lon="145.37557">
    <ele>409.7</ele>
   </trkpt>
   <trkpt lat="-37.83728" lon="145.37513">
    <ele>407.98</ele>
   </trkpt>
   <trkpt lat="-37.83731" lon="145.37496000000002">
    <ele>408.01000000000005</ele>
   </trkpt>
   <trkpt lat="-37.83738" lon="145.37475">
    <ele>408.27000000000004</ele>
   </trkpt>
   <trkpt lat="-37.83735" lon="145.37466">
    <ele>408.29</ele>
   </trkpt>
   <trkpt lat="-37.83746" lon="145.37449">
    <ele>407.11</ele>
   </trkpt>
   <trkpt lat="-37.83764" lon="145.37427000000002">
    <ele>402.29</ele>
   </trkpt>
   <trkpt lat="-37.83784" lon="145.37368">
    <ele>394.09000000000003</ele>
   </trkpt>
   <trkpt lat="-37.83793" lon="145.37357">
    <ele>392.98</ele>
   </trkpt>
   <trkpt lat="-37.83805" lon="145.37351">
    <ele>388.43000000000006</ele>
   </trkpt>
   <trkpt lat="-37.83822" lon="145.37348">
    <ele>384.29</ele>
   </trkpt>
   <trkpt lat="-37.838480000000004" lon="145.37354000000002">
    <ele>379.43000000000006</ele>
   </trkpt>
   <trkpt lat="-37.83847" lon="145.37353000000002">
    <ele>379.43000000000006</ele>
   </trkpt>
   <trkpt lat="-37.83858" lon="145.37359">
    <ele>378.53000000000003</ele>
   </trkpt>
   <trkpt lat="-37.83883" lon="145.37376">
    <ele>378.34</ele>
   </trkpt>
   <trkpt lat="-37.8391" lon="145.37399000000002">
    <ele>377.58000000000004</ele>
   </trkpt>
   <trkpt lat="-37.83921" lon="145.37414">
    <ele>376.79</ele>
   </trkpt>
   <trkpt lat="-37.83948000278583" lon="145.374949997071">
    <ele>369.6</ele>
   </trkpt>
   <trkpt lat="-37.83975" lon="145.37576">
    <ele>360.91</ele>
   </trkpt>
   <trkpt lat="-37.839995001151586" lon="145.37628499822682">
    <ele>354.27000000000004</ele>
   </trkpt>
   <trkpt lat="-37.84024" lon="145.37681">
    <ele>348.55</ele>
   </trkpt>
   <trkpt lat="-37.84046" lon="145.37711000000002">
    <ele>343.58000000000004</ele>
   </trkpt>
   <trkpt lat="-37.84089" lon="145.37754">
    <ele>334.79</ele>
   </trkpt>
   <trkpt lat="-37.840970000000006" lon="145.37764">
    <ele>333.64000000000004</ele>
   </trkpt>
   <trkpt lat="-37.840990000000005" lon="145.37779">
    <ele>333.04</ele>
   </trkpt>
   <trkpt lat="-37.84103" lon="145.37786">
    <ele>332.99</ele>
   </trkpt>
   <trkpt lat="-37.84122" lon="145.37847000000002">
    <ele>329.77</ele>
   </trkpt>
   <trkpt lat="-37.84154" lon="145.37922">
    <ele>327.99</ele>
   </trkpt>
   <trkpt lat="-37.84185" lon="145.37971000000002">
    <ele>325.88</ele>
   </trkpt>
   <trkpt lat="-37.84201" lon="145.38002">
    <ele>324.41</ele>
   </trkpt>
   <trkpt lat="-37.84205" lon="145.38012">
    <ele>324.16</ele>
   </trkpt>
   <trkpt lat="-37.84223" lon="145.38017000000002">
    <ele>326.43000000000006</ele>
   </trkpt>
   <trkpt lat="-37.842380000000006" lon="145.38016000000002">
    <ele>329.69000000000005</ele>
   </trkpt>
   <trkpt lat="-37.8425" lon="145.38008000000002">
    <ele>332.66</ele>
   </trkpt>
   <trkpt lat="-37.84257" lon="145.37998000000002">
    <ele>333.45000000000005</ele>
   </trkpt>
   <trkpt lat="-37.84277" lon="145.37985">
    <ele>338.87</ele>
   </trkpt>
   <trkpt lat="-37.84297" lon="145.37982000000002">
    <ele>341.24</ele>
   </trkpt>
   <trkpt lat="-37.84315" lon="145.37983">
    <ele>344.83000000000004</ele>
   </trkpt>
   <trkpt lat="-37.84396" lon="145.38022">
    <ele>356.59000000000003</ele>
   </trkpt>
   <trkpt lat="-37.84431" lon="145.38042000000002">
    <ele>363.28000000000003</ele>
   </trkpt>
   <trkpt lat="-37.844440000000006" lon="145.3804">
    <ele>365.63</ele>
   </trkpt>
   <trkpt lat="-37.84449" lon="145.38033000000001">
    <ele>365.63</ele>
   </trkpt>
   <trkpt lat="-37.84451" lon="145.3802">
    <ele>368.79</ele>
   </trkpt>
   <trkpt lat="-37.84451" lon="145.38000000000002">
    <ele>370.27000000000004</ele>
   </trkpt>
   <trkpt lat="-37.8444" lon="145.37967">
    <ele>374.3</ele>
   </trkpt>
   <trkpt lat="-37.84427" lon="145.37936000000002">
    <ele>379.90000000000003</ele>
   </trkpt>
   <trkpt lat="-37.84411" lon="145.37913">
    <ele>383.95</ele>
   </trkpt>
   <trkpt lat="-37.84375" lon="145.37878">
    <ele>390.03000000000003</ele>
   </trkpt>
   <trkpt lat="-37.84333" lon="145.37800000000001">
    <ele>399.01000000000005</ele>
   </trkpt>
   <trkpt lat="-37.84326" lon="145.3778">
    <ele>401.3</ele>
   </trkpt>
   <trkpt lat="-37.84324" lon="145.37767000000002">
    <ele>402.34000000000003</ele>
   </trkpt>
   <trkpt lat="-37.84326" lon="145.37756000000002">
    <ele>403.6</ele>
   </trkpt>
   <trkpt lat="-37.84333" lon="145.37742">
    <ele>405.17</ele>
   </trkpt>
   <trkpt lat="-37.84346" lon="145.37734">
    <ele>406.99</ele>
   </trkpt>
   <trkpt lat="-37.8436" lon="145.37728">
    <ele>410.79</ele>
   </trkpt>
   <trkpt lat="-37.84384" lon="145.37723000000003">
    <ele>417.74000000000007</ele>
   </trkpt>
   <trkpt lat="-37.84431" lon="145.37730000000002">
    <ele>428.33000000000004</ele>
   </trkpt>
   <trkpt lat="-37.84492" lon="145.37729000000002">
    <ele>436.82000000000005</ele>
   </trkpt>
   <trkpt lat="-37.84523" lon="145.37737">
    <ele>443.29</ele>
   </trkpt>
   <trkpt lat="-37.84582" lon="145.37730000000002">
    <ele>457.28000000000003</ele>
   </trkpt>
   <trkpt lat="-37.8459" lon="145.37727">
    <ele>458.95</ele>
   </trkpt>
   <trkpt lat="-37.8461" lon="145.37725">
    <ele>466.31000000000006</ele>
   </trkpt>
   <trkpt lat="-37.84633" lon="145.37718">
    <ele>466.31000000000006</ele>
   </trkpt>
   <trkpt lat="-37.84646" lon="145.37716">
    <ele>468.58000000000004</ele>
   </trkpt>
   <trkpt lat="-37.84666" lon="145.37718">
    <ele>472.69000000000005</ele>
   </trkpt>
   <trkpt lat="-37.8468" lon="145.37721000000002">
    <ele>474.46000000000004</ele>
   </trkpt>
   <trkpt lat="-37.84729" lon="145.37757000000002">
    <ele>482.34000000000003</ele>
   </trkpt>
   <trkpt lat="-37.84727" lon="145.37806">
    <ele>480.22</ele>
   </trkpt>
   <trkpt lat="-37.84736" lon="145.37844">
    <ele>477.57000000000005</ele>
   </trkpt>
   <trkpt lat="-37.84738" lon="145.37852">
    <ele>475.55</ele>
   </trkpt>
   <trkpt lat="-37.8476" lon="145.37883000000002">
    <ele>473.37</ele>
   </trkpt>
   <trkpt lat="-37.84772" lon="145.37890000000002">
    <ele>473.37</ele>
   </trkpt>
   <trkpt lat="-37.84792" lon="145.37897">
    <ele>471.28000000000003</ele>
   </trkpt>
   <trkpt lat="-37.8481" lon="145.37898">
    <ele>469.12</ele>
   </trkpt>
   <trkpt lat="-37.84868" lon="145.37891000000002">
    <ele>464.74</ele>
   </trkpt>
   <trkpt lat="-37.849090000000004" lon="145.37893000000003">
    <ele>462.22</ele>
   </trkpt>
   <trkpt lat="-37.84933" lon="145.37897">
    <ele>461.19000000000005</ele>
   </trkpt>
   <trkpt lat="-37.84978" lon="145.37912">
    <ele>457.68</ele>
   </trkpt>
   <trkpt lat="-37.850350000000006" lon="145.37915">
    <ele>454.72</ele>
   </trkpt>
   <trkpt lat="-37.85049" lon="145.37914">
    <ele>454.58000000000004</ele>
   </trkpt>
   <trkpt lat="-37.85058" lon="145.37916">
    <ele>454.49000000000007</ele>
   </trkpt>
   <trkpt lat="-37.85067" lon="145.37921">
    <ele>454.44</ele>
   </trkpt>
   <trkpt lat="-37.85087" lon="145.37938000000003">
    <ele>454.76000000000005</ele>
   </trkpt>
   <trkpt lat="-37.85096" lon="145.37954000000002">
    <ele>454.78000000000003</ele>
   </trkpt>
   <trkpt lat="-37.85121" lon="145.38026000000002">
    <ele>452.23</ele>
   </trkpt>
   <trkpt lat="-37.8513" lon="145.38049">
    <ele>450.8</ele>
   </trkpt>
   <trkpt lat="-37.8517" lon="145.38093">
    <ele>445.66</ele>
   </trkpt>
   <trkpt lat="-37.85195" lon="145.38116000000002">
    <ele>444.40000000000003</ele>
   </trkpt>
   <trkpt lat="-37.85208" lon="145.38124000000002">
    <ele>444.41</ele>
   </trkpt>
   <trkpt lat="-37.8523" lon="145.38131">
    <ele>445.55000000000007</ele>
   </trkpt>
   <trkpt lat="-37.85255" lon="145.38136">
    <ele>447.33000000000004</ele>
   </trkpt>
   <trkpt lat="-37.85284" lon="145.38136">
    <ele>448.99000000000007</ele>
   </trkpt>
   <trkpt lat="-37.85311" lon="145.38133000000002">
    <ele>451.07</ele>
   </trkpt>
   <trkpt lat="-37.85369" lon="145.38122">
    <ele>453.55000000000007</ele>
   </trkpt>
   <trkpt lat="-37.85421" lon="145.38119">
    <ele>449.68</ele>
   </trkpt>
   <trkpt lat="-37.8545" lon="145.38123000000002">
    <ele>448.67</ele>
   </trkpt>
   <trkpt lat="-37.85481" lon="145.38131">
    <ele>445.33000000000004</ele>
   </trkpt>
   <trkpt lat="-37.85535" lon="145.38138">
    <ele>441.39000000000004</ele>
   </trkpt>
   <trkpt lat="-37.85562" lon="145.38138">
    <ele>440.07</ele>
   </trkpt>
   <trkpt lat="-37.85591" lon="145.38134000000002">
    <ele>438.32000000000005</ele>
   </trkpt>
   <trkpt lat="-37.856170000000006" lon="145.38129">
    <ele>437.64000000000004</ele>
   </trkpt>
   <trkpt lat="-37.8564" lon="145.38117000000003">
    <ele>436.77000000000004</ele>
   </trkpt>
   <trkpt lat="-37.85669" lon="145.38112">
    <ele>436.77000000000004</ele>
   </trkpt>
   <trkpt lat="-37.85678" lon="145.38113">
    <ele>436.77000000000004</ele>
   </trkpt>
   <trkpt lat="-37.856880000000004" lon="145.38117000000003">
    <ele>437.1700000000001</ele>
   </trkpt>
   <trkpt lat="-37.85687" lon="145.38116000000002">
    <ele>437.1700000000001</ele>
   </trkpt>
   <trkpt lat="-37.857020000000006" lon="145.38128">
    <ele>437.57</ele>
   </trkpt>
   <trkpt lat="-37.85712" lon="145.38146">
    <ele>437.70000000000005</ele>
   </trkpt>
   <trkpt lat="-37.857310000000005" lon="145.38186000000002">
    <ele>438.34000000000003</ele>
   </trkpt>
   <trkpt lat="-37.85736" lon="145.38193">
    <ele>438.34000000000003</ele>
   </trkpt>
   <trkpt lat="-37.857440000000004" lon="145.38230000000001">
    <ele>438.76000000000005</ele>
   </trkpt>
   <trkpt lat="-37.8575" lon="145.38250000000002">
    <ele>439.20000000000005</ele>
   </trkpt>
   <trkpt lat="-37.85752" lon="145.38307">
    <ele>440.44000000000005</ele>
   </trkpt>
   <trkpt lat="-37.85739" lon="145.38403000000002">
    <ele>442.27000000000004</ele>
   </trkpt>
   <trkpt lat="-37.85739" lon="145.38424">
    <ele>444.34000000000003</ele>
   </trkpt>
   <trkpt lat="-37.85741" lon="145.38446000000002">
    <ele>444.71000000000004</ele>
   </trkpt>
   <trkpt lat="-37.8575" lon="145.38472000000002">
    <ele>445.40000000000003</ele>
   </trkpt>
   <trkpt lat="-37.85792" lon="145.38525">
    <ele>449.18</ele>
   </trkpt>
   <trkpt lat="-37.858050000000006" lon="145.38549">
    <ele>449.88000000000005</ele>
   </trkpt>
   <trkpt lat="-37.85804" lon="145.38562000000002">
    <ele>450.62</ele>
   </trkpt>
   <trkpt lat="-37.85824" lon="145.38594">
    <ele>457.51</ele>
   </trkpt>
   <trkpt lat="-37.85824" lon="145.38621">
    <ele>465.73</ele>
   </trkpt>
   <trkpt lat="-37.85826" lon="145.38624000000002">
    <ele>465.73</ele>
   </trkpt>
   <trkpt lat="-37.85839" lon="145.38625000000002">
    <ele>467.90000000000003</ele>
   </trkpt>
   <trkpt lat="-37.8586" lon="145.38615000000001">
    <ele>471.27000000000004</ele>
   </trkpt>
   <trkpt lat="-37.85859000000001" lon="145.38616000000002">
    <ele>471.27000000000004</ele>
   </trkpt>
   <trkpt lat="-37.85875" lon="145.38602">
    <ele>472.79</ele>
   </trkpt>
   <trkpt lat="-37.85891" lon="145.38586">
    <ele>475.99</ele>
   </trkpt>
   <trkpt lat="-37.85918" lon="145.3854">
    <ele>486.14</ele>
   </trkpt>
   <trkpt lat="-37.85922" lon="145.38515">
    <ele>487.90000000000003</ele>
   </trkpt>
   <trkpt lat="-37.85924" lon="145.38477">
    <ele>494.54</ele>
   </trkpt>
   <trkpt lat="-37.85927" lon="145.38468">
    <ele>494.54</ele>
   </trkpt>
   <trkpt lat="-37.85965" lon="145.38444">
    <ele>504.24</ele>
   </trkpt>
   <trkpt lat="-37.85976" lon="145.38416">
    <ele>507.83</ele>
   </trkpt>
   <trkpt lat="-37.85985" lon="145.38353">
    <ele>511.5200000000001</ele>
   </trkpt>
   <trkpt lat="-37.85985" lon="145.38334">
    <ele>513.6400000000001</ele>
   </trkpt>
   <trkpt lat="-37.85981" lon="145.38287000000003">
    <ele>517.5200000000001</ele>
   </trkpt>
   <trkpt lat="-37.85989" lon="145.38267000000002">
    <ele>519.6200000000001</ele>
   </trkpt>
   <trkpt lat="-37.85996" lon="145.38188000000002">
    <ele>520.6200000000001</ele>
   </trkpt>
   <trkpt lat="-37.86003" lon="145.38133000000002">
    <ele>521.49</ele>
   </trkpt>
   <trkpt lat="-37.86007" lon="145.38119">
    <ele>521.1</ele>
   </trkpt>
   <trkpt lat="-37.86016" lon="145.381">
    <ele>522.17</ele>
   </trkpt>
   <trkpt lat="-37.86023" lon="145.38074">
    <ele>524.0</ele>
   </trkpt>
   <trkpt lat="-37.86025" lon="145.38059">
    <ele>524.7</ele>
   </trkpt>
   <trkpt lat="-37.860220000000005" lon="145.38048">
    <ele>525.0600000000001</ele>
   </trkpt>
   <trkpt lat="-37.860240000000005" lon="145.3805">
    <ele>525.0600000000001</ele>
   </trkpt>
   <trkpt lat="-37.85992" lon="145.38004">
    <ele>527.7900000000001</ele>
   </trkpt>
   <trkpt lat="-37.85957000073842" lon="145.37964999825422">
    <ele>530.54</ele>
   </trkpt>
   <trkpt lat="-37.85922" lon="145.37926000000002">
    <ele>532.44</ele>
   </trkpt>
   <trkpt lat="-37.859" lon="145.37889">
    <ele>535.0400000000001</ele>
   </trkpt>
   <trkpt lat="-37.85886" lon="145.37858">
    <ele>538.85</ele>
   </trkpt>
   <trkpt lat="-37.85852667035379" lon="145.37791666059948">
    <ele>545.76</ele>
   </trkpt>
   <trkpt lat="-37.858193336986425" lon="145.3772533271985">
    <ele>550.71</ele>
   </trkpt>
   <trkpt lat="-37.85786" lon="145.37659000000002">
    <ele>557.4</ele>
   </trkpt>
   <trkpt lat="-37.8575" lon="145.37597000000002">
    <ele>562.69</ele>
   </trkpt>
   <trkpt lat="-37.85714" lon="145.37555">
    <ele>566.03</ele>
   </trkpt>
   <trkpt lat="-37.85683" lon="145.37527">
    <ele>568.28</ele>
   </trkpt>
   <trkpt lat="-37.85622" lon="145.37490000000003">
    <ele>574.89</ele>
   </trkpt>
   <trkpt lat="-37.856260000000006" lon="145.37480000000002">
    <ele>574.37</ele>
   </trkpt>
   <trkpt lat="-37.856" lon="145.37456">
    <ele>577.5400000000001</ele>
   </trkpt>
   <trkpt lat="-37.8556750005453" lon="145.37416499811948">
    <ele>578.9200000000001</ele>
   </trkpt>
   <trkpt lat="-37.85535" lon="145.37377">
    <ele>578.6600000000001</ele>
   </trkpt>
   <trkpt lat="-37.85531" lon="145.37379">
    <ele>578.6600000000001</ele>
   </trkpt>
   <trkpt lat="-37.85521" lon="145.37367">
    <ele>578.52</ele>
   </trkpt>
   <trkpt lat="-37.854845000635606" lon="145.37326999797466">
    <ele>578.48</ele>
   </trkpt>
   <trkpt lat="-37.85448" lon="145.37287">
    <ele>579.25</ele>
   </trkpt>
   <trkpt lat="-37.8543" lon="145.37263000000002">
    <ele>579.55</ele>
   </trkpt>
   <trkpt lat="-37.85414" lon="145.37239000000002">
    <ele>579.84</ele>
   </trkpt>
   <trkpt lat="-37.85405" lon="145.37220000000002">
    <ele>579.9000000000001</ele>
   </trkpt>
   <trkpt lat="-37.854020000000006" lon="145.37171">
    <ele>579.23</ele>
   </trkpt>
   <trkpt lat="-37.854040000000005" lon="145.37130000000002">
    <ele>578.5100000000001</ele>
   </trkpt>
   <trkpt lat="-37.85411500331426" lon="145.37041500087014">
    <ele>575.1700000000001</ele>
   </trkpt>
   <trkpt lat="-37.85419" lon="145.36953000000003">
    <ele>572.49</ele>
   </trkpt>
   <trkpt lat="-37.85419" lon="145.36952000000002">
    <ele>572.49</ele>
   </trkpt>
   <trkpt lat="-37.85421" lon="145.36937">
    <ele>572.47</ele>
   </trkpt>
   <trkpt lat="-37.85441" lon="145.36911">
    <ele>572.11</ele>
   </trkpt>
   <trkpt lat="-37.85445" lon="145.36905000000002">
    <ele>572.11</ele>
   </trkpt>
   <trkpt lat="-37.854580000000006" lon="145.36896000000002">
    <ele>571.89</ele>
   </trkpt>
   <trkpt lat="-37.85499" lon="145.36845000000002">
    <ele>572.16</ele>
   </trkpt>
   <trkpt lat="-37.85519" lon="145.36803">
    <ele>572.97</ele>
   </trkpt>
   <trkpt lat="-37.85536500350699" lon="145.36712000213168">
    <ele>573.09</ele>
   </trkpt>
   <trkpt lat="-37.855540000000005" lon="145.36621000000002">
    <ele>572.38</ele>
   </trkpt>
   <trkpt lat="-37.85577" lon="145.36512000000002">
    <ele>570.03</ele>
   </trkpt>
   <trkpt lat="-37.85582" lon="145.36514000000003">
    <ele>569.61</ele>
   </trkpt>
   <trkpt lat="-37.85591" lon="145.36497">
    <ele>569.1800000000001</ele>
   </trkpt>
   <trkpt lat="-37.85591" lon="145.36474">
    <ele>569.69</ele>
   </trkpt>
   <trkpt lat="-37.85598" lon="145.36440000000002">
    <ele>570.25</ele>
   </trkpt>
   <trkpt lat="-37.855940000000004" lon="145.36425">
    <ele>570.23</ele>
   </trkpt>
   <trkpt lat="-37.856010000000005" lon="145.36421">
    <ele>572.0500000000001</ele>
   </trkpt>
   <trkpt lat="-37.85605" lon="145.36415000000002">
    <ele>572.58</ele>
   </trkpt>
   <trkpt lat="-37.85606000000001" lon="145.36398">
    <ele>572.95</ele>
   </trkpt>
   <trkpt lat="-37.85624" lon="145.36303">
    <ele>577.71</ele>
   </trkpt>
   <trkpt lat="-37.85629" lon="145.36248">
    <ele>581.23</ele>
   </trkpt>
   <trkpt lat="-37.856460001943994" lon="145.36179500174123">
    <ele>588.14</ele>
   </trkpt>
   <trkpt lat="-37.85663" lon="145.36111000000002">
    <ele>595.8800000000001</ele>
   </trkpt>
   <trkpt lat="-37.856680000000004" lon="145.36065000000002">
    <ele>601.1200000000001</ele>
   </trkpt>
   <trkpt lat="-37.85687" lon="145.35989">
    <ele>599.7900000000001</ele>
   </trkpt>
   <trkpt lat="-37.857005003235074" lon="145.35901500161737">
    <ele>589.87</ele>
   </trkpt>
   <trkpt lat="-37.85714" lon="145.35814000000002">
    <ele>578.69</ele>
   </trkpt>
   <trkpt lat="-37.857220000000005" lon="145.35777000000002">
    <ele>576.2400000000001</ele>
   </trkpt>
   <trkpt lat="-37.85748" lon="145.35684">
    <ele>575.5400000000001</ele>
   </trkpt>
   <trkpt lat="-37.85752" lon="145.35645000000002">
    <ele>575.38</ele>
   </trkpt>
   <trkpt lat="-37.85745" lon="145.35598000000002">
    <ele>574.69</ele>
   </trkpt>
   <trkpt lat="-37.85756000000001" lon="145.35572000000002">
    <ele>575.76</ele>
   </trkpt>
   <trkpt lat="-37.85765" lon="145.35573000000002">
    <ele>575.2900000000001</ele>
   </trkpt>
   <trkpt lat="-37.85774" lon="145.3557">
    <ele>574.5600000000001</ele>
   </trkpt>
   <trkpt lat="-37.85792" lon="145.35547000000003">
    <ele>570.47</ele>
   </trkpt>
   <trkpt lat="-37.85826" lon="145.35524">
    <ele>561.6800000000001</ele>
   </trkpt>
   <trkpt lat="-37.85846" lon="145.35508000000002">
    <ele>557.36</ele>
   </trkpt>
   <trkpt lat="-37.85866" lon="145.35498">
    <ele>552.6800000000001</ele>
   </trkpt>
   <trkpt lat="-37.85877" lon="145.35487">
    <ele>546.98</ele>
   </trkpt>
   <trkpt lat="-37.85889" lon="145.35466000000002">
    <ele>539.5600000000001</ele>
   </trkpt>
   <trkpt lat="-37.85915" lon="145.35439000000002">
    <ele>531.7</ele>
   </trkpt>
   <trkpt lat="-37.85942" lon="145.35421000000002">
    <ele>524.21</ele>
   </trkpt>
   <trkpt lat="-37.85956" lon="145.35415">
    <ele>518.5500000000001</ele>
   </trkpt>
   <trkpt lat="-37.85978" lon="145.35421000000002">
    <ele>515.0600000000001</ele>
   </trkpt>
   <trkpt lat="-37.860060000000004" lon="145.35438000000002">
    <ele>514.0600000000001</ele>
   </trkpt>
   <trkpt lat="-37.860325000891734" lon="145.35484499828854">
    <ele>514.66</ele>
   </trkpt>
   <trkpt lat="-37.86059" lon="145.35531">
    <ele>510.82000000000005</ele>
   </trkpt>
   <trkpt lat="-37.86061" lon="145.35545000000002">
    <ele>508.13000000000005</ele>
   </trkpt>
   <trkpt lat="-37.86063" lon="145.35594">
    <ele>498.31</ele>
   </trkpt>
   <trkpt lat="-37.86074" lon="145.3561">
    <ele>494.12000000000006</ele>
   </trkpt>
   <trkpt lat="-37.86084" lon="145.3562">
    <ele>492.66</ele>
   </trkpt>
   <trkpt lat="-37.86079" lon="145.35600000000002">
    <ele>492.24000000000007</ele>
   </trkpt>
   <trkpt lat="-37.86079" lon="145.35580000000002">
    <ele>492.07000000000005</ele>
   </trkpt>
   <trkpt lat="-37.86086" lon="145.35562000000002">
    <ele>491.66</ele>
   </trkpt>
   <trkpt lat="-37.86108" lon="145.35531">
    <ele>490.26</ele>
   </trkpt>
   <trkpt lat="-37.86153" lon="145.35481000000001">
    <ele>487.35</ele>
   </trkpt>
   <trkpt lat="-37.86198" lon="145.35437000000002">
    <ele>483.93</ele>
   </trkpt>
   <trkpt lat="-37.86229" lon="145.35409">
    <ele>481.29</ele>
   </trkpt>
   <trkpt lat="-37.862820000000006" lon="145.35372">
    <ele>479.55</ele>
   </trkpt>
  </trkseg>
 </trk>
</gpx>
