<?xml version="1.0" encoding="UTF-8"?>
<gpx creator="StravaGPX" version="1.1" xmlns="http://www.topografix.com/GPX/1/1" xmlns:xsi="http://www.w3.org/2001/XMLSchema-instance" xsi:schemaLocation="http://www.topografix.com/GPX/1/1 http://www.topografix.com/GPX/1/1/gpx.xsd">
 <metadata>
  <name>Sunday 10 DEC 23 - 20k</name>
  <author>
   <name>john csorgo</name>
  </author>
  <copyright author="OpenStreetMap contributors">
   <year>2020</year>
   <license>https://www.openstreetmap.org/copyright</license>
  </copyright>
 </metadata>
 <trk>
  <name>Sunday 10 DEC 23 - 20k</name>
  <link href=""/>
  <type>running</type>
  <trkseg>
   <trkpt lat="-37.86287" lon="145.35383000000002">
    <ele>481.27000000000004</ele>
   </trkpt>
   <trkpt lat="-37.862820000000006" lon="145.35372">
    <ele>479.48</ele>
   </trkpt>
   <trkpt lat="-37.862860000000005" lon="145.35369">
    <ele>479.48</ele>
   </trkpt>
   <trkpt lat="-37.86263" lon="145.35319">
    <ele>477.33000000000004</ele>
   </trkpt>
   <trkpt lat="-37.86256" lon="145.353">
    <ele>475.34000000000003</ele>
   </trkpt>
   <trkpt lat="-37.86253" lon="145.35281">
    <ele>474.72</ele>
   </trkpt>
   <trkpt lat="-37.862460000000006" lon="145.35279">
    <ele>474.23</ele>
   </trkpt>
   <trkpt lat="-37.8624" lon="145.35274">
    <ele>473.95000000000005</ele>
   </trkpt>
   <trkpt lat="-37.862190000000005" lon="145.3522">
    <ele>470.28000000000003</ele>
   </trkpt>
   <trkpt lat="-37.86218" lon="145.35177000000002">
    <ele>466.99</ele>
   </trkpt>
   <trkpt lat="-37.8622" lon="145.3514">
    <ele>464.9200000000001</ele>
   </trkpt>
   <trkpt lat="-37.86256" lon="145.35098000000002">
    <ele>458.92</ele>
   </trkpt>
   <trkpt lat="-37.86258" lon="145.35084">
    <ele>455.86</ele>
   </trkpt>
   <trkpt lat="-37.862730000000006" lon="145.35069000000001">
    <ele>454.68</ele>
   </trkpt>
   <trkpt lat="-37.86233" lon="145.35036000000002">
    <ele>443.40000000000003</ele>
   </trkpt>
   <trkpt lat="-37.86218" lon="145.35036000000002">
    <ele>443.50000000000006</ele>
   </trkpt>
   <trkpt lat="-37.86175" lon="145.35062000000002">
    <ele>446.90000000000003</ele>
   </trkpt>
   <trkpt lat="-37.86157" lon="145.35075">
    <ele>447.59000000000003</ele>
   </trkpt>
   <trkpt lat="-37.86144" lon="145.35096000000001">
    <ele>447.12</ele>
   </trkpt>
   <trkpt lat="-37.86104" lon="145.35133000000002">
    <ele>446.93000000000006</ele>
   </trkpt>
   <trkpt lat="-37.860960000000006" lon="145.35146">
    <ele>449.08000000000004</ele>
   </trkpt>
   <trkpt lat="-37.86092" lon="145.35148">
    <ele>449.71000000000004</ele>
   </trkpt>
   <trkpt lat="-37.860490000000006" lon="145.35181">
    <ele>458.41</ele>
   </trkpt>
   <trkpt lat="-37.86023" lon="145.35196000000002">
    <ele>463.18</ele>
   </trkpt>
   <trkpt lat="-37.85994" lon="145.35221">
    <ele>468.02000000000004</ele>
   </trkpt>
   <trkpt lat="-37.8596" lon="145.35241000000002">
    <ele>472.24000000000007</ele>
   </trkpt>
   <trkpt lat="-37.85945" lon="145.35244">
    <ele>474.11</ele>
   </trkpt>
   <trkpt lat="-37.8592" lon="145.35248">
    <ele>478.92</ele>
   </trkpt>
   <trkpt lat="-37.85851" lon="145.35268000000002">
    <ele>487.55</ele>
   </trkpt>
   <trkpt lat="-37.85815" lon="145.35273">
    <ele>494.86</ele>
   </trkpt>
   <trkpt lat="-37.857635000010575" lon="145.35270499982573">
    <ele>499.86</ele>
   </trkpt>
   <trkpt lat="-37.85712" lon="145.35268000000002">
    <ele>503.9800000000001</ele>
   </trkpt>
   <trkpt lat="-37.85701" lon="145.35266000000001">
    <ele>506.8</ele>
   </trkpt>
   <trkpt lat="-37.85683" lon="145.35260000000002">
    <ele>508.07</ele>
   </trkpt>
   <trkpt lat="-37.85636" lon="145.35252">
    <ele>509.50000000000006</ele>
   </trkpt>
   <trkpt lat="-37.85622" lon="145.35247">
    <ele>508.51</ele>
   </trkpt>
   <trkpt lat="-37.85614" lon="145.35240000000002">
    <ele>507.5200000000001</ele>
   </trkpt>
   <trkpt lat="-37.85580500091417" lon="145.35193999793628">
    <ele>497.63</ele>
   </trkpt>
   <trkpt lat="-37.855470000000004" lon="145.35148">
    <ele>491.31</ele>
   </trkpt>
   <trkpt lat="-37.85528" lon="145.35168000000002">
    <ele>487.63000000000005</ele>
   </trkpt>
   <trkpt lat="-37.85526" lon="145.35179000000002">
    <ele>487.12000000000006</ele>
   </trkpt>
   <trkpt lat="-37.85521" lon="145.35193">
    <ele>485.84000000000003</ele>
   </trkpt>
   <trkpt lat="-37.855140000000006" lon="145.35198000000003">
    <ele>484.14</ele>
   </trkpt>
   <trkpt lat="-37.85486" lon="145.3523">
    <ele>474.64000000000004</ele>
   </trkpt>
   <trkpt lat="-37.85483" lon="145.35241000000002">
    <ele>473.23</ele>
   </trkpt>
   <trkpt lat="-37.854820000000004" lon="145.35242000000002">
    <ele>473.1</ele>
   </trkpt>
   <trkpt lat="-37.85472" lon="145.3527">
    <ele>468.87000000000006</ele>
   </trkpt>
   <trkpt lat="-37.85466" lon="145.35276000000002">
    <ele>466.15000000000003</ele>
   </trkpt>
   <trkpt lat="-37.85461" lon="145.35294000000002">
    <ele>464.49</ele>
   </trkpt>
   <trkpt lat="-37.85461" lon="145.35309">
    <ele>463.05</ele>
   </trkpt>
   <trkpt lat="-37.854580000000006" lon="145.35319">
    <ele>461.05</ele>
   </trkpt>
   <trkpt lat="-37.85452" lon="145.35320000000002">
    <ele>459.66</ele>
   </trkpt>
   <trkpt lat="-37.85439" lon="145.35299">
    <ele>455.86</ele>
   </trkpt>
   <trkpt lat="-37.854350000000004" lon="145.35299">
    <ele>455.86</ele>
   </trkpt>
   <trkpt lat="-37.85434" lon="145.35327">
    <ele>456.95</ele>
   </trkpt>
   <trkpt lat="-37.854110000000006" lon="145.35432">
    <ele>462.18</ele>
   </trkpt>
   <trkpt lat="-37.85403" lon="145.35528000000002">
    <ele>466.33000000000004</ele>
   </trkpt>
   <trkpt lat="-37.85405" lon="145.35554000000002">
    <ele>466.33000000000004</ele>
   </trkpt>
   <trkpt lat="-37.854110000000006" lon="145.35583000000003">
    <ele>468.59000000000003</ele>
   </trkpt>
   <trkpt lat="-37.85423" lon="145.35635000000002">
    <ele>469.85</ele>
   </trkpt>
   <trkpt lat="-37.85421" lon="145.35660000000001">
    <ele>470.83000000000004</ele>
   </trkpt>
   <trkpt lat="-37.85412" lon="145.35674">
    <ele>472.4200000000001</ele>
   </trkpt>
   <trkpt lat="-37.8538" lon="145.35702">
    <ele>474.67</ele>
   </trkpt>
   <trkpt lat="-37.85374" lon="145.35714000000002">
    <ele>474.73</ele>
   </trkpt>
   <trkpt lat="-37.85351" lon="145.35703">
    <ele>470.66</ele>
   </trkpt>
   <trkpt lat="-37.85311" lon="145.35713">
    <ele>465.90000000000003</ele>
   </trkpt>
   <trkpt lat="-37.85302" lon="145.35724000000002">
    <ele>466.59000000000003</ele>
   </trkpt>
   <trkpt lat="-37.85295" lon="145.35742000000002">
    <ele>469.38</ele>
   </trkpt>
   <trkpt lat="-37.8528" lon="145.35759000000002">
    <ele>472.25000000000006</ele>
   </trkpt>
   <trkpt lat="-37.85271" lon="145.35765">
    <ele>472.90000000000003</ele>
   </trkpt>
   <trkpt lat="-37.852720000000005" lon="145.35765">
    <ele>472.90000000000003</ele>
   </trkpt>
   <trkpt lat="-37.85262" lon="145.35772">
    <ele>473.53000000000003</ele>
   </trkpt>
   <trkpt lat="-37.852140000000006" lon="145.35791">
    <ele>475.05</ele>
   </trkpt>
   <trkpt lat="-37.852050000000006" lon="145.35793">
    <ele>474.44</ele>
   </trkpt>
   <trkpt lat="-37.85195" lon="145.3579">
    <ele>473.16</ele>
   </trkpt>
   <trkpt lat="-37.851910000000004" lon="145.35784">
    <ele>472.37</ele>
   </trkpt>
   <trkpt lat="-37.85177" lon="145.35780000000003">
    <ele>467.87000000000006</ele>
   </trkpt>
   <trkpt lat="-37.85157" lon="145.35757">
    <ele>460.86</ele>
   </trkpt>
   <trkpt lat="-37.8515" lon="145.35757">
    <ele>460.14000000000004</ele>
   </trkpt>
   <trkpt lat="-37.85132" lon="145.35802">
    <ele>464.53000000000003</ele>
   </trkpt>
   <trkpt lat="-37.85121" lon="145.35867000000002">
    <ele>466.95000000000005</ele>
   </trkpt>
   <trkpt lat="-37.851110000000006" lon="145.35914000000002">
    <ele>463.69000000000005</ele>
   </trkpt>
   <trkpt lat="-37.85092" lon="145.35967000000002">
    <ele>466.81000000000006</ele>
   </trkpt>
   <trkpt lat="-37.85085" lon="145.35979">
    <ele>469.86000000000007</ele>
   </trkpt>
   <trkpt lat="-37.850730000000006" lon="145.35992000000002">
    <ele>473.03000000000003</ele>
   </trkpt>
   <trkpt lat="-37.850640000000006" lon="145.35994000000002">
    <ele>473.03000000000003</ele>
   </trkpt>
   <trkpt lat="-37.85051" lon="145.35993000000002">
    <ele>475.7</ele>
   </trkpt>
   <trkpt lat="-37.85013" lon="145.35996">
    <ele>483.56000000000006</ele>
   </trkpt>
   <trkpt lat="-37.84998" lon="145.35999">
    <ele>488.29</ele>
   </trkpt>
   <trkpt lat="-37.84978" lon="145.35994000000002">
    <ele>491.7</ele>
   </trkpt>
   <trkpt lat="-37.849540000000005" lon="145.35968000000003">
    <ele>494.81</ele>
   </trkpt>
   <trkpt lat="-37.84942" lon="145.35956000000002">
    <ele>496.87</ele>
   </trkpt>
   <trkpt lat="-37.84913" lon="145.35913000000002">
    <ele>498.86</ele>
   </trkpt>
   <trkpt lat="-37.84874500075761" lon="145.35868999763292">
    <ele>497.62000000000006</ele>
   </trkpt>
   <trkpt lat="-37.84836" lon="145.35825">
    <ele>493.65000000000003</ele>
   </trkpt>
   <trkpt lat="-37.84783" lon="145.35772">
    <ele>496.7900000000001</ele>
   </trkpt>
   <trkpt lat="-37.84772" lon="145.35768000000002">
    <ele>497.70000000000005</ele>
   </trkpt>
   <trkpt lat="-37.84713" lon="145.35719">
    <ele>498.70000000000005</ele>
   </trkpt>
   <trkpt lat="-37.84682" lon="145.35668">
    <ele>496.05</ele>
   </trkpt>
   <trkpt lat="-37.84651" lon="145.3563">
    <ele>500.39</ele>
   </trkpt>
   <trkpt lat="-37.84626" lon="145.35571000000002">
    <ele>504.82000000000005</ele>
   </trkpt>
   <trkpt lat="-37.84624" lon="145.35552">
    <ele>505.0</ele>
   </trkpt>
   <trkpt lat="-37.84631" lon="145.3554">
    <ele>504.53999999999996</ele>
   </trkpt>
   <trkpt lat="-37.84662" lon="145.35509000000002">
    <ele>502.50000000000006</ele>
   </trkpt>
   <trkpt lat="-37.84673" lon="145.35492000000002">
    <ele>502.63</ele>
   </trkpt>
   <trkpt lat="-37.846810000000005" lon="145.35467">
    <ele>504.4700000000001</ele>
   </trkpt>
   <trkpt lat="-37.84698" lon="145.35392000000002">
    <ele>509.32</ele>
   </trkpt>
   <trkpt lat="-37.84691" lon="145.35384000000002">
    <ele>509.32</ele>
   </trkpt>
   <trkpt lat="-37.84685" lon="145.35385000000002">
    <ele>509.32</ele>
   </trkpt>
   <trkpt lat="-37.8468" lon="145.35404">
    <ele>507.46000000000004</ele>
   </trkpt>
   <trkpt lat="-37.84625666812739" lon="145.35445333941198">
    <ele>510.16</ele>
   </trkpt>
   <trkpt lat="-37.845713334810114" lon="145.354866672733">
    <ele>511.65000000000003</ele>
   </trkpt>
   <trkpt lat="-37.84517" lon="145.35528000000002">
    <ele>512.42</ele>
   </trkpt>
   <trkpt lat="-37.8453" lon="145.35535000000002">
    <ele>511.6400000000001</ele>
   </trkpt>
   <trkpt lat="-37.8456533370517" lon="145.3560133269724">
    <ele>511.09999999999997</ele>
   </trkpt>
   <trkpt lat="-37.84600667038273" lon="145.35667666030133">
    <ele>509.27</ele>
   </trkpt>
   <trkpt lat="-37.846360000000004" lon="145.35734000000002">
    <ele>509.32</ele>
   </trkpt>
   <trkpt lat="-37.84644" lon="145.35760000000002">
    <ele>510.37</ele>
   </trkpt>
   <trkpt lat="-37.846540000000005" lon="145.35771000000003">
    <ele>510.69000000000005</ele>
   </trkpt>
   <trkpt lat="-37.84664" lon="145.35795000000002">
    <ele>512.84</ele>
   </trkpt>
   <trkpt lat="-37.84695" lon="145.35840000000002">
    <ele>517.17</ele>
   </trkpt>
   <trkpt lat="-37.84709" lon="145.35882">
    <ele>518.08</ele>
   </trkpt>
   <trkpt lat="-37.84705" lon="145.35882">
    <ele>516.1800000000001</ele>
   </trkpt>
   <trkpt lat="-37.84723000272048" lon="145.3596199981118">
    <ele>513.49</ele>
   </trkpt>
   <trkpt lat="-37.84741" lon="145.36042">
    <ele>510.0800000000001</ele>
   </trkpt>
   <trkpt lat="-37.84738" lon="145.36030000000002">
    <ele>510.29</ele>
   </trkpt>
   <trkpt lat="-37.84713" lon="145.36037000000002">
    <ele>510.53999999999996</ele>
   </trkpt>
   <trkpt lat="-37.84707" lon="145.3604">
    <ele>511.01000000000005</ele>
   </trkpt>
   <trkpt lat="-37.84698" lon="145.36054000000001">
    <ele>509.7900000000001</ele>
   </trkpt>
   <trkpt lat="-37.84682" lon="145.36052">
    <ele>510.0</ele>
   </trkpt>
   <trkpt lat="-37.84655" lon="145.36054000000001">
    <ele>510.18000000000006</ele>
   </trkpt>
   <trkpt lat="-37.84619" lon="145.36064000000002">
    <ele>510.38000000000005</ele>
   </trkpt>
   <trkpt lat="-37.8462" lon="145.36071">
    <ele>510.95</ele>
   </trkpt>
   <trkpt lat="-37.84560500016017" lon="145.36085000111143">
    <ele>511.59</ele>
   </trkpt>
   <trkpt lat="-37.84501" lon="145.36099000000002">
    <ele>510.49</ele>
   </trkpt>
   <trkpt lat="-37.844950000000004" lon="145.36097">
    <ele>510.49</ele>
   </trkpt>
   <trkpt lat="-37.844245000461235" lon="145.36116250552305">
    <ele>503.72</ele>
   </trkpt>
   <trkpt lat="-37.8435400006091" lon="145.36135500736555">
    <ele>494.16</ele>
   </trkpt>
   <trkpt lat="-37.842835000443635" lon="145.36154750552768">
    <ele>482.44</ele>
   </trkpt>
   <trkpt lat="-37.842130000000004" lon="145.36174000000003">
    <ele>475.48</ele>
   </trkpt>
   <trkpt lat="-37.8421" lon="145.36245000000002">
    <ele>469.84000000000003</ele>
   </trkpt>
   <trkpt lat="-37.84223" lon="145.36280000000002">
    <ele>466.4800000000001</ele>
   </trkpt>
   <trkpt lat="-37.84281" lon="145.36349">
    <ele>455.91</ele>
   </trkpt>
   <trkpt lat="-37.84288" lon="145.36368000000002">
    <ele>455.86</ele>
   </trkpt>
   <trkpt lat="-37.84286" lon="145.36383">
    <ele>456.58000000000004</ele>
   </trkpt>
   <trkpt lat="-37.84281" lon="145.36392">
    <ele>457.43000000000006</ele>
   </trkpt>
   <trkpt lat="-37.842455000747556" lon="145.36434000201953">
    <ele>464.74</ele>
   </trkpt>
   <trkpt lat="-37.8421" lon="145.36476000000002">
    <ele>470.37000000000006</ele>
   </trkpt>
   <trkpt lat="-37.84196" lon="145.36505000000002">
    <ele>471.09000000000003</ele>
   </trkpt>
   <trkpt lat="-37.8419" lon="145.36530000000002">
    <ele>474.12</ele>
   </trkpt>
   <trkpt lat="-37.84207" lon="145.36572">
    <ele>476.55</ele>
   </trkpt>
   <trkpt lat="-37.84234" lon="145.36639000000002">
    <ele>475.45000000000005</ele>
   </trkpt>
   <trkpt lat="-37.8425" lon="145.36689">
    <ele>472.56</ele>
   </trkpt>
   <trkpt lat="-37.8425" lon="145.36701000000002">
    <ele>472.39000000000004</ele>
   </trkpt>
   <trkpt lat="-37.842470000000006" lon="145.36715">
    <ele>472.79</ele>
   </trkpt>
   <trkpt lat="-37.842290000000006" lon="145.36720000000003">
    <ele>474.61</ele>
   </trkpt>
   <trkpt lat="-37.84219" lon="145.36729000000003">
    <ele>475.83000000000004</ele>
   </trkpt>
   <trkpt lat="-37.84181" lon="145.36819">
    <ele>483.2</ele>
   </trkpt>
   <trkpt lat="-37.84136000013753" lon="145.36817499991304">
    <ele>477.4200000000001</ele>
   </trkpt>
   <trkpt lat="-37.84091" lon="145.36816000000002">
    <ele>473.53000000000003</ele>
   </trkpt>
   <trkpt lat="-37.84093" lon="145.36841">
    <ele>473.07000000000005</ele>
   </trkpt>
   <trkpt lat="-37.84087" lon="145.36892">
    <ele>471.05</ele>
   </trkpt>
   <trkpt lat="-37.84057" lon="145.36894">
    <ele>467.19000000000005</ele>
   </trkpt>
   <trkpt lat="-37.84022" lon="145.36902">
    <ele>462.39</ele>
   </trkpt>
   <trkpt lat="-37.83999" lon="145.36903">
    <ele>460.27</ele>
   </trkpt>
   <trkpt lat="-37.839940000000006" lon="145.36906000000002">
    <ele>459.76000000000005</ele>
   </trkpt>
   <trkpt lat="-37.83975" lon="145.36926000000003">
    <ele>455.07</ele>
   </trkpt>
   <trkpt lat="-37.839560000000006" lon="145.36941000000002">
    <ele>451.57</ele>
   </trkpt>
   <trkpt lat="-37.8391" lon="145.36968000000002">
    <ele>444.71000000000004</ele>
   </trkpt>
   <trkpt lat="-37.83885" lon="145.3698">
    <ele>442.32000000000005</ele>
   </trkpt>
   <trkpt lat="-37.83869" lon="145.36991">
    <ele>439.32000000000005</ele>
   </trkpt>
   <trkpt lat="-37.83849" lon="145.36997000000002">
    <ele>436.43</ele>
   </trkpt>
   <trkpt lat="-37.83798" lon="145.37023000000002">
    <ele>430.46</ele>
   </trkpt>
   <trkpt lat="-37.83769" lon="145.37040000000002">
    <ele>430.34000000000003</ele>
   </trkpt>
   <trkpt lat="-37.83758" lon="145.37044">
    <ele>431.34000000000003</ele>
   </trkpt>
   <trkpt lat="-37.837590000000006" lon="145.37044">
    <ele>431.2900000000001</ele>
   </trkpt>
   <trkpt lat="-37.83737" lon="145.37053">
    <ele>433.96</ele>
   </trkpt>
   <trkpt lat="-37.83701000000001" lon="145.37063">
    <ele>434.99</ele>
   </trkpt>
   <trkpt lat="-37.837030000000006" lon="145.37094000000002">
    <ele>433.22</ele>
   </trkpt>
   <trkpt lat="-37.83699" lon="145.37133">
    <ele>430.52</ele>
   </trkpt>
   <trkpt lat="-37.837030000000006" lon="145.3719">
    <ele>427.22</ele>
   </trkpt>
   <trkpt lat="-37.83699" lon="145.37235">
    <ele>424.08</ele>
   </trkpt>
   <trkpt lat="-37.83708" lon="145.37331">
    <ele>414.43</ele>
   </trkpt>
   <trkpt lat="-37.83719" lon="145.37388">
    <ele>410.77000000000004</ele>
   </trkpt>
   <trkpt lat="-37.83719" lon="145.37402">
    <ele>410.32</ele>
   </trkpt>
   <trkpt lat="-37.83719" lon="145.37403">
    <ele>410.34000000000003</ele>
   </trkpt>
   <trkpt lat="-37.83722" lon="145.3742">
    <ele>409.83000000000004</ele>
   </trkpt>
   <trkpt lat="-37.83738" lon="145.37475">
    <ele>409.09</ele>
   </trkpt>
   <trkpt lat="-37.83731" lon="145.37496000000002">
    <ele>408.78000000000003</ele>
   </trkpt>
   <trkpt lat="-37.83728" lon="145.37513">
    <ele>408.74000000000007</ele>
   </trkpt>
   <trkpt lat="-37.83724" lon="145.37557">
    <ele>410.40000000000003</ele>
   </trkpt>
   <trkpt lat="-37.83715" lon="145.37563">
    <ele>409.87</ele>
   </trkpt>
   <trkpt lat="-37.83699" lon="145.37567">
    <ele>407.77000000000004</ele>
   </trkpt>
   <trkpt lat="-37.83693" lon="145.37572">
    <ele>407.77000000000004</ele>
   </trkpt>
   <trkpt lat="-37.83637" lon="145.37625">
    <ele>398.89</ele>
   </trkpt>
   <trkpt lat="-37.83621" lon="145.37649000000002">
    <ele>399.69000000000005</ele>
   </trkpt>
   <trkpt lat="-37.83601" lon="145.37661">
    <ele>399.9200000000001</ele>
   </trkpt>
   <trkpt lat="-37.83538" lon="145.37683">
    <ele>405.13000000000005</ele>
   </trkpt>
   <trkpt lat="-37.83527" lon="145.37682">
    <ele>405.13000000000005</ele>
   </trkpt>
   <trkpt lat="-37.83502" lon="145.37668000000002">
    <ele>402.34000000000003</ele>
   </trkpt>
   <trkpt lat="-37.83451" lon="145.37656">
    <ele>398.65000000000003</ele>
   </trkpt>
   <trkpt lat="-37.83442" lon="145.37657000000002">
    <ele>398.4800000000001</ele>
   </trkpt>
   <trkpt lat="-37.83413" lon="145.37681">
    <ele>398.67</ele>
   </trkpt>
   <trkpt lat="-37.83408" lon="145.37692">
    <ele>398.16</ele>
   </trkpt>
   <trkpt lat="-37.83408" lon="145.37746">
    <ele>395.19000000000005</ele>
   </trkpt>
   <trkpt lat="-37.83415" lon="145.37768">
    <ele>394.90000000000003</ele>
   </trkpt>
   <trkpt lat="-37.83426" lon="145.37779">
    <ele>395.49</ele>
   </trkpt>
   <trkpt lat="-37.83433" lon="145.37794000000002">
    <ele>395.79</ele>
   </trkpt>
   <trkpt lat="-37.8344" lon="145.37819000000002">
    <ele>395.07000000000005</ele>
   </trkpt>
   <trkpt lat="-37.8344" lon="145.3784">
    <ele>393.28000000000003</ele>
   </trkpt>
   <trkpt lat="-37.83437" lon="145.37837000000002">
    <ele>393.28000000000003</ele>
   </trkpt>
   <trkpt lat="-37.83431" lon="145.37820000000002">
    <ele>392.15000000000003</ele>
   </trkpt>
   <trkpt lat="-37.83424" lon="145.37819000000002">
    <ele>390.99000000000007</ele>
   </trkpt>
   <trkpt lat="-37.83431" lon="145.37839000000002">
    <ele>390.39</ele>
   </trkpt>
   <trkpt lat="-37.83431" lon="145.37854000000002">
    <ele>389.37000000000006</ele>
   </trkpt>
   <trkpt lat="-37.83435" lon="145.37867">
    <ele>389.05</ele>
   </trkpt>
   <trkpt lat="-37.83444" lon="145.3788">
    <ele>389.62</ele>
   </trkpt>
   <trkpt lat="-37.83449" lon="145.37891000000002">
    <ele>390.48</ele>
   </trkpt>
   <trkpt lat="-37.834500000000006" lon="145.37906">
    <ele>391.14000000000004</ele>
   </trkpt>
   <trkpt lat="-37.83442" lon="145.37944000000002">
    <ele>389.55</ele>
   </trkpt>
   <trkpt lat="-37.83446" lon="145.37967">
    <ele>388.89</ele>
   </trkpt>
   <trkpt lat="-37.83444" lon="145.38021">
    <ele>385.98</ele>
   </trkpt>
   <trkpt lat="-37.83446" lon="145.38038">
    <ele>385.32000000000005</ele>
   </trkpt>
   <trkpt lat="-37.83464" lon="145.38086">
    <ele>385.01</ele>
   </trkpt>
   <trkpt lat="-37.83458" lon="145.38077">
    <ele>384.37000000000006</ele>
   </trkpt>
   <trkpt lat="-37.83451" lon="145.38065">
    <ele>383.75</ele>
   </trkpt>
   <trkpt lat="-37.83435" lon="145.38021">
    <ele>382.6</ele>
   </trkpt>
   <trkpt lat="-37.83422" lon="145.37978">
    <ele>380.8</ele>
   </trkpt>
   <trkpt lat="-37.83413" lon="145.37958">
    <ele>379.32000000000005</ele>
   </trkpt>
   <trkpt lat="-37.83408" lon="145.37972000000002">
    <ele>377.03000000000003</ele>
   </trkpt>
   <trkpt lat="-37.83413" lon="145.3805">
    <ele>372.56000000000006</ele>
   </trkpt>
   <trkpt lat="-37.83404" lon="145.38078000000002">
    <ele>369.14000000000004</ele>
   </trkpt>
   <trkpt lat="-37.83397" lon="145.38076">
    <ele>367.91</ele>
   </trkpt>
   <trkpt lat="-37.83393" lon="145.38078000000002">
    <ele>367.91</ele>
   </trkpt>
   <trkpt lat="-37.83393" lon="145.38093">
    <ele>366.19</ele>
   </trkpt>
   <trkpt lat="-37.8339" lon="145.38104">
    <ele>364.85</ele>
   </trkpt>
   <trkpt lat="-37.83381" lon="145.38102">
    <ele>362.75</ele>
   </trkpt>
   <trkpt lat="-37.83379" lon="145.38095">
    <ele>362.75</ele>
   </trkpt>
   <trkpt lat="-37.83375" lon="145.38101">
    <ele>361.44000000000005</ele>
   </trkpt>
   <trkpt lat="-37.8337" lon="145.38096000000002">
    <ele>360.86</ele>
   </trkpt>
   <trkpt lat="-37.83355" lon="145.38059">
    <ele>357.75</ele>
   </trkpt>
   <trkpt lat="-37.83348" lon="145.38031">
    <ele>356.12000000000006</ele>
   </trkpt>
   <trkpt lat="-37.83339" lon="145.38015000000001">
    <ele>354.84000000000003</ele>
   </trkpt>
   <trkpt lat="-37.83332" lon="145.37994">
    <ele>353.42</ele>
   </trkpt>
   <trkpt lat="-37.8333" lon="145.37976">
    <ele>350.84000000000003</ele>
   </trkpt>
   <trkpt lat="-37.83328" lon="145.37975">
    <ele>350.84000000000003</ele>
   </trkpt>
   <trkpt lat="-37.83323" lon="145.37983">
    <ele>349.94</ele>
   </trkpt>
   <trkpt lat="-37.83321" lon="145.38043000000002">
    <ele>346.32</ele>
   </trkpt>
   <trkpt lat="-37.833180000000006" lon="145.38076">
    <ele>343.86000000000007</ele>
   </trkpt>
   <trkpt lat="-37.83312" lon="145.38080000000002">
    <ele>341.97</ele>
   </trkpt>
   <trkpt lat="-37.83301" lon="145.38045000000002">
    <ele>337.77</ele>
   </trkpt>
   <trkpt lat="-37.83294" lon="145.38052000000002">
    <ele>334.98</ele>
   </trkpt>
   <trkpt lat="-37.83283" lon="145.38043000000002">
    <ele>334.11</ele>
   </trkpt>
   <trkpt lat="-37.83272" lon="145.38021">
    <ele>330.84000000000003</ele>
   </trkpt>
   <trkpt lat="-37.83267" lon="145.38018000000002">
    <ele>326.51</ele>
   </trkpt>
   <trkpt lat="-37.83258" lon="145.38037">
    <ele>325.03000000000003</ele>
   </trkpt>
   <trkpt lat="-37.832530000000006" lon="145.38095">
    <ele>320.71000000000004</ele>
   </trkpt>
   <trkpt lat="-37.832530000000006" lon="145.38113">
    <ele>319.65000000000003</ele>
   </trkpt>
   <trkpt lat="-37.832460000000005" lon="145.38136">
    <ele>319.08000000000004</ele>
   </trkpt>
   <trkpt lat="-37.83249" lon="145.38128">
    <ele>319.15999999999997</ele>
   </trkpt>
   <trkpt lat="-37.83243" lon="145.38147">
    <ele>318.17</ele>
   </trkpt>
   <trkpt lat="-37.8324" lon="145.38176">
    <ele>318.01</ele>
   </trkpt>
   <trkpt lat="-37.8324" lon="145.38189">
    <ele>319.01</ele>
   </trkpt>
   <trkpt lat="-37.83245" lon="145.38221000000001">
    <ele>318.57</ele>
   </trkpt>
   <trkpt lat="-37.83243" lon="145.38225">
    <ele>317.92</ele>
   </trkpt>
   <trkpt lat="-37.83238" lon="145.38223000000002">
    <ele>317.1</ele>
   </trkpt>
   <trkpt lat="-37.83229" lon="145.38207">
    <ele>313.53000000000003</ele>
   </trkpt>
   <trkpt lat="-37.83225" lon="145.38207">
    <ele>312.75</ele>
   </trkpt>
   <trkpt lat="-37.83216" lon="145.38223000000002">
    <ele>310.87</ele>
   </trkpt>
   <trkpt lat="-37.83211" lon="145.38240000000002">
    <ele>309.85</ele>
   </trkpt>
   <trkpt lat="-37.83207" lon="145.38281">
    <ele>307.81</ele>
   </trkpt>
   <trkpt lat="-37.832060000000006" lon="145.38286000000002">
    <ele>307.15000000000003</ele>
   </trkpt>
   <trkpt lat="-37.832" lon="145.38279">
    <ele>306.39000000000004</ele>
   </trkpt>
   <trkpt lat="-37.83189" lon="145.38274">
    <ele>302.83000000000004</ele>
   </trkpt>
   <trkpt lat="-37.83182" lon="145.38274">
    <ele>301.97</ele>
   </trkpt>
   <trkpt lat="-37.83171" lon="145.3828">
    <ele>300.44000000000005</ele>
   </trkpt>
   <trkpt lat="-37.83167" lon="145.38286000000002">
    <ele>299.37</ele>
   </trkpt>
   <trkpt lat="-37.83151" lon="145.38327">
    <ele>297.54</ele>
   </trkpt>
   <trkpt lat="-37.831480000000006" lon="145.38330000000002">
    <ele>296.97</ele>
   </trkpt>
   <trkpt lat="-37.83149" lon="145.38346">
    <ele>296.65000000000003</ele>
   </trkpt>
   <trkpt lat="-37.83144" lon="145.38354">
    <ele>296.65000000000003</ele>
   </trkpt>
   <trkpt lat="-37.83135" lon="145.38362">
    <ele>293.90000000000003</ele>
   </trkpt>
   <trkpt lat="-37.831100000000006" lon="145.38430000000002">
    <ele>291.66</ele>
   </trkpt>
   <trkpt lat="-37.831120000000006" lon="145.38464000000002">
    <ele>290.66</ele>
   </trkpt>
   <trkpt lat="-37.83104" lon="145.38455000000002">
    <ele>290.36</ele>
   </trkpt>
   <trkpt lat="-37.83097" lon="145.38456000000002">
    <ele>289.92</ele>
   </trkpt>
   <trkpt lat="-37.83088" lon="145.38465000000002">
    <ele>289.72</ele>
   </trkpt>
   <trkpt lat="-37.83084" lon="145.38475000000003">
    <ele>289.74</ele>
   </trkpt>
   <trkpt lat="-37.83079" lon="145.38502000000003">
    <ele>289.73</ele>
   </trkpt>
   <trkpt lat="-37.83068" lon="145.38536000000002">
    <ele>289.56000000000006</ele>
   </trkpt>
   <trkpt lat="-37.8307" lon="145.38549">
    <ele>289.14</ele>
   </trkpt>
   <trkpt lat="-37.83068" lon="145.38562000000002">
    <ele>288.48</ele>
   </trkpt>
   <trkpt lat="-37.83061" lon="145.38571000000002">
    <ele>288.31</ele>
   </trkpt>
   <trkpt lat="-37.83059" lon="145.38613">
    <ele>286.94</ele>
   </trkpt>
   <trkpt lat="-37.83057" lon="145.38617000000002">
    <ele>286.94</ele>
   </trkpt>
   <trkpt lat="-37.83055" lon="145.38616000000002">
    <ele>286.8</ele>
   </trkpt>
   <trkpt lat="-37.83046" lon="145.38585">
    <ele>286.38</ele>
   </trkpt>
   <trkpt lat="-37.83046" lon="145.38535000000002">
    <ele>286.62000000000006</ele>
   </trkpt>
   <trkpt lat="-37.83048" lon="145.38520000000003">
    <ele>286.66</ele>
   </trkpt>
   <trkpt lat="-37.83057" lon="145.38511000000003">
    <ele>286.29</ele>
   </trkpt>
   <trkpt lat="-37.83057" lon="145.38505">
    <ele>286.05</ele>
   </trkpt>
   <trkpt lat="-37.830560000000006" lon="145.38497">
    <ele>285.77000000000004</ele>
   </trkpt>
   <trkpt lat="-37.83057" lon="145.38487">
    <ele>284.84000000000003</ele>
   </trkpt>
   <trkpt lat="-37.830560000000006" lon="145.3848">
    <ele>284.84000000000003</ele>
   </trkpt>
   <trkpt lat="-37.8305" lon="145.3848">
    <ele>284.33000000000004</ele>
   </trkpt>
   <trkpt lat="-37.83041" lon="145.38489">
    <ele>284.06</ele>
   </trkpt>
   <trkpt lat="-37.83032" lon="145.38537000000002">
    <ele>283.58</ele>
   </trkpt>
   <trkpt lat="-37.83032" lon="145.38553000000002">
    <ele>282.87</ele>
   </trkpt>
   <trkpt lat="-37.83028" lon="145.38572000000002">
    <ele>282.52000000000004</ele>
   </trkpt>
   <trkpt lat="-37.83026" lon="145.38587">
    <ele>282.09</ele>
   </trkpt>
   <trkpt lat="-37.83019" lon="145.38578">
    <ele>281.38</ele>
   </trkpt>
   <trkpt lat="-37.8301" lon="145.3854">
    <ele>280.57000000000005</ele>
   </trkpt>
   <trkpt lat="-37.8301" lon="145.38509000000002">
    <ele>279.89000000000004</ele>
   </trkpt>
   <trkpt lat="-37.83017" lon="145.38471">
    <ele>279.01000000000005</ele>
   </trkpt>
   <trkpt lat="-37.83012" lon="145.38467">
    <ele>278.30000000000007</ele>
   </trkpt>
   <trkpt lat="-37.83003" lon="145.38482000000002">
    <ele>277.92</ele>
   </trkpt>
   <trkpt lat="-37.82999" lon="145.38513">
    <ele>277.62</ele>
   </trkpt>
   <trkpt lat="-37.83001" lon="145.38547">
    <ele>277.82</ele>
   </trkpt>
   <trkpt lat="-37.82999" lon="145.38576">
    <ele>277.67</ele>
   </trkpt>
   <trkpt lat="-37.83014" lon="145.38628">
    <ele>278.06</ele>
   </trkpt>
   <trkpt lat="-37.83012" lon="145.38636000000002">
    <ele>278.06</ele>
   </trkpt>
   <trkpt lat="-37.83014" lon="145.38646">
    <ele>278.06</ele>
   </trkpt>
   <trkpt lat="-37.83014" lon="145.38643000000002">
    <ele>278.07000000000005</ele>
   </trkpt>
   <trkpt lat="-37.83019" lon="145.38676">
    <ele>277.04</ele>
   </trkpt>
   <trkpt lat="-37.83019" lon="145.387">
    <ele>276.11</ele>
   </trkpt>
   <trkpt lat="-37.83014" lon="145.38717000000003">
    <ele>273.86000000000007</ele>
   </trkpt>
   <trkpt lat="-37.83012" lon="145.38764">
    <ele>271.81</ele>
   </trkpt>
   <trkpt lat="-37.830180000000006" lon="145.38781">
    <ele>270.57000000000005</ele>
   </trkpt>
   <trkpt lat="-37.83012" lon="145.38837">
    <ele>269.76</ele>
   </trkpt>
   <trkpt lat="-37.830180000000006" lon="145.38864">
    <ele>269.21</ele>
   </trkpt>
   <trkpt lat="-37.830180000000006" lon="145.38875000000002">
    <ele>268.90000000000003</ele>
   </trkpt>
   <trkpt lat="-37.8301" lon="145.38915">
    <ele>267.99</ele>
   </trkpt>
   <trkpt lat="-37.8301" lon="145.38928">
    <ele>267.34000000000003</ele>
   </trkpt>
   <trkpt lat="-37.83005" lon="145.38945">
    <ele>266.92</ele>
   </trkpt>
   <trkpt lat="-37.82999" lon="145.38958000000002">
    <ele>265.46000000000004</ele>
   </trkpt>
   <trkpt lat="-37.82992" lon="145.38958000000002">
    <ele>265.46000000000004</ele>
   </trkpt>
   <trkpt lat="-37.829800000000006" lon="145.38951">
    <ele>264.41</ele>
   </trkpt>
   <trkpt lat="-37.8297" lon="145.38955">
    <ele>263.96000000000004</ele>
   </trkpt>
   <trkpt lat="-37.82965" lon="145.38978">
    <ele>263.17</ele>
   </trkpt>
   <trkpt lat="-37.82961" lon="145.3898">
    <ele>262.94</ele>
   </trkpt>
   <trkpt lat="-37.82945" lon="145.3897">
    <ele>262.12</ele>
   </trkpt>
   <trkpt lat="-37.82938" lon="145.38969">
    <ele>260.43</ele>
   </trkpt>
   <trkpt lat="-37.82938" lon="145.39030000000002">
    <ele>258.72</ele>
   </trkpt>
   <trkpt lat="-37.829350000000005" lon="145.39053">
    <ele>258.85</ele>
   </trkpt>
   <trkpt lat="-37.829460000000005" lon="145.39124">
    <ele>257.86</ele>
   </trkpt>
   <trkpt lat="-37.829460000000005" lon="145.39123">
    <ele>257.87000000000006</ele>
   </trkpt>
   <trkpt lat="-37.82936" lon="145.39064000000002">
    <ele>258.68</ele>
   </trkpt>
   <trkpt lat="-37.82949" lon="145.39143">
    <ele>257.58000000000004</ele>
   </trkpt>
   <trkpt lat="-37.82969500418663" lon="145.39242499724256">
    <ele>254.10999999999999</ele>
   </trkpt>
   <trkpt lat="-37.8299" lon="145.39342000000002">
    <ele>249.00000000000003</ele>
   </trkpt>
   <trkpt lat="-37.82981" lon="145.39386000000002">
    <ele>246.21</ele>
   </trkpt>
   <trkpt lat="-37.82954" lon="145.39468000000002">
    <ele>242.27</ele>
   </trkpt>
   <trkpt lat="-37.82954" lon="145.39491">
    <ele>241.65000000000003</ele>
   </trkpt>
   <trkpt lat="-37.82963" lon="145.39519">
    <ele>239.31000000000003</ele>
   </trkpt>
   <trkpt lat="-37.82992" lon="145.39576000000002">
    <ele>236.56</ele>
   </trkpt>
   <trkpt lat="-37.82996" lon="145.39588">
    <ele>235.74000000000004</ele>
   </trkpt>
   <trkpt lat="-37.82999" lon="145.39610000000002">
    <ele>235.09</ele>
   </trkpt>
   <trkpt lat="-37.82996" lon="145.39644">
    <ele>233.05</ele>
   </trkpt>
   <trkpt lat="-37.82983" lon="145.39694">
    <ele>230.10000000000002</ele>
   </trkpt>
   <trkpt lat="-37.82938" lon="145.39792">
    <ele>228.31</ele>
   </trkpt>
   <trkpt lat="-37.829390000000004" lon="145.39792">
    <ele>228.31</ele>
   </trkpt>
   <trkpt lat="-37.82923" lon="145.39827000000002">
    <ele>229.22</ele>
   </trkpt>
   <trkpt lat="-37.82898" lon="145.39888000000002">
    <ele>231.23000000000002</ele>
   </trkpt>
   <trkpt lat="-37.828810000000004" lon="145.39942000000002">
    <ele>233.69</ele>
   </trkpt>
   <trkpt lat="-37.8293" lon="145.39906000000002">
    <ele>231.29000000000002</ele>
   </trkpt>
   <trkpt lat="-37.82934" lon="145.39889000000002">
    <ele>232.22</ele>
   </trkpt>
   <trkpt lat="-37.82943" lon="145.39875">
    <ele>233.12</ele>
   </trkpt>
   <trkpt lat="-37.82958" lon="145.39857">
    <ele>233.78</ele>
   </trkpt>
   <trkpt lat="-37.82995000115219" lon="145.3980700023784">
    <ele>233.86</ele>
   </trkpt>
   <trkpt lat="-37.83032" lon="145.39757">
    <ele>234.76000000000002</ele>
   </trkpt>
   <trkpt lat="-37.83075" lon="145.39718000000002">
    <ele>238.83</ele>
   </trkpt>
   <trkpt lat="-37.83117" lon="145.39671">
    <ele>241.74</ele>
   </trkpt>
   <trkpt lat="-37.83164000101921" lon="145.39622500306393">
    <ele>243.59000000000003</ele>
   </trkpt>
   <trkpt lat="-37.83211" lon="145.39574000000002">
    <ele>243.16</ele>
   </trkpt>
   <trkpt lat="-37.832770001068916" lon="145.39524000446377">
    <ele>244.41000000000003</ele>
   </trkpt>
   <trkpt lat="-37.83343" lon="145.39474">
    <ele>245.21</ele>
   </trkpt>
   <trkpt lat="-37.83377" lon="145.39452">
    <ele>246.95000000000002</ele>
   </trkpt>
   <trkpt lat="-37.83422" lon="145.39430000000002">
    <ele>248.70000000000002</ele>
   </trkpt>
   <trkpt lat="-37.8346" lon="145.3942">
    <ele>248.17000000000002</ele>
   </trkpt>
   <trkpt lat="-37.83469" lon="145.39408">
    <ele>247.92000000000002</ele>
   </trkpt>
   <trkpt lat="-37.834860000000006" lon="145.39402">
    <ele>248.33</ele>
   </trkpt>
   <trkpt lat="-37.835150000000006" lon="145.39395000000002">
    <ele>248.20000000000002</ele>
   </trkpt>
   <trkpt lat="-37.83522" lon="145.39397000000002">
    <ele>248.32000000000002</ele>
   </trkpt>
   <trkpt lat="-37.83534" lon="145.39405000000002">
    <ele>248.89000000000001</ele>
   </trkpt>
   <trkpt lat="-37.83541" lon="145.39405000000002">
    <ele>248.94000000000003</ele>
   </trkpt>
   <trkpt lat="-37.83545" lon="145.39387000000002">
    <ele>247.79</ele>
   </trkpt>
   <trkpt lat="-37.83549" lon="145.39381">
    <ele>247.05</ele>
   </trkpt>
   <trkpt lat="-37.83572" lon="145.39354">
    <ele>245.17000000000002</ele>
   </trkpt>
   <trkpt lat="-37.83614500085438" lon="145.3930850026437">
    <ele>248.11</ele>
   </trkpt>
   <trkpt lat="-37.83657" lon="145.39263000000003">
    <ele>250.73</ele>
   </trkpt>
   <trkpt lat="-37.83722" lon="145.39226000000002">
    <ele>252.26000000000005</ele>
   </trkpt>
   <trkpt lat="-37.837410000000006" lon="145.39212">
    <ele>253.26000000000005</ele>
   </trkpt>
   <trkpt lat="-37.83753" lon="145.39213">
    <ele>253.54000000000005</ele>
   </trkpt>
   <trkpt lat="-37.83766" lon="145.39217000000002">
    <ele>254.14000000000001</ele>
   </trkpt>
   <trkpt lat="-37.83784" lon="145.3922">
    <ele>254.54999999999998</ele>
   </trkpt>
   <trkpt lat="-37.83858" lon="145.39221">
    <ele>255.51000000000002</ele>
   </trkpt>
   <trkpt lat="-37.83872" lon="145.39218000000002">
    <ele>256.26000000000005</ele>
   </trkpt>
   <trkpt lat="-37.83894" lon="145.39235000000002">
    <ele>257.23</ele>
   </trkpt>
   <trkpt lat="-37.83937" lon="145.39282">
    <ele>264.13000000000005</ele>
   </trkpt>
   <trkpt lat="-37.83966" lon="145.39313">
    <ele>268.37</ele>
   </trkpt>
   <trkpt lat="-37.8397" lon="145.39325000000002">
    <ele>268.74</ele>
   </trkpt>
   <trkpt lat="-37.83981" lon="145.39339">
    <ele>270.25000000000006</ele>
   </trkpt>
   <trkpt lat="-37.83995" lon="145.39344">
    <ele>272.69000000000005</ele>
   </trkpt>
   <trkpt lat="-37.84024" lon="145.39342000000002">
    <ele>276.21</ele>
   </trkpt>
   <trkpt lat="-37.84064" lon="145.39347">
    <ele>284.32</ele>
   </trkpt>
   <trkpt lat="-37.840920000000004" lon="145.39345">
    <ele>287.59000000000003</ele>
   </trkpt>
   <trkpt lat="-37.84094" lon="145.39345">
    <ele>287.69</ele>
   </trkpt>
   <trkpt lat="-37.8414" lon="145.39349">
    <ele>293.1</ele>
   </trkpt>
   <trkpt lat="-37.841530000000006" lon="145.39354">
    <ele>296.12000000000006</ele>
   </trkpt>
   <trkpt lat="-37.84167" lon="145.39354">
    <ele>298.61</ele>
   </trkpt>
   <trkpt lat="-37.84176" lon="145.39351000000002">
    <ele>299.18</ele>
   </trkpt>
   <trkpt lat="-37.841820000000006" lon="145.39352000000002">
    <ele>300.18</ele>
   </trkpt>
   <trkpt lat="-37.84183" lon="145.3933">
    <ele>300.25</ele>
   </trkpt>
   <trkpt lat="-37.84192" lon="145.39305000000002">
    <ele>300.13</ele>
   </trkpt>
   <trkpt lat="-37.8421" lon="145.39290000000003">
    <ele>300.12</ele>
   </trkpt>
   <trkpt lat="-37.8429" lon="145.39254000000003">
    <ele>298.9</ele>
   </trkpt>
   <trkpt lat="-37.84326" lon="145.39248">
    <ele>298.2</ele>
   </trkpt>
   <trkpt lat="-37.84355" lon="145.39252000000002">
    <ele>297.98</ele>
   </trkpt>
   <trkpt lat="-37.84436" lon="145.39276">
    <ele>297.62000000000006</ele>
   </trkpt>
   <trkpt lat="-37.844440000000006" lon="145.39273">
    <ele>297.31</ele>
   </trkpt>
   <trkpt lat="-37.84454" lon="145.39234000000002">
    <ele>296.15000000000003</ele>
   </trkpt>
   <trkpt lat="-37.84452" lon="145.39135000000002">
    <ele>292.11</ele>
   </trkpt>
   <trkpt lat="-37.844630001627664" lon="145.39072500106786">
    <ele>289.63</ele>
   </trkpt>
   <trkpt lat="-37.84474" lon="145.39010000000002">
    <ele>286.02</ele>
   </trkpt>
   <trkpt lat="-37.84478" lon="145.38966000000002">
    <ele>284.96999999999997</ele>
   </trkpt>
   <trkpt lat="-37.84487" lon="145.38931000000002">
    <ele>283.76</ele>
   </trkpt>
   <trkpt lat="-37.84523" lon="145.38868000000002">
    <ele>283.11</ele>
   </trkpt>
   <trkpt lat="-37.84539" lon="145.38825">
    <ele>282.89000000000004</ele>
   </trkpt>
   <trkpt lat="-37.84557" lon="145.388">
    <ele>283.27000000000004</ele>
   </trkpt>
   <trkpt lat="-37.84577" lon="145.38776000000001">
    <ele>284.56</ele>
   </trkpt>
   <trkpt lat="-37.84613" lon="145.38748">
    <ele>286.71000000000004</ele>
   </trkpt>
   <trkpt lat="-37.84628" lon="145.38743000000002">
    <ele>287.3</ele>
   </trkpt>
   <trkpt lat="-37.84651" lon="145.38742000000002">
    <ele>287.7</ele>
   </trkpt>
   <trkpt lat="-37.84671" lon="145.38737">
    <ele>288.40000000000003</ele>
   </trkpt>
   <trkpt lat="-37.84691" lon="145.38723000000002">
    <ele>290.11</ele>
   </trkpt>
   <trkpt lat="-37.8472" lon="145.38689000000002">
    <ele>293.16</ele>
   </trkpt>
   <trkpt lat="-37.84736" lon="145.38680000000002">
    <ele>294.69</ele>
   </trkpt>
   <trkpt lat="-37.84751" lon="145.38669000000002">
    <ele>296.23</ele>
   </trkpt>
   <trkpt lat="-37.84812" lon="145.38636000000002">
    <ele>303.56000000000006</ele>
   </trkpt>
   <trkpt lat="-37.84834" lon="145.38619">
    <ele>305.3</ele>
   </trkpt>
   <trkpt lat="-37.84854" lon="145.38608000000002">
    <ele>307.17</ele>
   </trkpt>
   <trkpt lat="-37.84904" lon="145.38596">
    <ele>313.58000000000004</ele>
   </trkpt>
   <trkpt lat="-37.849500000000006" lon="145.38575">
    <ele>320.64000000000004</ele>
   </trkpt>
   <trkpt lat="-37.8498" lon="145.38495">
    <ele>316.68</ele>
   </trkpt>
   <trkpt lat="-37.849700000000006" lon="145.38484000000003">
    <ele>315.76000000000005</ele>
   </trkpt>
   <trkpt lat="-37.84984" lon="145.38484000000003">
    <ele>317.38000000000005</ele>
   </trkpt>
   <trkpt lat="-37.8506" lon="145.38444">
    <ele>329.42</ele>
   </trkpt>
   <trkpt lat="-37.85094" lon="145.38438000000002">
    <ele>335.96000000000004</ele>
   </trkpt>
   <trkpt lat="-37.851060000000004" lon="145.38438000000002">
    <ele>338.58000000000004</ele>
   </trkpt>
   <trkpt lat="-37.85145" lon="145.38439000000002">
    <ele>346.96000000000004</ele>
   </trkpt>
   <trkpt lat="-37.85168" lon="145.38429000000002">
    <ele>350.93</ele>
   </trkpt>
   <trkpt lat="-37.85181" lon="145.38418000000001">
    <ele>356.58</ele>
   </trkpt>
   <trkpt lat="-37.85195" lon="145.38403000000002">
    <ele>356.58</ele>
   </trkpt>
   <trkpt lat="-37.85224" lon="145.38383000000002">
    <ele>369.45000000000005</ele>
   </trkpt>
   <trkpt lat="-37.85282" lon="145.38353">
    <ele>378.83000000000004</ele>
   </trkpt>
   <trkpt lat="-37.85329" lon="145.38318">
    <ele>388.05</ele>
   </trkpt>
   <trkpt lat="-37.85376" lon="145.38289">
    <ele>402.74</ele>
   </trkpt>
   <trkpt lat="-37.85412" lon="145.38276000000002">
    <ele>406.31000000000006</ele>
   </trkpt>
   <trkpt lat="-37.85453500053952" lon="145.38244000171923">
    <ele>415.73</ele>
   </trkpt>
   <trkpt lat="-37.85495" lon="145.38212000000001">
    <ele>423.52</ele>
   </trkpt>
   <trkpt lat="-37.85539" lon="145.38174">
    <ele>432.02</ele>
   </trkpt>
   <trkpt lat="-37.8554" lon="145.38174">
    <ele>432.13</ele>
   </trkpt>
   <trkpt lat="-37.85591" lon="145.38134000000002">
    <ele>438.1700000000001</ele>
   </trkpt>
   <trkpt lat="-37.856170000000006" lon="145.38129">
    <ele>437.18</ele>
   </trkpt>
   <trkpt lat="-37.8564" lon="145.38117000000003">
    <ele>436.45000000000005</ele>
   </trkpt>
   <trkpt lat="-37.85669" lon="145.38112">
    <ele>436.51</ele>
   </trkpt>
   <trkpt lat="-37.85678" lon="145.38113">
    <ele>436.64000000000004</ele>
   </trkpt>
   <trkpt lat="-37.85687" lon="145.38117000000003">
    <ele>437.37</ele>
   </trkpt>
   <trkpt lat="-37.857020000000006" lon="145.38128">
    <ele>437.71000000000004</ele>
   </trkpt>
   <trkpt lat="-37.85712" lon="145.38146">
    <ele>438.05000000000007</ele>
   </trkpt>
   <trkpt lat="-37.857310000000005" lon="145.38186000000002">
    <ele>438.85</ele>
   </trkpt>
   <trkpt lat="-37.85736" lon="145.38193">
    <ele>439.07</ele>
   </trkpt>
   <trkpt lat="-37.857440000000004" lon="145.38230000000001">
    <ele>439.55000000000007</ele>
   </trkpt>
   <trkpt lat="-37.85707" lon="145.38234">
    <ele>431.62000000000006</ele>
   </trkpt>
   <trkpt lat="-37.85674" lon="145.38225">
    <ele>425.84000000000003</ele>
   </trkpt>
   <trkpt lat="-37.85665" lon="145.38232000000002">
    <ele>422.7</ele>
   </trkpt>
   <trkpt lat="-37.8566" lon="145.38243">
    <ele>419.84000000000003</ele>
   </trkpt>
   <trkpt lat="-37.85667" lon="145.38279">
    <ele>416.27000000000004</ele>
   </trkpt>
   <trkpt lat="-37.85663" lon="145.38306">
    <ele>412.96000000000004</ele>
   </trkpt>
   <trkpt lat="-37.85654" lon="145.38322000000002">
    <ele>411.99</ele>
   </trkpt>
   <trkpt lat="-37.85638" lon="145.38374000000002">
    <ele>414.75</ele>
   </trkpt>
   <trkpt lat="-37.85636" lon="145.38406">
    <ele>418.07000000000005</ele>
   </trkpt>
   <trkpt lat="-37.85636" lon="145.38443">
    <ele>421.08</ele>
   </trkpt>
   <trkpt lat="-37.85642" lon="145.38465000000002">
    <ele>423.67</ele>
   </trkpt>
   <trkpt lat="-37.85651" lon="145.38478">
    <ele>425.51000000000005</ele>
   </trkpt>
   <trkpt lat="-37.85705" lon="145.38525">
    <ele>429.7900000000001</ele>
   </trkpt>
   <trkpt lat="-37.85712" lon="145.38534">
    <ele>430.59000000000003</ele>
   </trkpt>
   <trkpt lat="-37.85712" lon="145.38546000000002">
    <ele>431.15000000000003</ele>
   </trkpt>
   <trkpt lat="-37.85694" lon="145.38588000000001">
    <ele>434.64000000000004</ele>
   </trkpt>
   <trkpt lat="-37.85667" lon="145.38628">
    <ele>437.49</ele>
   </trkpt>
   <trkpt lat="-37.85656" lon="145.38636000000002">
    <ele>436.92</ele>
   </trkpt>
   <trkpt lat="-37.85645" lon="145.38638">
    <ele>436.12000000000006</ele>
   </trkpt>
   <trkpt lat="-37.85618" lon="145.38636000000002">
    <ele>432.45000000000005</ele>
   </trkpt>
   <trkpt lat="-37.85604" lon="145.38625000000002">
    <ele>428.26000000000005</ele>
   </trkpt>
   <trkpt lat="-37.856" lon="145.38617000000002">
    <ele>427.48</ele>
   </trkpt>
   <trkpt lat="-37.85586" lon="145.38612">
    <ele>426.12000000000006</ele>
   </trkpt>
   <trkpt lat="-37.85575" lon="145.38613">
    <ele>425.95000000000005</ele>
   </trkpt>
   <trkpt lat="-37.855610000000006" lon="145.3861">
    <ele>426.00000000000006</ele>
   </trkpt>
   <trkpt lat="-37.85557" lon="145.38625000000002">
    <ele>426.64</ele>
   </trkpt>
   <trkpt lat="-37.85551" lon="145.38635000000002">
    <ele>426.65000000000003</ele>
   </trkpt>
   <trkpt lat="-37.85537" lon="145.38641">
    <ele>425.63</ele>
   </trkpt>
   <trkpt lat="-37.85524" lon="145.3864">
    <ele>425.3</ele>
   </trkpt>
   <trkpt lat="-37.85504" lon="145.38646">
    <ele>425.55</ele>
   </trkpt>
   <trkpt lat="-37.85497" lon="145.38651000000002">
    <ele>425.96000000000004</ele>
   </trkpt>
   <trkpt lat="-37.85497" lon="145.38656">
    <ele>426.57000000000005</ele>
   </trkpt>
   <trkpt lat="-37.855030000000006" lon="145.38662000000002">
    <ele>428.33000000000004</ele>
   </trkpt>
   <trkpt lat="-37.855380000952685" lon="145.38706499803388">
    <ele>438.57</ele>
   </trkpt>
   <trkpt lat="-37.85573" lon="145.38751000000002">
    <ele>447.91</ele>
   </trkpt>
   <trkpt lat="-37.85614" lon="145.38816">
    <ele>456.69000000000005</ele>
   </trkpt>
   <trkpt lat="-37.85616" lon="145.38827">
    <ele>458.42</ele>
   </trkpt>
   <trkpt lat="-37.85627" lon="145.38844">
    <ele>458.40000000000003</ele>
   </trkpt>
   <trkpt lat="-37.85607" lon="145.38864">
    <ele>458.13000000000005</ele>
   </trkpt>
   <trkpt lat="-37.85591" lon="145.38851000000003">
    <ele>457.45</ele>
   </trkpt>
   <trkpt lat="-37.8558" lon="145.38885000000002">
    <ele>457.84000000000003</ele>
   </trkpt>
   <trkpt lat="-37.85593" lon="145.38893000000002">
    <ele>458.49000000000007</ele>
   </trkpt>
   <trkpt lat="-37.85609" lon="145.38897">
    <ele>459.63000000000005</ele>
   </trkpt>
   <trkpt lat="-37.85629" lon="145.38897">
    <ele>461.35</ele>
   </trkpt>
   <trkpt lat="-37.8568" lon="145.38893000000002">
    <ele>466.87000000000006</ele>
   </trkpt>
   <trkpt lat="-37.85739" lon="145.38909">
    <ele>474.96000000000004</ele>
   </trkpt>
   <trkpt lat="-37.85763" lon="145.38913000000002">
    <ele>478.61</ele>
   </trkpt>
   <trkpt lat="-37.85772" lon="145.38911000000002">
    <ele>479.91</ele>
   </trkpt>
   <trkpt lat="-37.857960000000006" lon="145.38894000000002">
    <ele>485.85</ele>
   </trkpt>
   <trkpt lat="-37.85817" lon="145.38884000000002">
    <ele>485.85</ele>
   </trkpt>
   <trkpt lat="-37.85833" lon="145.38885000000002">
    <ele>489.06000000000006</ele>
   </trkpt>
   <trkpt lat="-37.85864" lon="145.38878000000003">
    <ele>496.11</ele>
   </trkpt>
   <trkpt lat="-37.8588" lon="145.38868000000002">
    <ele>497.46</ele>
   </trkpt>
   <trkpt lat="-37.858990000000006" lon="145.38853">
    <ele>501.3500000000001</ele>
   </trkpt>
   <trkpt lat="-37.85949" lon="145.38798">
    <ele>508.36</ele>
   </trkpt>
   <trkpt lat="-37.859820000000006" lon="145.3881">
    <ele>512.95</ele>
   </trkpt>
   <trkpt lat="-37.85998" lon="145.38817">
    <ele>515.1</ele>
   </trkpt>
   <trkpt lat="-37.86007" lon="145.38817">
    <ele>515.1</ele>
   </trkpt>
   <trkpt lat="-37.8603" lon="145.38809">
    <ele>518.15</ele>
   </trkpt>
   <trkpt lat="-37.86063" lon="145.38805000000002">
    <ele>520.0600000000001</ele>
   </trkpt>
   <trkpt lat="-37.860870000000006" lon="145.38786000000002">
    <ele>521.22</ele>
   </trkpt>
   <trkpt lat="-37.86084333897368" lon="145.3870433327409">
    <ele>516.93</ele>
   </trkpt>
   <trkpt lat="-37.86081667230695" lon="145.38622666607262">
    <ele>509.5200000000001</ele>
   </trkpt>
   <trkpt lat="-37.86079" lon="145.38541">
    <ele>504.2300000000001</ele>
   </trkpt>
   <trkpt lat="-37.860580000000006" lon="145.38432">
    <ele>504.0300000000001</ele>
   </trkpt>
   <trkpt lat="-37.860460001716454" lon="145.38367999887507">
    <ele>507.89000000000004</ele>
   </trkpt>
   <trkpt lat="-37.86034" lon="145.38304000000002">
    <ele>513.22</ele>
   </trkpt>
   <trkpt lat="-37.86028" lon="145.38278000000003">
    <ele>514.88</ele>
   </trkpt>
   <trkpt lat="-37.86021" lon="145.38277000000002">
    <ele>515.03</ele>
   </trkpt>
   <trkpt lat="-37.86009" lon="145.3827">
    <ele>515.14</ele>
   </trkpt>
   <trkpt lat="-37.86005" lon="145.38256">
    <ele>515.14</ele>
   </trkpt>
   <trkpt lat="-37.86005" lon="145.38204000000002">
    <ele>515.75</ele>
   </trkpt>
   <trkpt lat="-37.86012" lon="145.38148">
    <ele>517.23</ele>
   </trkpt>
   <trkpt lat="-37.86014" lon="145.38135000000003">
    <ele>517.23</ele>
   </trkpt>
   <trkpt lat="-37.86021" lon="145.38127">
    <ele>517.23</ele>
   </trkpt>
   <trkpt lat="-37.86007" lon="145.38119">
    <ele>522.03</ele>
   </trkpt>
   <trkpt lat="-37.86016" lon="145.381">
    <ele>522.83</ele>
   </trkpt>
   <trkpt lat="-37.86023" lon="145.38074">
    <ele>524.94</ele>
   </trkpt>
   <trkpt lat="-37.86025" lon="145.38059">
    <ele>525.2800000000001</ele>
   </trkpt>
   <trkpt lat="-37.86023" lon="145.3805">
    <ele>526.2</ele>
   </trkpt>
   <trkpt lat="-37.85992" lon="145.38004">
    <ele>528.33</ele>
   </trkpt>
   <trkpt lat="-37.85957000073842" lon="145.37964999825422">
    <ele>531.3</ele>
   </trkpt>
   <trkpt lat="-37.85922" lon="145.37926000000002">
    <ele>533.84</ele>
   </trkpt>
   <trkpt lat="-37.859" lon="145.37889">
    <ele>535.45</ele>
   </trkpt>
   <trkpt lat="-37.85886" lon="145.37858">
    <ele>539.0400000000001</ele>
   </trkpt>
   <trkpt lat="-37.85843000317298" lon="145.37771499497225">
    <ele>546.3</ele>
   </trkpt>
   <trkpt lat="-37.858000000000004" lon="145.37685000000002">
    <ele>554.5</ele>
   </trkpt>
   <trkpt lat="-37.85786" lon="145.37659000000002">
    <ele>557.1</ele>
   </trkpt>
   <trkpt lat="-37.8575" lon="145.37597000000002">
    <ele>562.6500000000001</ele>
   </trkpt>
   <trkpt lat="-37.85714" lon="145.37555">
    <ele>566.77</ele>
   </trkpt>
   <trkpt lat="-37.85683" lon="145.37527">
    <ele>568.5300000000001</ele>
   </trkpt>
   <trkpt lat="-37.85622" lon="145.37490000000003">
    <ele>575.5400000000001</ele>
   </trkpt>
   <trkpt lat="-37.856260000000006" lon="145.37480000000002">
    <ele>574.71</ele>
   </trkpt>
   <trkpt lat="-37.856" lon="145.37456">
    <ele>577.76</ele>
   </trkpt>
   <trkpt lat="-37.8556750005453" lon="145.37416499811948">
    <ele>579.0500000000001</ele>
   </trkpt>
   <trkpt lat="-37.85535" lon="145.37377">
    <ele>578.76</ele>
   </trkpt>
   <trkpt lat="-37.85531" lon="145.37379">
    <ele>578.76</ele>
   </trkpt>
   <trkpt lat="-37.85521" lon="145.37367">
    <ele>578.6300000000001</ele>
   </trkpt>
   <trkpt lat="-37.854845000635606" lon="145.37326999797466">
    <ele>578.6800000000001</ele>
   </trkpt>
   <trkpt lat="-37.85448" lon="145.37287">
    <ele>579.38</ele>
   </trkpt>
   <trkpt lat="-37.8543" lon="145.37263000000002">
    <ele>579.6999999999999</ele>
   </trkpt>
   <trkpt lat="-37.85414" lon="145.37239000000002">
    <ele>579.96</ele>
   </trkpt>
   <trkpt lat="-37.85405" lon="145.37220000000002">
    <ele>580.0200000000001</ele>
   </trkpt>
   <trkpt lat="-37.85403" lon="145.37202000000002">
    <ele>579.84</ele>
   </trkpt>
   <trkpt lat="-37.854020000000006" lon="145.37171">
    <ele>579.3900000000001</ele>
   </trkpt>
   <trkpt lat="-37.854040000000005" lon="145.37130000000002">
    <ele>578.71</ele>
   </trkpt>
   <trkpt lat="-37.85412500394389" lon="145.37033500103993">
    <ele>575.0500000000001</ele>
   </trkpt>
   <trkpt lat="-37.85421" lon="145.36937">
    <ele>572.33</ele>
   </trkpt>
   <trkpt lat="-37.85445" lon="145.36905000000002">
    <ele>572.28</ele>
   </trkpt>
   <trkpt lat="-37.854580000000006" lon="145.36896000000002">
    <ele>572.0500000000001</ele>
   </trkpt>
   <trkpt lat="-37.85499" lon="145.36845000000002">
    <ele>572.21</ele>
   </trkpt>
   <trkpt lat="-37.85519" lon="145.36803">
    <ele>573.09</ele>
   </trkpt>
   <trkpt lat="-37.85536500350699" lon="145.36712000213168">
    <ele>573.1</ele>
   </trkpt>
   <trkpt lat="-37.855540000000005" lon="145.36621000000002">
    <ele>572.55</ele>
   </trkpt>
   <trkpt lat="-37.85577" lon="145.36512000000002">
    <ele>569.62</ele>
   </trkpt>
   <trkpt lat="-37.85582" lon="145.36514000000003">
    <ele>569.62</ele>
   </trkpt>
   <trkpt lat="-37.85591" lon="145.36497">
    <ele>569.11</ele>
   </trkpt>
   <trkpt lat="-37.85591" lon="145.36474">
    <ele>569.91</ele>
   </trkpt>
   <trkpt lat="-37.85598" lon="145.36440000000002">
    <ele>570.23</ele>
   </trkpt>
   <trkpt lat="-37.855940000000004" lon="145.36425">
    <ele>570.1700000000001</ele>
   </trkpt>
   <trkpt lat="-37.856010000000005" lon="145.36421">
    <ele>571.5400000000001</ele>
   </trkpt>
   <trkpt lat="-37.85605" lon="145.36415000000002">
    <ele>572.3600000000001</ele>
   </trkpt>
   <trkpt lat="-37.85606000000001" lon="145.36398">
    <ele>572.67</ele>
   </trkpt>
   <trkpt lat="-37.85624" lon="145.36303">
    <ele>577.62</ele>
   </trkpt>
   <trkpt lat="-37.85629" lon="145.36248">
    <ele>581.65</ele>
   </trkpt>
   <trkpt lat="-37.856460001943994" lon="145.36179500174123">
    <ele>589.14</ele>
   </trkpt>
   <trkpt lat="-37.85663" lon="145.36111000000002">
    <ele>595.8500000000001</ele>
   </trkpt>
   <trkpt lat="-37.856680000000004" lon="145.36065000000002">
    <ele>601.2900000000001</ele>
   </trkpt>
   <trkpt lat="-37.85687" lon="145.35989">
    <ele>600.1</ele>
   </trkpt>
   <trkpt lat="-37.85696" lon="145.35929000000002">
    <ele>593.62</ele>
   </trkpt>
   <trkpt lat="-37.85696" lon="145.35928">
    <ele>593.74</ele>
   </trkpt>
   <trkpt lat="-37.85705000139975" lon="145.35871000053157">
    <ele>587.82</ele>
   </trkpt>
   <trkpt lat="-37.85714" lon="145.35814000000002">
    <ele>579.1700000000001</ele>
   </trkpt>
   <trkpt lat="-37.857220000000005" lon="145.35777000000002">
    <ele>576.08</ele>
   </trkpt>
   <trkpt lat="-37.85748" lon="145.35684">
    <ele>575.1800000000001</ele>
   </trkpt>
   <trkpt lat="-37.85752" lon="145.35645000000002">
    <ele>575.07</ele>
   </trkpt>
   <trkpt lat="-37.85745" lon="145.35598000000002">
    <ele>574.33</ele>
   </trkpt>
   <trkpt lat="-37.85756000000001" lon="145.35572000000002">
    <ele>575.96</ele>
   </trkpt>
   <trkpt lat="-37.85765" lon="145.35573000000002">
    <ele>575.3900000000001</ele>
   </trkpt>
   <trkpt lat="-37.85774" lon="145.3557">
    <ele>574.5600000000001</ele>
   </trkpt>
   <trkpt lat="-37.85792" lon="145.35547000000003">
    <ele>571.11</ele>
   </trkpt>
   <trkpt lat="-37.85826" lon="145.35524">
    <ele>561.2600000000001</ele>
   </trkpt>
   <trkpt lat="-37.85846" lon="145.35508000000002">
    <ele>556.82</ele>
   </trkpt>
   <trkpt lat="-37.85866" lon="145.35498">
    <ele>549.62</ele>
   </trkpt>
   <trkpt lat="-37.85877" lon="145.35487">
    <ele>546.18</ele>
   </trkpt>
   <trkpt lat="-37.85889" lon="145.35466000000002">
    <ele>540.0</ele>
   </trkpt>
   <trkpt lat="-37.85915" lon="145.35439000000002">
    <ele>532.09</ele>
   </trkpt>
   <trkpt lat="-37.859350000000006" lon="145.35425">
    <ele>523.7900000000001</ele>
   </trkpt>
   <trkpt lat="-37.85936" lon="145.35425">
    <ele>523.76</ele>
   </trkpt>
   <trkpt lat="-37.85956" lon="145.35415">
    <ele>517.6800000000001</ele>
   </trkpt>
   <trkpt lat="-37.85978" lon="145.35421000000002">
    <ele>514.1300000000001</ele>
   </trkpt>
   <trkpt lat="-37.860060000000004" lon="145.35438000000002">
    <ele>513.1600000000001</ele>
   </trkpt>
   <trkpt lat="-37.860325000891734" lon="145.35484499828854">
    <ele>515.42</ele>
   </trkpt>
   <trkpt lat="-37.86059" lon="145.35531">
    <ele>512.1</ele>
   </trkpt>
   <trkpt lat="-37.86061" lon="145.35545000000002">
    <ele>511.07</ele>
   </trkpt>
   <trkpt lat="-37.86063" lon="145.35594">
    <ele>499.22</ele>
   </trkpt>
   <trkpt lat="-37.86074" lon="145.3561">
    <ele>496.1</ele>
   </trkpt>
   <trkpt lat="-37.86084" lon="145.3562">
    <ele>492.52</ele>
   </trkpt>
   <trkpt lat="-37.86079" lon="145.35600000000002">
    <ele>492.12000000000006</ele>
   </trkpt>
   <trkpt lat="-37.86079" lon="145.35580000000002">
    <ele>491.94000000000005</ele>
   </trkpt>
   <trkpt lat="-37.86086" lon="145.35562000000002">
    <ele>491.48</ele>
   </trkpt>
   <trkpt lat="-37.86108" lon="145.35531">
    <ele>490.1</ele>
   </trkpt>
   <trkpt lat="-37.86153" lon="145.35481000000001">
    <ele>487.26</ele>
   </trkpt>
   <trkpt lat="-37.86198" lon="145.35437000000002">
    <ele>484.06000000000006</ele>
   </trkpt>
   <trkpt lat="-37.86229" lon="145.35409">
    <ele>481.17</ele>
   </trkpt>
   <trkpt lat="-37.86265" lon="145.35384000000002">
    <ele>479.86000000000007</ele>
   </trkpt>
  </trkseg>
 </trk>
</gpx>
