<?xml version="1.0" encoding="UTF-8"?>
<gpx creator="StravaGPX" version="1.1" xmlns="http://www.topografix.com/GPX/1/1" xmlns:xsi="http://www.w3.org/2001/XMLSchema-instance" xsi:schemaLocation="http://www.topografix.com/GPX/1/1 http://www.topografix.com/GPX/1/1/gpx.xsd">
 <metadata>
  <name>DTR Christmas Run 20k</name>
  <author>
   <name>john csorgo</name>
  </author>
  <copyright author="OpenStreetMap contributors">
   <year>2020</year>
   <license>https://www.openstreetmap.org/copyright</license>
  </copyright>
 </metadata>
 <trk>
  <name>DTR Christmas Run 20k</name>
  <link href=""/>
  <type>trail_running</type>
  <trkseg>
   <trkpt lat="-37.81696" lon="145.37994">
    <ele>436.46</ele>
   </trkpt>
   <trkpt lat="-37.81642" lon="145.38000000000002">
    <ele>439.01</ele>
   </trkpt>
   <trkpt lat="-37.81629" lon="145.37992">
    <ele>438.95000000000005</ele>
   </trkpt>
   <trkpt lat="-37.81622" lon="145.37971000000002">
    <ele>437.32000000000005</ele>
   </trkpt>
   <trkpt lat="-37.8162" lon="145.37919000000002">
    <ele>434.93</ele>
   </trkpt>
   <trkpt lat="-37.81613" lon="145.37887">
    <ele>433.94000000000005</ele>
   </trkpt>
   <trkpt lat="-37.816" lon="145.37896">
    <ele>432.79</ele>
   </trkpt>
   <trkpt lat="-37.81579" lon="145.3788">
    <ele>431.88000000000005</ele>
   </trkpt>
   <trkpt lat="-37.81566" lon="145.37857000000002">
    <ele>431.36</ele>
   </trkpt>
   <trkpt lat="-37.81523" lon="145.37830000000002">
    <ele>430.31</ele>
   </trkpt>
   <trkpt lat="-37.81499" lon="145.37811000000002">
    <ele>430.58</ele>
   </trkpt>
   <trkpt lat="-37.814980000000006" lon="145.37811000000002">
    <ele>430.58</ele>
   </trkpt>
   <trkpt lat="-37.8153" lon="145.37861">
    <ele>425.38000000000005</ele>
   </trkpt>
   <trkpt lat="-37.81528" lon="145.37923">
    <ele>418.92</ele>
   </trkpt>
   <trkpt lat="-37.81503500222022" lon="145.3799500023041">
    <ele>412.21000000000004</ele>
   </trkpt>
   <trkpt lat="-37.81479" lon="145.38067">
    <ele>406.07000000000005</ele>
   </trkpt>
   <trkpt lat="-37.81481" lon="145.38123000000002">
    <ele>401.35</ele>
   </trkpt>
   <trkpt lat="-37.814800000000005" lon="145.3813">
    <ele>400.67</ele>
   </trkpt>
   <trkpt lat="-37.8149" lon="145.38214000000002">
    <ele>398.57000000000005</ele>
   </trkpt>
   <trkpt lat="-37.81524" lon="145.38317">
    <ele>396.44</ele>
   </trkpt>
   <trkpt lat="-37.815440001445175" lon="145.38374999849617">
    <ele>391.07</ele>
   </trkpt>
   <trkpt lat="-37.81564" lon="145.38433">
    <ele>381.45</ele>
   </trkpt>
   <trkpt lat="-37.81564" lon="145.38443">
    <ele>381.45</ele>
   </trkpt>
   <trkpt lat="-37.81562" lon="145.38453">
    <ele>380.82000000000005</ele>
   </trkpt>
   <trkpt lat="-37.81517" lon="145.38471">
    <ele>372.21000000000004</ele>
   </trkpt>
   <trkpt lat="-37.8153" lon="145.3853">
    <ele>367.7300000000001</ele>
   </trkpt>
   <trkpt lat="-37.81548" lon="145.38594">
    <ele>366.29</ele>
   </trkpt>
   <trkpt lat="-37.81559" lon="145.38597000000001">
    <ele>366.28000000000003</ele>
   </trkpt>
   <trkpt lat="-37.81564" lon="145.38616000000002">
    <ele>365.47</ele>
   </trkpt>
   <trkpt lat="-37.81566" lon="145.38664">
    <ele>362.93</ele>
   </trkpt>
   <trkpt lat="-37.8157" lon="145.38694">
    <ele>362.16</ele>
   </trkpt>
   <trkpt lat="-37.81568" lon="145.38728">
    <ele>362.22</ele>
   </trkpt>
   <trkpt lat="-37.81559" lon="145.38736">
    <ele>362.7900000000001</ele>
   </trkpt>
   <trkpt lat="-37.814910000000005" lon="145.38760000000002">
    <ele>366.77000000000004</ele>
   </trkpt>
   <trkpt lat="-37.81499" lon="145.38769000000002">
    <ele>368.69</ele>
   </trkpt>
   <trkpt lat="-37.81501" lon="145.38777000000002">
    <ele>368.69</ele>
   </trkpt>
   <trkpt lat="-37.81499" lon="145.38819">
    <ele>374.63</ele>
   </trkpt>
   <trkpt lat="-37.8149" lon="145.38855">
    <ele>380.91</ele>
   </trkpt>
   <trkpt lat="-37.814730000000004" lon="145.38906">
    <ele>383.97</ele>
   </trkpt>
   <trkpt lat="-37.814730000000004" lon="145.38925">
    <ele>385.46000000000004</ele>
   </trkpt>
   <trkpt lat="-37.814730000000004" lon="145.38926">
    <ele>385.46000000000004</ele>
   </trkpt>
   <trkpt lat="-37.81476" lon="145.38943">
    <ele>388.93000000000006</ele>
   </trkpt>
   <trkpt lat="-37.81499" lon="145.38979">
    <ele>393.66</ele>
   </trkpt>
   <trkpt lat="-37.815110000000004" lon="145.38993000000002">
    <ele>395.32</ele>
   </trkpt>
   <trkpt lat="-37.81526" lon="145.38982000000001">
    <ele>394.5</ele>
   </trkpt>
   <trkpt lat="-37.815450000000006" lon="145.38982000000001">
    <ele>389.34000000000003</ele>
   </trkpt>
   <trkpt lat="-37.81559" lon="145.38993000000002">
    <ele>386.89</ele>
   </trkpt>
   <trkpt lat="-37.81575" lon="145.38997">
    <ele>386.35</ele>
   </trkpt>
   <trkpt lat="-37.81586" lon="145.38993000000002">
    <ele>386.67</ele>
   </trkpt>
   <trkpt lat="-37.81606" lon="145.39006">
    <ele>381.96000000000004</ele>
   </trkpt>
   <trkpt lat="-37.8162" lon="145.39023">
    <ele>375.1</ele>
   </trkpt>
   <trkpt lat="-37.81642" lon="145.39041">
    <ele>368.46</ele>
   </trkpt>
   <trkpt lat="-37.81658" lon="145.39048000000003">
    <ele>368.84000000000003</ele>
   </trkpt>
   <trkpt lat="-37.81678" lon="145.39062">
    <ele>376.06</ele>
   </trkpt>
   <trkpt lat="-37.81691" lon="145.39075000000003">
    <ele>378.66</ele>
   </trkpt>
   <trkpt lat="-37.81709" lon="145.39102000000003">
    <ele>380.28</ele>
   </trkpt>
   <trkpt lat="-37.8172" lon="145.39141">
    <ele>385.77000000000004</ele>
   </trkpt>
   <trkpt lat="-37.816990000000004" lon="145.39172000000002">
    <ele>389.28000000000003</ele>
   </trkpt>
   <trkpt lat="-37.81709" lon="145.39181000000002">
    <ele>388.55</ele>
   </trkpt>
   <trkpt lat="-37.81745" lon="145.39248">
    <ele>384.87000000000006</ele>
   </trkpt>
   <trkpt lat="-37.81752" lon="145.39257">
    <ele>384.11</ele>
   </trkpt>
   <trkpt lat="-37.81788" lon="145.39286">
    <ele>381.52000000000004</ele>
   </trkpt>
   <trkpt lat="-37.8181" lon="145.39323000000002">
    <ele>378.14000000000004</ele>
   </trkpt>
   <trkpt lat="-37.81828" lon="145.39347">
    <ele>375.94000000000005</ele>
   </trkpt>
   <trkpt lat="-37.81853" lon="145.39384">
    <ele>373.09000000000003</ele>
   </trkpt>
   <trkpt lat="-37.81857" lon="145.39418">
    <ele>370.52</ele>
   </trkpt>
   <trkpt lat="-37.81859" lon="145.39452">
    <ele>368.63</ele>
   </trkpt>
   <trkpt lat="-37.81855" lon="145.39498">
    <ele>366.98</ele>
   </trkpt>
   <trkpt lat="-37.81846" lon="145.39541">
    <ele>364.52</ele>
   </trkpt>
   <trkpt lat="-37.81848" lon="145.39561">
    <ele>363.28000000000003</ele>
   </trkpt>
   <trkpt lat="-37.81821" lon="145.3957">
    <ele>361.84000000000003</ele>
   </trkpt>
   <trkpt lat="-37.8181" lon="145.39571">
    <ele>360.02</ele>
   </trkpt>
   <trkpt lat="-37.81801" lon="145.39569">
    <ele>359.58</ele>
   </trkpt>
   <trkpt lat="-37.8179" lon="145.39562">
    <ele>357.95000000000005</ele>
   </trkpt>
   <trkpt lat="-37.81785" lon="145.39561">
    <ele>357.95000000000005</ele>
   </trkpt>
   <trkpt lat="-37.81776" lon="145.39566000000002">
    <ele>357.01000000000005</ele>
   </trkpt>
   <trkpt lat="-37.81772" lon="145.39582000000001">
    <ele>355.98</ele>
   </trkpt>
   <trkpt lat="-37.81765" lon="145.3959">
    <ele>354.34000000000003</ele>
   </trkpt>
   <trkpt lat="-37.81761" lon="145.39591000000001">
    <ele>353.83000000000004</ele>
   </trkpt>
   <trkpt lat="-37.81745" lon="145.39589">
    <ele>352.71000000000004</ele>
   </trkpt>
   <trkpt lat="-37.81732" lon="145.39592000000002">
    <ele>352.1</ele>
   </trkpt>
   <trkpt lat="-37.81707" lon="145.39607">
    <ele>351.59000000000003</ele>
   </trkpt>
   <trkpt lat="-37.81662" lon="145.39625">
    <ele>350.13000000000005</ele>
   </trkpt>
   <trkpt lat="-37.81658" lon="145.39624">
    <ele>349.23</ele>
   </trkpt>
   <trkpt lat="-37.81644" lon="145.39613">
    <ele>348.66</ele>
   </trkpt>
   <trkpt lat="-37.81642" lon="145.39603000000002">
    <ele>347.78000000000003</ele>
   </trkpt>
   <trkpt lat="-37.81638" lon="145.39595">
    <ele>347.19000000000005</ele>
   </trkpt>
   <trkpt lat="-37.8162" lon="145.3959">
    <ele>343.03</ele>
   </trkpt>
   <trkpt lat="-37.81611" lon="145.3959">
    <ele>342.21</ele>
   </trkpt>
   <trkpt lat="-37.81597" lon="145.39600000000002">
    <ele>339.56</ele>
   </trkpt>
   <trkpt lat="-37.81577" lon="145.39624">
    <ele>336.19000000000005</ele>
   </trkpt>
   <trkpt lat="-37.8157" lon="145.39626">
    <ele>335.48</ele>
   </trkpt>
   <trkpt lat="-37.81568" lon="145.39619000000002">
    <ele>335.48</ele>
   </trkpt>
   <trkpt lat="-37.81564" lon="145.39619000000002">
    <ele>332.35</ele>
   </trkpt>
   <trkpt lat="-37.81555" lon="145.39626">
    <ele>332.35</ele>
   </trkpt>
   <trkpt lat="-37.81553" lon="145.39625">
    <ele>330.08000000000004</ele>
   </trkpt>
   <trkpt lat="-37.81548" lon="145.39618000000002">
    <ele>330.08000000000004</ele>
   </trkpt>
   <trkpt lat="-37.81564" lon="145.39594000000002">
    <ele>326.52000000000004</ele>
   </trkpt>
   <trkpt lat="-37.81582" lon="145.39548000000002">
    <ele>324.3</ele>
   </trkpt>
   <trkpt lat="-37.81595" lon="145.39520000000002">
    <ele>321.87000000000006</ele>
   </trkpt>
   <trkpt lat="-37.81579" lon="145.39526">
    <ele>319.63</ele>
   </trkpt>
   <trkpt lat="-37.81564" lon="145.39538000000002">
    <ele>317.09000000000003</ele>
   </trkpt>
   <trkpt lat="-37.81553" lon="145.39559">
    <ele>315.34</ele>
   </trkpt>
   <trkpt lat="-37.81541" lon="145.39571">
    <ele>314.71000000000004</ele>
   </trkpt>
   <trkpt lat="-37.815160000000006" lon="145.39585000000002">
    <ele>314.01</ele>
   </trkpt>
   <trkpt lat="-37.81501" lon="145.39595">
    <ele>313.93000000000006</ele>
   </trkpt>
   <trkpt lat="-37.81488" lon="145.39609000000002">
    <ele>313.38000000000005</ele>
   </trkpt>
   <trkpt lat="-37.81485" lon="145.39616">
    <ele>313.07</ele>
   </trkpt>
   <trkpt lat="-37.81481" lon="145.39607">
    <ele>312.70000000000005</ele>
   </trkpt>
   <trkpt lat="-37.81479" lon="145.39596">
    <ele>311.44000000000005</ele>
   </trkpt>
   <trkpt lat="-37.81481" lon="145.39588">
    <ele>310.76000000000005</ele>
   </trkpt>
   <trkpt lat="-37.81488" lon="145.39579">
    <ele>310.49</ele>
   </trkpt>
   <trkpt lat="-37.81526" lon="145.39556000000002">
    <ele>307.96</ele>
   </trkpt>
   <trkpt lat="-37.815540000000006" lon="145.39511000000002">
    <ele>306.74</ele>
   </trkpt>
   <trkpt lat="-37.81555" lon="145.39502000000002">
    <ele>305.87</ele>
   </trkpt>
   <trkpt lat="-37.81548" lon="145.39493000000002">
    <ele>304.49</ele>
   </trkpt>
   <trkpt lat="-37.81535" lon="145.39498">
    <ele>301.97</ele>
   </trkpt>
   <trkpt lat="-37.81508" lon="145.39530000000002">
    <ele>298.49</ele>
   </trkpt>
   <trkpt lat="-37.81488" lon="145.39536">
    <ele>298.22</ele>
   </trkpt>
   <trkpt lat="-37.81467" lon="145.39551">
    <ele>298.55</ele>
   </trkpt>
   <trkpt lat="-37.81461" lon="145.3956">
    <ele>298.94000000000005</ele>
   </trkpt>
   <trkpt lat="-37.81452" lon="145.39582000000001">
    <ele>299.92</ele>
   </trkpt>
   <trkpt lat="-37.81434" lon="145.39602000000002">
    <ele>299.34000000000003</ele>
   </trkpt>
   <trkpt lat="-37.81425" lon="145.39624">
    <ele>296.36</ele>
   </trkpt>
   <trkpt lat="-37.81427" lon="145.39647000000002">
    <ele>294.67</ele>
   </trkpt>
   <trkpt lat="-37.81432" lon="145.39667">
    <ele>293.18000000000006</ele>
   </trkpt>
   <trkpt lat="-37.81425" lon="145.3967">
    <ele>292.14</ele>
   </trkpt>
   <trkpt lat="-37.814260000000004" lon="145.3967">
    <ele>292.14</ele>
   </trkpt>
   <trkpt lat="-37.81414" lon="145.39663000000002">
    <ele>289.19</ele>
   </trkpt>
   <trkpt lat="-37.81405" lon="145.39655000000002">
    <ele>287.55</ele>
   </trkpt>
   <trkpt lat="-37.81387" lon="145.39618000000002">
    <ele>283.87</ele>
   </trkpt>
   <trkpt lat="-37.81391" lon="145.39592000000002">
    <ele>282.34000000000003</ele>
   </trkpt>
   <trkpt lat="-37.81398" lon="145.39566000000002">
    <ele>281.09</ele>
   </trkpt>
   <trkpt lat="-37.81407" lon="145.39546">
    <ele>280.45000000000005</ele>
   </trkpt>
   <trkpt lat="-37.81407" lon="145.39542">
    <ele>280.24000000000007</ele>
   </trkpt>
   <trkpt lat="-37.814" lon="145.39542">
    <ele>279.46000000000004</ele>
   </trkpt>
   <trkpt lat="-37.81385" lon="145.39562">
    <ele>275.7</ele>
   </trkpt>
   <trkpt lat="-37.81367" lon="145.39581">
    <ele>273.17</ele>
   </trkpt>
   <trkpt lat="-37.81358" lon="145.39583000000002">
    <ele>271.52000000000004</ele>
   </trkpt>
   <trkpt lat="-37.813570000000006" lon="145.3956">
    <ele>267.54</ele>
   </trkpt>
   <trkpt lat="-37.81349" lon="145.39532">
    <ele>263.08000000000004</ele>
   </trkpt>
   <trkpt lat="-37.81344" lon="145.39523">
    <ele>259.13</ele>
   </trkpt>
   <trkpt lat="-37.81326" lon="145.39535">
    <ele>253.92000000000002</ele>
   </trkpt>
   <trkpt lat="-37.81315" lon="145.39547000000002">
    <ele>250.82000000000005</ele>
   </trkpt>
   <trkpt lat="-37.813100000000006" lon="145.39549000000002">
    <ele>250.82000000000005</ele>
   </trkpt>
   <trkpt lat="-37.81293" lon="145.39548000000002">
    <ele>248.14000000000001</ele>
   </trkpt>
   <trkpt lat="-37.81279" lon="145.39551">
    <ele>242.12000000000003</ele>
   </trkpt>
   <trkpt lat="-37.81259" lon="145.3956">
    <ele>238.14000000000001</ele>
   </trkpt>
   <trkpt lat="-37.81237" lon="145.3956">
    <ele>234.02</ele>
   </trkpt>
   <trkpt lat="-37.81221" lon="145.39567000000002">
    <ele>230.42000000000002</ele>
   </trkpt>
   <trkpt lat="-37.81197" lon="145.39574000000002">
    <ele>226.8</ele>
   </trkpt>
   <trkpt lat="-37.811980000000005" lon="145.39573000000001">
    <ele>226.8</ele>
   </trkpt>
   <trkpt lat="-37.8119" lon="145.39583000000002">
    <ele>225.64000000000001</ele>
   </trkpt>
   <trkpt lat="-37.81185" lon="145.39616">
    <ele>223.45000000000002</ele>
   </trkpt>
   <trkpt lat="-37.81166" lon="145.3968">
    <ele>219.2</ele>
   </trkpt>
   <trkpt lat="-37.81156" lon="145.39692000000002">
    <ele>217.38000000000002</ele>
   </trkpt>
   <trkpt lat="-37.81141" lon="145.39698">
    <ele>216.03000000000003</ele>
   </trkpt>
   <trkpt lat="-37.81125" lon="145.39697">
    <ele>215.56000000000003</ele>
   </trkpt>
   <trkpt lat="-37.81136" lon="145.39729">
    <ele>215.98</ele>
   </trkpt>
   <trkpt lat="-37.81157500439098" lon="145.3983099969992">
    <ele>230.54000000000002</ele>
   </trkpt>
   <trkpt lat="-37.81179" lon="145.39933000000002">
    <ele>244.9</ele>
   </trkpt>
   <trkpt lat="-37.81213" lon="145.4002">
    <ele>253.87000000000003</ele>
   </trkpt>
   <trkpt lat="-37.81232" lon="145.40053">
    <ele>255.03000000000003</ele>
   </trkpt>
   <trkpt lat="-37.81232" lon="145.40054">
    <ele>255.03000000000003</ele>
   </trkpt>
   <trkpt lat="-37.81264" lon="145.40077000000002">
    <ele>255.32000000000005</ele>
   </trkpt>
   <trkpt lat="-37.813356666654315" lon="145.4008299988316">
    <ele>255.3</ele>
   </trkpt>
   <trkpt lat="-37.814073333278195" lon="145.400889998828">
    <ele>255.09000000000003</ele>
   </trkpt>
   <trkpt lat="-37.81479" lon="145.40095000000002">
    <ele>252.86</ele>
   </trkpt>
   <trkpt lat="-37.815480000051124" lon="145.40104666485576">
    <ele>248.12</ele>
   </trkpt>
   <trkpt lat="-37.81617000002324" lon="145.40114333151848">
    <ele>242.18</ele>
   </trkpt>
   <trkpt lat="-37.816860000000005" lon="145.40124">
    <ele>241.39000000000001</ele>
   </trkpt>
   <trkpt lat="-37.817379999996604" lon="145.40127999971745">
    <ele>239.5</ele>
   </trkpt>
   <trkpt lat="-37.8179" lon="145.40132">
    <ele>238.33</ele>
   </trkpt>
   <trkpt lat="-37.81851" lon="145.40144">
    <ele>237.08</ele>
   </trkpt>
   <trkpt lat="-37.81861" lon="145.40142">
    <ele>236.47</ele>
   </trkpt>
   <trkpt lat="-37.81886" lon="145.40130000000002">
    <ele>235.54000000000002</ele>
   </trkpt>
   <trkpt lat="-37.818760000000005" lon="145.40143">
    <ele>231.70000000000002</ele>
   </trkpt>
   <trkpt lat="-37.81886" lon="145.40130000000002">
    <ele>235.54000000000002</ele>
   </trkpt>
   <trkpt lat="-37.81893" lon="145.40123">
    <ele>236.13</ele>
   </trkpt>
   <trkpt lat="-37.8194" lon="145.40109">
    <ele>241.07</ele>
   </trkpt>
   <trkpt lat="-37.81978" lon="145.40107">
    <ele>242.27</ele>
   </trkpt>
   <trkpt lat="-37.82065" lon="145.40118">
    <ele>241.50000000000003</ele>
   </trkpt>
   <trkpt lat="-37.82123" lon="145.40140000000002">
    <ele>239.3</ele>
   </trkpt>
   <trkpt lat="-37.82172500018398" lon="145.40138500009508">
    <ele>238.54000000000002</ele>
   </trkpt>
   <trkpt lat="-37.82222" lon="145.40137000000001">
    <ele>238.03</ele>
   </trkpt>
   <trkpt lat="-37.82267" lon="145.40126">
    <ele>236.11</ele>
   </trkpt>
   <trkpt lat="-37.82329" lon="145.40123">
    <ele>234.74000000000004</ele>
   </trkpt>
   <trkpt lat="-37.82381" lon="145.40116">
    <ele>231.92000000000002</ele>
   </trkpt>
   <trkpt lat="-37.824310000000004" lon="145.40124">
    <ele>228.23000000000002</ele>
   </trkpt>
   <trkpt lat="-37.82448" lon="145.40115">
    <ele>227.8</ele>
   </trkpt>
   <trkpt lat="-37.82479" lon="145.4009">
    <ele>228.15</ele>
   </trkpt>
   <trkpt lat="-37.825185000200094" lon="145.4006250015552">
    <ele>229.9</ele>
   </trkpt>
   <trkpt lat="-37.82558" lon="145.40035">
    <ele>230.94</ele>
   </trkpt>
   <trkpt lat="-37.82636" lon="145.39988000000002">
    <ele>232.69</ele>
   </trkpt>
   <trkpt lat="-37.82665" lon="145.39974">
    <ele>233.88000000000002</ele>
   </trkpt>
   <trkpt lat="-37.82686" lon="145.39961000000002">
    <ele>234.21000000000004</ele>
   </trkpt>
   <trkpt lat="-37.82692" lon="145.39973">
    <ele>233.60000000000002</ele>
   </trkpt>
   <trkpt lat="-37.82699" lon="145.39978000000002">
    <ele>233.4</ele>
   </trkpt>
   <trkpt lat="-37.827000000000005" lon="145.39981">
    <ele>233.4</ele>
   </trkpt>
   <trkpt lat="-37.82714" lon="145.39978000000002">
    <ele>234.03</ele>
   </trkpt>
   <trkpt lat="-37.82732" lon="145.39971">
    <ele>234.16</ele>
   </trkpt>
   <trkpt lat="-37.82741" lon="145.39962">
    <ele>234.35000000000002</ele>
   </trkpt>
   <trkpt lat="-37.82777" lon="145.39955">
    <ele>236.77</ele>
   </trkpt>
   <trkpt lat="-37.82795" lon="145.39947">
    <ele>237.79000000000002</ele>
   </trkpt>
   <trkpt lat="-37.82824" lon="145.39944">
    <ele>241.51000000000002</ele>
   </trkpt>
   <trkpt lat="-37.82833" lon="145.39941000000002">
    <ele>241.25000000000003</ele>
   </trkpt>
   <trkpt lat="-37.82837" lon="145.39937">
    <ele>240.24</ele>
   </trkpt>
   <trkpt lat="-37.8284" lon="145.39929">
    <ele>239.0</ele>
   </trkpt>
   <trkpt lat="-37.82833" lon="145.39913">
    <ele>238.02</ele>
   </trkpt>
   <trkpt lat="-37.82833" lon="145.39909">
    <ele>237.66</ele>
   </trkpt>
   <trkpt lat="-37.82855" lon="145.39870000000002">
    <ele>236.10000000000002</ele>
   </trkpt>
   <trkpt lat="-37.82873" lon="145.39851000000002">
    <ele>235.91</ele>
   </trkpt>
   <trkpt lat="-37.82884" lon="145.39866">
    <ele>233.72</ele>
   </trkpt>
   <trkpt lat="-37.82889" lon="145.39882">
    <ele>231.92000000000002</ele>
   </trkpt>
   <trkpt lat="-37.82898" lon="145.39888000000002">
    <ele>244.46</ele>
   </trkpt>
   <trkpt lat="-37.829330000000006" lon="145.39894">
    <ele>232.48000000000002</ele>
   </trkpt>
   <trkpt lat="-37.82934" lon="145.39889000000002">
    <ele>232.48000000000002</ele>
   </trkpt>
   <trkpt lat="-37.82943" lon="145.39875">
    <ele>233.12</ele>
   </trkpt>
   <trkpt lat="-37.82958" lon="145.39857">
    <ele>233.9</ele>
   </trkpt>
   <trkpt lat="-37.82995000115219" lon="145.3980700023784">
    <ele>233.23000000000002</ele>
   </trkpt>
   <trkpt lat="-37.83032" lon="145.39757">
    <ele>235.20000000000002</ele>
   </trkpt>
   <trkpt lat="-37.83075" lon="145.39718000000002">
    <ele>238.83</ele>
   </trkpt>
   <trkpt lat="-37.83117" lon="145.39671">
    <ele>241.74</ele>
   </trkpt>
   <trkpt lat="-37.83164000101921" lon="145.39622500306393">
    <ele>243.61</ele>
   </trkpt>
   <trkpt lat="-37.83211" lon="145.39574000000002">
    <ele>243.16</ele>
   </trkpt>
   <trkpt lat="-37.832770001068916" lon="145.39524000446377">
    <ele>244.41000000000003</ele>
   </trkpt>
   <trkpt lat="-37.83343" lon="145.39474">
    <ele>245.44000000000003</ele>
   </trkpt>
   <trkpt lat="-37.83377" lon="145.39452">
    <ele>246.95000000000002</ele>
   </trkpt>
   <trkpt lat="-37.83422" lon="145.39430000000002">
    <ele>248.79</ele>
   </trkpt>
   <trkpt lat="-37.8346" lon="145.3942">
    <ele>248.03000000000003</ele>
   </trkpt>
   <trkpt lat="-37.83469" lon="145.39408">
    <ele>247.98000000000002</ele>
   </trkpt>
   <trkpt lat="-37.834860000000006" lon="145.39402">
    <ele>248.26</ele>
   </trkpt>
   <trkpt lat="-37.835150000000006" lon="145.39395000000002">
    <ele>248.32000000000002</ele>
   </trkpt>
   <trkpt lat="-37.83522" lon="145.39397000000002">
    <ele>248.32000000000002</ele>
   </trkpt>
   <trkpt lat="-37.83534" lon="145.39405000000002">
    <ele>248.93</ele>
   </trkpt>
   <trkpt lat="-37.8354" lon="145.39405000000002">
    <ele>248.93</ele>
   </trkpt>
   <trkpt lat="-37.83541" lon="145.39405000000002">
    <ele>248.94000000000003</ele>
   </trkpt>
   <trkpt lat="-37.83545" lon="145.39387000000002">
    <ele>247.79</ele>
   </trkpt>
   <trkpt lat="-37.83549" lon="145.39381">
    <ele>247.05</ele>
   </trkpt>
   <trkpt lat="-37.83572" lon="145.39354">
    <ele>245.17000000000002</ele>
   </trkpt>
   <trkpt lat="-37.83614500085438" lon="145.3930850026437">
    <ele>248.11</ele>
   </trkpt>
   <trkpt lat="-37.83657" lon="145.39263000000003">
    <ele>250.73</ele>
   </trkpt>
   <trkpt lat="-37.83722" lon="145.39226000000002">
    <ele>252.26000000000005</ele>
   </trkpt>
   <trkpt lat="-37.837410000000006" lon="145.39212">
    <ele>253.26000000000005</ele>
   </trkpt>
   <trkpt lat="-37.83731" lon="145.39181000000002">
    <ele>252.60999999999999</ele>
   </trkpt>
   <trkpt lat="-37.83726" lon="145.39154000000002">
    <ele>252.03000000000003</ele>
   </trkpt>
   <trkpt lat="-37.837270000000004" lon="145.39126000000002">
    <ele>250.67</ele>
   </trkpt>
   <trkpt lat="-37.83733500136969" lon="145.39069500032298">
    <ele>255.0</ele>
   </trkpt>
   <trkpt lat="-37.8374" lon="145.39013">
    <ele>256.87000000000006</ele>
   </trkpt>
   <trkpt lat="-37.837410000000006" lon="145.38957000000002">
    <ele>257.37000000000006</ele>
   </trkpt>
   <trkpt lat="-37.83751" lon="145.38939000000002">
    <ele>257.57</ele>
   </trkpt>
   <trkpt lat="-37.83769" lon="145.38928">
    <ele>258.13</ele>
   </trkpt>
   <trkpt lat="-37.83791" lon="145.38927">
    <ele>258.45</ele>
   </trkpt>
   <trkpt lat="-37.83816" lon="145.38933">
    <ele>259.21</ele>
   </trkpt>
   <trkpt lat="-37.83836" lon="145.38944">
    <ele>259.98</ele>
   </trkpt>
   <trkpt lat="-37.83849" lon="145.38949000000002">
    <ele>260.55</ele>
   </trkpt>
   <trkpt lat="-37.83865" lon="145.38945">
    <ele>260.55</ele>
   </trkpt>
   <trkpt lat="-37.83885" lon="145.38936">
    <ele>261.43</ele>
   </trkpt>
   <trkpt lat="-37.83908" lon="145.38930000000002">
    <ele>261.85</ele>
   </trkpt>
   <trkpt lat="-37.83932" lon="145.38919">
    <ele>262.25000000000006</ele>
   </trkpt>
   <trkpt lat="-37.83959" lon="145.38912000000002">
    <ele>262.93</ele>
   </trkpt>
   <trkpt lat="-37.83981" lon="145.38901">
    <ele>262.61</ele>
   </trkpt>
   <trkpt lat="-37.840030000000006" lon="145.38874">
    <ele>260.16</ele>
   </trkpt>
   <trkpt lat="-37.84024" lon="145.38854">
    <ele>259.42</ele>
   </trkpt>
   <trkpt lat="-37.84055" lon="145.38814000000002">
    <ele>262.59000000000003</ele>
   </trkpt>
   <trkpt lat="-37.840880000000006" lon="145.38792">
    <ele>265.18</ele>
   </trkpt>
   <trkpt lat="-37.84098" lon="145.3878">
    <ele>267.03000000000003</ele>
   </trkpt>
   <trkpt lat="-37.84118" lon="145.38735">
    <ele>268.31000000000006</ele>
   </trkpt>
   <trkpt lat="-37.84149" lon="145.387">
    <ele>271.03000000000003</ele>
   </trkpt>
   <trkpt lat="-37.84203" lon="145.38627000000002">
    <ele>274.86000000000007</ele>
   </trkpt>
   <trkpt lat="-37.84221" lon="145.38598000000002">
    <ele>275.64</ele>
   </trkpt>
   <trkpt lat="-37.84237" lon="145.38589000000002">
    <ele>276.17</ele>
   </trkpt>
   <trkpt lat="-37.842470000000006" lon="145.38578">
    <ele>276.73</ele>
   </trkpt>
   <trkpt lat="-37.84255" lon="145.38563000000002">
    <ele>277.34000000000003</ele>
   </trkpt>
   <trkpt lat="-37.84266" lon="145.38509000000002">
    <ele>280.99</ele>
   </trkpt>
   <trkpt lat="-37.84272" lon="145.38490000000002">
    <ele>281.98</ele>
   </trkpt>
   <trkpt lat="-37.84281" lon="145.38477">
    <ele>282.93</ele>
   </trkpt>
   <trkpt lat="-37.84288" lon="145.38473000000002">
    <ele>282.93</ele>
   </trkpt>
   <trkpt lat="-37.84292000000001" lon="145.38473000000002">
    <ele>283.29</ele>
   </trkpt>
   <trkpt lat="-37.84297" lon="145.38451">
    <ele>284.82</ele>
   </trkpt>
   <trkpt lat="-37.84295" lon="145.38430000000002">
    <ele>285.82</ele>
   </trkpt>
   <trkpt lat="-37.84286" lon="145.38411000000002">
    <ele>288.88</ele>
   </trkpt>
   <trkpt lat="-37.84281" lon="145.38376000000002">
    <ele>292.24</ele>
   </trkpt>
   <trkpt lat="-37.84281" lon="145.38304000000002">
    <ele>296.16</ele>
   </trkpt>
   <trkpt lat="-37.84279" lon="145.38266000000002">
    <ele>299.37</ele>
   </trkpt>
   <trkpt lat="-37.84272" lon="145.38237">
    <ele>303.63</ele>
   </trkpt>
   <trkpt lat="-37.84263" lon="145.38217">
    <ele>306.88000000000005</ele>
   </trkpt>
   <trkpt lat="-37.84248" lon="145.38167">
    <ele>310.38000000000005</ele>
   </trkpt>
   <trkpt lat="-37.84248" lon="145.38133000000002">
    <ele>313.96000000000004</ele>
   </trkpt>
   <trkpt lat="-37.84243" lon="145.38109">
    <ele>313.96000000000004</ele>
   </trkpt>
   <trkpt lat="-37.8423" lon="145.38066">
    <ele>320.8</ele>
   </trkpt>
   <trkpt lat="-37.84205" lon="145.38012">
    <ele>324.26000000000005</ele>
   </trkpt>
   <trkpt lat="-37.84223" lon="145.38017000000002">
    <ele>328.87000000000006</ele>
   </trkpt>
   <trkpt lat="-37.842380000000006" lon="145.38016000000002">
    <ele>328.87000000000006</ele>
   </trkpt>
   <trkpt lat="-37.8425" lon="145.38008000000002">
    <ele>331.82</ele>
   </trkpt>
   <trkpt lat="-37.84257" lon="145.37998000000002">
    <ele>333.40000000000003</ele>
   </trkpt>
   <trkpt lat="-37.84277" lon="145.37985">
    <ele>337.52000000000004</ele>
   </trkpt>
   <trkpt lat="-37.84297" lon="145.37982000000002">
    <ele>341.24</ele>
   </trkpt>
   <trkpt lat="-37.84315" lon="145.37983">
    <ele>343.94</ele>
   </trkpt>
   <trkpt lat="-37.84396" lon="145.38022">
    <ele>358.1</ele>
   </trkpt>
   <trkpt lat="-37.84431" lon="145.38042000000002">
    <ele>361.74</ele>
   </trkpt>
   <trkpt lat="-37.844440000000006" lon="145.3804">
    <ele>364.41</ele>
   </trkpt>
   <trkpt lat="-37.84449" lon="145.38033000000001">
    <ele>366.05</ele>
   </trkpt>
   <trkpt lat="-37.84451" lon="145.3802">
    <ele>367.61</ele>
   </trkpt>
   <trkpt lat="-37.84451" lon="145.38000000000002">
    <ele>370.31</ele>
   </trkpt>
   <trkpt lat="-37.8444" lon="145.37967">
    <ele>374.73</ele>
   </trkpt>
   <trkpt lat="-37.84427" lon="145.37936000000002">
    <ele>378.15000000000003</ele>
   </trkpt>
   <trkpt lat="-37.84411" lon="145.37913">
    <ele>382.21000000000004</ele>
   </trkpt>
   <trkpt lat="-37.84375" lon="145.37878">
    <ele>387.49000000000007</ele>
   </trkpt>
   <trkpt lat="-37.84333" lon="145.37800000000001">
    <ele>398.04</ele>
   </trkpt>
   <trkpt lat="-37.84326" lon="145.3778">
    <ele>399.36</ele>
   </trkpt>
   <trkpt lat="-37.84324" lon="145.37767000000002">
    <ele>400.94</ele>
   </trkpt>
   <trkpt lat="-37.84326" lon="145.37756000000002">
    <ele>402.24</ele>
   </trkpt>
   <trkpt lat="-37.84333" lon="145.37742">
    <ele>404.32</ele>
   </trkpt>
   <trkpt lat="-37.843340000000005" lon="145.37741000000003">
    <ele>404.32</ele>
   </trkpt>
   <trkpt lat="-37.84346" lon="145.37734">
    <ele>404.70000000000005</ele>
   </trkpt>
   <trkpt lat="-37.8436" lon="145.37728">
    <ele>410.52000000000004</ele>
   </trkpt>
   <trkpt lat="-37.84384" lon="145.37723000000003">
    <ele>416.29</ele>
   </trkpt>
   <trkpt lat="-37.84431" lon="145.37730000000002">
    <ele>426.01000000000005</ele>
   </trkpt>
   <trkpt lat="-37.84492" lon="145.37729000000002">
    <ele>438.08000000000004</ele>
   </trkpt>
   <trkpt lat="-37.84523" lon="145.37737">
    <ele>441.32000000000005</ele>
   </trkpt>
   <trkpt lat="-37.84582" lon="145.37730000000002">
    <ele>455.32000000000005</ele>
   </trkpt>
   <trkpt lat="-37.8459" lon="145.37727">
    <ele>455.32000000000005</ele>
   </trkpt>
   <trkpt lat="-37.8461" lon="145.37725">
    <ele>461.3</ele>
   </trkpt>
   <trkpt lat="-37.84633" lon="145.37718">
    <ele>465.41</ele>
   </trkpt>
   <trkpt lat="-37.84646" lon="145.37716">
    <ele>466.97</ele>
   </trkpt>
   <trkpt lat="-37.84666" lon="145.37718">
    <ele>471.43</ele>
   </trkpt>
   <trkpt lat="-37.8468" lon="145.37722000000002">
    <ele>474.41</ele>
   </trkpt>
   <trkpt lat="-37.84729" lon="145.37757000000002">
    <ele>481.92</ele>
   </trkpt>
   <trkpt lat="-37.84742" lon="145.3778">
    <ele>483.14</ele>
   </trkpt>
   <trkpt lat="-37.84747" lon="145.37811000000002">
    <ele>483.12000000000006</ele>
   </trkpt>
   <trkpt lat="-37.8476" lon="145.37832">
    <ele>482.68000000000006</ele>
   </trkpt>
   <trkpt lat="-37.84774" lon="145.37846000000002">
    <ele>482.79</ele>
   </trkpt>
   <trkpt lat="-37.84794" lon="145.37849">
    <ele>483.39000000000004</ele>
   </trkpt>
   <trkpt lat="-37.84825" lon="145.37846000000002">
    <ele>485.76</ele>
   </trkpt>
   <trkpt lat="-37.84848" lon="145.3784">
    <ele>486.69000000000005</ele>
   </trkpt>
   <trkpt lat="-37.84904" lon="145.37816">
    <ele>486.15000000000003</ele>
   </trkpt>
   <trkpt lat="-37.84966251923057" lon="145.37735379766013">
    <ele>486.15000000000003</ele>
   </trkpt>
   <trkpt lat="-37.85028503296482" lon="145.37654758170692">
    <ele>486.15000000000003</ele>
   </trkpt>
   <trkpt lat="-37.85090754120253" lon="145.37574135213993">
    <ele>486.15000000000003</ele>
   </trkpt>
   <trkpt lat="-37.85153004394347" lon="145.37493510895874">
    <ele>580.5100000000001</ele>
   </trkpt>
   <trkpt lat="-37.85215254118746" lon="145.3741288521629">
    <ele>580.5100000000001</ele>
   </trkpt>
   <trkpt lat="-37.85277503293425" lon="145.37332258175206">
    <ele>580.5100000000001</ele>
   </trkpt>
   <trkpt lat="-37.85339751918363" lon="145.3725162977258">
    <ele>580.5100000000001</ele>
   </trkpt>
   <trkpt lat="-37.854020000000006" lon="145.37171">
    <ele>580.5100000000001</ele>
   </trkpt>
   <trkpt lat="-37.854040000000005" lon="145.37130000000002">
    <ele>578.71</ele>
   </trkpt>
   <trkpt lat="-37.85411500333797" lon="145.37041000103912">
    <ele>575.7500000000001</ele>
   </trkpt>
   <trkpt lat="-37.85419" lon="145.36952000000002">
    <ele>572.43</ele>
   </trkpt>
   <trkpt lat="-37.85421" lon="145.36937">
    <ele>572.33</ele>
   </trkpt>
   <trkpt lat="-37.85441" lon="145.36911">
    <ele>572.28</ele>
   </trkpt>
   <trkpt lat="-37.85409000000001" lon="145.36882">
    <ele>575.9200000000001</ele>
   </trkpt>
   <trkpt lat="-37.853660000000005" lon="145.36857">
    <ele>577.85</ele>
   </trkpt>
   <trkpt lat="-37.85314" lon="145.36833000000001">
    <ele>576.38</ele>
   </trkpt>
   <trkpt lat="-37.85295" lon="145.36822">
    <ele>574.9200000000001</ele>
   </trkpt>
   <trkpt lat="-37.85264" lon="145.36819">
    <ele>572.1400000000001</ele>
   </trkpt>
   <trkpt lat="-37.85228" lon="145.36824000000001">
    <ele>568.5</ele>
   </trkpt>
   <trkpt lat="-37.85208" lon="145.36833000000001">
    <ele>564.91</ele>
   </trkpt>
   <trkpt lat="-37.851760000000006" lon="145.36859">
    <ele>563.11</ele>
   </trkpt>
   <trkpt lat="-37.85159" lon="145.36880000000002">
    <ele>561.73</ele>
   </trkpt>
   <trkpt lat="-37.85105" lon="145.36917000000003">
    <ele>559.82</ele>
   </trkpt>
   <trkpt lat="-37.85072" lon="145.36927">
    <ele>558.3</ele>
   </trkpt>
   <trkpt lat="-37.850370000000005" lon="145.36927">
    <ele>555.98</ele>
   </trkpt>
   <trkpt lat="-37.849726003710735" lon="145.3687999835615">
    <ele>548.7800000000001</ele>
   </trkpt>
   <trkpt lat="-37.849082005553385" lon="145.36832997533335">
    <ele>539.25</ele>
   </trkpt>
   <trkpt lat="-37.84843800552803" lon="145.3678599753152">
    <ele>534.19</ele>
   </trkpt>
   <trkpt lat="-37.847794003634746" lon="145.3673899835068">
    <ele>534.0100000000001</ele>
   </trkpt>
   <trkpt lat="-37.847150000000006" lon="145.36692000000002">
    <ele>533.0</ele>
   </trkpt>
   <trkpt lat="-37.84709" lon="145.36678">
    <ele>531.97</ele>
   </trkpt>
   <trkpt lat="-37.84700000199176" lon="145.3660899989954">
    <ele>526.21</ele>
   </trkpt>
   <trkpt lat="-37.84691" lon="145.36540000000002">
    <ele>515.0</ele>
   </trkpt>
   <trkpt lat="-37.84693" lon="145.36513000000002">
    <ele>511.53000000000003</ele>
   </trkpt>
   <trkpt lat="-37.84687" lon="145.36482">
    <ele>507.53000000000003</ele>
   </trkpt>
   <trkpt lat="-37.84678000163085" lon="145.36420499946612">
    <ele>499.95000000000005</ele>
   </trkpt>
   <trkpt lat="-37.84669" lon="145.36359000000002">
    <ele>488.99</ele>
   </trkpt>
   <trkpt lat="-37.84655000177262" lon="145.36294499883846">
    <ele>489.1</ele>
   </trkpt>
   <trkpt lat="-37.846410000000006" lon="145.3623">
    <ele>503.05</ele>
   </trkpt>
   <trkpt lat="-37.84630000000001" lon="145.3617">
    <ele>506.37</ele>
   </trkpt>
   <trkpt lat="-37.84619" lon="145.36064000000002">
    <ele>510.38000000000005</ele>
   </trkpt>
   <trkpt lat="-37.84655" lon="145.36054000000001">
    <ele>510.18000000000006</ele>
   </trkpt>
   <trkpt lat="-37.84682" lon="145.36052">
    <ele>510.0</ele>
   </trkpt>
   <trkpt lat="-37.84698" lon="145.36054000000001">
    <ele>509.7900000000001</ele>
   </trkpt>
   <trkpt lat="-37.84705" lon="145.36058">
    <ele>509.63</ele>
   </trkpt>
   <trkpt lat="-37.84707" lon="145.36051">
    <ele>509.63</ele>
   </trkpt>
   <trkpt lat="-37.84718" lon="145.3604">
    <ele>509.63</ele>
   </trkpt>
   <trkpt lat="-37.847350000000006" lon="145.36039000000002">
    <ele>510.0800000000001</ele>
   </trkpt>
   <trkpt lat="-37.84741" lon="145.36042">
    <ele>510.0800000000001</ele>
   </trkpt>
   <trkpt lat="-37.84723000269139" lon="145.35961999798258">
    <ele>514.08</ele>
   </trkpt>
   <trkpt lat="-37.84705" lon="145.35882">
    <ele>516.1800000000001</ele>
   </trkpt>
   <trkpt lat="-37.84709" lon="145.35882">
    <ele>518.08</ele>
   </trkpt>
   <trkpt lat="-37.84695" lon="145.35840000000002">
    <ele>517.17</ele>
   </trkpt>
   <trkpt lat="-37.84664" lon="145.35795000000002">
    <ele>512.84</ele>
   </trkpt>
   <trkpt lat="-37.846540000000005" lon="145.35771000000003">
    <ele>510.69000000000005</ele>
   </trkpt>
   <trkpt lat="-37.84644" lon="145.35760000000002">
    <ele>510.37</ele>
   </trkpt>
   <trkpt lat="-37.846360000000004" lon="145.35734000000002">
    <ele>509.32</ele>
   </trkpt>
   <trkpt lat="-37.846006670389734" lon="145.35667666031446">
    <ele>509.69000000000005</ele>
   </trkpt>
   <trkpt lat="-37.84565333705871" lon="145.35601332698553">
    <ele>511.09999999999997</ele>
   </trkpt>
   <trkpt lat="-37.8453" lon="145.35535000000002">
    <ele>512.0</ele>
   </trkpt>
   <trkpt lat="-37.84517" lon="145.35528000000002">
    <ele>512.42</ele>
   </trkpt>
   <trkpt lat="-37.8457133347619" lon="145.3548666727697">
    <ele>511.65000000000003</ele>
   </trkpt>
   <trkpt lat="-37.846256668079185" lon="145.35445333944867">
    <ele>510.16</ele>
   </trkpt>
   <trkpt lat="-37.8468" lon="145.35404">
    <ele>507.46000000000004</ele>
   </trkpt>
   <trkpt lat="-37.84685" lon="145.35385000000002">
    <ele>509.32</ele>
   </trkpt>
   <trkpt lat="-37.84691" lon="145.35384000000002">
    <ele>509.32</ele>
   </trkpt>
   <trkpt lat="-37.84698" lon="145.35392000000002">
    <ele>509.32</ele>
   </trkpt>
   <trkpt lat="-37.84734" lon="145.35397">
    <ele>498.2300000000001</ele>
   </trkpt>
   <trkpt lat="-37.84781" lon="145.35397">
    <ele>480.43</ele>
   </trkpt>
   <trkpt lat="-37.84798" lon="145.35389">
    <ele>477.29</ele>
   </trkpt>
   <trkpt lat="-37.84828" lon="145.35382">
    <ele>467.09000000000003</ele>
   </trkpt>
   <trkpt lat="-37.84857" lon="145.35368000000003">
    <ele>454.6</ele>
   </trkpt>
   <trkpt lat="-37.84868" lon="145.35357000000002">
    <ele>447.34000000000003</ele>
   </trkpt>
   <trkpt lat="-37.848800000000004" lon="145.35342">
    <ele>444.46000000000004</ele>
   </trkpt>
   <trkpt lat="-37.84877" lon="145.35304000000002">
    <ele>442.21000000000004</ele>
   </trkpt>
   <trkpt lat="-37.848670000000006" lon="145.35243">
    <ele>437.42</ele>
   </trkpt>
   <trkpt lat="-37.8485" lon="145.35187000000002">
    <ele>430.90000000000003</ele>
   </trkpt>
   <trkpt lat="-37.848180000000006" lon="145.35122">
    <ele>425.59000000000003</ele>
   </trkpt>
   <trkpt lat="-37.84792" lon="145.35087000000001">
    <ele>422.59000000000003</ele>
   </trkpt>
   <trkpt lat="-37.84767" lon="145.35063000000002">
    <ele>421.94000000000005</ele>
   </trkpt>
   <trkpt lat="-37.8472" lon="145.35029">
    <ele>417.79</ele>
   </trkpt>
   <trkpt lat="-37.84695" lon="145.35014">
    <ele>416.33000000000004</ele>
   </trkpt>
   <trkpt lat="-37.84678" lon="145.35007000000002">
    <ele>416.21000000000004</ele>
   </trkpt>
   <trkpt lat="-37.84653" lon="145.35004">
    <ele>417.45000000000005</ele>
   </trkpt>
   <trkpt lat="-37.845980000089995" lon="145.35005500010948">
    <ele>423.15000000000003</ele>
   </trkpt>
   <trkpt lat="-37.84543" lon="145.35007000000002">
    <ele>424.19</ele>
   </trkpt>
   <trkpt lat="-37.844934999841115" lon="145.35014000049526">
    <ele>427.98</ele>
   </trkpt>
   <trkpt lat="-37.844440000000006" lon="145.35021">
    <ele>432.97</ele>
   </trkpt>
   <trkpt lat="-37.84409" lon="145.35022">
    <ele>435.08000000000004</ele>
   </trkpt>
   <trkpt lat="-37.84355" lon="145.35018000000002">
    <ele>438.3</ele>
   </trkpt>
   <trkpt lat="-37.84306" lon="145.35005">
    <ele>440.71000000000004</ele>
   </trkpt>
   <trkpt lat="-37.84262500001824" lon="145.3498699988892">
    <ele>443.64000000000004</ele>
   </trkpt>
   <trkpt lat="-37.84219" lon="145.34969">
    <ele>447.95</ele>
   </trkpt>
   <trkpt lat="-37.84196" lon="145.34958">
    <ele>449.72</ele>
   </trkpt>
   <trkpt lat="-37.84179" lon="145.34944000000002">
    <ele>450.43000000000006</ele>
   </trkpt>
   <trkpt lat="-37.84176" lon="145.34928000000002">
    <ele>450.43000000000006</ele>
   </trkpt>
   <trkpt lat="-37.841860000000004" lon="145.34887">
    <ele>439.61000000000007</ele>
   </trkpt>
   <trkpt lat="-37.842000000000006" lon="145.34844">
    <ele>441.44000000000005</ele>
   </trkpt>
   <trkpt lat="-37.84221" lon="145.34804000000003">
    <ele>442.69</ele>
   </trkpt>
   <trkpt lat="-37.8423" lon="145.34775000000002">
    <ele>443.83000000000004</ele>
   </trkpt>
   <trkpt lat="-37.84232" lon="145.34731000000002">
    <ele>447.18</ele>
   </trkpt>
   <trkpt lat="-37.84228" lon="145.347">
    <ele>448.45</ele>
   </trkpt>
   <trkpt lat="-37.84228" lon="145.3468">
    <ele>449.61</ele>
   </trkpt>
   <trkpt lat="-37.8423" lon="145.34661">
    <ele>450.13</ele>
   </trkpt>
   <trkpt lat="-37.84239" lon="145.34612">
    <ele>452.11</ele>
   </trkpt>
   <trkpt lat="-37.84241" lon="145.34594">
    <ele>452.93000000000006</ele>
   </trkpt>
   <trkpt lat="-37.84239" lon="145.34554">
    <ele>454.56</ele>
   </trkpt>
   <trkpt lat="-37.8423" lon="145.34518">
    <ele>455.72</ele>
   </trkpt>
   <trkpt lat="-37.84221" lon="145.34492">
    <ele>456.14000000000004</ele>
   </trkpt>
   <trkpt lat="-37.842040000000004" lon="145.34463000000002">
    <ele>456.5</ele>
   </trkpt>
   <trkpt lat="-37.84183" lon="145.34441">
    <ele>457.11</ele>
   </trkpt>
   <trkpt lat="-37.84163" lon="145.34426000000002">
    <ele>458.48</ele>
   </trkpt>
   <trkpt lat="-37.84125" lon="145.34408000000002">
    <ele>459.85</ele>
   </trkpt>
   <trkpt lat="-37.84091" lon="145.34394">
    <ele>463.4200000000001</ele>
   </trkpt>
   <trkpt lat="-37.84057" lon="145.34386">
    <ele>466.02000000000004</ele>
   </trkpt>
   <trkpt lat="-37.84024" lon="145.34384">
    <ele>468.85</ele>
   </trkpt>
   <trkpt lat="-37.84028" lon="145.34392000000003">
    <ele>470.27000000000004</ele>
   </trkpt>
   <trkpt lat="-37.84051" lon="145.34409000000002">
    <ele>474.26</ele>
   </trkpt>
   <trkpt lat="-37.84066" lon="145.34425000000002">
    <ele>477.4200000000001</ele>
   </trkpt>
   <trkpt lat="-37.8412" lon="145.34506000000002">
    <ele>495.89000000000004</ele>
   </trkpt>
   <trkpt lat="-37.84122" lon="145.34513">
    <ele>495.89000000000004</ele>
   </trkpt>
   <trkpt lat="-37.84122" lon="145.34518">
    <ele>495.89000000000004</ele>
   </trkpt>
   <trkpt lat="-37.84118" lon="145.34518">
    <ele>495.89000000000004</ele>
   </trkpt>
   <trkpt lat="-37.84082" lon="145.34505000000001">
    <ele>502.16</ele>
   </trkpt>
   <trkpt lat="-37.84053" lon="145.34499000000002">
    <ele>505.63</ele>
   </trkpt>
   <trkpt lat="-37.8401" lon="145.34494">
    <ele>515.2500000000001</ele>
   </trkpt>
   <trkpt lat="-37.83979" lon="145.34494">
    <ele>518.4700000000001</ele>
   </trkpt>
   <trkpt lat="-37.83977" lon="145.34496000000001">
    <ele>518.4700000000001</ele>
   </trkpt>
   <trkpt lat="-37.83977" lon="145.34502">
    <ele>518.4700000000001</ele>
   </trkpt>
   <trkpt lat="-37.84004" lon="145.34539">
    <ele>530.4300000000001</ele>
   </trkpt>
   <trkpt lat="-37.84035" lon="145.34608">
    <ele>540.95</ele>
   </trkpt>
   <trkpt lat="-37.84035" lon="145.34613000000002">
    <ele>540.95</ele>
   </trkpt>
   <trkpt lat="-37.84033" lon="145.34614000000002">
    <ele>540.95</ele>
   </trkpt>
   <trkpt lat="-37.84013" lon="145.34605000000002">
    <ele>544.5500000000001</ele>
   </trkpt>
   <trkpt lat="-37.84004" lon="145.34603">
    <ele>545.34</ele>
   </trkpt>
   <trkpt lat="-37.83979" lon="145.34601">
    <ele>550.52</ele>
   </trkpt>
   <trkpt lat="-37.83912" lon="145.34611">
    <ele>564.64</ele>
   </trkpt>
   <trkpt lat="-37.83896" lon="145.34608">
    <ele>567.0</ele>
   </trkpt>
   <trkpt lat="-37.83872" lon="145.34589000000003">
    <ele>566.58</ele>
   </trkpt>
   <trkpt lat="-37.83856" lon="145.34584">
    <ele>568.08</ele>
   </trkpt>
   <trkpt lat="-37.83843" lon="145.34587000000002">
    <ele>571.07</ele>
   </trkpt>
   <trkpt lat="-37.83834" lon="145.34596000000002">
    <ele>573.73</ele>
   </trkpt>
   <trkpt lat="-37.83813" lon="145.34605000000002">
    <ele>580.73</ele>
   </trkpt>
   <trkpt lat="-37.83791" lon="145.34608">
    <ele>587.4</ele>
   </trkpt>
   <trkpt lat="-37.83771" lon="145.34619">
    <ele>593.61</ele>
   </trkpt>
   <trkpt lat="-37.8376" lon="145.34623000000002">
    <ele>595.7300000000001</ele>
   </trkpt>
   <trkpt lat="-37.83733" lon="145.34626">
    <ele>600.99</ele>
   </trkpt>
   <trkpt lat="-37.83726" lon="145.34629">
    <ele>603.0300000000001</ele>
   </trkpt>
   <trkpt lat="-37.83706" lon="145.34649000000002">
    <ele>608.5500000000001</ele>
   </trkpt>
   <trkpt lat="-37.83699" lon="145.34654">
    <ele>610.33</ele>
   </trkpt>
   <trkpt lat="-37.83681" lon="145.34658000000002">
    <ele>612.34</ele>
   </trkpt>
   <trkpt lat="-37.83668" lon="145.34659000000002">
    <ele>612.4200000000001</ele>
   </trkpt>
   <trkpt lat="-37.8363" lon="145.34654">
    <ele>608.3900000000001</ele>
   </trkpt>
   <trkpt lat="-37.83601" lon="145.34655">
    <ele>605.16</ele>
   </trkpt>
   <trkpt lat="-37.83574" lon="145.34658000000002">
    <ele>602.2900000000001</ele>
   </trkpt>
   <trkpt lat="-37.835150000000006" lon="145.34676000000002">
    <ele>599.38</ele>
   </trkpt>
   <trkpt lat="-37.83491" lon="145.3468">
    <ele>598.86</ele>
   </trkpt>
   <trkpt lat="-37.8344" lon="145.34703000000002">
    <ele>598.83</ele>
   </trkpt>
   <trkpt lat="-37.83413" lon="145.34727">
    <ele>599.32</ele>
   </trkpt>
   <trkpt lat="-37.83379500086186" lon="145.3476750016354">
    <ele>599.26</ele>
   </trkpt>
   <trkpt lat="-37.83346" lon="145.34808">
    <ele>597.0000000000001</ele>
   </trkpt>
   <trkpt lat="-37.83339" lon="145.34822">
    <ele>597.02</ele>
   </trkpt>
   <trkpt lat="-37.83334" lon="145.3484">
    <ele>597.2700000000001</ele>
   </trkpt>
   <trkpt lat="-37.83321" lon="145.34915">
    <ele>592.9000000000001</ele>
   </trkpt>
   <trkpt lat="-37.833110000000005" lon="145.34921">
    <ele>591.8000000000001</ele>
   </trkpt>
   <trkpt lat="-37.83296" lon="145.34934">
    <ele>589.7800000000001</ele>
   </trkpt>
   <trkpt lat="-37.83287" lon="145.34947000000003">
    <ele>588.6</ele>
   </trkpt>
   <trkpt lat="-37.83274" lon="145.34954000000002">
    <ele>588.1700000000001</ele>
   </trkpt>
   <trkpt lat="-37.83267" lon="145.34969">
    <ele>587.59</ele>
   </trkpt>
   <trkpt lat="-37.83231" lon="145.35010000000003">
    <ele>579.1400000000001</ele>
   </trkpt>
   <trkpt lat="-37.83196" lon="145.35046">
    <ele>571.98</ele>
   </trkpt>
   <trkpt lat="-37.83162" lon="145.35071000000002">
    <ele>563.6800000000001</ele>
   </trkpt>
   <trkpt lat="-37.83122" lon="145.35091">
    <ele>557.74</ele>
   </trkpt>
   <trkpt lat="-37.83093" lon="145.35097000000002">
    <ele>557.98</ele>
   </trkpt>
   <trkpt lat="-37.83066" lon="145.35092">
    <ele>560.06</ele>
   </trkpt>
   <trkpt lat="-37.83032" lon="145.35069000000001">
    <ele>562.35</ele>
   </trkpt>
   <trkpt lat="-37.82999" lon="145.35055">
    <ele>565.64</ele>
   </trkpt>
   <trkpt lat="-37.82963" lon="145.35047">
    <ele>568.2400000000001</ele>
   </trkpt>
   <trkpt lat="-37.82943" lon="145.35047">
    <ele>570.8100000000001</ele>
   </trkpt>
   <trkpt lat="-37.82911" lon="145.35060000000001">
    <ele>576.8000000000001</ele>
   </trkpt>
   <trkpt lat="-37.828629999903704" lon="145.35060500003354">
    <ele>578.79</ele>
   </trkpt>
   <trkpt lat="-37.82815" lon="145.35061000000002">
    <ele>575.9300000000001</ele>
   </trkpt>
   <trkpt lat="-37.82758000003291" lon="145.35072500089296">
    <ele>577.0300000000001</ele>
   </trkpt>
   <trkpt lat="-37.82701" lon="145.35084">
    <ele>578.85</ele>
   </trkpt>
   <trkpt lat="-37.82658" lon="145.35101">
    <ele>578.23</ele>
   </trkpt>
   <trkpt lat="-37.82625" lon="145.35122">
    <ele>579.95</ele>
   </trkpt>
   <trkpt lat="-37.826240000000006" lon="145.35123000000002">
    <ele>579.95</ele>
   </trkpt>
   <trkpt lat="-37.82596" lon="145.35162000000003">
    <ele>582.92</ele>
   </trkpt>
   <trkpt lat="-37.82558" lon="145.35231000000002">
    <ele>586.0500000000001</ele>
   </trkpt>
   <trkpt lat="-37.82551" lon="145.35260000000002">
    <ele>586.77</ele>
   </trkpt>
   <trkpt lat="-37.82547" lon="145.35287000000002">
    <ele>587.4</ele>
   </trkpt>
   <trkpt lat="-37.82555" lon="145.35337">
    <ele>587.0600000000001</ele>
   </trkpt>
   <trkpt lat="-37.82544" lon="145.35431">
    <ele>578.5300000000001</ele>
   </trkpt>
   <trkpt lat="-37.82535" lon="145.35486">
    <ele>575.61</ele>
   </trkpt>
   <trkpt lat="-37.82531" lon="145.35505">
    <ele>574.8199999999999</ele>
   </trkpt>
   <trkpt lat="-37.82529" lon="145.35529000000002">
    <ele>574.1400000000001</ele>
   </trkpt>
   <trkpt lat="-37.82529" lon="145.35569">
    <ele>573.49</ele>
   </trkpt>
   <trkpt lat="-37.82536" lon="145.35629">
    <ele>569.8100000000001</ele>
   </trkpt>
   <trkpt lat="-37.825320000000005" lon="145.35658">
    <ele>568.01</ele>
   </trkpt>
   <trkpt lat="-37.82504" lon="145.35681000000002">
    <ele>562.45</ele>
   </trkpt>
   <trkpt lat="-37.82493" lon="145.35696000000002">
    <ele>561.0500000000001</ele>
   </trkpt>
   <trkpt lat="-37.82419" lon="145.35738">
    <ele>548.88</ele>
   </trkpt>
   <trkpt lat="-37.82405" lon="145.35753000000003">
    <ele>548.9200000000001</ele>
   </trkpt>
   <trkpt lat="-37.8237" lon="145.35811">
    <ele>552.4300000000001</ele>
   </trkpt>
   <trkpt lat="-37.82334" lon="145.3588">
    <ele>551.13</ele>
   </trkpt>
   <trkpt lat="-37.82314" lon="145.35915">
    <ele>545.27</ele>
   </trkpt>
   <trkpt lat="-37.82291" lon="145.35968000000003">
    <ele>544.48</ele>
   </trkpt>
   <trkpt lat="-37.82251" lon="145.36048000000002">
    <ele>541.15</ele>
   </trkpt>
   <trkpt lat="-37.82247" lon="145.36068">
    <ele>542.34</ele>
   </trkpt>
   <trkpt lat="-37.82251" lon="145.36086">
    <ele>544.97</ele>
   </trkpt>
   <trkpt lat="-37.82287" lon="145.36139">
    <ele>553.7800000000001</ele>
   </trkpt>
   <trkpt lat="-37.82285" lon="145.36151">
    <ele>554.0500000000001</ele>
   </trkpt>
   <trkpt lat="-37.82278" lon="145.36161">
    <ele>554.28</ele>
   </trkpt>
   <trkpt lat="-37.82251" lon="145.36179">
    <ele>554.88</ele>
   </trkpt>
   <trkpt lat="-37.822390000000006" lon="145.36191000000002">
    <ele>555.13</ele>
   </trkpt>
   <trkpt lat="-37.82222" lon="145.36195">
    <ele>555.59</ele>
   </trkpt>
   <trkpt lat="-37.82186" lon="145.36196">
    <ele>555.47</ele>
   </trkpt>
   <trkpt lat="-37.82168" lon="145.36193">
    <ele>554.76</ele>
   </trkpt>
   <trkpt lat="-37.82114" lon="145.36204">
    <ele>546.7500000000001</ele>
   </trkpt>
   <trkpt lat="-37.82092" lon="145.36214">
    <ele>540.47</ele>
   </trkpt>
   <trkpt lat="-37.82016" lon="145.36235000000002">
    <ele>514.4000000000001</ele>
   </trkpt>
   <trkpt lat="-37.81996" lon="145.36259">
    <ele>508.53999999999996</ele>
   </trkpt>
   <trkpt lat="-37.81976" lon="145.36298000000002">
    <ele>506.31</ele>
   </trkpt>
   <trkpt lat="-37.81969" lon="145.36317000000003">
    <ele>506.28000000000003</ele>
   </trkpt>
   <trkpt lat="-37.81958" lon="145.36325000000002">
    <ele>505.09000000000003</ele>
   </trkpt>
   <trkpt lat="-37.81949" lon="145.36302">
    <ele>495.76000000000005</ele>
   </trkpt>
   <trkpt lat="-37.81931" lon="145.36299000000002">
    <ele>487.68000000000006</ele>
   </trkpt>
   <trkpt lat="-37.81877" lon="145.36299000000002">
    <ele>471.07000000000005</ele>
   </trkpt>
   <trkpt lat="-37.8183" lon="145.36328">
    <ele>465.37000000000006</ele>
   </trkpt>
   <trkpt lat="-37.817980000000006" lon="145.36344000000003">
    <ele>465.49</ele>
   </trkpt>
   <trkpt lat="-37.81779" lon="145.36370000000002">
    <ele>466.36000000000007</ele>
   </trkpt>
   <trkpt lat="-37.81765" lon="145.36397000000002">
    <ele>466.44</ele>
   </trkpt>
   <trkpt lat="-37.817600000000006" lon="145.36438">
    <ele>467.95000000000005</ele>
   </trkpt>
   <trkpt lat="-37.817600000000006" lon="145.36507">
    <ele>470.79</ele>
   </trkpt>
   <trkpt lat="-37.8177" lon="145.36568000000003">
    <ele>473.81000000000006</ele>
   </trkpt>
   <trkpt lat="-37.81774" lon="145.36581">
    <ele>474.85</ele>
   </trkpt>
   <trkpt lat="-37.81774" lon="145.36595">
    <ele>475.15000000000003</ele>
   </trkpt>
   <trkpt lat="-37.81765" lon="145.36620000000002">
    <ele>475.57000000000005</ele>
   </trkpt>
   <trkpt lat="-37.817530000000005" lon="145.36663000000001">
    <ele>474.13000000000005</ele>
   </trkpt>
   <trkpt lat="-37.81752" lon="145.36676">
    <ele>472.75000000000006</ele>
   </trkpt>
   <trkpt lat="-37.81743" lon="145.36671">
    <ele>472.17</ele>
   </trkpt>
   <trkpt lat="-37.81679000004122" lon="145.36669999991395">
    <ele>466.03000000000003</ele>
   </trkpt>
   <trkpt lat="-37.81615" lon="145.36669">
    <ele>458.31000000000006</ele>
   </trkpt>
   <trkpt lat="-37.81573" lon="145.36681000000002">
    <ele>453.6600000000001</ele>
   </trkpt>
   <trkpt lat="-37.8155" lon="145.36708000000002">
    <ele>451.84000000000003</ele>
   </trkpt>
   <trkpt lat="-37.81537" lon="145.36716">
    <ele>450.94000000000005</ele>
   </trkpt>
   <trkpt lat="-37.81508" lon="145.36724">
    <ele>451.56</ele>
   </trkpt>
   <trkpt lat="-37.81488" lon="145.36741">
    <ele>454.0</ele>
   </trkpt>
   <trkpt lat="-37.814710000000005" lon="145.36781000000002">
    <ele>457.74</ele>
   </trkpt>
   <trkpt lat="-37.81459" lon="145.36827000000002">
    <ele>462.77</ele>
   </trkpt>
   <trkpt lat="-37.81459" lon="145.36878000000002">
    <ele>465.9200000000001</ele>
   </trkpt>
   <trkpt lat="-37.81467" lon="145.36967">
    <ele>473.78000000000003</ele>
   </trkpt>
   <trkpt lat="-37.81481" lon="145.37055">
    <ele>481.36000000000007</ele>
   </trkpt>
   <trkpt lat="-37.81479" lon="145.37143">
    <ele>478.74000000000007</ele>
   </trkpt>
   <trkpt lat="-37.81461" lon="145.37204">
    <ele>473.71000000000004</ele>
   </trkpt>
   <trkpt lat="-37.81441" lon="145.37232">
    <ele>471.56</ele>
   </trkpt>
   <trkpt lat="-37.81396" lon="145.37239000000002">
    <ele>470.07000000000005</ele>
   </trkpt>
   <trkpt lat="-37.81358" lon="145.37265000000002">
    <ele>467.25000000000006</ele>
   </trkpt>
   <trkpt lat="-37.81331" lon="145.37307">
    <ele>465.8</ele>
   </trkpt>
   <trkpt lat="-37.81349" lon="145.37412">
    <ele>464.25000000000006</ele>
   </trkpt>
   <trkpt lat="-37.81362" lon="145.37471000000002">
    <ele>461.5400000000001</ele>
   </trkpt>
   <trkpt lat="-37.81374667137659" lon="145.37545666408693">
    <ele>454.32000000000005</ele>
   </trkpt>
   <trkpt lat="-37.813873338040274" lon="145.3762033307359">
    <ele>448.01</ele>
   </trkpt>
   <trkpt lat="-37.814" lon="145.37695000000002">
    <ele>442.47</ele>
   </trkpt>
   <trkpt lat="-37.81449000142194" lon="145.37752999615054">
    <ele>436.05</ele>
   </trkpt>
   <trkpt lat="-37.814980000000006" lon="145.37811000000002">
    <ele>430.59000000000003</ele>
   </trkpt>
   <trkpt lat="-37.81523" lon="145.37830000000002">
    <ele>430.31</ele>
   </trkpt>
   <trkpt lat="-37.81566" lon="145.37857000000002">
    <ele>431.36</ele>
   </trkpt>
   <trkpt lat="-37.81579" lon="145.3788">
    <ele>431.88000000000005</ele>
   </trkpt>
   <trkpt lat="-37.816" lon="145.37896">
    <ele>432.79</ele>
   </trkpt>
   <trkpt lat="-37.81613" lon="145.37887">
    <ele>433.94000000000005</ele>
   </trkpt>
   <trkpt lat="-37.81617" lon="145.37872000000002">
    <ele>433.94000000000005</ele>
   </trkpt>
   <trkpt lat="-37.81629" lon="145.37849">
    <ele>435.53000000000003</ele>
   </trkpt>
   <trkpt lat="-37.81642" lon="145.37833">
    <ele>436.42</ele>
   </trkpt>
   <trkpt lat="-37.81656" lon="145.37825">
    <ele>436.50000000000006</ele>
   </trkpt>
   <trkpt lat="-37.81676" lon="145.37821000000002">
    <ele>436.06000000000006</ele>
   </trkpt>
   <trkpt lat="-37.81696" lon="145.37828000000002">
    <ele>434.89000000000004</ele>
   </trkpt>
   <trkpt lat="-37.81727" lon="145.37852">
    <ele>432.72</ele>
   </trkpt>
   <trkpt lat="-37.81743" lon="145.37873000000002">
    <ele>431.27000000000004</ele>
   </trkpt>
   <trkpt lat="-37.81752" lon="145.37898">
    <ele>430.15000000000003</ele>
   </trkpt>
   <trkpt lat="-37.817550000000004" lon="145.37901000000002">
    <ele>430.15000000000003</ele>
   </trkpt>
   <trkpt lat="-37.817460000000004" lon="145.37920000000003">
    <ele>428.35</ele>
   </trkpt>
  </trkseg>
 </trk>
</gpx>
