<?xml version="1.0" encoding="UTF-8"?>
<gpx creator="StravaGPX" version="1.1" xmlns="http://www.topografix.com/GPX/1/1" xmlns:xsi="http://www.w3.org/2001/XMLSchema-instance" xsi:schemaLocation="http://www.topografix.com/GPX/1/1 http://www.topografix.com/GPX/1/1/gpx.xsd">
 <metadata>
  <name>Sunday 18 Nov 2023 - 14k</name>
  <author>
   <name>john csorgo</name>
  </author>
  <copyright author="OpenStreetMap contributors">
   <year>2020</year>
   <license>https://www.openstreetmap.org/copyright</license>
  </copyright>
 </metadata>
 <trk>
  <name>Sunday 18 Nov 2023 - 14k</name>
  <link href=""/>
  <type>running</type>
  <trkseg>
   <trkpt lat="-37.862820000000006" lon="145.35372">
    <ele>479.15000000000003</ele>
   </trkpt>
   <trkpt lat="-37.86229" lon="145.35409">
    <ele>480.84000000000003</ele>
   </trkpt>
   <trkpt lat="-37.86198" lon="145.35437000000002">
    <ele>482.7</ele>
   </trkpt>
   <trkpt lat="-37.86153" lon="145.35481000000001">
    <ele>486.81</ele>
   </trkpt>
   <trkpt lat="-37.86108" lon="145.35531">
    <ele>489.68000000000006</ele>
   </trkpt>
   <trkpt lat="-37.86086" lon="145.35562000000002">
    <ele>491.53000000000003</ele>
   </trkpt>
   <trkpt lat="-37.86079" lon="145.35580000000002">
    <ele>491.53000000000003</ele>
   </trkpt>
   <trkpt lat="-37.86079" lon="145.35600000000002">
    <ele>491.82000000000005</ele>
   </trkpt>
   <trkpt lat="-37.86084" lon="145.3562">
    <ele>492.15000000000003</ele>
   </trkpt>
   <trkpt lat="-37.86074" lon="145.3561">
    <ele>493.91</ele>
   </trkpt>
   <trkpt lat="-37.86063" lon="145.35594">
    <ele>498.95000000000005</ele>
   </trkpt>
   <trkpt lat="-37.86061" lon="145.35545000000002">
    <ele>511.0800000000001</ele>
   </trkpt>
   <trkpt lat="-37.86059" lon="145.35531">
    <ele>512.12</ele>
   </trkpt>
   <trkpt lat="-37.860330000000005" lon="145.35485">
    <ele>515.14</ele>
   </trkpt>
   <trkpt lat="-37.860060000000004" lon="145.35438000000002">
    <ele>512.81</ele>
   </trkpt>
   <trkpt lat="-37.85978" lon="145.35421000000002">
    <ele>513.72</ele>
   </trkpt>
   <trkpt lat="-37.85956" lon="145.35415">
    <ele>518.0100000000001</ele>
   </trkpt>
   <trkpt lat="-37.85942" lon="145.35421000000002">
    <ele>522.64</ele>
   </trkpt>
   <trkpt lat="-37.85915" lon="145.35439000000002">
    <ele>532.8000000000001</ele>
   </trkpt>
   <trkpt lat="-37.85889" lon="145.35466000000002">
    <ele>539.49</ele>
   </trkpt>
   <trkpt lat="-37.85877" lon="145.35487">
    <ele>544.48</ele>
   </trkpt>
   <trkpt lat="-37.85866" lon="145.35498">
    <ele>549.12</ele>
   </trkpt>
   <trkpt lat="-37.85846" lon="145.35508000000002">
    <ele>556.18</ele>
   </trkpt>
   <trkpt lat="-37.85826" lon="145.35524">
    <ele>560.69</ele>
   </trkpt>
   <trkpt lat="-37.85792" lon="145.35547000000003">
    <ele>569.85</ele>
   </trkpt>
   <trkpt lat="-37.85774" lon="145.3557">
    <ele>574.1700000000001</ele>
   </trkpt>
   <trkpt lat="-37.85765" lon="145.35573000000002">
    <ele>575.0200000000001</ele>
   </trkpt>
   <trkpt lat="-37.85756000000001" lon="145.35572000000002">
    <ele>575.59</ele>
   </trkpt>
   <trkpt lat="-37.85745" lon="145.35598000000002">
    <ele>573.67</ele>
   </trkpt>
   <trkpt lat="-37.85752" lon="145.35645000000002">
    <ele>574.2400000000001</ele>
   </trkpt>
   <trkpt lat="-37.85748" lon="145.35684">
    <ele>574.38</ele>
   </trkpt>
   <trkpt lat="-37.85721" lon="145.35766">
    <ele>575.2400000000001</ele>
   </trkpt>
   <trkpt lat="-37.85711500265833" lon="145.35845500114274">
    <ele>582.1</ele>
   </trkpt>
   <trkpt lat="-37.857020000000006" lon="145.35925">
    <ele>591.6</ele>
   </trkpt>
   <trkpt lat="-37.856880000000004" lon="145.35975000000002">
    <ele>598.5500000000001</ele>
   </trkpt>
   <trkpt lat="-37.85667" lon="145.36065000000002">
    <ele>600.1500000000001</ele>
   </trkpt>
   <trkpt lat="-37.85663" lon="145.36112">
    <ele>595.7800000000001</ele>
   </trkpt>
   <trkpt lat="-37.8564" lon="145.36206">
    <ele>584.0500000000001</ele>
   </trkpt>
   <trkpt lat="-37.8564" lon="145.36204">
    <ele>584.11</ele>
   </trkpt>
   <trkpt lat="-37.856280000000005" lon="145.36256">
    <ele>580.22</ele>
   </trkpt>
   <trkpt lat="-37.85622" lon="145.36302">
    <ele>577.62</ele>
   </trkpt>
   <trkpt lat="-37.85604" lon="145.36396000000002">
    <ele>572.73</ele>
   </trkpt>
   <trkpt lat="-37.856030000000004" lon="145.36413000000002">
    <ele>572.58</ele>
   </trkpt>
   <trkpt lat="-37.856" lon="145.36419">
    <ele>572.58</ele>
   </trkpt>
   <trkpt lat="-37.855940000000004" lon="145.36425">
    <ele>569.64</ele>
   </trkpt>
   <trkpt lat="-37.855740004063435" lon="145.36523000264646">
    <ele>570.1400000000001</ele>
   </trkpt>
   <trkpt lat="-37.855540000000005" lon="145.36621000000002">
    <ele>571.8199999999999</ele>
   </trkpt>
   <trkpt lat="-37.85536500349598" lon="145.3671200021889">
    <ele>572.5600000000001</ele>
   </trkpt>
   <trkpt lat="-37.85519" lon="145.36803">
    <ele>572.21</ele>
   </trkpt>
   <trkpt lat="-37.85499" lon="145.36845000000002">
    <ele>571.5100000000001</ele>
   </trkpt>
   <trkpt lat="-37.854580000000006" lon="145.36896000000002">
    <ele>571.5600000000001</ele>
   </trkpt>
   <trkpt lat="-37.85445" lon="145.36905000000002">
    <ele>571.72</ele>
   </trkpt>
   <trkpt lat="-37.85421" lon="145.36937">
    <ele>571.9399999999999</ele>
   </trkpt>
   <trkpt lat="-37.85412500393108" lon="145.37033500118534">
    <ele>574.72</ele>
   </trkpt>
   <trkpt lat="-37.854040000000005" lon="145.37130000000002">
    <ele>578.3600000000001</ele>
   </trkpt>
   <trkpt lat="-37.854020000000006" lon="145.37171">
    <ele>579.2</ele>
   </trkpt>
   <trkpt lat="-37.85405" lon="145.37220000000002">
    <ele>579.9300000000001</ele>
   </trkpt>
   <trkpt lat="-37.85414" lon="145.37239000000002">
    <ele>579.87</ele>
   </trkpt>
   <trkpt lat="-37.8543" lon="145.37263000000002">
    <ele>579.44</ele>
   </trkpt>
   <trkpt lat="-37.85448" lon="145.37287">
    <ele>579.1</ele>
   </trkpt>
   <trkpt lat="-37.85484500071746" lon="145.3732699980644">
    <ele>578.74</ele>
   </trkpt>
   <trkpt lat="-37.85521" lon="145.37367">
    <ele>578.88</ele>
   </trkpt>
   <trkpt lat="-37.85531" lon="145.37379">
    <ele>578.88</ele>
   </trkpt>
   <trkpt lat="-37.85535" lon="145.37377">
    <ele>578.5400000000001</ele>
   </trkpt>
   <trkpt lat="-37.85567500077416" lon="145.37416499839765">
    <ele>578.57</ele>
   </trkpt>
   <trkpt lat="-37.856" lon="145.37456">
    <ele>577.0200000000001</ele>
   </trkpt>
   <trkpt lat="-37.856260000000006" lon="145.37480000000002">
    <ele>574.26</ele>
   </trkpt>
   <trkpt lat="-37.85622" lon="145.37490000000003">
    <ele>574.95</ele>
   </trkpt>
   <trkpt lat="-37.85604" lon="145.37508000000003">
    <ele>572.9200000000001</ele>
   </trkpt>
   <trkpt lat="-37.85571" lon="145.37552000000002">
    <ele>570.3900000000001</ele>
   </trkpt>
   <trkpt lat="-37.85533" lon="145.37614000000002">
    <ele>564.52</ele>
   </trkpt>
   <trkpt lat="-37.85501" lon="145.37684000000002">
    <ele>553.47</ele>
   </trkpt>
   <trkpt lat="-37.854960000000005" lon="145.37689">
    <ele>553.47</ele>
   </trkpt>
   <trkpt lat="-37.85468" lon="145.37728">
    <ele>547.7700000000001</ele>
   </trkpt>
   <trkpt lat="-37.85427" lon="145.37793000000002">
    <ele>534.32</ele>
   </trkpt>
   <trkpt lat="-37.854000000000006" lon="145.37843">
    <ele>526.1</ele>
   </trkpt>
   <trkpt lat="-37.854020000000006" lon="145.3784">
    <ele>526.5300000000001</ele>
   </trkpt>
   <trkpt lat="-37.85387" lon="145.37866000000002">
    <ele>522.85</ele>
   </trkpt>
   <trkpt lat="-37.85351" lon="145.37909000000002">
    <ele>515.45</ele>
   </trkpt>
   <trkpt lat="-37.85336" lon="145.37931">
    <ele>513.09</ele>
   </trkpt>
   <trkpt lat="-37.853080000000006" lon="145.37959">
    <ele>512.7900000000001</ele>
   </trkpt>
   <trkpt lat="-37.85293" lon="145.37962000000002">
    <ele>512.2500000000001</ele>
   </trkpt>
   <trkpt lat="-37.85282" lon="145.3796">
    <ele>511.61</ele>
   </trkpt>
   <trkpt lat="-37.85251" lon="145.37935000000002">
    <ele>509.46000000000004</ele>
   </trkpt>
   <trkpt lat="-37.85228" lon="145.37909000000002">
    <ele>508.07</ele>
   </trkpt>
   <trkpt lat="-37.85201" lon="145.37857000000002">
    <ele>505.70000000000005</ele>
   </trkpt>
   <trkpt lat="-37.85188" lon="145.37808">
    <ele>507.3500000000001</ele>
   </trkpt>
   <trkpt lat="-37.85172" lon="145.37773">
    <ele>510.21000000000004</ele>
   </trkpt>
   <trkpt lat="-37.85157" lon="145.3776">
    <ele>511.04</ele>
   </trkpt>
   <trkpt lat="-37.85121" lon="145.37741000000003">
    <ele>513.26</ele>
   </trkpt>
   <trkpt lat="-37.85085" lon="145.37730000000002">
    <ele>512.45</ele>
   </trkpt>
   <trkpt lat="-37.85047" lon="145.37738000000002">
    <ele>509.29</ele>
   </trkpt>
   <trkpt lat="-37.85029" lon="145.3775">
    <ele>507.73</ele>
   </trkpt>
   <trkpt lat="-37.84964" lon="145.37782">
    <ele>500.5400000000001</ele>
   </trkpt>
   <trkpt lat="-37.84951" lon="145.37792000000002">
    <ele>497.38000000000005</ele>
   </trkpt>
   <trkpt lat="-37.8491" lon="145.37814">
    <ele>492.01000000000005</ele>
   </trkpt>
   <trkpt lat="-37.84848" lon="145.3784">
    <ele>486.30000000000007</ele>
   </trkpt>
   <trkpt lat="-37.84825" lon="145.37846000000002">
    <ele>485.26</ele>
   </trkpt>
   <trkpt lat="-37.84794" lon="145.37849">
    <ele>483.37</ele>
   </trkpt>
   <trkpt lat="-37.84774" lon="145.37846000000002">
    <ele>482.53000000000003</ele>
   </trkpt>
   <trkpt lat="-37.8476" lon="145.37832">
    <ele>482.55</ele>
   </trkpt>
   <trkpt lat="-37.84747" lon="145.37811000000002">
    <ele>482.98</ele>
   </trkpt>
   <trkpt lat="-37.84742" lon="145.3778">
    <ele>482.96000000000004</ele>
   </trkpt>
   <trkpt lat="-37.84729" lon="145.37757000000002">
    <ele>481.81</ele>
   </trkpt>
   <trkpt lat="-37.8468" lon="145.37722000000002">
    <ele>472.99</ele>
   </trkpt>
   <trkpt lat="-37.84666" lon="145.37718">
    <ele>471.49</ele>
   </trkpt>
   <trkpt lat="-37.84646" lon="145.37716">
    <ele>466.49</ele>
   </trkpt>
   <trkpt lat="-37.84633" lon="145.37718">
    <ele>465.02000000000004</ele>
   </trkpt>
   <trkpt lat="-37.8461" lon="145.37725">
    <ele>461.75000000000006</ele>
   </trkpt>
   <trkpt lat="-37.8459" lon="145.37727">
    <ele>458.11</ele>
   </trkpt>
   <trkpt lat="-37.84582" lon="145.37730000000002">
    <ele>455.48</ele>
   </trkpt>
   <trkpt lat="-37.84523" lon="145.37737">
    <ele>455.48</ele>
   </trkpt>
   <trkpt lat="-37.84492" lon="145.37729000000002">
    <ele>455.48</ele>
   </trkpt>
   <trkpt lat="-37.84431" lon="145.37730000000002">
    <ele>455.48</ele>
   </trkpt>
   <trkpt lat="-37.84384" lon="145.37723000000003">
    <ele>455.48</ele>
   </trkpt>
   <trkpt lat="-37.8436" lon="145.37728">
    <ele>455.48</ele>
   </trkpt>
   <trkpt lat="-37.84346" lon="145.37734">
    <ele>455.48</ele>
   </trkpt>
   <trkpt lat="-37.84333" lon="145.37742">
    <ele>455.48</ele>
   </trkpt>
   <trkpt lat="-37.84326" lon="145.37756000000002">
    <ele>455.48</ele>
   </trkpt>
   <trkpt lat="-37.84324" lon="145.37767000000002">
    <ele>364.67</ele>
   </trkpt>
   <trkpt lat="-37.84326" lon="145.3778">
    <ele>364.67</ele>
   </trkpt>
   <trkpt lat="-37.84333" lon="145.37800000000001">
    <ele>364.67</ele>
   </trkpt>
   <trkpt lat="-37.84375" lon="145.37878">
    <ele>364.67</ele>
   </trkpt>
   <trkpt lat="-37.84411" lon="145.37913">
    <ele>364.67</ele>
   </trkpt>
   <trkpt lat="-37.84427" lon="145.37936000000002">
    <ele>364.67</ele>
   </trkpt>
   <trkpt lat="-37.8444" lon="145.37967">
    <ele>364.67</ele>
   </trkpt>
   <trkpt lat="-37.84451" lon="145.38000000000002">
    <ele>364.67</ele>
   </trkpt>
   <trkpt lat="-37.84451" lon="145.3802">
    <ele>364.67</ele>
   </trkpt>
   <trkpt lat="-37.84449" lon="145.38033000000001">
    <ele>364.67</ele>
   </trkpt>
   <trkpt lat="-37.844440000000006" lon="145.3804">
    <ele>364.67</ele>
   </trkpt>
   <trkpt lat="-37.84472500128578" lon="145.38095999775703">
    <ele>361.17</ele>
   </trkpt>
   <trkpt lat="-37.84501" lon="145.38152000000002">
    <ele>356.96000000000004</ele>
   </trkpt>
   <trkpt lat="-37.84521" lon="145.38202">
    <ele>352.59000000000003</ele>
   </trkpt>
   <trkpt lat="-37.84532" lon="145.38224000000002">
    <ele>351.28000000000003</ele>
   </trkpt>
   <trkpt lat="-37.84539" lon="145.38249000000002">
    <ele>350.02000000000004</ele>
   </trkpt>
   <trkpt lat="-37.84548" lon="145.38314000000003">
    <ele>343.89000000000004</ele>
   </trkpt>
   <trkpt lat="-37.84552" lon="145.38327">
    <ele>343.11</ele>
   </trkpt>
   <trkpt lat="-37.845510000000004" lon="145.38325">
    <ele>344.33000000000004</ele>
   </trkpt>
   <trkpt lat="-37.84554" lon="145.38338000000002">
    <ele>342.58000000000004</ele>
   </trkpt>
   <trkpt lat="-37.84554" lon="145.38366000000002">
    <ele>337.35</ele>
   </trkpt>
   <trkpt lat="-37.84548" lon="145.38393000000002">
    <ele>336.48</ele>
   </trkpt>
   <trkpt lat="-37.84548" lon="145.38412000000002">
    <ele>331.72</ele>
   </trkpt>
   <trkpt lat="-37.84539" lon="145.38446000000002">
    <ele>327.76000000000005</ele>
   </trkpt>
   <trkpt lat="-37.84534" lon="145.3845">
    <ele>327.76000000000005</ele>
   </trkpt>
   <trkpt lat="-37.84528" lon="145.38482000000002">
    <ele>323.35</ele>
   </trkpt>
   <trkpt lat="-37.845040000000004" lon="145.38504">
    <ele>322.19</ele>
   </trkpt>
   <trkpt lat="-37.84501" lon="145.38500000000002">
    <ele>322.19</ele>
   </trkpt>
   <trkpt lat="-37.84494" lon="145.38497">
    <ele>315.0</ele>
   </trkpt>
   <trkpt lat="-37.844860000000004" lon="145.38496">
    <ele>315.0</ele>
   </trkpt>
   <trkpt lat="-37.84487" lon="145.38496">
    <ele>315.0</ele>
   </trkpt>
   <trkpt lat="-37.84494" lon="145.38497">
    <ele>315.0</ele>
   </trkpt>
   <trkpt lat="-37.84501" lon="145.38500000000002">
    <ele>322.19</ele>
   </trkpt>
   <trkpt lat="-37.84512" lon="145.38515">
    <ele>322.19</ele>
   </trkpt>
   <trkpt lat="-37.8451" lon="145.38520000000003">
    <ele>322.19</ele>
   </trkpt>
   <trkpt lat="-37.84521" lon="145.38525">
    <ele>321.15999999999997</ele>
   </trkpt>
   <trkpt lat="-37.84568" lon="145.38528000000002">
    <ele>315.21999999999997</ele>
   </trkpt>
   <trkpt lat="-37.84601" lon="145.38532">
    <ele>310.86</ele>
   </trkpt>
   <trkpt lat="-37.84628" lon="145.3854">
    <ele>306.59000000000003</ele>
   </trkpt>
   <trkpt lat="-37.84655" lon="145.38557">
    <ele>303.6</ele>
   </trkpt>
   <trkpt lat="-37.84727" lon="145.38623">
    <ele>296.21000000000004</ele>
   </trkpt>
   <trkpt lat="-37.84749" lon="145.38625000000002">
    <ele>295.88000000000005</ele>
   </trkpt>
   <trkpt lat="-37.84774" lon="145.38622">
    <ele>296.48</ele>
   </trkpt>
   <trkpt lat="-37.84803" lon="145.38611">
    <ele>298.1</ele>
   </trkpt>
   <trkpt lat="-37.84821" lon="145.38600000000002">
    <ele>300.58</ele>
   </trkpt>
   <trkpt lat="-37.84841" lon="145.38582000000002">
    <ele>302.19</ele>
   </trkpt>
   <trkpt lat="-37.84886" lon="145.3855">
    <ele>308.31</ele>
   </trkpt>
   <trkpt lat="-37.84908" lon="145.38527000000002">
    <ele>309.09000000000003</ele>
   </trkpt>
   <trkpt lat="-37.84924" lon="145.38505">
    <ele>311.1</ele>
   </trkpt>
   <trkpt lat="-37.84946" lon="145.38481000000002">
    <ele>313.09000000000003</ele>
   </trkpt>
   <trkpt lat="-37.84962" lon="145.38474000000002">
    <ele>314.51</ele>
   </trkpt>
   <trkpt lat="-37.849700000000006" lon="145.38484000000003">
    <ele>315.76000000000005</ele>
   </trkpt>
   <trkpt lat="-37.8498" lon="145.38495">
    <ele>316.68</ele>
   </trkpt>
   <trkpt lat="-37.849500000000006" lon="145.38575">
    <ele>320.64000000000004</ele>
   </trkpt>
   <trkpt lat="-37.84995" lon="145.38541">
    <ele>327.93</ele>
   </trkpt>
   <trkpt lat="-37.850460000000005" lon="145.38531">
    <ele>334.70000000000005</ele>
   </trkpt>
   <trkpt lat="-37.85085" lon="145.38527000000002">
    <ele>338.85</ele>
   </trkpt>
   <trkpt lat="-37.85101" lon="145.38529">
    <ele>341.73</ele>
   </trkpt>
   <trkpt lat="-37.851200000000006" lon="145.38526000000002">
    <ele>344.02000000000004</ele>
   </trkpt>
   <trkpt lat="-37.8515" lon="145.38531">
    <ele>347.01000000000005</ele>
   </trkpt>
   <trkpt lat="-37.852014999891985" lon="145.38530500003597">
    <ele>353.99</ele>
   </trkpt>
   <trkpt lat="-37.85253" lon="145.3853">
    <ele>358.51000000000005</ele>
   </trkpt>
   <trkpt lat="-37.85271" lon="145.38521">
    <ele>359.94000000000005</ele>
   </trkpt>
   <trkpt lat="-37.853080000000006" lon="145.38513">
    <ele>363.71000000000004</ele>
   </trkpt>
   <trkpt lat="-37.85329" lon="145.38503">
    <ele>367.34000000000003</ele>
   </trkpt>
   <trkpt lat="-37.85394" lon="145.38495">
    <ele>383.3</ele>
   </trkpt>
   <trkpt lat="-37.8545" lon="145.38508000000002">
    <ele>400.96000000000004</ele>
   </trkpt>
   <trkpt lat="-37.85466" lon="145.38520000000003">
    <ele>402.91</ele>
   </trkpt>
   <trkpt lat="-37.854670000000006" lon="145.38531">
    <ele>404.47</ele>
   </trkpt>
   <trkpt lat="-37.854490000000006" lon="145.38562000000002">
    <ele>407.57000000000005</ele>
   </trkpt>
   <trkpt lat="-37.85501" lon="145.38577">
    <ele>418.81</ele>
   </trkpt>
   <trkpt lat="-37.855610000000006" lon="145.3861">
    <ele>426.00000000000006</ele>
   </trkpt>
   <trkpt lat="-37.85557" lon="145.38625000000002">
    <ele>426.64</ele>
   </trkpt>
   <trkpt lat="-37.85551" lon="145.38635000000002">
    <ele>426.65000000000003</ele>
   </trkpt>
   <trkpt lat="-37.85537" lon="145.38641">
    <ele>425.63</ele>
   </trkpt>
   <trkpt lat="-37.85544" lon="145.38657">
    <ele>430.74</ele>
   </trkpt>
   <trkpt lat="-37.85548" lon="145.38683">
    <ele>436.66</ele>
   </trkpt>
   <trkpt lat="-37.8554" lon="145.38708000000003">
    <ele>438.57</ele>
   </trkpt>
   <trkpt lat="-37.85575" lon="145.38753">
    <ele>446.24</ele>
   </trkpt>
   <trkpt lat="-37.8558" lon="145.38761000000002">
    <ele>447.37000000000006</ele>
   </trkpt>
   <trkpt lat="-37.85613" lon="145.38815000000002">
    <ele>455.20000000000005</ele>
   </trkpt>
   <trkpt lat="-37.85616" lon="145.38827">
    <ele>458.42</ele>
   </trkpt>
   <trkpt lat="-37.85591" lon="145.38851000000003">
    <ele>457.45</ele>
   </trkpt>
   <trkpt lat="-37.85607" lon="145.38864">
    <ele>458.13000000000005</ele>
   </trkpt>
   <trkpt lat="-37.85622" lon="145.38871">
    <ele>459.44</ele>
   </trkpt>
   <trkpt lat="-37.8564" lon="145.38873">
    <ele>461.08000000000004</ele>
   </trkpt>
   <trkpt lat="-37.856640000000006" lon="145.38873">
    <ele>463.69000000000005</ele>
   </trkpt>
   <trkpt lat="-37.85692" lon="145.38862">
    <ele>467.14000000000004</ele>
   </trkpt>
   <trkpt lat="-37.85739" lon="145.38834">
    <ele>468.75000000000006</ele>
   </trkpt>
   <trkpt lat="-37.85768" lon="145.38805000000002">
    <ele>471.24000000000007</ele>
   </trkpt>
   <trkpt lat="-37.85786" lon="145.38784">
    <ele>474.25000000000006</ele>
   </trkpt>
   <trkpt lat="-37.85804" lon="145.38754">
    <ele>475.65000000000003</ele>
   </trkpt>
   <trkpt lat="-37.85835" lon="145.38715000000002">
    <ele>480.37</ele>
   </trkpt>
   <trkpt lat="-37.85862" lon="145.38696000000002">
    <ele>482.54</ele>
   </trkpt>
   <trkpt lat="-37.85905500035647" lon="145.38669500152767">
    <ele>486.92</ele>
   </trkpt>
   <trkpt lat="-37.85949" lon="145.38643000000002">
    <ele>490.44000000000005</ele>
   </trkpt>
   <trkpt lat="-37.85976" lon="145.38606000000001">
    <ele>494.06000000000006</ele>
   </trkpt>
   <trkpt lat="-37.85989" lon="145.38583">
    <ele>495.62000000000006</ele>
   </trkpt>
   <trkpt lat="-37.86027" lon="145.38492000000002">
    <ele>501.26000000000005</ele>
   </trkpt>
   <trkpt lat="-37.86028" lon="145.38492000000002">
    <ele>501.27</ele>
   </trkpt>
   <trkpt lat="-37.860580000000006" lon="145.38432">
    <ele>504.0300000000001</ele>
   </trkpt>
   <trkpt lat="-37.860460001716454" lon="145.38367999887507">
    <ele>507.89000000000004</ele>
   </trkpt>
   <trkpt lat="-37.86034" lon="145.38304000000002">
    <ele>513.22</ele>
   </trkpt>
   <trkpt lat="-37.86028" lon="145.38278000000003">
    <ele>514.88</ele>
   </trkpt>
   <trkpt lat="-37.86021" lon="145.38277000000002">
    <ele>515.03</ele>
   </trkpt>
   <trkpt lat="-37.86009" lon="145.3827">
    <ele>515.14</ele>
   </trkpt>
   <trkpt lat="-37.86005" lon="145.38256">
    <ele>515.14</ele>
   </trkpt>
   <trkpt lat="-37.86005" lon="145.38204000000002">
    <ele>515.75</ele>
   </trkpt>
   <trkpt lat="-37.86014" lon="145.38135000000003">
    <ele>517.23</ele>
   </trkpt>
   <trkpt lat="-37.86028" lon="145.38117000000003">
    <ele>517.59</ele>
   </trkpt>
   <trkpt lat="-37.86032" lon="145.38089000000002">
    <ele>518.19</ele>
   </trkpt>
   <trkpt lat="-37.86032000327456" lon="145.38000999994895">
    <ele>524.51</ele>
   </trkpt>
   <trkpt lat="-37.86032" lon="145.37913">
    <ele>538.96</ele>
   </trkpt>
   <trkpt lat="-37.86043" lon="145.37803000000002">
    <ele>553.24</ele>
   </trkpt>
   <trkpt lat="-37.86046000312985" lon="145.37717000028042">
    <ele>557.57</ele>
   </trkpt>
   <trkpt lat="-37.860490000000006" lon="145.37631000000002">
    <ele>556.9200000000001</ele>
   </trkpt>
   <trkpt lat="-37.86046500234507" lon="145.37705500030833">
    <ele>558.62</ele>
   </trkpt>
   <trkpt lat="-37.860440000000004" lon="145.3778">
    <ele>555.15</ele>
   </trkpt>
   <trkpt lat="-37.860440000000004" lon="145.37779">
    <ele>555.1700000000001</ele>
   </trkpt>
   <trkpt lat="-37.86046500231795" lon="145.37705000017948">
    <ele>558.62</ele>
   </trkpt>
   <trkpt lat="-37.860490000000006" lon="145.37631000000002">
    <ele>556.9200000000001</ele>
   </trkpt>
   <trkpt lat="-37.86125000010449" lon="145.3764549985078">
    <ele>557.47</ele>
   </trkpt>
   <trkpt lat="-37.862010000000005" lon="145.37660000000002">
    <ele>559.91</ele>
   </trkpt>
   <trkpt lat="-37.86262999993365" lon="145.37667999931497">
    <ele>564.23</ele>
   </trkpt>
   <trkpt lat="-37.86325" lon="145.37676000000002">
    <ele>565.0500000000001</ele>
   </trkpt>
   <trkpt lat="-37.863350000000004" lon="145.3768">
    <ele>564.9300000000001</ele>
   </trkpt>
   <trkpt lat="-37.86403" lon="145.37725">
    <ele>560.8100000000001</ele>
   </trkpt>
   <trkpt lat="-37.86453" lon="145.37756000000002">
    <ele>556.71</ele>
   </trkpt>
   <trkpt lat="-37.86524" lon="145.37787">
    <ele>550.03</ele>
   </trkpt>
   <trkpt lat="-37.86551" lon="145.37794000000002">
    <ele>550.03</ele>
   </trkpt>
   <trkpt lat="-37.86618" lon="145.37803000000002">
    <ele>543.74</ele>
   </trkpt>
   <trkpt lat="-37.86659" lon="145.37801000000002">
    <ele>540.1</ele>
   </trkpt>
   <trkpt lat="-37.86693" lon="145.37794000000002">
    <ele>538.03</ele>
   </trkpt>
   <trkpt lat="-37.86731" lon="145.37782">
    <ele>536.66</ele>
   </trkpt>
   <trkpt lat="-37.867900000000006" lon="145.3776">
    <ele>530.1</ele>
   </trkpt>
   <trkpt lat="-37.86813" lon="145.37757000000002">
    <ele>528.75</ele>
   </trkpt>
   <trkpt lat="-37.868280000000006" lon="145.37757000000002">
    <ele>526.36</ele>
   </trkpt>
   <trkpt lat="-37.8686" lon="145.37765000000002">
    <ele>521.4000000000001</ele>
   </trkpt>
   <trkpt lat="-37.86923" lon="145.37796">
    <ele>515.6200000000001</ele>
   </trkpt>
   <trkpt lat="-37.86959" lon="145.37821000000002">
    <ele>511.78000000000003</ele>
   </trkpt>
   <trkpt lat="-37.86977" lon="145.37836000000001">
    <ele>511.09000000000003</ele>
   </trkpt>
   <trkpt lat="-37.87028" lon="145.37895">
    <ele>504.17</ele>
   </trkpt>
   <trkpt lat="-37.87082" lon="145.37971000000002">
    <ele>496.53000000000003</ele>
   </trkpt>
   <trkpt lat="-37.87091" lon="145.37980000000002">
    <ele>494.8500000000001</ele>
   </trkpt>
   <trkpt lat="-37.87113" lon="145.37997000000001">
    <ele>493.2300000000001</ele>
   </trkpt>
   <trkpt lat="-37.871550000000006" lon="145.38017000000002">
    <ele>492.17</ele>
   </trkpt>
   <trkpt lat="-37.872025000351904" lon="145.3803799987192">
    <ele>491.98</ele>
   </trkpt>
   <trkpt lat="-37.8725" lon="145.38059">
    <ele>490.78000000000003</ele>
   </trkpt>
   <trkpt lat="-37.872690000000006" lon="145.38075">
    <ele>489.66</ele>
   </trkpt>
   <trkpt lat="-37.87283" lon="145.38095">
    <ele>488.77000000000004</ele>
   </trkpt>
   <trkpt lat="-37.873070000000006" lon="145.38148">
    <ele>487.65000000000003</ele>
   </trkpt>
   <trkpt lat="-37.873090000000005" lon="145.38162">
    <ele>487.30000000000007</ele>
   </trkpt>
   <trkpt lat="-37.873070000000006" lon="145.38148">
    <ele>487.65000000000003</ele>
   </trkpt>
   <trkpt lat="-37.87283" lon="145.38095">
    <ele>488.77000000000004</ele>
   </trkpt>
   <trkpt lat="-37.872690000000006" lon="145.38075">
    <ele>489.66</ele>
   </trkpt>
   <trkpt lat="-37.87279" lon="145.38043000000002">
    <ele>491.61</ele>
   </trkpt>
   <trkpt lat="-37.8729" lon="145.37994">
    <ele>493.12000000000006</ele>
   </trkpt>
   <trkpt lat="-37.873050000000006" lon="145.37942">
    <ele>488.31</ele>
   </trkpt>
   <trkpt lat="-37.8732200097698" lon="145.378542506071">
    <ele>477.73</ele>
   </trkpt>
   <trkpt lat="-37.87339001302693" lon="145.37766500809204">
    <ele>469.34000000000003</ele>
   </trkpt>
   <trkpt lat="-37.87356000977134" lon="145.3767875060633">
    <ele>457.34000000000003</ele>
   </trkpt>
   <trkpt lat="-37.87373" lon="145.37591">
    <ele>440.01</ele>
   </trkpt>
   <trkpt lat="-37.873810000000006" lon="145.37539">
    <ele>434.13</ele>
   </trkpt>
   <trkpt lat="-37.873810000000006" lon="145.37538">
    <ele>433.97</ele>
   </trkpt>
   <trkpt lat="-37.87386" lon="145.37503">
    <ele>426.78000000000003</ele>
   </trkpt>
   <trkpt lat="-37.87405000202032" lon="145.37434000175463">
    <ele>417.03000000000003</ele>
   </trkpt>
   <trkpt lat="-37.87424" lon="145.37365">
    <ele>407.99</ele>
   </trkpt>
   <trkpt lat="-37.87433" lon="145.37300000000002">
    <ele>395.86</ele>
   </trkpt>
   <trkpt lat="-37.87449500152985" lon="145.372400001317">
    <ele>371.21000000000004</ele>
   </trkpt>
   <trkpt lat="-37.874660000000006" lon="145.3718">
    <ele>355.2</ele>
   </trkpt>
   <trkpt lat="-37.874700000000004" lon="145.37130000000002">
    <ele>345.08000000000004</ele>
   </trkpt>
   <trkpt lat="-37.875040000000006" lon="145.37126">
    <ele>342.84000000000003</ele>
   </trkpt>
   <trkpt lat="-37.87518" lon="145.37126">
    <ele>342.03</ele>
   </trkpt>
   <trkpt lat="-37.87579" lon="145.37137">
    <ele>336.62</ele>
   </trkpt>
   <trkpt lat="-37.87597" lon="145.37137">
    <ele>335.67</ele>
   </trkpt>
   <trkpt lat="-37.876290000000004" lon="145.37130000000002">
    <ele>333.84000000000003</ele>
   </trkpt>
   <trkpt lat="-37.87637" lon="145.37132000000003">
    <ele>333.37</ele>
   </trkpt>
   <trkpt lat="-37.8765" lon="145.37138000000002">
    <ele>332.76</ele>
   </trkpt>
   <trkpt lat="-37.87635" lon="145.37115">
    <ele>341.78000000000003</ele>
   </trkpt>
   <trkpt lat="-37.87614000000001" lon="145.37109">
    <ele>354.73</ele>
   </trkpt>
   <trkpt lat="-37.87608" lon="145.37106">
    <ele>355.58</ele>
   </trkpt>
   <trkpt lat="-37.87559" lon="145.37066000000002">
    <ele>369.04</ele>
   </trkpt>
   <trkpt lat="-37.875530000000005" lon="145.37055">
    <ele>370.64000000000004</ele>
   </trkpt>
   <trkpt lat="-37.87545" lon="145.37029">
    <ele>373.62</ele>
   </trkpt>
   <trkpt lat="-37.87541" lon="145.36997000000002">
    <ele>376.56</ele>
   </trkpt>
   <trkpt lat="-37.87538" lon="145.36979000000002">
    <ele>377.32000000000005</ele>
   </trkpt>
   <trkpt lat="-37.875420000000005" lon="145.36964">
    <ele>376.78</ele>
   </trkpt>
   <trkpt lat="-37.875490000000006" lon="145.36938">
    <ele>374.41</ele>
   </trkpt>
   <trkpt lat="-37.875490000000006" lon="145.36937">
    <ele>373.94000000000005</ele>
   </trkpt>
   <trkpt lat="-37.87554" lon="145.36915000000002">
    <ele>371.46</ele>
   </trkpt>
   <trkpt lat="-37.87556" lon="145.36895">
    <ele>370.56000000000006</ele>
   </trkpt>
   <trkpt lat="-37.87556" lon="145.36894">
    <ele>370.43</ele>
   </trkpt>
   <trkpt lat="-37.87556" lon="145.36883">
    <ele>370.39000000000004</ele>
   </trkpt>
   <trkpt lat="-37.87547" lon="145.36839">
    <ele>372.75</ele>
   </trkpt>
   <trkpt lat="-37.87545" lon="145.3683">
    <ele>372.88000000000005</ele>
   </trkpt>
   <trkpt lat="-37.875510000000006" lon="145.36811">
    <ele>372.32000000000005</ele>
   </trkpt>
   <trkpt lat="-37.87554" lon="145.36805">
    <ele>372.32000000000005</ele>
   </trkpt>
   <trkpt lat="-37.87554" lon="145.36804">
    <ele>372.24</ele>
   </trkpt>
   <trkpt lat="-37.87561" lon="145.36792">
    <ele>372.29</ele>
   </trkpt>
   <trkpt lat="-37.875690000000006" lon="145.36763000000002">
    <ele>373.84</ele>
   </trkpt>
   <trkpt lat="-37.875690000000006" lon="145.36749">
    <ele>374.78000000000003</ele>
   </trkpt>
   <trkpt lat="-37.87559" lon="145.36734">
    <ele>376.67</ele>
   </trkpt>
   <trkpt lat="-37.87534" lon="145.36705">
    <ele>378.57</ele>
   </trkpt>
   <trkpt lat="-37.87523" lon="145.36692000000002">
    <ele>379.01</ele>
   </trkpt>
   <trkpt lat="-37.87509" lon="145.36668">
    <ele>379.98</ele>
   </trkpt>
   <trkpt lat="-37.874990000000004" lon="145.36655000000002">
    <ele>381.36</ele>
   </trkpt>
   <trkpt lat="-37.87482" lon="145.36636000000001">
    <ele>383.23</ele>
   </trkpt>
   <trkpt lat="-37.8748" lon="145.36626">
    <ele>382.94000000000005</ele>
   </trkpt>
   <trkpt lat="-37.87485" lon="145.36601000000002">
    <ele>381.15000000000003</ele>
   </trkpt>
   <trkpt lat="-37.87485" lon="145.36586">
    <ele>380.98</ele>
   </trkpt>
   <trkpt lat="-37.87482" lon="145.36579">
    <ele>381.14000000000004</ele>
   </trkpt>
   <trkpt lat="-37.87467" lon="145.36552">
    <ele>384.08000000000004</ele>
   </trkpt>
   <trkpt lat="-37.87456" lon="145.36519">
    <ele>385.31000000000006</ele>
   </trkpt>
   <trkpt lat="-37.874460000000006" lon="145.36471">
    <ele>384.41</ele>
   </trkpt>
   <trkpt lat="-37.87444" lon="145.36441000000002">
    <ele>383.51</ele>
   </trkpt>
   <trkpt lat="-37.87438" lon="145.3642">
    <ele>382.19</ele>
   </trkpt>
   <trkpt lat="-37.87438" lon="145.36402">
    <ele>381.78</ele>
   </trkpt>
   <trkpt lat="-37.87413" lon="145.36345">
    <ele>382.35</ele>
   </trkpt>
   <trkpt lat="-37.874100000000006" lon="145.36338">
    <ele>382.05000000000007</ele>
   </trkpt>
   <trkpt lat="-37.87404" lon="145.36333000000002">
    <ele>381.44000000000005</ele>
   </trkpt>
   <trkpt lat="-37.87409" lon="145.36301">
    <ele>378.95</ele>
   </trkpt>
   <trkpt lat="-37.874010000000006" lon="145.36278000000001">
    <ele>377.43000000000006</ele>
   </trkpt>
   <trkpt lat="-37.87384" lon="145.3624">
    <ele>376.07</ele>
   </trkpt>
   <trkpt lat="-37.87377" lon="145.36227000000002">
    <ele>374.99000000000007</ele>
   </trkpt>
   <trkpt lat="-37.873740000000005" lon="145.36213">
    <ele>374.47</ele>
   </trkpt>
   <trkpt lat="-37.87377" lon="145.36206">
    <ele>387.29</ele>
   </trkpt>
   <trkpt lat="-37.87377" lon="145.36196">
    <ele>388.47</ele>
   </trkpt>
   <trkpt lat="-37.87357" lon="145.36148">
    <ele>402.89000000000004</ele>
   </trkpt>
   <trkpt lat="-37.87339" lon="145.36129000000003">
    <ele>407.71000000000004</ele>
   </trkpt>
   <trkpt lat="-37.87326" lon="145.36121">
    <ele>416.96000000000004</ele>
   </trkpt>
   <trkpt lat="-37.8729" lon="145.36119000000002">
    <ele>419.72</ele>
   </trkpt>
   <trkpt lat="-37.872910000000005" lon="145.36119000000002">
    <ele>419.64</ele>
   </trkpt>
   <trkpt lat="-37.87243" lon="145.36129000000003">
    <ele>421.40000000000003</ele>
   </trkpt>
   <trkpt lat="-37.87234" lon="145.36127000000002">
    <ele>422.21000000000004</ele>
   </trkpt>
   <trkpt lat="-37.87219" lon="145.36117000000002">
    <ele>422.83000000000004</ele>
   </trkpt>
   <trkpt lat="-37.87205" lon="145.36114">
    <ele>423.25</ele>
   </trkpt>
   <trkpt lat="-37.87182" lon="145.36126000000002">
    <ele>423.22</ele>
   </trkpt>
   <trkpt lat="-37.87147" lon="145.36124">
    <ele>423.15000000000003</ele>
   </trkpt>
   <trkpt lat="-37.87149" lon="145.36124">
    <ele>423.18000000000006</ele>
   </trkpt>
   <trkpt lat="-37.87113" lon="145.36123">
    <ele>423.07000000000005</ele>
   </trkpt>
   <trkpt lat="-37.87071" lon="145.36105">
    <ele>424.27000000000004</ele>
   </trkpt>
   <trkpt lat="-37.86999" lon="145.36083000000002">
    <ele>425.67</ele>
   </trkpt>
   <trkpt lat="-37.86972" lon="145.36065000000002">
    <ele>425.81</ele>
   </trkpt>
   <trkpt lat="-37.86963" lon="145.36053">
    <ele>426.08</ele>
   </trkpt>
   <trkpt lat="-37.8695" lon="145.36015">
    <ele>428.96</ele>
   </trkpt>
   <trkpt lat="-37.869240000000005" lon="145.35979">
    <ele>429.25</ele>
   </trkpt>
   <trkpt lat="-37.86887" lon="145.35943">
    <ele>431.01000000000005</ele>
   </trkpt>
   <trkpt lat="-37.86871" lon="145.35917">
    <ele>432.71000000000004</ele>
   </trkpt>
   <trkpt lat="-37.8682" lon="145.35908">
    <ele>432.40000000000003</ele>
   </trkpt>
   <trkpt lat="-37.86806" lon="145.35901">
    <ele>433.06000000000006</ele>
   </trkpt>
   <trkpt lat="-37.86798" lon="145.35886000000002">
    <ele>433.20000000000005</ele>
   </trkpt>
   <trkpt lat="-37.86793" lon="145.35878000000002">
    <ele>433.04</ele>
   </trkpt>
   <trkpt lat="-37.86773" lon="145.35860000000002">
    <ele>432.26000000000005</ele>
   </trkpt>
   <trkpt lat="-37.86768" lon="145.35825">
    <ele>432.68</ele>
   </trkpt>
   <trkpt lat="-37.86766" lon="145.3582">
    <ele>432.81</ele>
   </trkpt>
   <trkpt lat="-37.86748" lon="145.35804000000002">
    <ele>433.11</ele>
   </trkpt>
   <trkpt lat="-37.86737" lon="145.35797000000002">
    <ele>433.21000000000004</ele>
   </trkpt>
   <trkpt lat="-37.86728" lon="145.35787000000002">
    <ele>433.6700000000001</ele>
   </trkpt>
   <trkpt lat="-37.86715" lon="145.35776">
    <ele>434.83000000000004</ele>
   </trkpt>
   <trkpt lat="-37.86694" lon="145.35745">
    <ele>434.62000000000006</ele>
   </trkpt>
   <trkpt lat="-37.86686" lon="145.35739">
    <ele>435.09000000000003</ele>
   </trkpt>
   <trkpt lat="-37.86674" lon="145.35733000000002">
    <ele>435.6</ele>
   </trkpt>
   <trkpt lat="-37.86654" lon="145.35708000000002">
    <ele>437.9</ele>
   </trkpt>
   <trkpt lat="-37.8665" lon="145.35665">
    <ele>441.53000000000003</ele>
   </trkpt>
   <trkpt lat="-37.86623" lon="145.35623">
    <ele>446.00000000000006</ele>
   </trkpt>
   <trkpt lat="-37.86605" lon="145.35616000000002">
    <ele>434.4</ele>
   </trkpt>
   <trkpt lat="-37.86589" lon="145.35612">
    <ele>429.99</ele>
   </trkpt>
   <trkpt lat="-37.86589" lon="145.35596">
    <ele>421.32</ele>
   </trkpt>
   <trkpt lat="-37.865930000000006" lon="145.35577">
    <ele>412.07000000000005</ele>
   </trkpt>
   <trkpt lat="-37.86587" lon="145.35577">
    <ele>411.7</ele>
   </trkpt>
   <trkpt lat="-37.865770000000005" lon="145.35585">
    <ele>411.40000000000003</ele>
   </trkpt>
   <trkpt lat="-37.86578" lon="145.35585">
    <ele>411.41</ele>
   </trkpt>
   <trkpt lat="-37.86587" lon="145.35577">
    <ele>411.7</ele>
   </trkpt>
   <trkpt lat="-37.865930000000006" lon="145.35577">
    <ele>412.07000000000005</ele>
   </trkpt>
   <trkpt lat="-37.86598" lon="145.35567">
    <ele>413.18000000000006</ele>
   </trkpt>
   <trkpt lat="-37.86598" lon="145.35555000000002">
    <ele>414.52000000000004</ele>
   </trkpt>
   <trkpt lat="-37.86585" lon="145.3554">
    <ele>419.66</ele>
   </trkpt>
   <trkpt lat="-37.86547" lon="145.35535000000002">
    <ele>427.85</ele>
   </trkpt>
   <trkpt lat="-37.8654" lon="145.3553">
    <ele>428.96</ele>
   </trkpt>
   <trkpt lat="-37.8652" lon="145.35519000000002">
    <ele>432.53000000000003</ele>
   </trkpt>
   <trkpt lat="-37.86502" lon="145.35512">
    <ele>438.6700000000001</ele>
   </trkpt>
   <trkpt lat="-37.86486" lon="145.35513">
    <ele>444.51</ele>
   </trkpt>
   <trkpt lat="-37.8645" lon="145.35506">
    <ele>458.57000000000005</ele>
   </trkpt>
   <trkpt lat="-37.86435" lon="145.35499000000002">
    <ele>465.62</ele>
   </trkpt>
   <trkpt lat="-37.86415" lon="145.35496">
    <ele>470.31000000000006</ele>
   </trkpt>
   <trkpt lat="-37.863960000000006" lon="145.35495">
    <ele>475.80000000000007</ele>
   </trkpt>
   <trkpt lat="-37.863600000000005" lon="145.35494">
    <ele>485.64</ele>
   </trkpt>
   <trkpt lat="-37.86345" lon="145.35489">
    <ele>485.07000000000005</ele>
   </trkpt>
   <trkpt lat="-37.86334" lon="145.35477">
    <ele>485.4100000000001</ele>
   </trkpt>
   <trkpt lat="-37.86316" lon="145.35444">
    <ele>486.04</ele>
   </trkpt>
   <trkpt lat="-37.86296" lon="145.35402000000002">
    <ele>484.02000000000004</ele>
   </trkpt>
  </trkseg>
 </trk>
</gpx>
