<?xml version="1.0" encoding="UTF-8"?>
<gpx creator="StravaGPX" version="1.1" xmlns="http://www.topografix.com/GPX/1/1" xmlns:xsi="http://www.w3.org/2001/XMLSchema-instance" xsi:schemaLocation="http://www.topografix.com/GPX/1/1 http://www.topografix.com/GPX/1/1/gpx.xsd">
 <metadata>
  <name>DTR 5th Nov Ana Run</name>
  <author>
   <name>john csorgo</name>
  </author>
  <copyright author="OpenStreetMap contributors">
   <year>2020</year>
   <license>https://www.openstreetmap.org/copyright</license>
  </copyright>
 </metadata>
 <trk>
  <name>DTR 5th Nov Ana Run</name>
  <link href=""/>
  <type>trail_running</type>
  <trkseg>
   <trkpt lat="-37.88761" lon="145.36977000000002">
    <ele>350.98</ele>
   </trkpt>
   <trkpt lat="-37.88765" lon="145.36970000000002">
    <ele>350.89000000000004</ele>
   </trkpt>
   <trkpt lat="-37.88794" lon="145.36951000000002">
    <ele>349.92</ele>
   </trkpt>
   <trkpt lat="-37.88852" lon="145.3692">
    <ele>345.79</ele>
   </trkpt>
   <trkpt lat="-37.88911" lon="145.36880000000002">
    <ele>343.89000000000004</ele>
   </trkpt>
   <trkpt lat="-37.88953500039064" lon="145.36848500183984">
    <ele>340.90000000000003</ele>
   </trkpt>
   <trkpt lat="-37.88996" lon="145.36817000000002">
    <ele>339.0</ele>
   </trkpt>
   <trkpt lat="-37.89052" lon="145.36778">
    <ele>337.84000000000003</ele>
   </trkpt>
   <trkpt lat="-37.8907" lon="145.36769">
    <ele>336.94</ele>
   </trkpt>
   <trkpt lat="-37.89094" lon="145.36749">
    <ele>334.54</ele>
   </trkpt>
   <trkpt lat="-37.89157" lon="145.36715">
    <ele>331.21</ele>
   </trkpt>
   <trkpt lat="-37.892120000000006" lon="145.36677">
    <ele>329.90000000000003</ele>
   </trkpt>
   <trkpt lat="-37.89233" lon="145.36657000000002">
    <ele>330.0</ele>
   </trkpt>
   <trkpt lat="-37.89262" lon="145.36622">
    <ele>330.14000000000004</ele>
   </trkpt>
   <trkpt lat="-37.89329" lon="145.36548000000002">
    <ele>327.44</ele>
   </trkpt>
   <trkpt lat="-37.89383" lon="145.365">
    <ele>323.38</ele>
   </trkpt>
   <trkpt lat="-37.89412" lon="145.3648">
    <ele>321.6</ele>
   </trkpt>
   <trkpt lat="-37.8945" lon="145.36457000000001">
    <ele>319.41</ele>
   </trkpt>
   <trkpt lat="-37.894780000000004" lon="145.36424000000002">
    <ele>317.77000000000004</ele>
   </trkpt>
   <trkpt lat="-37.895030000000006" lon="145.36387000000002">
    <ele>313.08000000000004</ele>
   </trkpt>
   <trkpt lat="-37.89526" lon="145.36332000000002">
    <ele>311.35</ele>
   </trkpt>
   <trkpt lat="-37.89537" lon="145.36299000000002">
    <ele>309.84</ele>
   </trkpt>
   <trkpt lat="-37.89537" lon="145.36316000000002">
    <ele>314.58000000000004</ele>
   </trkpt>
   <trkpt lat="-37.89546" lon="145.36337">
    <ele>316.01</ele>
   </trkpt>
   <trkpt lat="-37.89551" lon="145.36357">
    <ele>318.56</ele>
   </trkpt>
   <trkpt lat="-37.89558" lon="145.36450000000002">
    <ele>327.81000000000006</ele>
   </trkpt>
   <trkpt lat="-37.8956" lon="145.36513000000002">
    <ele>332.23</ele>
   </trkpt>
   <trkpt lat="-37.89564" lon="145.36536">
    <ele>338.1</ele>
   </trkpt>
   <trkpt lat="-37.89573" lon="145.36615">
    <ele>347.64</ele>
   </trkpt>
   <trkpt lat="-37.89587" lon="145.36672000000002">
    <ele>356.66</ele>
   </trkpt>
   <trkpt lat="-37.89593500143947" lon="145.3673049994106">
    <ele>362.40000000000003</ele>
   </trkpt>
   <trkpt lat="-37.896" lon="145.36789000000002">
    <ele>361.87</ele>
   </trkpt>
   <trkpt lat="-37.896" lon="145.36790000000002">
    <ele>361.83000000000004</ele>
   </trkpt>
   <trkpt lat="-37.89622" lon="145.36780000000002">
    <ele>362.75</ele>
   </trkpt>
   <trkpt lat="-37.8964" lon="145.36767">
    <ele>363.31</ele>
   </trkpt>
   <trkpt lat="-37.89685" lon="145.36728000000002">
    <ele>365.3</ele>
   </trkpt>
   <trkpt lat="-37.89743" lon="145.36684000000002">
    <ele>365.9</ele>
   </trkpt>
   <trkpt lat="-37.89802" lon="145.36632">
    <ele>363.53000000000003</ele>
   </trkpt>
   <trkpt lat="-37.8984" lon="145.36607">
    <ele>360.72</ele>
   </trkpt>
   <trkpt lat="-37.898520000000005" lon="145.36594000000002">
    <ele>359.48</ele>
   </trkpt>
   <trkpt lat="-37.89871" lon="145.36567000000002">
    <ele>358.14</ele>
   </trkpt>
   <trkpt lat="-37.89887" lon="145.36534">
    <ele>357.19</ele>
   </trkpt>
   <trkpt lat="-37.89909" lon="145.36476000000002">
    <ele>354.76</ele>
   </trkpt>
   <trkpt lat="-37.8992" lon="145.36459000000002">
    <ele>353.54</ele>
   </trkpt>
   <trkpt lat="-37.89931" lon="145.36448000000001">
    <ele>352.85</ele>
   </trkpt>
   <trkpt lat="-37.8994" lon="145.36443">
    <ele>352.85</ele>
   </trkpt>
   <trkpt lat="-37.899530000000006" lon="145.36441000000002">
    <ele>352.08</ele>
   </trkpt>
   <trkpt lat="-37.89952" lon="145.36432000000002">
    <ele>352.08</ele>
   </trkpt>
   <trkpt lat="-37.89936" lon="145.36412">
    <ele>351.01000000000005</ele>
   </trkpt>
   <trkpt lat="-37.89909" lon="145.36382">
    <ele>350.34000000000003</ele>
   </trkpt>
   <trkpt lat="-37.898590000000006" lon="145.36360000000002">
    <ele>351.05</ele>
   </trkpt>
   <trkpt lat="-37.89851" lon="145.36356">
    <ele>351.02000000000004</ele>
   </trkpt>
   <trkpt lat="-37.89849" lon="145.36351000000002">
    <ele>350.92</ele>
   </trkpt>
   <trkpt lat="-37.89842" lon="145.36327">
    <ele>349.63000000000005</ele>
   </trkpt>
   <trkpt lat="-37.89871" lon="145.3623">
    <ele>343.47</ele>
   </trkpt>
   <trkpt lat="-37.89875" lon="145.36209000000002">
    <ele>343.16</ele>
   </trkpt>
   <trkpt lat="-37.89882" lon="145.36192">
    <ele>342.36000000000007</ele>
   </trkpt>
   <trkpt lat="-37.89887" lon="145.36185">
    <ele>342.36000000000007</ele>
   </trkpt>
   <trkpt lat="-37.89902" lon="145.36179">
    <ele>341.78000000000003</ele>
   </trkpt>
   <trkpt lat="-37.89916" lon="145.36178">
    <ele>341.43</ele>
   </trkpt>
   <trkpt lat="-37.89985" lon="145.36188">
    <ele>337.9200000000001</ele>
   </trkpt>
   <trkpt lat="-37.9001" lon="145.36188">
    <ele>337.39000000000004</ele>
   </trkpt>
   <trkpt lat="-37.90028" lon="145.36190000000002">
    <ele>335.07000000000005</ele>
   </trkpt>
   <trkpt lat="-37.90046" lon="145.36187">
    <ele>333.63000000000005</ele>
   </trkpt>
   <trkpt lat="-37.900830000000006" lon="145.36186">
    <ele>330.23</ele>
   </trkpt>
   <trkpt lat="-37.90077" lon="145.36145000000002">
    <ele>331.5</ele>
   </trkpt>
   <trkpt lat="-37.90059" lon="145.36069">
    <ele>336.34000000000003</ele>
   </trkpt>
   <trkpt lat="-37.90057" lon="145.36046000000002">
    <ele>335.99</ele>
   </trkpt>
   <trkpt lat="-37.9005" lon="145.36012000000002">
    <ele>332.64000000000004</ele>
   </trkpt>
   <trkpt lat="-37.9003" lon="145.35946">
    <ele>313.62</ele>
   </trkpt>
   <trkpt lat="-37.9001" lon="145.35860000000002">
    <ele>297.72</ele>
   </trkpt>
   <trkpt lat="-37.9001" lon="145.35835">
    <ele>293.28000000000003</ele>
   </trkpt>
   <trkpt lat="-37.900000000000006" lon="145.35778000000002">
    <ele>280.79</ele>
   </trkpt>
   <trkpt lat="-37.89992" lon="145.35763">
    <ele>270.15</ele>
   </trkpt>
   <trkpt lat="-37.89992" lon="145.35755">
    <ele>270.15</ele>
   </trkpt>
   <trkpt lat="-37.900000000000006" lon="145.35732000000002">
    <ele>263.68</ele>
   </trkpt>
   <trkpt lat="-37.900000000000006" lon="145.35713">
    <ele>259.36</ele>
   </trkpt>
   <trkpt lat="-37.89996" lon="145.35697000000002">
    <ele>254.84</ele>
   </trkpt>
   <trkpt lat="-37.899840000000005" lon="145.35690000000002">
    <ele>254.72</ele>
   </trkpt>
   <trkpt lat="-37.900090000000006" lon="145.35691">
    <ele>261.92</ele>
   </trkpt>
   <trkpt lat="-37.90016" lon="145.35682">
    <ele>261.70000000000005</ele>
   </trkpt>
   <trkpt lat="-37.90014" lon="145.35665">
    <ele>261.73</ele>
   </trkpt>
   <trkpt lat="-37.900130000000004" lon="145.35664">
    <ele>261.73</ele>
   </trkpt>
   <trkpt lat="-37.90014" lon="145.35664">
    <ele>261.73</ele>
   </trkpt>
   <trkpt lat="-37.89992" lon="145.35652000000002">
    <ele>262.3</ele>
   </trkpt>
   <trkpt lat="-37.899860000000004" lon="145.35639">
    <ele>262.85</ele>
   </trkpt>
   <trkpt lat="-37.899660000000004" lon="145.35629">
    <ele>262.99</ele>
   </trkpt>
   <trkpt lat="-37.89963" lon="145.35624">
    <ele>263.03000000000003</ele>
   </trkpt>
   <trkpt lat="-37.89960000000001" lon="145.35626000000002">
    <ele>263.03000000000003</ele>
   </trkpt>
   <trkpt lat="-37.89945" lon="145.35613">
    <ele>264.15</ele>
   </trkpt>
   <trkpt lat="-37.89934" lon="145.35599000000002">
    <ele>264.6</ele>
   </trkpt>
   <trkpt lat="-37.89927" lon="145.35586">
    <ele>265.48</ele>
   </trkpt>
   <trkpt lat="-37.89918" lon="145.35578">
    <ele>266.57000000000005</ele>
   </trkpt>
   <trkpt lat="-37.89873" lon="145.35563000000002">
    <ele>268.53000000000003</ele>
   </trkpt>
   <trkpt lat="-37.8984" lon="145.35568">
    <ele>270.14000000000004</ele>
   </trkpt>
   <trkpt lat="-37.89819" lon="145.35568">
    <ele>272.17</ele>
   </trkpt>
   <trkpt lat="-37.89804" lon="145.35571000000002">
    <ele>274.65</ele>
   </trkpt>
   <trkpt lat="-37.89755" lon="145.35618000000002">
    <ele>285.71000000000004</ele>
   </trkpt>
   <trkpt lat="-37.89728" lon="145.35647">
    <ele>293.79</ele>
   </trkpt>
   <trkpt lat="-37.89719" lon="145.35669000000001">
    <ele>298.18</ele>
   </trkpt>
   <trkpt lat="-37.8971" lon="145.35679000000002">
    <ele>298.18</ele>
   </trkpt>
   <trkpt lat="-37.89701" lon="145.35696000000002">
    <ele>302.47</ele>
   </trkpt>
   <trkpt lat="-37.89663" lon="145.35723000000002">
    <ele>308.00000000000006</ele>
   </trkpt>
   <trkpt lat="-37.89618" lon="145.35743000000002">
    <ele>312.23</ele>
   </trkpt>
   <trkpt lat="-37.89598" lon="145.35739">
    <ele>312.84</ele>
   </trkpt>
   <trkpt lat="-37.89558" lon="145.35742000000002">
    <ele>317.07</ele>
   </trkpt>
   <trkpt lat="-37.89531" lon="145.35732000000002">
    <ele>320.15000000000003</ele>
   </trkpt>
   <trkpt lat="-37.89488" lon="145.35739">
    <ele>325.12</ele>
   </trkpt>
   <trkpt lat="-37.89457" lon="145.35722">
    <ele>328.82</ele>
   </trkpt>
   <trkpt lat="-37.89408" lon="145.35721">
    <ele>339.02000000000004</ele>
   </trkpt>
   <trkpt lat="-37.89372" lon="145.35718">
    <ele>344.94</ele>
   </trkpt>
   <trkpt lat="-37.89329" lon="145.35727">
    <ele>349.94</ele>
   </trkpt>
   <trkpt lat="-37.89316" lon="145.35723000000002">
    <ele>351.85</ele>
   </trkpt>
   <trkpt lat="-37.89298" lon="145.35709">
    <ele>352.89000000000004</ele>
   </trkpt>
   <trkpt lat="-37.89287" lon="145.35705000000002">
    <ele>354.22</ele>
   </trkpt>
   <trkpt lat="-37.89273" lon="145.35704">
    <ele>355.33000000000004</ele>
   </trkpt>
   <trkpt lat="-37.89258" lon="145.35709">
    <ele>357.64</ele>
   </trkpt>
   <trkpt lat="-37.89246" lon="145.35709">
    <ele>361.19</ele>
   </trkpt>
   <trkpt lat="-37.89195" lon="145.35690000000002">
    <ele>367.20000000000005</ele>
   </trkpt>
   <trkpt lat="-37.89186" lon="145.35682">
    <ele>370.95000000000005</ele>
   </trkpt>
   <trkpt lat="-37.891740000000006" lon="145.35659">
    <ele>374.01</ele>
   </trkpt>
   <trkpt lat="-37.89103" lon="145.35597">
    <ele>386.98</ele>
   </trkpt>
   <trkpt lat="-37.89058" lon="145.35553000000002">
    <ele>394.11</ele>
   </trkpt>
   <trkpt lat="-37.89034" lon="145.35532">
    <ele>396.12</ele>
   </trkpt>
   <trkpt lat="-37.88991" lon="145.35511000000002">
    <ele>401.71</ele>
   </trkpt>
   <trkpt lat="-37.88971" lon="145.35509000000002">
    <ele>406.27000000000004</ele>
   </trkpt>
   <trkpt lat="-37.88922" lon="145.35487">
    <ele>413.58000000000004</ele>
   </trkpt>
   <trkpt lat="-37.88915" lon="145.35486">
    <ele>413.78000000000003</ele>
   </trkpt>
   <trkpt lat="-37.88893" lon="145.35489">
    <ele>414.56000000000006</ele>
   </trkpt>
   <trkpt lat="-37.88868" lon="145.35495">
    <ele>416.14</ele>
   </trkpt>
   <trkpt lat="-37.88861" lon="145.35492000000002">
    <ele>417.24000000000007</ele>
   </trkpt>
   <trkpt lat="-37.8885" lon="145.35511000000002">
    <ele>421.00000000000006</ele>
   </trkpt>
   <trkpt lat="-37.88842" lon="145.35510000000002">
    <ele>433.00000000000006</ele>
   </trkpt>
   <trkpt lat="-37.888360000000006" lon="145.35505">
    <ele>433.00000000000006</ele>
   </trkpt>
   <trkpt lat="-37.88828" lon="145.35498">
    <ele>434.75</ele>
   </trkpt>
   <trkpt lat="-37.88801" lon="145.35417">
    <ele>444.20000000000005</ele>
   </trkpt>
   <trkpt lat="-37.88794" lon="145.35376000000002">
    <ele>447.54</ele>
   </trkpt>
   <trkpt lat="-37.88783" lon="145.35355">
    <ele>449.06</ele>
   </trkpt>
   <trkpt lat="-37.88767" lon="145.35317">
    <ele>452.16</ele>
   </trkpt>
   <trkpt lat="-37.88758" lon="145.35283">
    <ele>454.59000000000003</ele>
   </trkpt>
   <trkpt lat="-37.88745" lon="145.35251000000002">
    <ele>460.14000000000004</ele>
   </trkpt>
   <trkpt lat="-37.88725" lon="145.35215000000002">
    <ele>465.15000000000003</ele>
   </trkpt>
   <trkpt lat="-37.88696" lon="145.35204000000002">
    <ele>469.46000000000004</ele>
   </trkpt>
   <trkpt lat="-37.88678" lon="145.35203">
    <ele>471.25000000000006</ele>
   </trkpt>
   <trkpt lat="-37.88662" lon="145.352">
    <ele>472.41</ele>
   </trkpt>
   <trkpt lat="-37.88626" lon="145.35184">
    <ele>474.28000000000003</ele>
   </trkpt>
   <trkpt lat="-37.88615" lon="145.35176">
    <ele>474.57000000000005</ele>
   </trkpt>
   <trkpt lat="-37.88606" lon="145.35204000000002">
    <ele>478.27000000000004</ele>
   </trkpt>
   <trkpt lat="-37.88588" lon="145.35242000000002">
    <ele>483.84000000000003</ele>
   </trkpt>
   <trkpt lat="-37.88555" lon="145.35296000000002">
    <ele>488.21000000000004</ele>
   </trkpt>
   <trkpt lat="-37.88544" lon="145.35307">
    <ele>490.87</ele>
   </trkpt>
   <trkpt lat="-37.88508" lon="145.35324">
    <ele>494.05</ele>
   </trkpt>
   <trkpt lat="-37.88497" lon="145.35328">
    <ele>495.05</ele>
   </trkpt>
   <trkpt lat="-37.88434" lon="145.35368000000003">
    <ele>496.16</ele>
   </trkpt>
   <trkpt lat="-37.88423" lon="145.35381">
    <ele>495.04</ele>
   </trkpt>
   <trkpt lat="-37.88371" lon="145.35464000000002">
    <ele>488.68000000000006</ele>
   </trkpt>
   <trkpt lat="-37.88351" lon="145.35512">
    <ele>488.73</ele>
   </trkpt>
   <trkpt lat="-37.88351" lon="145.3553">
    <ele>489.46000000000004</ele>
   </trkpt>
   <trkpt lat="-37.88318" lon="145.3554">
    <ele>489.00000000000006</ele>
   </trkpt>
   <trkpt lat="-37.88315" lon="145.35522">
    <ele>487.6</ele>
   </trkpt>
   <trkpt lat="-37.88293" lon="145.35439000000002">
    <ele>484.14</ele>
   </trkpt>
   <trkpt lat="-37.88291" lon="145.35394000000002">
    <ele>482.71000000000004</ele>
   </trkpt>
   <trkpt lat="-37.88282" lon="145.35356000000002">
    <ele>480.98</ele>
   </trkpt>
   <trkpt lat="-37.88266" lon="145.35319">
    <ele>477.89000000000004</ele>
   </trkpt>
   <trkpt lat="-37.88266" lon="145.3531">
    <ele>477.89000000000004</ele>
   </trkpt>
   <trkpt lat="-37.883" lon="145.35234">
    <ele>474.75000000000006</ele>
   </trkpt>
   <trkpt lat="-37.88311" lon="145.35219">
    <ele>474.27000000000004</ele>
   </trkpt>
   <trkpt lat="-37.88342" lon="145.35195000000002">
    <ele>473.88</ele>
   </trkpt>
   <trkpt lat="-37.88353" lon="145.35180000000003">
    <ele>473.71000000000004</ele>
   </trkpt>
   <trkpt lat="-37.88369" lon="145.35151000000002">
    <ele>472.54</ele>
   </trkpt>
   <trkpt lat="-37.88385" lon="145.3513">
    <ele>470.69000000000005</ele>
   </trkpt>
   <trkpt lat="-37.88418" lon="145.35115000000002">
    <ele>472.6</ele>
   </trkpt>
   <trkpt lat="-37.88443" lon="145.35108000000002">
    <ele>474.32</ele>
   </trkpt>
   <trkpt lat="-37.88456" lon="145.35107000000002">
    <ele>476.2</ele>
   </trkpt>
   <trkpt lat="-37.884730000000005" lon="145.35098000000002">
    <ele>478.16</ele>
   </trkpt>
   <trkpt lat="-37.88461" lon="145.35066">
    <ele>487.25</ele>
   </trkpt>
   <trkpt lat="-37.88461" lon="145.35046">
    <ele>483.56000000000006</ele>
   </trkpt>
   <trkpt lat="-37.884640000000005" lon="145.35035000000002">
    <ele>481.59000000000003</ele>
   </trkpt>
   <trkpt lat="-37.88481" lon="145.35028">
    <ele>481.46000000000004</ele>
   </trkpt>
   <trkpt lat="-37.88503" lon="145.35021">
    <ele>482.07000000000005</ele>
   </trkpt>
   <trkpt lat="-37.88521" lon="145.35021">
    <ele>482.47</ele>
   </trkpt>
   <trkpt lat="-37.88537" lon="145.35015">
    <ele>483.54</ele>
   </trkpt>
   <trkpt lat="-37.88564" lon="145.34996">
    <ele>485.84000000000003</ele>
   </trkpt>
   <trkpt lat="-37.88568" lon="145.34986">
    <ele>486.42</ele>
   </trkpt>
   <trkpt lat="-37.88568" lon="145.34975">
    <ele>486.83000000000004</ele>
   </trkpt>
   <trkpt lat="-37.88561" lon="145.34938000000002">
    <ele>487.43</ele>
   </trkpt>
   <trkpt lat="-37.88561" lon="145.34911000000002">
    <ele>487.37</ele>
   </trkpt>
   <trkpt lat="-37.88555" lon="145.34883000000002">
    <ele>486.68000000000006</ele>
   </trkpt>
   <trkpt lat="-37.88548" lon="145.34823">
    <ele>486.32</ele>
   </trkpt>
   <trkpt lat="-37.8855" lon="145.34765000000002">
    <ele>487.07000000000005</ele>
   </trkpt>
   <trkpt lat="-37.88555" lon="145.34747000000002">
    <ele>487.01000000000005</ele>
   </trkpt>
   <trkpt lat="-37.88517" lon="145.34727">
    <ele>487.93</ele>
   </trkpt>
   <trkpt lat="-37.88492" lon="145.34708">
    <ele>489.13000000000005</ele>
   </trkpt>
   <trkpt lat="-37.88461" lon="145.34673">
    <ele>491.7</ele>
   </trkpt>
   <trkpt lat="-37.88454" lon="145.34662">
    <ele>492.69</ele>
   </trkpt>
   <trkpt lat="-37.88447" lon="145.34646">
    <ele>493.46000000000004</ele>
   </trkpt>
   <trkpt lat="-37.8842" lon="145.34558">
    <ele>503.19</ele>
   </trkpt>
   <trkpt lat="-37.88411" lon="145.34534000000002">
    <ele>505.58000000000004</ele>
   </trkpt>
   <trkpt lat="-37.88396" lon="145.34514000000001">
    <ele>507.93</ele>
   </trkpt>
   <trkpt lat="-37.88389" lon="145.34507000000002">
    <ele>508.99000000000007</ele>
   </trkpt>
   <trkpt lat="-37.88349" lon="145.34484">
    <ele>511.07</ele>
   </trkpt>
   <trkpt lat="-37.883" lon="145.34471000000002">
    <ele>515.03</ele>
   </trkpt>
   <trkpt lat="-37.88275" lon="145.34470000000002">
    <ele>518.0</ele>
   </trkpt>
   <trkpt lat="-37.88228" lon="145.34477">
    <ele>521.5200000000001</ele>
   </trkpt>
   <trkpt lat="-37.881665000197465" lon="145.3446049986443">
    <ele>526.25</ele>
   </trkpt>
   <trkpt lat="-37.88105" lon="145.34444000000002">
    <ele>527.86</ele>
   </trkpt>
   <trkpt lat="-37.8803450007479" lon="145.3440799966561">
    <ele>523.95</ele>
   </trkpt>
   <trkpt lat="-37.87964" lon="145.34372000000002">
    <ele>508.71</ele>
   </trkpt>
   <trkpt lat="-37.87955" lon="145.34361">
    <ele>508.71</ele>
   </trkpt>
   <trkpt lat="-37.87937" lon="145.34337000000002">
    <ele>504.9800000000001</ele>
   </trkpt>
   <trkpt lat="-37.87917" lon="145.34300000000002">
    <ele>501.69000000000005</ele>
   </trkpt>
   <trkpt lat="-37.87901" lon="145.34286">
    <ele>499.59000000000003</ele>
   </trkpt>
   <trkpt lat="-37.87892" lon="145.34284000000002">
    <ele>498.92</ele>
   </trkpt>
   <trkpt lat="-37.878930000000004" lon="145.34284000000002">
    <ele>498.92</ele>
   </trkpt>
   <trkpt lat="-37.87877" lon="145.34292000000002">
    <ele>497.36</ele>
   </trkpt>
   <trkpt lat="-37.87892" lon="145.34343">
    <ele>502.11000000000007</ele>
   </trkpt>
   <trkpt lat="-37.879070000000006" lon="145.34405">
    <ele>504.76</ele>
   </trkpt>
   <trkpt lat="-37.87919" lon="145.34452000000002">
    <ele>505.88</ele>
   </trkpt>
   <trkpt lat="-37.87914" lon="145.34452000000002">
    <ele>505.88</ele>
   </trkpt>
   <trkpt lat="-37.8789" lon="145.34474">
    <ele>511.24</ele>
   </trkpt>
   <trkpt lat="-37.87888" lon="145.34482">
    <ele>512.82</ele>
   </trkpt>
   <trkpt lat="-37.878750000000004" lon="145.34495">
    <ele>516.99</ele>
   </trkpt>
   <trkpt lat="-37.87861" lon="145.34490000000002">
    <ele>516.8600000000001</ele>
   </trkpt>
   <trkpt lat="-37.87836" lon="145.34455">
    <ele>514.5000000000001</ele>
   </trkpt>
   <trkpt lat="-37.87827" lon="145.34451">
    <ele>514.37</ele>
   </trkpt>
   <trkpt lat="-37.87814" lon="145.34448">
    <ele>514.34</ele>
   </trkpt>
   <trkpt lat="-37.87807" lon="145.34451">
    <ele>514.48</ele>
   </trkpt>
   <trkpt lat="-37.87805" lon="145.34458">
    <ele>514.72</ele>
   </trkpt>
   <trkpt lat="-37.878040000000006" lon="145.34474">
    <ele>514.93</ele>
   </trkpt>
   <trkpt lat="-37.878" lon="145.34487000000001">
    <ele>515.0600000000001</ele>
   </trkpt>
   <trkpt lat="-37.87794" lon="145.34497000000002">
    <ele>515.0600000000001</ele>
   </trkpt>
   <trkpt lat="-37.87767" lon="145.34526000000002">
    <ele>513.3199999999999</ele>
   </trkpt>
   <trkpt lat="-37.877570000000006" lon="145.34542000000002">
    <ele>512.8000000000001</ele>
   </trkpt>
   <trkpt lat="-37.87726" lon="145.34634">
    <ele>509.2300000000001</ele>
   </trkpt>
   <trkpt lat="-37.87702" lon="145.34689">
    <ele>508.57000000000005</ele>
   </trkpt>
   <trkpt lat="-37.87688" lon="145.34705000000002">
    <ele>509.29</ele>
   </trkpt>
   <trkpt lat="-37.876760000000004" lon="145.34722000000002">
    <ele>509.43000000000006</ele>
   </trkpt>
   <trkpt lat="-37.87726" lon="145.34721000000002">
    <ele>508.97</ele>
   </trkpt>
   <trkpt lat="-37.87758" lon="145.34729000000002">
    <ele>508.21000000000004</ele>
   </trkpt>
   <trkpt lat="-37.87776" lon="145.34745">
    <ele>507.17</ele>
   </trkpt>
   <trkpt lat="-37.87794" lon="145.34774000000002">
    <ele>505.93</ele>
   </trkpt>
   <trkpt lat="-37.878040000000006" lon="145.34804000000003">
    <ele>503.16</ele>
   </trkpt>
   <trkpt lat="-37.87825" lon="145.34847000000002">
    <ele>499.18000000000006</ele>
   </trkpt>
   <trkpt lat="-37.87847" lon="145.34895">
    <ele>496.35</ele>
   </trkpt>
   <trkpt lat="-37.87872" lon="145.34991000000002">
    <ele>492.94000000000005</ele>
   </trkpt>
   <trkpt lat="-37.87876" lon="145.35029">
    <ele>492.32000000000005</ele>
   </trkpt>
   <trkpt lat="-37.87859" lon="145.35132000000002">
    <ele>487.51000000000005</ele>
   </trkpt>
   <trkpt lat="-37.87841" lon="145.3519">
    <ele>485.4100000000001</ele>
   </trkpt>
   <trkpt lat="-37.87832" lon="145.35207000000003">
    <ele>484.80000000000007</ele>
   </trkpt>
   <trkpt lat="-37.87827" lon="145.35227">
    <ele>484.31</ele>
   </trkpt>
   <trkpt lat="-37.87816" lon="145.35258000000002">
    <ele>482.46000000000004</ele>
   </trkpt>
   <trkpt lat="-37.87782" lon="145.35314000000002">
    <ele>479.93</ele>
   </trkpt>
   <trkpt lat="-37.87773" lon="145.35335">
    <ele>479.93</ele>
   </trkpt>
   <trkpt lat="-37.8776" lon="145.35354">
    <ele>476.90000000000003</ele>
   </trkpt>
   <trkpt lat="-37.87731" lon="145.35406">
    <ele>474.51000000000005</ele>
   </trkpt>
   <trkpt lat="-37.87702" lon="145.35441">
    <ele>472.4200000000001</ele>
   </trkpt>
   <trkpt lat="-37.87684" lon="145.35466000000002">
    <ele>470.6</ele>
   </trkpt>
   <trkpt lat="-37.8767" lon="145.35494">
    <ele>467.82</ele>
   </trkpt>
   <trkpt lat="-37.87666" lon="145.35511000000002">
    <ele>467.19000000000005</ele>
   </trkpt>
   <trkpt lat="-37.87666" lon="145.35527000000002">
    <ele>463.86</ele>
   </trkpt>
   <trkpt lat="-37.87688000175175" lon="145.35591499805113">
    <ele>461.85</ele>
   </trkpt>
   <trkpt lat="-37.877100000000006" lon="145.35656">
    <ele>462.51000000000005</ele>
   </trkpt>
   <trkpt lat="-37.87693" lon="145.35664">
    <ele>458.09000000000003</ele>
   </trkpt>
   <trkpt lat="-37.87688" lon="145.35664">
    <ele>464.0400000000001</ele>
   </trkpt>
   <trkpt lat="-37.87664" lon="145.35614">
    <ele>462.71</ele>
   </trkpt>
   <trkpt lat="-37.87639" lon="145.35572000000002">
    <ele>463.90000000000003</ele>
   </trkpt>
   <trkpt lat="-37.87617" lon="145.35548">
    <ele>465.79</ele>
   </trkpt>
   <trkpt lat="-37.87608" lon="145.35524">
    <ele>467.27</ele>
   </trkpt>
   <trkpt lat="-37.87608" lon="145.35506">
    <ele>468.01000000000005</ele>
   </trkpt>
   <trkpt lat="-37.876180000000005" lon="145.35491000000002">
    <ele>468.80000000000007</ele>
   </trkpt>
   <trkpt lat="-37.8761" lon="145.35474000000002">
    <ele>470.1</ele>
   </trkpt>
   <trkpt lat="-37.87599" lon="145.35412000000002">
    <ele>475.5</ele>
   </trkpt>
   <trkpt lat="-37.87619" lon="145.35323000000002">
    <ele>485.35</ele>
   </trkpt>
   <trkpt lat="-37.87635" lon="145.35294000000002">
    <ele>486.34000000000003</ele>
   </trkpt>
   <trkpt lat="-37.87635" lon="145.35272">
    <ele>489.39000000000004</ele>
   </trkpt>
   <trkpt lat="-37.87621" lon="145.35214000000002">
    <ele>496.06000000000006</ele>
   </trkpt>
   <trkpt lat="-37.87621" lon="145.35187000000002">
    <ele>500.53000000000003</ele>
   </trkpt>
   <trkpt lat="-37.87617" lon="145.35166">
    <ele>502.53999999999996</ele>
   </trkpt>
   <trkpt lat="-37.87601" lon="145.35145">
    <ele>505.05</ele>
   </trkpt>
   <trkpt lat="-37.87592" lon="145.35115000000002">
    <ele>509.6700000000001</ele>
   </trkpt>
   <trkpt lat="-37.87576" lon="145.35083">
    <ele>514.61</ele>
   </trkpt>
   <trkpt lat="-37.8755" lon="145.3505">
    <ele>519.4100000000001</ele>
   </trkpt>
   <trkpt lat="-37.87518" lon="145.35024">
    <ele>521.98</ele>
   </trkpt>
   <trkpt lat="-37.8748" lon="145.34975">
    <ele>525.25</ele>
   </trkpt>
   <trkpt lat="-37.87438" lon="145.34938000000002">
    <ele>525.22</ele>
   </trkpt>
   <trkpt lat="-37.87413" lon="145.34910000000002">
    <ele>525.9200000000001</ele>
   </trkpt>
   <trkpt lat="-37.87397" lon="145.34883000000002">
    <ele>526.7900000000001</ele>
   </trkpt>
   <trkpt lat="-37.87397" lon="145.34874000000002">
    <ele>527.59</ele>
   </trkpt>
   <trkpt lat="-37.87402" lon="145.34863">
    <ele>527.83</ele>
   </trkpt>
   <trkpt lat="-37.87432000204222" lon="145.3479450026575">
    <ele>528.71</ele>
   </trkpt>
   <trkpt lat="-37.87462" lon="145.34726">
    <ele>527.64</ele>
   </trkpt>
   <trkpt lat="-37.87462" lon="145.34694000000002">
    <ele>527.94</ele>
   </trkpt>
   <trkpt lat="-37.87438500130286" lon="145.34636499793243">
    <ele>529.7</ele>
   </trkpt>
   <trkpt lat="-37.87415" lon="145.34579000000002">
    <ele>530.36</ele>
   </trkpt>
   <trkpt lat="-37.87362333588239" lon="145.34524665895188">
    <ele>523.2900000000001</ele>
   </trkpt>
   <trkpt lat="-37.873096669267845" lon="145.3447033256724">
    <ele>519.57</ele>
   </trkpt>
   <trkpt lat="-37.87257" lon="145.34416000000002">
    <ele>515.7900000000001</ele>
   </trkpt>
   <trkpt lat="-37.8721650003472" lon="145.3437899977543">
    <ele>515.33</ele>
   </trkpt>
   <trkpt lat="-37.87176" lon="145.34342">
    <ele>512.34</ele>
   </trkpt>
   <trkpt lat="-37.87145000053656" lon="145.34383500200292">
    <ele>510.13000000000005</ele>
   </trkpt>
   <trkpt lat="-37.871140000000004" lon="145.34425000000002">
    <ele>508.70000000000005</ele>
   </trkpt>
   <trkpt lat="-37.870830000000005" lon="145.34461000000002">
    <ele>508.81000000000006</ele>
   </trkpt>
   <trkpt lat="-37.870630000000006" lon="145.34474">
    <ele>510.53000000000003</ele>
   </trkpt>
   <trkpt lat="-37.87035" lon="145.34482">
    <ele>512.42</ele>
   </trkpt>
   <trkpt lat="-37.87024" lon="145.34483">
    <ele>513.5600000000001</ele>
   </trkpt>
   <trkpt lat="-37.86983" lon="145.34474">
    <ele>517.99</ele>
   </trkpt>
   <trkpt lat="-37.86956" lon="145.34455">
    <ele>514.58</ele>
   </trkpt>
   <trkpt lat="-37.86907" lon="145.34435000000002">
    <ele>508.65999999999997</ele>
   </trkpt>
   <trkpt lat="-37.86889" lon="145.34432">
    <ele>507.86000000000007</ele>
   </trkpt>
   <trkpt lat="-37.86862" lon="145.34431">
    <ele>506.61</ele>
   </trkpt>
   <trkpt lat="-37.86844" lon="145.34437">
    <ele>506.28000000000003</ele>
   </trkpt>
   <trkpt lat="-37.86792500002919" lon="145.3444400004881">
    <ele>504.32</ele>
   </trkpt>
   <trkpt lat="-37.86741" lon="145.34451">
    <ele>500.26000000000005</ele>
   </trkpt>
   <trkpt lat="-37.86697" lon="145.34459">
    <ele>496.68000000000006</ele>
   </trkpt>
   <trkpt lat="-37.86621" lon="145.34518">
    <ele>489.8</ele>
   </trkpt>
   <trkpt lat="-37.86594" lon="145.34546">
    <ele>496.71000000000004</ele>
   </trkpt>
   <trkpt lat="-37.86589" lon="145.34556">
    <ele>498.35</ele>
   </trkpt>
   <trkpt lat="-37.866" lon="145.34601">
    <ele>500.48</ele>
   </trkpt>
   <trkpt lat="-37.866" lon="145.34609">
    <ele>500.74000000000007</ele>
   </trkpt>
   <trkpt lat="-37.86598" lon="145.34626">
    <ele>501.21999999999997</ele>
   </trkpt>
   <trkpt lat="-37.86589" lon="145.34647">
    <ele>501.09999999999997</ele>
   </trkpt>
   <trkpt lat="-37.8659" lon="145.34657">
    <ele>500.88</ele>
   </trkpt>
   <trkpt lat="-37.865370000000006" lon="145.34673">
    <ele>505.31</ele>
   </trkpt>
   <trkpt lat="-37.86493" lon="145.34701">
    <ele>509.06000000000006</ele>
   </trkpt>
   <trkpt lat="-37.86482" lon="145.34718">
    <ele>510.63</ele>
   </trkpt>
   <trkpt lat="-37.864810000000006" lon="145.34757000000002">
    <ele>516.0</ele>
   </trkpt>
   <trkpt lat="-37.86484" lon="145.34797">
    <ele>520.3000000000001</ele>
   </trkpt>
   <trkpt lat="-37.86491" lon="145.34814">
    <ele>524.34</ele>
   </trkpt>
   <trkpt lat="-37.86497" lon="145.34822">
    <ele>524.34</ele>
   </trkpt>
   <trkpt lat="-37.86496" lon="145.34829000000002">
    <ele>524.4000000000001</ele>
   </trkpt>
   <trkpt lat="-37.86491" lon="145.34857000000002">
    <ele>523.09</ele>
   </trkpt>
   <trkpt lat="-37.864695001511485" lon="145.3491700017808">
    <ele>518.0</ele>
   </trkpt>
   <trkpt lat="-37.86448" lon="145.34977">
    <ele>511.50000000000006</ele>
   </trkpt>
   <trkpt lat="-37.86417" lon="145.35060000000001">
    <ele>500.36</ele>
   </trkpt>
   <trkpt lat="-37.8641" lon="145.35074">
    <ele>498.24</ele>
   </trkpt>
   <trkpt lat="-37.8641" lon="145.35089000000002">
    <ele>497.63</ele>
   </trkpt>
   <trkpt lat="-37.864050000000006" lon="145.35102">
    <ele>495.37</ele>
   </trkpt>
   <trkpt lat="-37.86379" lon="145.35118">
    <ele>487.50000000000006</ele>
   </trkpt>
   <trkpt lat="-37.86368" lon="145.35119">
    <ele>484.55</ele>
   </trkpt>
   <trkpt lat="-37.86359" lon="145.35126000000002">
    <ele>482.88</ele>
   </trkpt>
   <trkpt lat="-37.8635" lon="145.3513">
    <ele>481.55</ele>
   </trkpt>
   <trkpt lat="-37.863420000000005" lon="145.35147">
    <ele>479.96000000000004</ele>
   </trkpt>
   <trkpt lat="-37.8633" lon="145.35153000000003">
    <ele>479.46000000000004</ele>
   </trkpt>
   <trkpt lat="-37.863110000000006" lon="145.35169000000002">
    <ele>479.08000000000004</ele>
   </trkpt>
   <trkpt lat="-37.86309" lon="145.35176">
    <ele>479.42</ele>
   </trkpt>
   <trkpt lat="-37.86312" lon="145.35186000000002">
    <ele>479.62000000000006</ele>
   </trkpt>
   <trkpt lat="-37.863400000000006" lon="145.35247">
    <ele>482.19000000000005</ele>
   </trkpt>
   <trkpt lat="-37.863690000000005" lon="145.3531">
    <ele>478.17</ele>
   </trkpt>
   <trkpt lat="-37.86305" lon="145.35354">
    <ele>478.29</ele>
   </trkpt>
   <trkpt lat="-37.862820000000006" lon="145.35372">
    <ele>479.47</ele>
   </trkpt>
   <trkpt lat="-37.86316" lon="145.35444">
    <ele>486.04</ele>
   </trkpt>
   <trkpt lat="-37.86334" lon="145.35477">
    <ele>485.2</ele>
   </trkpt>
   <trkpt lat="-37.86345" lon="145.35489">
    <ele>485.07000000000005</ele>
   </trkpt>
   <trkpt lat="-37.863600000000005" lon="145.35494">
    <ele>485.99</ele>
   </trkpt>
   <trkpt lat="-37.86415" lon="145.35496">
    <ele>470.31000000000006</ele>
   </trkpt>
   <trkpt lat="-37.86435" lon="145.35499000000002">
    <ele>465.62</ele>
   </trkpt>
   <trkpt lat="-37.8645" lon="145.35506">
    <ele>458.57000000000005</ele>
   </trkpt>
   <trkpt lat="-37.86486" lon="145.35513">
    <ele>444.51</ele>
   </trkpt>
   <trkpt lat="-37.86502" lon="145.35512">
    <ele>438.6700000000001</ele>
   </trkpt>
   <trkpt lat="-37.8652" lon="145.35519000000002">
    <ele>432.53000000000003</ele>
   </trkpt>
   <trkpt lat="-37.86547" lon="145.35535000000002">
    <ele>427.85</ele>
   </trkpt>
   <trkpt lat="-37.86585" lon="145.3554">
    <ele>419.66</ele>
   </trkpt>
   <trkpt lat="-37.86598" lon="145.35555000000002">
    <ele>414.52000000000004</ele>
   </trkpt>
   <trkpt lat="-37.86598" lon="145.35567">
    <ele>413.18000000000006</ele>
   </trkpt>
   <trkpt lat="-37.865930000000006" lon="145.35577">
    <ele>412.07000000000005</ele>
   </trkpt>
   <trkpt lat="-37.86589" lon="145.35596">
    <ele>421.32</ele>
   </trkpt>
   <trkpt lat="-37.86589" lon="145.35612">
    <ele>429.99</ele>
   </trkpt>
   <trkpt lat="-37.86605" lon="145.35616000000002">
    <ele>434.4</ele>
   </trkpt>
   <trkpt lat="-37.86623" lon="145.35623">
    <ele>446.00000000000006</ele>
   </trkpt>
   <trkpt lat="-37.8665" lon="145.35665">
    <ele>441.53000000000003</ele>
   </trkpt>
   <trkpt lat="-37.86654" lon="145.35708000000002">
    <ele>437.9</ele>
   </trkpt>
   <trkpt lat="-37.86674" lon="145.35733000000002">
    <ele>435.6</ele>
   </trkpt>
   <trkpt lat="-37.86694" lon="145.35745">
    <ele>434.62000000000006</ele>
   </trkpt>
   <trkpt lat="-37.86715" lon="145.35776">
    <ele>434.83000000000004</ele>
   </trkpt>
   <trkpt lat="-37.86728" lon="145.35787000000002">
    <ele>433.6700000000001</ele>
   </trkpt>
   <trkpt lat="-37.86737" lon="145.35797000000002">
    <ele>433.21000000000004</ele>
   </trkpt>
   <trkpt lat="-37.86748" lon="145.35804000000002">
    <ele>433.11</ele>
   </trkpt>
   <trkpt lat="-37.86766" lon="145.3582">
    <ele>432.81</ele>
   </trkpt>
   <trkpt lat="-37.86768" lon="145.35825">
    <ele>432.68</ele>
   </trkpt>
   <trkpt lat="-37.86773" lon="145.35860000000002">
    <ele>432.26000000000005</ele>
   </trkpt>
   <trkpt lat="-37.86793" lon="145.35878000000002">
    <ele>433.04</ele>
   </trkpt>
   <trkpt lat="-37.86806" lon="145.35901">
    <ele>433.06000000000006</ele>
   </trkpt>
   <trkpt lat="-37.8682" lon="145.35908">
    <ele>432.40000000000003</ele>
   </trkpt>
   <trkpt lat="-37.86871" lon="145.35917">
    <ele>432.71000000000004</ele>
   </trkpt>
   <trkpt lat="-37.86887" lon="145.35943">
    <ele>431.01000000000005</ele>
   </trkpt>
   <trkpt lat="-37.869220000000006" lon="145.35977000000003">
    <ele>429.25</ele>
   </trkpt>
   <trkpt lat="-37.8695" lon="145.36015">
    <ele>428.54</ele>
   </trkpt>
   <trkpt lat="-37.86963" lon="145.36053">
    <ele>426.08</ele>
   </trkpt>
   <trkpt lat="-37.86972" lon="145.36065000000002">
    <ele>425.81</ele>
   </trkpt>
   <trkpt lat="-37.86999" lon="145.36083000000002">
    <ele>425.67</ele>
   </trkpt>
   <trkpt lat="-37.87071" lon="145.36105">
    <ele>424.27000000000004</ele>
   </trkpt>
   <trkpt lat="-37.87113" lon="145.36123">
    <ele>423.07000000000005</ele>
   </trkpt>
   <trkpt lat="-37.87182" lon="145.36126000000002">
    <ele>423.22</ele>
   </trkpt>
   <trkpt lat="-37.87205" lon="145.36114">
    <ele>423.19</ele>
   </trkpt>
   <trkpt lat="-37.87221" lon="145.36118000000002">
    <ele>422.46000000000004</ele>
   </trkpt>
   <trkpt lat="-37.87234" lon="145.36127000000002">
    <ele>422.21000000000004</ele>
   </trkpt>
   <trkpt lat="-37.87243" lon="145.36129000000003">
    <ele>421.17</ele>
   </trkpt>
   <trkpt lat="-37.87292" lon="145.36119000000002">
    <ele>419.31</ele>
   </trkpt>
   <trkpt lat="-37.87326" lon="145.36121">
    <ele>416.96000000000004</ele>
   </trkpt>
   <trkpt lat="-37.87339" lon="145.36129000000003">
    <ele>407.71000000000004</ele>
   </trkpt>
   <trkpt lat="-37.873580000000004" lon="145.36148">
    <ele>400.72</ele>
   </trkpt>
   <trkpt lat="-37.87357" lon="145.36147000000003">
    <ele>400.72</ele>
   </trkpt>
   <trkpt lat="-37.87377" lon="145.36196">
    <ele>387.29</ele>
   </trkpt>
   <trkpt lat="-37.87377" lon="145.36206">
    <ele>374.47</ele>
   </trkpt>
   <trkpt lat="-37.873740000000005" lon="145.36213">
    <ele>374.47</ele>
   </trkpt>
   <trkpt lat="-37.87377" lon="145.36227000000002">
    <ele>375.31</ele>
   </trkpt>
   <trkpt lat="-37.874010000000006" lon="145.36278000000001">
    <ele>377.64000000000004</ele>
   </trkpt>
   <trkpt lat="-37.87409" lon="145.36301">
    <ele>379.44000000000005</ele>
   </trkpt>
   <trkpt lat="-37.87404" lon="145.36333000000002">
    <ele>382.05000000000007</ele>
   </trkpt>
   <trkpt lat="-37.874100000000006" lon="145.36338">
    <ele>382.24</ele>
   </trkpt>
   <trkpt lat="-37.87438" lon="145.36402">
    <ele>381.86</ele>
   </trkpt>
   <trkpt lat="-37.87438" lon="145.3642">
    <ele>382.69</ele>
   </trkpt>
   <trkpt lat="-37.87444" lon="145.36441000000002">
    <ele>383.51</ele>
   </trkpt>
   <trkpt lat="-37.87444" lon="145.36466000000001">
    <ele>384.45</ele>
   </trkpt>
   <trkpt lat="-37.87456" lon="145.36519">
    <ele>385.3</ele>
   </trkpt>
   <trkpt lat="-37.87467" lon="145.36552">
    <ele>383.61</ele>
   </trkpt>
   <trkpt lat="-37.87485" lon="145.36586">
    <ele>381.0</ele>
   </trkpt>
   <trkpt lat="-37.87485" lon="145.36601000000002">
    <ele>381.77000000000004</ele>
   </trkpt>
   <trkpt lat="-37.8748" lon="145.36626">
    <ele>383.16</ele>
   </trkpt>
   <trkpt lat="-37.87482" lon="145.36636000000001">
    <ele>383.12</ele>
   </trkpt>
   <trkpt lat="-37.87509" lon="145.36668">
    <ele>379.59000000000003</ele>
   </trkpt>
   <trkpt lat="-37.87523" lon="145.36692000000002">
    <ele>378.92</ele>
   </trkpt>
   <trkpt lat="-37.87559" lon="145.36734">
    <ele>376.24</ele>
   </trkpt>
   <trkpt lat="-37.8757" lon="145.3675">
    <ele>373.84</ele>
   </trkpt>
   <trkpt lat="-37.875690000000006" lon="145.36763000000002">
    <ele>373.04</ele>
   </trkpt>
   <trkpt lat="-37.87561" lon="145.36792">
    <ele>372.19</ele>
   </trkpt>
   <trkpt lat="-37.875510000000006" lon="145.36811">
    <ele>372.79</ele>
   </trkpt>
   <trkpt lat="-37.87545" lon="145.3683">
    <ele>372.78000000000003</ele>
   </trkpt>
   <trkpt lat="-37.87556" lon="145.36883">
    <ele>370.36</ele>
   </trkpt>
   <trkpt lat="-37.87554" lon="145.36915000000002">
    <ele>372.45</ele>
   </trkpt>
   <trkpt lat="-37.87538" lon="145.36979000000002">
    <ele>377.24</ele>
   </trkpt>
   <trkpt lat="-37.87545" lon="145.37030000000001">
    <ele>372.56000000000006</ele>
   </trkpt>
   <trkpt lat="-37.87552" lon="145.37054">
    <ele>369.22</ele>
   </trkpt>
   <trkpt lat="-37.87558000000001" lon="145.37065">
    <ele>369.22</ele>
   </trkpt>
   <trkpt lat="-37.87559" lon="145.37066000000002">
    <ele>369.22</ele>
   </trkpt>
   <trkpt lat="-37.87608" lon="145.37106">
    <ele>355.58</ele>
   </trkpt>
   <trkpt lat="-37.87614000000001" lon="145.37109">
    <ele>354.73</ele>
   </trkpt>
   <trkpt lat="-37.87635" lon="145.37115">
    <ele>341.78000000000003</ele>
   </trkpt>
   <trkpt lat="-37.8765" lon="145.37138000000002">
    <ele>332.76</ele>
   </trkpt>
   <trkpt lat="-37.87675" lon="145.37167000000002">
    <ele>332.12</ele>
   </trkpt>
   <trkpt lat="-37.876810000000006" lon="145.37147000000002">
    <ele>332.39</ele>
   </trkpt>
   <trkpt lat="-37.87693" lon="145.37134">
    <ele>333.51000000000005</ele>
   </trkpt>
   <trkpt lat="-37.87713" lon="145.37159000000003">
    <ele>334.27</ele>
   </trkpt>
   <trkpt lat="-37.877570000000006" lon="145.37197">
    <ele>337.26</ele>
   </trkpt>
   <trkpt lat="-37.87773" lon="145.37208">
    <ele>338.1</ele>
   </trkpt>
   <trkpt lat="-37.87778" lon="145.37220000000002">
    <ele>338.17</ele>
   </trkpt>
   <trkpt lat="-37.87782" lon="145.37237000000002">
    <ele>338.47</ele>
   </trkpt>
   <trkpt lat="-37.87791" lon="145.37255000000002">
    <ele>339.07000000000005</ele>
   </trkpt>
   <trkpt lat="-37.87807" lon="145.37275000000002">
    <ele>340.64000000000004</ele>
   </trkpt>
   <trkpt lat="-37.87832" lon="145.37275000000002">
    <ele>332.74</ele>
   </trkpt>
   <trkpt lat="-37.87841" lon="145.37286">
    <ele>330.57000000000005</ele>
   </trkpt>
   <trkpt lat="-37.878460000000004" lon="145.37306">
    <ele>325.69000000000005</ele>
   </trkpt>
   <trkpt lat="-37.87863" lon="145.37271">
    <ele>329.74</ele>
   </trkpt>
   <trkpt lat="-37.87883" lon="145.37248000000002">
    <ele>333.59000000000003</ele>
   </trkpt>
   <trkpt lat="-37.878980000000006" lon="145.3724">
    <ele>336.14000000000004</ele>
   </trkpt>
   <trkpt lat="-37.87935" lon="145.37225">
    <ele>339.14000000000004</ele>
   </trkpt>
   <trkpt lat="-37.879430000000006" lon="145.37229000000002">
    <ele>339.71</ele>
   </trkpt>
   <trkpt lat="-37.87955" lon="145.37228000000002">
    <ele>339.71</ele>
   </trkpt>
   <trkpt lat="-37.88013" lon="145.37231">
    <ele>342.17</ele>
   </trkpt>
   <trkpt lat="-37.88033" lon="145.37229000000002">
    <ele>343.76</ele>
   </trkpt>
   <trkpt lat="-37.88073" lon="145.37217">
    <ele>345.72</ele>
   </trkpt>
   <trkpt lat="-37.88098" lon="145.37206">
    <ele>348.0</ele>
   </trkpt>
   <trkpt lat="-37.88146500028017" lon="145.37177500191407">
    <ele>352.44</ele>
   </trkpt>
   <trkpt lat="-37.88195" lon="145.37149000000002">
    <ele>355.69</ele>
   </trkpt>
   <trkpt lat="-37.8819" lon="145.37178">
    <ele>358.3</ele>
   </trkpt>
   <trkpt lat="-37.881920001448265" lon="145.37236499986722">
    <ele>371.11000000000007</ele>
   </trkpt>
   <trkpt lat="-37.88194" lon="145.37295">
    <ele>380.22</ele>
   </trkpt>
   <trkpt lat="-37.88143" lon="145.37332">
    <ele>382.74</ele>
   </trkpt>
   <trkpt lat="-37.880915000942345" lon="145.3737800031742">
    <ele>388.05</ele>
   </trkpt>
   <trkpt lat="-37.8804" lon="145.37424000000001">
    <ele>390.68</ele>
   </trkpt>
   <trkpt lat="-37.88017" lon="145.37452000000002">
    <ele>393.72</ele>
   </trkpt>
   <trkpt lat="-37.88015" lon="145.37459">
    <ele>393.72</ele>
   </trkpt>
   <trkpt lat="-37.88017" lon="145.37508000000003">
    <ele>396.28000000000003</ele>
   </trkpt>
   <trkpt lat="-37.88029" lon="145.37536">
    <ele>399.39</ele>
   </trkpt>
   <trkpt lat="-37.88042" lon="145.37560000000002">
    <ele>400.86</ele>
   </trkpt>
   <trkpt lat="-37.88090500171451" lon="145.37623499583043">
    <ele>405.57000000000005</ele>
   </trkpt>
   <trkpt lat="-37.88139" lon="145.37687000000003">
    <ele>408.99</ele>
   </trkpt>
   <trkpt lat="-37.88164000147127" lon="145.37746999784022">
    <ele>407.33000000000004</ele>
   </trkpt>
   <trkpt lat="-37.881890000000006" lon="145.37807">
    <ele>406.15</ele>
   </trkpt>
   <trkpt lat="-37.88233500170895" lon="145.37871499602937">
    <ele>402.86000000000007</ele>
   </trkpt>
   <trkpt lat="-37.882780000000004" lon="145.37936000000002">
    <ele>399.0</ele>
   </trkpt>
   <trkpt lat="-37.883230000000005" lon="145.38031">
    <ele>374.00000000000006</ele>
   </trkpt>
   <trkpt lat="-37.88409" lon="145.37999000000002">
    <ele>387.53000000000003</ele>
   </trkpt>
   <trkpt lat="-37.88432" lon="145.37973000000002">
    <ele>390.01</ele>
   </trkpt>
   <trkpt lat="-37.88411" lon="145.37969">
    <ele>391.99</ele>
   </trkpt>
   <trkpt lat="-37.884" lon="145.37962000000002">
    <ele>394.24</ele>
   </trkpt>
   <trkpt lat="-37.88378" lon="145.37941">
    <ele>396.66</ele>
   </trkpt>
   <trkpt lat="-37.88355" lon="145.37913">
    <ele>400.9800000000001</ele>
   </trkpt>
   <trkpt lat="-37.8843450001291" lon="145.37897500166795">
    <ele>395.94</ele>
   </trkpt>
   <trkpt lat="-37.88514" lon="145.37882000000002">
    <ele>394.94</ele>
   </trkpt>
   <trkpt lat="-37.88541" lon="145.37883000000002">
    <ele>396.34000000000003</ele>
   </trkpt>
   <trkpt lat="-37.88552" lon="145.37887">
    <ele>396.34000000000003</ele>
   </trkpt>
   <trkpt lat="-37.88624" lon="145.37927000000002">
    <ele>399.13000000000005</ele>
   </trkpt>
   <trkpt lat="-37.886320000000005" lon="145.37939">
    <ele>400.14000000000004</ele>
   </trkpt>
   <trkpt lat="-37.8864" lon="145.37868">
    <ele>402.9200000000001</ele>
   </trkpt>
   <trkpt lat="-37.8866" lon="145.3778">
    <ele>403.03000000000003</ele>
   </trkpt>
   <trkpt lat="-37.886720000000004" lon="145.37794000000002">
    <ele>402.21</ele>
   </trkpt>
   <trkpt lat="-37.887240000000006" lon="145.3779">
    <ele>400.19000000000005</ele>
   </trkpt>
   <trkpt lat="-37.8877" lon="145.37814">
    <ele>402.43</ele>
   </trkpt>
   <trkpt lat="-37.887890000000006" lon="145.37830000000002">
    <ele>403.95000000000005</ele>
   </trkpt>
   <trkpt lat="-37.88812" lon="145.37844">
    <ele>405.54</ele>
   </trkpt>
   <trkpt lat="-37.88832" lon="145.3785">
    <ele>406.01000000000005</ele>
   </trkpt>
   <trkpt lat="-37.88861" lon="145.37863000000002">
    <ele>408.45000000000005</ele>
   </trkpt>
   <trkpt lat="-37.88917000045836" lon="145.3789299977599">
    <ele>414.40000000000003</ele>
   </trkpt>
   <trkpt lat="-37.88973" lon="145.37923">
    <ele>417.99</ele>
   </trkpt>
   <trkpt lat="-37.890150000000006" lon="145.3795">
    <ele>421.56000000000006</ele>
   </trkpt>
   <trkpt lat="-37.89045" lon="145.37973000000002">
    <ele>423.03000000000003</ele>
   </trkpt>
   <trkpt lat="-37.89085" lon="145.38015000000001">
    <ele>426.23</ele>
   </trkpt>
   <trkpt lat="-37.8913550007523" lon="145.38059499687247">
    <ele>425.55</ele>
   </trkpt>
   <trkpt lat="-37.89186" lon="145.38104">
    <ele>424.59000000000003</ele>
   </trkpt>
   <trkpt lat="-37.89206" lon="145.38125000000002">
    <ele>424.40000000000003</ele>
   </trkpt>
   <trkpt lat="-37.89233" lon="145.38163">
    <ele>424.89000000000004</ele>
   </trkpt>
   <trkpt lat="-37.89242" lon="145.38186000000002">
    <ele>424.68000000000006</ele>
   </trkpt>
   <trkpt lat="-37.89255" lon="145.38238">
    <ele>423.11</ele>
   </trkpt>
   <trkpt lat="-37.892520001865584" lon="145.38304500037967">
    <ele>421.93</ele>
   </trkpt>
   <trkpt lat="-37.89249" lon="145.38371">
    <ele>422.43</ele>
   </trkpt>
   <trkpt lat="-37.89251" lon="145.38418000000001">
    <ele>422.82</ele>
   </trkpt>
   <trkpt lat="-37.8926" lon="145.38464000000002">
    <ele>422.7</ele>
   </trkpt>
   <trkpt lat="-37.892830000000004" lon="145.38529">
    <ele>422.71000000000004</ele>
   </trkpt>
   <trkpt lat="-37.89309" lon="145.38577">
    <ele>420.45000000000005</ele>
   </trkpt>
   <trkpt lat="-37.89369000000001" lon="145.38629">
    <ele>419.32</ele>
   </trkpt>
   <trkpt lat="-37.89432" lon="145.38645000000002">
    <ele>418.14</ele>
   </trkpt>
   <trkpt lat="-37.89495" lon="145.38648">
    <ele>416.59000000000003</ele>
   </trkpt>
   <trkpt lat="-37.89535" lon="145.38631">
    <ele>414.16</ele>
   </trkpt>
   <trkpt lat="-37.89551" lon="145.38614">
    <ele>413.78000000000003</ele>
   </trkpt>
   <trkpt lat="-37.89593" lon="145.38579000000001">
    <ele>411.84000000000003</ele>
   </trkpt>
   <trkpt lat="-37.89609" lon="145.38563000000002">
    <ele>410.53</ele>
   </trkpt>
   <trkpt lat="-37.896530000000006" lon="145.38533">
    <ele>405.47</ele>
   </trkpt>
   <trkpt lat="-37.896910000000005" lon="145.38497">
    <ele>400.15</ele>
   </trkpt>
   <trkpt lat="-37.89703" lon="145.38479">
    <ele>397.99</ele>
   </trkpt>
   <trkpt lat="-37.89719" lon="145.38446000000002">
    <ele>395.03000000000003</ele>
   </trkpt>
   <trkpt lat="-37.8973" lon="145.38409000000001">
    <ele>392.62</ele>
   </trkpt>
   <trkpt lat="-37.89742500207104" lon="145.3833950010252">
    <ele>390.25000000000006</ele>
   </trkpt>
   <trkpt lat="-37.89755" lon="145.3827">
    <ele>388.08000000000004</ele>
   </trkpt>
   <trkpt lat="-37.89759" lon="145.38217">
    <ele>387.38000000000005</ele>
   </trkpt>
   <trkpt lat="-37.89769000203622" lon="145.38148000078314">
    <ele>387.32000000000005</ele>
   </trkpt>
   <trkpt lat="-37.89779" lon="145.38079000000002">
    <ele>388.21000000000004</ele>
   </trkpt>
   <trkpt lat="-37.89784" lon="145.38036000000002">
    <ele>389.64000000000004</ele>
   </trkpt>
   <trkpt lat="-37.89788" lon="145.37979">
    <ele>392.11</ele>
   </trkpt>
   <trkpt lat="-37.897980000000004" lon="145.37919000000002">
    <ele>393.07000000000005</ele>
   </trkpt>
   <trkpt lat="-37.8979" lon="145.37899000000002">
    <ele>392.67</ele>
   </trkpt>
   <trkpt lat="-37.89781" lon="145.3779">
    <ele>390.90000000000003</ele>
   </trkpt>
   <trkpt lat="-37.89772" lon="145.37738000000002">
    <ele>391.92</ele>
   </trkpt>
   <trkpt lat="-37.897560000000006" lon="145.37662">
    <ele>395.67</ele>
   </trkpt>
   <trkpt lat="-37.89734" lon="145.37586000000002">
    <ele>396.84000000000003</ele>
   </trkpt>
   <trkpt lat="-37.897220000000004" lon="145.37563">
    <ele>396.84000000000003</ele>
   </trkpt>
   <trkpt lat="-37.89723" lon="145.37564">
    <ele>396.84000000000003</ele>
   </trkpt>
   <trkpt lat="-37.89701" lon="145.37541000000002">
    <ele>396.85</ele>
   </trkpt>
   <trkpt lat="-37.89676" lon="145.37524000000002">
    <ele>397.02000000000004</ele>
   </trkpt>
   <trkpt lat="-37.89658" lon="145.37518">
    <ele>397.15000000000003</ele>
   </trkpt>
   <trkpt lat="-37.89636" lon="145.37518">
    <ele>397.57000000000005</ele>
   </trkpt>
   <trkpt lat="-37.89611" lon="145.37524000000002">
    <ele>397.65000000000003</ele>
   </trkpt>
   <trkpt lat="-37.8958" lon="145.37517000000003">
    <ele>396.47</ele>
   </trkpt>
   <trkpt lat="-37.89542" lon="145.37521">
    <ele>393.51</ele>
   </trkpt>
   <trkpt lat="-37.89513" lon="145.37514000000002">
    <ele>389.49000000000007</ele>
   </trkpt>
   <trkpt lat="-37.89479" lon="145.37516000000002">
    <ele>384.62</ele>
   </trkpt>
   <trkpt lat="-37.894560000000006" lon="145.37512">
    <ele>380.19</ele>
   </trkpt>
   <trkpt lat="-37.89437" lon="145.37505000000002">
    <ele>377.35</ele>
   </trkpt>
   <trkpt lat="-37.89423" lon="145.37495">
    <ele>374.37</ele>
   </trkpt>
   <trkpt lat="-37.89392" lon="145.37482">
    <ele>368.83000000000004</ele>
   </trkpt>
   <trkpt lat="-37.89383" lon="145.37475">
    <ele>366.81</ele>
   </trkpt>
   <trkpt lat="-37.89349" lon="145.37424000000001">
    <ele>359.69</ele>
   </trkpt>
   <trkpt lat="-37.89331" lon="145.37409000000002">
    <ele>358.21000000000004</ele>
   </trkpt>
   <trkpt lat="-37.89284" lon="145.37382000000002">
    <ele>353.72</ele>
   </trkpt>
   <trkpt lat="-37.8924" lon="145.37368">
    <ele>349.08</ele>
   </trkpt>
   <trkpt lat="-37.89213" lon="145.37365">
    <ele>344.68</ele>
   </trkpt>
   <trkpt lat="-37.89193" lon="145.37368">
    <ele>343.41</ele>
   </trkpt>
   <trkpt lat="-37.89166" lon="145.37382000000002">
    <ele>338.69000000000005</ele>
   </trkpt>
   <trkpt lat="-37.89161" lon="145.37392">
    <ele>338.69000000000005</ele>
   </trkpt>
   <trkpt lat="-37.89159" lon="145.37401">
    <ele>338.69000000000005</ele>
   </trkpt>
   <trkpt lat="-37.89159" lon="145.37459">
    <ele>332.23</ele>
   </trkpt>
   <trkpt lat="-37.89157" lon="145.37466">
    <ele>332.1</ele>
   </trkpt>
   <trkpt lat="-37.89148" lon="145.37473">
    <ele>332.59000000000003</ele>
   </trkpt>
   <trkpt lat="-37.89137" lon="145.37478000000002">
    <ele>333.92</ele>
   </trkpt>
   <trkpt lat="-37.891180000000006" lon="145.37476">
    <ele>336.32</ele>
   </trkpt>
   <trkpt lat="-37.89112" lon="145.37477">
    <ele>336.32</ele>
   </trkpt>
   <trkpt lat="-37.89079" lon="145.37492">
    <ele>339.58000000000004</ele>
   </trkpt>
   <trkpt lat="-37.89052" lon="145.37509">
    <ele>340.33000000000004</ele>
   </trkpt>
   <trkpt lat="-37.89025" lon="145.37519">
    <ele>340.88</ele>
   </trkpt>
   <trkpt lat="-37.890080000000005" lon="145.37515000000002">
    <ele>340.37</ele>
   </trkpt>
   <trkpt lat="-37.89007" lon="145.37514000000002">
    <ele>340.37</ele>
   </trkpt>
   <trkpt lat="-37.88996" lon="145.37504">
    <ele>339.64000000000004</ele>
   </trkpt>
   <trkpt lat="-37.88993" lon="145.37490000000003">
    <ele>339.41</ele>
   </trkpt>
   <trkpt lat="-37.89" lon="145.37468">
    <ele>340.05</ele>
   </trkpt>
   <trkpt lat="-37.89009" lon="145.37448">
    <ele>340.55</ele>
   </trkpt>
   <trkpt lat="-37.89011" lon="145.37428">
    <ele>341.89000000000004</ele>
   </trkpt>
   <trkpt lat="-37.89007" lon="145.37402">
    <ele>343.17</ele>
   </trkpt>
   <trkpt lat="-37.88998" lon="145.37389000000002">
    <ele>343.72</ele>
   </trkpt>
   <trkpt lat="-37.889500000758154" lon="145.3734749973202">
    <ele>348.43</ele>
   </trkpt>
   <trkpt lat="-37.88902" lon="145.37306">
    <ele>353.29</ele>
   </trkpt>
   <trkpt lat="-37.88841000112411" lon="145.37258499619705">
    <ele>359.68000000000006</ele>
   </trkpt>
   <trkpt lat="-37.887800000000006" lon="145.37211000000002">
    <ele>364.1</ele>
   </trkpt>
   <trkpt lat="-37.88742500038631" lon="145.37178999833037">
    <ele>369.26000000000005</ele>
   </trkpt>
   <trkpt lat="-37.88705" lon="145.37147000000002">
    <ele>371.32000000000005</ele>
   </trkpt>
   <trkpt lat="-37.88698" lon="145.37135">
    <ele>371.34</ele>
   </trkpt>
   <trkpt lat="-37.88694" lon="145.37120000000002">
    <ele>371.16</ele>
   </trkpt>
   <trkpt lat="-37.88689" lon="145.37094000000002">
    <ele>367.37</ele>
   </trkpt>
   <trkpt lat="-37.88682" lon="145.37078000000002">
    <ele>355.69</ele>
   </trkpt>
   <trkpt lat="-37.88682" lon="145.37073">
    <ele>355.69</ele>
   </trkpt>
   <trkpt lat="-37.88693" lon="145.37054">
    <ele>354.81</ele>
   </trkpt>
   <trkpt lat="-37.887130000000006" lon="145.37037">
    <ele>352.88</ele>
   </trkpt>
  </trkseg>
 </trk>
</gpx>
