<?xml version="1.0" encoding="UTF-8"?>
<gpx creator="StravaGPX" version="1.1" xmlns="http://www.topografix.com/GPX/1/1" xmlns:xsi="http://www.w3.org/2001/XMLSchema-instance" xsi:schemaLocation="http://www.topografix.com/GPX/1/1 http://www.topografix.com/GPX/1/1/gpx.xsd">
 <metadata>
  <name>DTR Sunday 10th 30k</name>
  <author>
   <name>john csorgo</name>
  </author>
  <copyright author="OpenStreetMap contributors">
   <year>2020</year>
   <license>https://www.openstreetmap.org/copyright</license>
  </copyright>
 </metadata>
 <trk>
  <name>DTR Sunday 10th 30k</name>
  <link href=""/>
  <type>trail_running</type>
  <trkseg>
   <trkpt lat="-37.862820000000006" lon="145.35372">
    <ele>479.39000000000004</ele>
   </trkpt>
   <trkpt lat="-37.86316" lon="145.35444">
    <ele>485.99</ele>
   </trkpt>
   <trkpt lat="-37.86305" lon="145.35463000000001">
    <ele>490.41</ele>
   </trkpt>
   <trkpt lat="-37.86296" lon="145.35467">
    <ele>492.14</ele>
   </trkpt>
   <trkpt lat="-37.86292" lon="145.35475000000002">
    <ele>493.81</ele>
   </trkpt>
   <trkpt lat="-37.86251" lon="145.35493000000002">
    <ele>495.99</ele>
   </trkpt>
   <trkpt lat="-37.86236" lon="145.35511000000002">
    <ele>495.99</ele>
   </trkpt>
   <trkpt lat="-37.86204" lon="145.35533">
    <ele>495.99</ele>
   </trkpt>
   <trkpt lat="-37.86186" lon="145.35538000000003">
    <ele>495.99</ele>
   </trkpt>
   <trkpt lat="-37.86162" lon="145.35553000000002">
    <ele>491.8</ele>
   </trkpt>
   <trkpt lat="-37.86153" lon="145.35553000000002">
    <ele>491.8</ele>
   </trkpt>
   <trkpt lat="-37.86106" lon="145.35584">
    <ele>491.8</ele>
   </trkpt>
   <trkpt lat="-37.86083" lon="145.35584">
    <ele>491.8</ele>
   </trkpt>
   <trkpt lat="-37.86079" lon="145.35580000000002">
    <ele>491.8</ele>
   </trkpt>
   <trkpt lat="-37.86079" lon="145.35600000000002">
    <ele>492.02</ele>
   </trkpt>
   <trkpt lat="-37.86084" lon="145.3562">
    <ele>492.39000000000004</ele>
   </trkpt>
   <trkpt lat="-37.86074" lon="145.3561">
    <ele>494.90000000000003</ele>
   </trkpt>
   <trkpt lat="-37.86063" lon="145.35594">
    <ele>499.12000000000006</ele>
   </trkpt>
   <trkpt lat="-37.86061" lon="145.35545000000002">
    <ele>511.06000000000006</ele>
   </trkpt>
   <trkpt lat="-37.86059" lon="145.35531">
    <ele>512.21</ele>
   </trkpt>
   <trkpt lat="-37.860130000000005" lon="145.35449">
    <ele>513.2500000000001</ele>
   </trkpt>
   <trkpt lat="-37.85983" lon="145.35401000000002">
    <ele>508.4700000000001</ele>
   </trkpt>
   <trkpt lat="-37.85956" lon="145.35346">
    <ele>501.36</ele>
   </trkpt>
   <trkpt lat="-37.85938" lon="145.35323000000002">
    <ele>496.54</ele>
   </trkpt>
   <trkpt lat="-37.85931" lon="145.35311000000002">
    <ele>493.66</ele>
   </trkpt>
   <trkpt lat="-37.85927" lon="145.35287000000002">
    <ele>486.87</ele>
   </trkpt>
   <trkpt lat="-37.85929" lon="145.35279">
    <ele>486.87</ele>
   </trkpt>
   <trkpt lat="-37.85938" lon="145.35266000000001">
    <ele>483.67</ele>
   </trkpt>
   <trkpt lat="-37.85945" lon="145.35244">
    <ele>473.63000000000005</ele>
   </trkpt>
   <trkpt lat="-37.8596" lon="145.35241000000002">
    <ele>471.74000000000007</ele>
   </trkpt>
   <trkpt lat="-37.85994" lon="145.35221">
    <ele>467.39000000000004</ele>
   </trkpt>
   <trkpt lat="-37.86023" lon="145.35196000000002">
    <ele>459.85</ele>
   </trkpt>
   <trkpt lat="-37.860490000000006" lon="145.35181">
    <ele>457.70000000000005</ele>
   </trkpt>
   <trkpt lat="-37.860960000000006" lon="145.35146">
    <ele>447.61000000000007</ele>
   </trkpt>
   <trkpt lat="-37.86104" lon="145.35133000000002">
    <ele>446.15000000000003</ele>
   </trkpt>
   <trkpt lat="-37.86115" lon="145.3511">
    <ele>443.67</ele>
   </trkpt>
   <trkpt lat="-37.86135" lon="145.35045000000002">
    <ele>433.7300000000001</ele>
   </trkpt>
   <trkpt lat="-37.86166" lon="145.34982000000002">
    <ele>427.44000000000005</ele>
   </trkpt>
   <trkpt lat="-37.86182" lon="145.34959">
    <ele>424.89000000000004</ele>
   </trkpt>
   <trkpt lat="-37.86224" lon="145.34912">
    <ele>413.78000000000003</ele>
   </trkpt>
   <trkpt lat="-37.86236" lon="145.34893000000002">
    <ele>411.77000000000004</ele>
   </trkpt>
   <trkpt lat="-37.86238" lon="145.34883000000002">
    <ele>411.2</ele>
   </trkpt>
   <trkpt lat="-37.862370000000006" lon="145.34855000000002">
    <ele>408.16</ele>
   </trkpt>
   <trkpt lat="-37.86211500119145" lon="145.3480099980435">
    <ele>404.16</ele>
   </trkpt>
   <trkpt lat="-37.86186" lon="145.34747000000002">
    <ele>404.87</ele>
   </trkpt>
   <trkpt lat="-37.861790000000006" lon="145.34698">
    <ele>404.58000000000004</ele>
   </trkpt>
   <trkpt lat="-37.86186" lon="145.34658000000002">
    <ele>402.33000000000004</ele>
   </trkpt>
   <trkpt lat="-37.86193" lon="145.34642000000002">
    <ele>401.4200000000001</ele>
   </trkpt>
   <trkpt lat="-37.86186" lon="145.34658000000002">
    <ele>402.33000000000004</ele>
   </trkpt>
   <trkpt lat="-37.861790000000006" lon="145.34698">
    <ele>404.58000000000004</ele>
   </trkpt>
   <trkpt lat="-37.86162" lon="145.34737">
    <ele>400.31000000000006</ele>
   </trkpt>
   <trkpt lat="-37.86162" lon="145.34753">
    <ele>400.31000000000006</ele>
   </trkpt>
   <trkpt lat="-37.86168" lon="145.34779">
    <ele>397.05</ele>
   </trkpt>
   <trkpt lat="-37.86164" lon="145.34794000000002">
    <ele>396.47</ele>
   </trkpt>
   <trkpt lat="-37.86159" lon="145.34802000000002">
    <ele>395.8</ele>
   </trkpt>
   <trkpt lat="-37.86128" lon="145.34822">
    <ele>392.40000000000003</ele>
   </trkpt>
   <trkpt lat="-37.86121" lon="145.34824">
    <ele>389.25000000000006</ele>
   </trkpt>
   <trkpt lat="-37.86112" lon="145.34822">
    <ele>389.25000000000006</ele>
   </trkpt>
   <trkpt lat="-37.86104" lon="145.34814">
    <ele>387.86</ele>
   </trkpt>
   <trkpt lat="-37.86097" lon="145.34804000000003">
    <ele>386.26000000000005</ele>
   </trkpt>
   <trkpt lat="-37.86097" lon="145.34788">
    <ele>384.54</ele>
   </trkpt>
   <trkpt lat="-37.86101" lon="145.34771">
    <ele>383.55000000000007</ele>
   </trkpt>
   <trkpt lat="-37.86101" lon="145.34763">
    <ele>382.98</ele>
   </trkpt>
   <trkpt lat="-37.86097" lon="145.34757000000002">
    <ele>381.66</ele>
   </trkpt>
   <trkpt lat="-37.86068" lon="145.34759000000003">
    <ele>375.96000000000004</ele>
   </trkpt>
   <trkpt lat="-37.86032" lon="145.34775000000002">
    <ele>370.77000000000004</ele>
   </trkpt>
   <trkpt lat="-37.86027" lon="145.34776000000002">
    <ele>369.75</ele>
   </trkpt>
   <trkpt lat="-37.859500000000004" lon="145.34782">
    <ele>362.21000000000004</ele>
   </trkpt>
   <trkpt lat="-37.85942" lon="145.34772">
    <ele>354.40000000000003</ele>
   </trkpt>
   <trkpt lat="-37.859370000000006" lon="145.34754">
    <ele>346.98</ele>
   </trkpt>
   <trkpt lat="-37.85931" lon="145.34758000000002">
    <ele>347.67</ele>
   </trkpt>
   <trkpt lat="-37.85918" lon="145.3476">
    <ele>349.15000000000003</ele>
   </trkpt>
   <trkpt lat="-37.8586" lon="145.34761">
    <ele>352.96000000000004</ele>
   </trkpt>
   <trkpt lat="-37.85853" lon="145.34743">
    <ele>351.53000000000003</ele>
   </trkpt>
   <trkpt lat="-37.85833" lon="145.34718">
    <ele>346.99</ele>
   </trkpt>
   <trkpt lat="-37.85806" lon="145.34698">
    <ele>343.51000000000005</ele>
   </trkpt>
   <trkpt lat="-37.85797" lon="145.34686000000002">
    <ele>342.36000000000007</ele>
   </trkpt>
   <trkpt lat="-37.85783" lon="145.34678000000002">
    <ele>341.5</ele>
   </trkpt>
   <trkpt lat="-37.8575" lon="145.34649000000002">
    <ele>335.26</ele>
   </trkpt>
   <trkpt lat="-37.8573" lon="145.34642000000002">
    <ele>334.02000000000004</ele>
   </trkpt>
   <trkpt lat="-37.85703" lon="145.34640000000002">
    <ele>332.08000000000004</ele>
   </trkpt>
   <trkpt lat="-37.85663" lon="145.34618">
    <ele>336.21</ele>
   </trkpt>
   <trkpt lat="-37.85622" lon="145.34578000000002">
    <ele>345.09</ele>
   </trkpt>
   <trkpt lat="-37.85609" lon="145.34559000000002">
    <ele>347.46000000000004</ele>
   </trkpt>
   <trkpt lat="-37.85593" lon="145.34545">
    <ele>351.65000000000003</ele>
   </trkpt>
   <trkpt lat="-37.85553" lon="145.34492">
    <ele>355.18000000000006</ele>
   </trkpt>
   <trkpt lat="-37.85544" lon="145.34475">
    <ele>355.57000000000005</ele>
   </trkpt>
   <trkpt lat="-37.85528" lon="145.34457">
    <ele>357.03000000000003</ele>
   </trkpt>
   <trkpt lat="-37.85515" lon="145.34415">
    <ele>356.78000000000003</ele>
   </trkpt>
   <trkpt lat="-37.8551" lon="145.34404">
    <ele>356.18000000000006</ele>
   </trkpt>
   <trkpt lat="-37.855050000000006" lon="145.34368">
    <ele>353.44</ele>
   </trkpt>
   <trkpt lat="-37.85492" lon="145.34354000000002">
    <ele>349.99</ele>
   </trkpt>
   <trkpt lat="-37.8549" lon="145.34348">
    <ele>349.32</ele>
   </trkpt>
   <trkpt lat="-37.85488" lon="145.34337000000002">
    <ele>348.04</ele>
   </trkpt>
   <trkpt lat="-37.85492" lon="145.34293000000002">
    <ele>342.24</ele>
   </trkpt>
   <trkpt lat="-37.85474" lon="145.3426">
    <ele>335.40000000000003</ele>
   </trkpt>
   <trkpt lat="-37.85472" lon="145.34233">
    <ele>332.57000000000005</ele>
   </trkpt>
   <trkpt lat="-37.85468" lon="145.34225">
    <ele>329.88</ele>
   </trkpt>
   <trkpt lat="-37.85448" lon="145.34206">
    <ele>320.85</ele>
   </trkpt>
   <trkpt lat="-37.85419" lon="145.34158000000002">
    <ele>310.52000000000004</ele>
   </trkpt>
   <trkpt lat="-37.85387" lon="145.34123000000002">
    <ele>313.75</ele>
   </trkpt>
   <trkpt lat="-37.85374" lon="145.34099">
    <ele>314.08000000000004</ele>
   </trkpt>
   <trkpt lat="-37.85365" lon="145.34067000000002">
    <ele>310.38000000000005</ele>
   </trkpt>
   <trkpt lat="-37.85358" lon="145.33991">
    <ele>301.83000000000004</ele>
   </trkpt>
   <trkpt lat="-37.853460000000005" lon="145.33943000000002">
    <ele>300.86</ele>
   </trkpt>
   <trkpt lat="-37.8534" lon="145.33894">
    <ele>297.81</ele>
   </trkpt>
   <trkpt lat="-37.85333" lon="145.33871000000002">
    <ele>296.08</ele>
   </trkpt>
   <trkpt lat="-37.85333" lon="145.33833">
    <ele>291.36</ele>
   </trkpt>
   <trkpt lat="-37.85327" lon="145.33823">
    <ele>290.74</ele>
   </trkpt>
   <trkpt lat="-37.85313" lon="145.33813">
    <ele>292.43</ele>
   </trkpt>
   <trkpt lat="-37.85304" lon="145.33812">
    <ele>294.63</ele>
   </trkpt>
   <trkpt lat="-37.85293" lon="145.33818000000002">
    <ele>297.45000000000005</ele>
   </trkpt>
   <trkpt lat="-37.85242" lon="145.33856">
    <ele>317.27000000000004</ele>
   </trkpt>
   <trkpt lat="-37.85233" lon="145.33851">
    <ele>319.08000000000004</ele>
   </trkpt>
   <trkpt lat="-37.85215" lon="145.33823">
    <ele>320.92</ele>
   </trkpt>
   <trkpt lat="-37.85206" lon="145.33798000000002">
    <ele>320.68</ele>
   </trkpt>
   <trkpt lat="-37.8519" lon="145.33773000000002">
    <ele>320.95</ele>
   </trkpt>
   <trkpt lat="-37.85177" lon="145.33761">
    <ele>320.84000000000003</ele>
   </trkpt>
   <trkpt lat="-37.85172" lon="145.33751">
    <ele>320.63</ele>
   </trkpt>
   <trkpt lat="-37.85168" lon="145.33735000000001">
    <ele>319.63</ele>
   </trkpt>
   <trkpt lat="-37.85139" lon="145.33696">
    <ele>318.19</ele>
   </trkpt>
   <trkpt lat="-37.85116" lon="145.33651">
    <ele>314.15000000000003</ele>
   </trkpt>
   <trkpt lat="-37.851060000000004" lon="145.33639000000002">
    <ele>313.56</ele>
   </trkpt>
   <trkpt lat="-37.85096" lon="145.33634">
    <ele>313.71000000000004</ele>
   </trkpt>
   <trkpt lat="-37.85085" lon="145.33637000000002">
    <ele>313.65000000000003</ele>
   </trkpt>
   <trkpt lat="-37.85074" lon="145.33634">
    <ele>313.45</ele>
   </trkpt>
   <trkpt lat="-37.85103" lon="145.33685">
    <ele>318.92</ele>
   </trkpt>
   <trkpt lat="-37.851110000000006" lon="145.33723">
    <ele>321.82000000000005</ele>
   </trkpt>
   <trkpt lat="-37.85105" lon="145.33794">
    <ele>332.9800000000001</ele>
   </trkpt>
   <trkpt lat="-37.85112" lon="145.33867">
    <ele>344.81</ele>
   </trkpt>
   <trkpt lat="-37.85112" lon="145.33899000000002">
    <ele>348.14</ele>
   </trkpt>
   <trkpt lat="-37.85121" lon="145.33961000000002">
    <ele>358.32</ele>
   </trkpt>
   <trkpt lat="-37.8513" lon="145.34011">
    <ele>363.24</ele>
   </trkpt>
   <trkpt lat="-37.85132" lon="145.34087000000002">
    <ele>371.55</ele>
   </trkpt>
   <trkpt lat="-37.85143" lon="145.34191">
    <ele>382.76000000000005</ele>
   </trkpt>
   <trkpt lat="-37.85143" lon="145.34219000000002">
    <ele>385.28000000000003</ele>
   </trkpt>
   <trkpt lat="-37.8515" lon="145.34263">
    <ele>394.02000000000004</ele>
   </trkpt>
   <trkpt lat="-37.85154" lon="145.34304">
    <ele>400.3</ele>
   </trkpt>
   <trkpt lat="-37.8519" lon="145.34376">
    <ele>415.76</ele>
   </trkpt>
   <trkpt lat="-37.8519" lon="145.34390000000002">
    <ele>411.1</ele>
   </trkpt>
   <trkpt lat="-37.85197" lon="145.34400000000002">
    <ele>413.15000000000003</ele>
   </trkpt>
   <trkpt lat="-37.85199" lon="145.34417000000002">
    <ele>417.7</ele>
   </trkpt>
   <trkpt lat="-37.85197" lon="145.34435000000002">
    <ele>422.11</ele>
   </trkpt>
   <trkpt lat="-37.85201" lon="145.34452000000002">
    <ele>423.16</ele>
   </trkpt>
   <trkpt lat="-37.85215" lon="145.34484">
    <ele>430.24</ele>
   </trkpt>
   <trkpt lat="-37.85222" lon="145.34492">
    <ele>432.81</ele>
   </trkpt>
   <trkpt lat="-37.85237" lon="145.34506000000002">
    <ele>435.29</ele>
   </trkpt>
   <trkpt lat="-37.85251" lon="145.34527">
    <ele>437.2300000000001</ele>
   </trkpt>
   <trkpt lat="-37.85282" lon="145.34555">
    <ele>437.92</ele>
   </trkpt>
   <trkpt lat="-37.85293" lon="145.34572">
    <ele>437.3</ele>
   </trkpt>
   <trkpt lat="-37.85295" lon="145.3459">
    <ele>436.84000000000003</ele>
   </trkpt>
   <trkpt lat="-37.85302" lon="145.34598000000003">
    <ele>436.84000000000003</ele>
   </trkpt>
   <trkpt lat="-37.853170000000006" lon="145.34639">
    <ele>433.34000000000003</ele>
   </trkpt>
   <trkpt lat="-37.85324" lon="145.34681">
    <ele>432.06000000000006</ele>
   </trkpt>
   <trkpt lat="-37.85347" lon="145.34726">
    <ele>431.28000000000003</ele>
   </trkpt>
   <trkpt lat="-37.85351" lon="145.34748000000002">
    <ele>431.28000000000003</ele>
   </trkpt>
   <trkpt lat="-37.85347" lon="145.34764">
    <ele>431.41</ele>
   </trkpt>
   <trkpt lat="-37.85349" lon="145.34832">
    <ele>435.94000000000005</ele>
   </trkpt>
   <trkpt lat="-37.85347" lon="145.34849">
    <ele>436.39000000000004</ele>
   </trkpt>
   <trkpt lat="-37.85349" lon="145.34869">
    <ele>446.11000000000007</ele>
   </trkpt>
   <trkpt lat="-37.85378" lon="145.34931">
    <ele>453.05000000000007</ele>
   </trkpt>
   <trkpt lat="-37.85419" lon="145.34983000000003">
    <ele>460.13000000000005</ele>
   </trkpt>
   <trkpt lat="-37.85468" lon="145.35037">
    <ele>471.52000000000004</ele>
   </trkpt>
   <trkpt lat="-37.85507500138615" lon="145.35092499714384">
    <ele>482.03000000000003</ele>
   </trkpt>
   <trkpt lat="-37.855470000000004" lon="145.35148">
    <ele>489.63000000000005</ele>
   </trkpt>
   <trkpt lat="-37.85580500087528" lon="145.35193999788288">
    <ele>499.35</ele>
   </trkpt>
   <trkpt lat="-37.85614" lon="145.35240000000002">
    <ele>507.44</ele>
   </trkpt>
   <trkpt lat="-37.85644000082839" lon="145.35284999812686">
    <ele>516.17</ele>
   </trkpt>
   <trkpt lat="-37.85674" lon="145.35330000000002">
    <ele>528.46</ele>
   </trkpt>
   <trkpt lat="-37.85703" lon="145.35389">
    <ele>541.59</ele>
   </trkpt>
   <trkpt lat="-37.85703" lon="145.35401000000002">
    <ele>544.0200000000001</ele>
   </trkpt>
   <trkpt lat="-37.85685" lon="145.35449">
    <ele>552.67</ele>
   </trkpt>
   <trkpt lat="-37.8568" lon="145.35479">
    <ele>557.49</ele>
   </trkpt>
   <trkpt lat="-37.85681" lon="145.35496">
    <ele>560.95</ele>
   </trkpt>
   <trkpt lat="-37.85683" lon="145.35502000000002">
    <ele>564.4800000000001</ele>
   </trkpt>
   <trkpt lat="-37.85718" lon="145.35543">
    <ele>571.49</ele>
   </trkpt>
   <trkpt lat="-37.857330000000005" lon="145.35569">
    <ele>575.34</ele>
   </trkpt>
   <trkpt lat="-37.85745" lon="145.35567">
    <ele>575.62</ele>
   </trkpt>
   <trkpt lat="-37.85756000000001" lon="145.35572000000002">
    <ele>575.22</ele>
   </trkpt>
   <trkpt lat="-37.85745" lon="145.35598000000002">
    <ele>574.34</ele>
   </trkpt>
   <trkpt lat="-37.85752" lon="145.35645000000002">
    <ele>574.9399999999999</ele>
   </trkpt>
   <trkpt lat="-37.85752" lon="145.35644000000002">
    <ele>574.9300000000001</ele>
   </trkpt>
   <trkpt lat="-37.85745" lon="145.35598000000002">
    <ele>574.34</ele>
   </trkpt>
   <trkpt lat="-37.85756000000001" lon="145.35572000000002">
    <ele>575.5400000000001</ele>
   </trkpt>
   <trkpt lat="-37.85745" lon="145.35567">
    <ele>575.6</ele>
   </trkpt>
   <trkpt lat="-37.857330000000005" lon="145.35569">
    <ele>575.34</ele>
   </trkpt>
   <trkpt lat="-37.85727" lon="145.35574000000003">
    <ele>575.19</ele>
   </trkpt>
   <trkpt lat="-37.85725" lon="145.35584">
    <ele>574.9200000000001</ele>
   </trkpt>
   <trkpt lat="-37.85727" lon="145.35627000000002">
    <ele>573.32</ele>
   </trkpt>
   <trkpt lat="-37.85718" lon="145.35671000000002">
    <ele>569.91</ele>
   </trkpt>
   <trkpt lat="-37.85705" lon="145.35702">
    <ele>568.1400000000001</ele>
   </trkpt>
   <trkpt lat="-37.85703" lon="145.35715000000002">
    <ele>567.67</ele>
   </trkpt>
   <trkpt lat="-37.85698" lon="145.35725000000002">
    <ele>566.97</ele>
   </trkpt>
   <trkpt lat="-37.85671" lon="145.35743000000002">
    <ele>561.84</ele>
   </trkpt>
   <trkpt lat="-37.85665" lon="145.35757">
    <ele>560.8000000000001</ele>
   </trkpt>
   <trkpt lat="-37.85658" lon="145.35783">
    <ele>560.88</ele>
   </trkpt>
   <trkpt lat="-37.85647" lon="145.35798">
    <ele>561.52</ele>
   </trkpt>
   <trkpt lat="-37.85633" lon="145.35812">
    <ele>561.72</ele>
   </trkpt>
   <trkpt lat="-37.85618" lon="145.35822000000002">
    <ele>561.2900000000001</ele>
   </trkpt>
   <trkpt lat="-37.85571" lon="145.35829">
    <ele>556.76</ele>
   </trkpt>
   <trkpt lat="-37.85553" lon="145.35828">
    <ele>552.83</ele>
   </trkpt>
   <trkpt lat="-37.8553" lon="145.35817">
    <ele>547.59</ele>
   </trkpt>
   <trkpt lat="-37.85513" lon="145.358">
    <ele>538.54</ele>
   </trkpt>
   <trkpt lat="-37.85492" lon="145.35791">
    <ele>532.3100000000001</ele>
   </trkpt>
   <trkpt lat="-37.85461" lon="145.35797000000002">
    <ele>525.95</ele>
   </trkpt>
   <trkpt lat="-37.8545" lon="145.35797000000002">
    <ele>524.6</ele>
   </trkpt>
   <trkpt lat="-37.85432" lon="145.3581">
    <ele>523.51</ele>
   </trkpt>
   <trkpt lat="-37.85423" lon="145.35841000000002">
    <ele>526.05</ele>
   </trkpt>
   <trkpt lat="-37.85421" lon="145.35869000000002">
    <ele>531.97</ele>
   </trkpt>
   <trkpt lat="-37.85405" lon="145.35908">
    <ele>538.6800000000001</ele>
   </trkpt>
   <trkpt lat="-37.85403" lon="145.35922000000002">
    <ele>540.78</ele>
   </trkpt>
   <trkpt lat="-37.854020000000006" lon="145.35943">
    <ele>542.5300000000001</ele>
   </trkpt>
   <trkpt lat="-37.85394" lon="145.35982">
    <ele>546.1</ele>
   </trkpt>
   <trkpt lat="-37.853860000000005" lon="145.35998">
    <ele>546.6</ele>
   </trkpt>
   <trkpt lat="-37.85447000175718" lon="145.3606299945904">
    <ele>562.57</ele>
   </trkpt>
   <trkpt lat="-37.85508" lon="145.36128000000002">
    <ele>570.08</ele>
   </trkpt>
   <trkpt lat="-37.855470000000004" lon="145.36163000000002">
    <ele>574.99</ele>
   </trkpt>
   <trkpt lat="-37.855870000719825" lon="145.36204999769367">
    <ele>577.7500000000001</ele>
   </trkpt>
   <trkpt lat="-37.85627" lon="145.36247">
    <ele>583.2900000000001</ele>
   </trkpt>
   <trkpt lat="-37.85611500276215" lon="145.36327500157802">
    <ele>578.99</ele>
   </trkpt>
   <trkpt lat="-37.85596" lon="145.36408">
    <ele>576.22</ele>
   </trkpt>
   <trkpt lat="-37.85598" lon="145.36415000000002">
    <ele>571.67</ele>
   </trkpt>
   <trkpt lat="-37.85591" lon="145.36418">
    <ele>569.9200000000001</ele>
   </trkpt>
   <trkpt lat="-37.85586" lon="145.36412">
    <ele>569.58</ele>
   </trkpt>
   <trkpt lat="-37.8558" lon="145.36419">
    <ele>568.28</ele>
   </trkpt>
   <trkpt lat="-37.85571" lon="145.36421">
    <ele>568.28</ele>
   </trkpt>
   <trkpt lat="-37.855720000000005" lon="145.36430000000001">
    <ele>569.32</ele>
   </trkpt>
   <trkpt lat="-37.85512000000001" lon="145.36444">
    <ele>567.98</ele>
   </trkpt>
   <trkpt lat="-37.85425" lon="145.36459000000002">
    <ele>573.8100000000001</ele>
   </trkpt>
   <trkpt lat="-37.853745000108006" lon="145.3645599998007">
    <ele>575.8100000000001</ele>
   </trkpt>
   <trkpt lat="-37.85324" lon="145.36453">
    <ele>575.6600000000001</ele>
   </trkpt>
   <trkpt lat="-37.852700000000006" lon="145.36412">
    <ele>569.8700000000001</ele>
   </trkpt>
   <trkpt lat="-37.85243000130275" lon="145.364680002099">
    <ele>575.0</ele>
   </trkpt>
   <trkpt lat="-37.852160000000005" lon="145.36524">
    <ele>577.5</ele>
   </trkpt>
   <trkpt lat="-37.85174000000001" lon="145.36622">
    <ele>577.99</ele>
   </trkpt>
   <trkpt lat="-37.852050000000006" lon="145.36663000000001">
    <ele>577.9300000000001</ele>
   </trkpt>
   <trkpt lat="-37.85237" lon="145.36720000000003">
    <ele>576.21</ele>
   </trkpt>
   <trkpt lat="-37.85269" lon="145.36755000000002">
    <ele>575.9200000000001</ele>
   </trkpt>
   <trkpt lat="-37.853" lon="145.36804">
    <ele>575.84</ele>
   </trkpt>
   <trkpt lat="-37.85314" lon="145.36833000000001">
    <ele>575.69</ele>
   </trkpt>
   <trkpt lat="-37.85295" lon="145.36822">
    <ele>574.0</ele>
   </trkpt>
   <trkpt lat="-37.85264" lon="145.36819">
    <ele>571.84</ele>
   </trkpt>
   <trkpt lat="-37.85295" lon="145.36822">
    <ele>574.72</ele>
   </trkpt>
   <trkpt lat="-37.85314" lon="145.36833000000001">
    <ele>575.69</ele>
   </trkpt>
   <trkpt lat="-37.853660000000005" lon="145.36857">
    <ele>577.48</ele>
   </trkpt>
   <trkpt lat="-37.85409000000001" lon="145.36882">
    <ele>575.7500000000001</ele>
   </trkpt>
   <trkpt lat="-37.85441" lon="145.36911">
    <ele>572.16</ele>
   </trkpt>
   <trkpt lat="-37.85421" lon="145.36937">
    <ele>572.22</ele>
   </trkpt>
   <trkpt lat="-37.85412500393108" lon="145.37033500118534">
    <ele>575.4800000000001</ele>
   </trkpt>
   <trkpt lat="-37.854040000000005" lon="145.37130000000002">
    <ele>578.85</ele>
   </trkpt>
   <trkpt lat="-37.854020000000006" lon="145.37171">
    <ele>579.5100000000001</ele>
   </trkpt>
   <trkpt lat="-37.85403" lon="145.37202000000002">
    <ele>579.95</ele>
   </trkpt>
   <trkpt lat="-37.85405" lon="145.37220000000002">
    <ele>580.07</ele>
   </trkpt>
   <trkpt lat="-37.85414" lon="145.37239000000002">
    <ele>580.0200000000001</ele>
   </trkpt>
   <trkpt lat="-37.8543" lon="145.37263000000002">
    <ele>579.84</ele>
   </trkpt>
   <trkpt lat="-37.85448" lon="145.37287">
    <ele>579.58</ele>
   </trkpt>
   <trkpt lat="-37.85484500071746" lon="145.3732699980644">
    <ele>578.77</ele>
   </trkpt>
   <trkpt lat="-37.85521" lon="145.37367">
    <ele>578.87</ele>
   </trkpt>
   <trkpt lat="-37.85531" lon="145.37379">
    <ele>578.91</ele>
   </trkpt>
   <trkpt lat="-37.85535" lon="145.37377">
    <ele>578.8199999999999</ele>
   </trkpt>
   <trkpt lat="-37.85567500077416" lon="145.37416499839765">
    <ele>579.26</ele>
   </trkpt>
   <trkpt lat="-37.856" lon="145.37456">
    <ele>577.07</ele>
   </trkpt>
   <trkpt lat="-37.856260000000006" lon="145.37480000000002">
    <ele>574.6800000000001</ele>
   </trkpt>
   <trkpt lat="-37.85622" lon="145.37490000000003">
    <ele>575.6600000000001</ele>
   </trkpt>
   <trkpt lat="-37.85683" lon="145.37527">
    <ele>569.0500000000001</ele>
   </trkpt>
   <trkpt lat="-37.85714" lon="145.37555">
    <ele>565.9000000000001</ele>
   </trkpt>
   <trkpt lat="-37.8575" lon="145.37597000000002">
    <ele>562.5400000000001</ele>
   </trkpt>
   <trkpt lat="-37.85786" lon="145.37659000000002">
    <ele>556.15</ele>
   </trkpt>
   <trkpt lat="-37.85819333708845" lon="145.37725332740155">
    <ele>550.49</ele>
   </trkpt>
   <trkpt lat="-37.85852667045583" lon="145.37791666080253">
    <ele>544.91</ele>
   </trkpt>
   <trkpt lat="-37.85886" lon="145.37858">
    <ele>539.2</ele>
   </trkpt>
   <trkpt lat="-37.859" lon="145.37889">
    <ele>535.73</ele>
   </trkpt>
   <trkpt lat="-37.85922" lon="145.37926000000002">
    <ele>533.35</ele>
   </trkpt>
   <trkpt lat="-37.8595700005479" lon="145.37964999804194">
    <ele>530.4000000000001</ele>
   </trkpt>
   <trkpt lat="-37.85992" lon="145.38004">
    <ele>528.2</ele>
   </trkpt>
   <trkpt lat="-37.86023" lon="145.3805">
    <ele>525.4000000000001</ele>
   </trkpt>
   <trkpt lat="-37.86025" lon="145.38061000000002">
    <ele>525.12</ele>
   </trkpt>
   <trkpt lat="-37.86025" lon="145.38058">
    <ele>525.12</ele>
   </trkpt>
   <trkpt lat="-37.86023" lon="145.38074">
    <ele>524.48</ele>
   </trkpt>
   <trkpt lat="-37.86016" lon="145.381">
    <ele>522.58</ele>
   </trkpt>
   <trkpt lat="-37.86007" lon="145.38119">
    <ele>522.24</ele>
   </trkpt>
   <trkpt lat="-37.86003" lon="145.38133000000002">
    <ele>522.66</ele>
   </trkpt>
   <trkpt lat="-37.85996" lon="145.38188000000002">
    <ele>522.7</ele>
   </trkpt>
   <trkpt lat="-37.85989" lon="145.38267000000002">
    <ele>520.35</ele>
   </trkpt>
   <trkpt lat="-37.85981" lon="145.38287000000003">
    <ele>505.0</ele>
   </trkpt>
   <trkpt lat="-37.85985" lon="145.38334">
    <ele>501.46</ele>
   </trkpt>
   <trkpt lat="-37.85985" lon="145.38353">
    <ele>500.09999999999997</ele>
   </trkpt>
   <trkpt lat="-37.85976" lon="145.38416">
    <ele>497.15000000000003</ele>
   </trkpt>
   <trkpt lat="-37.85965" lon="145.38444">
    <ele>494.2300000000001</ele>
   </trkpt>
   <trkpt lat="-37.85927" lon="145.38468">
    <ele>486.93</ele>
   </trkpt>
   <trkpt lat="-37.85924" lon="145.38477">
    <ele>486.11</ele>
   </trkpt>
   <trkpt lat="-37.85922" lon="145.38515">
    <ele>481.98</ele>
   </trkpt>
   <trkpt lat="-37.85918" lon="145.3854">
    <ele>478.45000000000005</ele>
   </trkpt>
   <trkpt lat="-37.85891" lon="145.38586">
    <ele>471.91</ele>
   </trkpt>
   <trkpt lat="-37.85875" lon="145.38602">
    <ele>469.54</ele>
   </trkpt>
   <trkpt lat="-37.8586" lon="145.38616000000002">
    <ele>468.23</ele>
   </trkpt>
   <trkpt lat="-37.85839" lon="145.38625000000002">
    <ele>464.45000000000005</ele>
   </trkpt>
   <trkpt lat="-37.85826" lon="145.38624000000002">
    <ele>460.21000000000004</ele>
   </trkpt>
   <trkpt lat="-37.85824" lon="145.38621">
    <ele>460.21000000000004</ele>
   </trkpt>
   <trkpt lat="-37.85824" lon="145.38594">
    <ele>457.28000000000003</ele>
   </trkpt>
   <trkpt lat="-37.85804" lon="145.38562000000002">
    <ele>450.25000000000006</ele>
   </trkpt>
   <trkpt lat="-37.85804" lon="145.38581000000002">
    <ele>450.72</ele>
   </trkpt>
   <trkpt lat="-37.857960000000006" lon="145.38599000000002">
    <ele>451.81000000000006</ele>
   </trkpt>
   <trkpt lat="-37.85745" lon="145.38663000000003">
    <ele>452.58000000000004</ele>
   </trkpt>
   <trkpt lat="-37.85705" lon="145.38755">
    <ele>454.32000000000005</ele>
   </trkpt>
   <trkpt lat="-37.85696" lon="145.38773">
    <ele>455.43000000000006</ele>
   </trkpt>
   <trkpt lat="-37.85676" lon="145.38799">
    <ele>456.11</ele>
   </trkpt>
   <trkpt lat="-37.85656" lon="145.38819">
    <ele>457.63000000000005</ele>
   </trkpt>
   <trkpt lat="-37.85627" lon="145.38844">
    <ele>458.09000000000003</ele>
   </trkpt>
   <trkpt lat="-37.85656" lon="145.38819">
    <ele>456.11</ele>
   </trkpt>
   <trkpt lat="-37.85676" lon="145.38799">
    <ele>456.11</ele>
   </trkpt>
   <trkpt lat="-37.85696" lon="145.38773">
    <ele>455.43000000000006</ele>
   </trkpt>
   <trkpt lat="-37.85705" lon="145.38755">
    <ele>454.32000000000005</ele>
   </trkpt>
   <trkpt lat="-37.85745" lon="145.38663000000003">
    <ele>452.58000000000004</ele>
   </trkpt>
   <trkpt lat="-37.857960000000006" lon="145.38599000000002">
    <ele>450.72</ele>
   </trkpt>
   <trkpt lat="-37.85804" lon="145.38581000000002">
    <ele>450.72</ele>
   </trkpt>
   <trkpt lat="-37.858050000000006" lon="145.38549">
    <ele>450.25000000000006</ele>
   </trkpt>
   <trkpt lat="-37.85792" lon="145.38525">
    <ele>448.53000000000003</ele>
   </trkpt>
   <trkpt lat="-37.8575" lon="145.38472000000002">
    <ele>445.01</ele>
   </trkpt>
   <trkpt lat="-37.85741" lon="145.38446000000002">
    <ele>444.19</ele>
   </trkpt>
   <trkpt lat="-37.85739" lon="145.38424">
    <ele>443.46000000000004</ele>
   </trkpt>
   <trkpt lat="-37.85739" lon="145.38403000000002">
    <ele>443.06</ele>
   </trkpt>
   <trkpt lat="-37.85752" lon="145.38307">
    <ele>440.13</ele>
   </trkpt>
   <trkpt lat="-37.8575" lon="145.38250000000002">
    <ele>438.97</ele>
   </trkpt>
   <trkpt lat="-37.857440000000004" lon="145.38230000000001">
    <ele>438.74</ele>
   </trkpt>
   <trkpt lat="-37.85736" lon="145.38193">
    <ele>438.12</ele>
   </trkpt>
   <trkpt lat="-37.857310000000005" lon="145.38186000000002">
    <ele>438.12</ele>
   </trkpt>
   <trkpt lat="-37.85712" lon="145.38146">
    <ele>437.34000000000003</ele>
   </trkpt>
   <trkpt lat="-37.857020000000006" lon="145.38128">
    <ele>436.95000000000005</ele>
   </trkpt>
   <trkpt lat="-37.85687" lon="145.38117000000003">
    <ele>436.51</ele>
   </trkpt>
   <trkpt lat="-37.85678" lon="145.38113">
    <ele>435.94000000000005</ele>
   </trkpt>
   <trkpt lat="-37.85669" lon="145.38112">
    <ele>435.94000000000005</ele>
   </trkpt>
   <trkpt lat="-37.856700000000004" lon="145.38112">
    <ele>435.94000000000005</ele>
   </trkpt>
   <trkpt lat="-37.8564" lon="145.38117000000003">
    <ele>435.98</ele>
   </trkpt>
   <trkpt lat="-37.856170000000006" lon="145.38129">
    <ele>436.61000000000007</ele>
   </trkpt>
   <trkpt lat="-37.85591" lon="145.38134000000002">
    <ele>437.4</ele>
   </trkpt>
   <trkpt lat="-37.85546" lon="145.38168000000002">
    <ele>432.6700000000001</ele>
   </trkpt>
   <trkpt lat="-37.85495" lon="145.38212000000001">
    <ele>422.39000000000004</ele>
   </trkpt>
   <trkpt lat="-37.85453500032642" lon="145.38244000188357">
    <ele>415.27000000000004</ele>
   </trkpt>
   <trkpt lat="-37.85412" lon="145.38276000000002">
    <ele>405.83000000000004</ele>
   </trkpt>
   <trkpt lat="-37.85376" lon="145.38289">
    <ele>396.93</ele>
   </trkpt>
   <trkpt lat="-37.85329" lon="145.38318">
    <ele>388.06</ele>
   </trkpt>
   <trkpt lat="-37.85282" lon="145.38353">
    <ele>376.13</ele>
   </trkpt>
   <trkpt lat="-37.85224" lon="145.38383000000002">
    <ele>364.08</ele>
   </trkpt>
   <trkpt lat="-37.85195" lon="145.38403000000002">
    <ele>354.81</ele>
   </trkpt>
   <trkpt lat="-37.85181" lon="145.38418000000001">
    <ele>352.06000000000006</ele>
   </trkpt>
   <trkpt lat="-37.85168" lon="145.38429000000002">
    <ele>352.06000000000006</ele>
   </trkpt>
   <trkpt lat="-37.85145" lon="145.38439000000002">
    <ele>346.12</ele>
   </trkpt>
   <trkpt lat="-37.85094" lon="145.38438000000002">
    <ele>334.17</ele>
   </trkpt>
   <trkpt lat="-37.8506" lon="145.38444">
    <ele>326.87000000000006</ele>
   </trkpt>
   <trkpt lat="-37.84984" lon="145.38484000000003">
    <ele>315.26000000000005</ele>
   </trkpt>
   <trkpt lat="-37.849700000000006" lon="145.38484000000003">
    <ele>314.15000000000003</ele>
   </trkpt>
   <trkpt lat="-37.84962" lon="145.38474000000002">
    <ele>312.9</ele>
   </trkpt>
   <trkpt lat="-37.84946" lon="145.38481000000002">
    <ele>311.44000000000005</ele>
   </trkpt>
   <trkpt lat="-37.84924" lon="145.38505">
    <ele>309.17</ele>
   </trkpt>
   <trkpt lat="-37.84908" lon="145.38527000000002">
    <ele>309.17</ele>
   </trkpt>
   <trkpt lat="-37.84886" lon="145.3855">
    <ele>305.62</ele>
   </trkpt>
   <trkpt lat="-37.84841" lon="145.38582000000002">
    <ele>300.75</ele>
   </trkpt>
   <trkpt lat="-37.84821" lon="145.38600000000002">
    <ele>297.47</ele>
   </trkpt>
   <trkpt lat="-37.84803" lon="145.38611">
    <ele>296.71000000000004</ele>
   </trkpt>
   <trkpt lat="-37.84774" lon="145.38622">
    <ele>295.03000000000003</ele>
   </trkpt>
   <trkpt lat="-37.84749" lon="145.38625000000002">
    <ele>294.65000000000003</ele>
   </trkpt>
   <trkpt lat="-37.84727" lon="145.38623">
    <ele>294.98</ele>
   </trkpt>
   <trkpt lat="-37.84655" lon="145.38557">
    <ele>302.28000000000003</ele>
   </trkpt>
   <trkpt lat="-37.84628" lon="145.3854">
    <ele>305.86</ele>
   </trkpt>
   <trkpt lat="-37.84601" lon="145.38532">
    <ele>309.64000000000004</ele>
   </trkpt>
   <trkpt lat="-37.84568" lon="145.38528000000002">
    <ele>314.6</ele>
   </trkpt>
   <trkpt lat="-37.84521" lon="145.38525">
    <ele>319.89</ele>
   </trkpt>
   <trkpt lat="-37.8451" lon="145.38520000000003">
    <ele>321.03000000000003</ele>
   </trkpt>
   <trkpt lat="-37.84507" lon="145.38525">
    <ele>321.42</ele>
   </trkpt>
   <trkpt lat="-37.844930000000005" lon="145.38529">
    <ele>321.8</ele>
   </trkpt>
   <trkpt lat="-37.84487" lon="145.3854">
    <ele>320.09000000000003</ele>
   </trkpt>
   <trkpt lat="-37.84483" lon="145.38562000000002">
    <ele>320.09000000000003</ele>
   </trkpt>
   <trkpt lat="-37.84445000127426" lon="145.38614000250016">
    <ele>314.15000000000003</ele>
   </trkpt>
   <trkpt lat="-37.84407" lon="145.38666">
    <ele>308.04</ele>
   </trkpt>
   <trkpt lat="-37.8438" lon="145.38695">
    <ele>301.17</ele>
   </trkpt>
   <trkpt lat="-37.84369" lon="145.38717000000003">
    <ele>300.06000000000006</ele>
   </trkpt>
   <trkpt lat="-37.84337" lon="145.38748">
    <ele>295.32</ele>
   </trkpt>
   <trkpt lat="-37.84317" lon="145.38776000000001">
    <ele>291.48</ele>
   </trkpt>
   <trkpt lat="-37.84297" lon="145.38794000000001">
    <ele>290.18000000000006</ele>
   </trkpt>
   <trkpt lat="-37.842830000000006" lon="145.38816">
    <ele>287.79</ele>
   </trkpt>
   <trkpt lat="-37.84243" lon="145.38848000000002">
    <ele>283.32</ele>
   </trkpt>
   <trkpt lat="-37.84237" lon="145.38848000000002">
    <ele>283.32</ele>
   </trkpt>
   <trkpt lat="-37.84237" lon="145.38825">
    <ele>282.53</ele>
   </trkpt>
   <trkpt lat="-37.842470000000006" lon="145.38771">
    <ele>280.65</ele>
   </trkpt>
   <trkpt lat="-37.84261" lon="145.38726">
    <ele>279.75</ele>
   </trkpt>
   <trkpt lat="-37.8427" lon="145.38637">
    <ele>278.75</ele>
   </trkpt>
   <trkpt lat="-37.84277" lon="145.38612">
    <ele>279.06</ele>
   </trkpt>
   <trkpt lat="-37.84286" lon="145.38585">
    <ele>279.37</ele>
   </trkpt>
   <trkpt lat="-37.84299" lon="145.38529">
    <ele>280.48</ele>
   </trkpt>
   <trkpt lat="-37.84304" lon="145.38501000000002">
    <ele>281.57000000000005</ele>
   </trkpt>
   <trkpt lat="-37.84299" lon="145.38485">
    <ele>282.42</ele>
   </trkpt>
   <trkpt lat="-37.84292000000001" lon="145.38473000000002">
    <ele>282.63000000000005</ele>
   </trkpt>
   <trkpt lat="-37.84297" lon="145.38451">
    <ele>284.35</ele>
   </trkpt>
   <trkpt lat="-37.84295" lon="145.38430000000002">
    <ele>287.66</ele>
   </trkpt>
   <trkpt lat="-37.84286" lon="145.38411000000002">
    <ele>289.18000000000006</ele>
   </trkpt>
   <trkpt lat="-37.84281" lon="145.38376000000002">
    <ele>292.32</ele>
   </trkpt>
   <trkpt lat="-37.84281" lon="145.38304000000002">
    <ele>296.76</ele>
   </trkpt>
   <trkpt lat="-37.84279" lon="145.38266000000002">
    <ele>300.69</ele>
   </trkpt>
   <trkpt lat="-37.84272" lon="145.38237">
    <ele>303.8</ele>
   </trkpt>
   <trkpt lat="-37.84263" lon="145.38217">
    <ele>307.21000000000004</ele>
   </trkpt>
   <trkpt lat="-37.84248" lon="145.38167">
    <ele>311.04</ele>
   </trkpt>
   <trkpt lat="-37.84248" lon="145.38133000000002">
    <ele>313.59000000000003</ele>
   </trkpt>
   <trkpt lat="-37.84243" lon="145.38109">
    <ele>317.49000000000007</ele>
   </trkpt>
   <trkpt lat="-37.8423" lon="145.38066">
    <ele>319.34000000000003</ele>
   </trkpt>
   <trkpt lat="-37.84205" lon="145.38012">
    <ele>324.14000000000004</ele>
   </trkpt>
   <trkpt lat="-37.84223" lon="145.38017000000002">
    <ele>326.83</ele>
   </trkpt>
   <trkpt lat="-37.842380000000006" lon="145.38016000000002">
    <ele>329.21</ele>
   </trkpt>
   <trkpt lat="-37.8425" lon="145.38008000000002">
    <ele>332.21</ele>
   </trkpt>
   <trkpt lat="-37.84257" lon="145.37998000000002">
    <ele>333.83</ele>
   </trkpt>
   <trkpt lat="-37.84277" lon="145.37985">
    <ele>338.27</ele>
   </trkpt>
   <trkpt lat="-37.84297" lon="145.37982000000002">
    <ele>341.34000000000003</ele>
   </trkpt>
   <trkpt lat="-37.84315" lon="145.37983">
    <ele>344.1</ele>
   </trkpt>
   <trkpt lat="-37.84396" lon="145.38022">
    <ele>355.1</ele>
   </trkpt>
   <trkpt lat="-37.84431" lon="145.38042000000002">
    <ele>360.68000000000006</ele>
   </trkpt>
   <trkpt lat="-37.844440000000006" lon="145.3804">
    <ele>362.6</ele>
   </trkpt>
   <trkpt lat="-37.84449" lon="145.38033000000001">
    <ele>365.09000000000003</ele>
   </trkpt>
   <trkpt lat="-37.84451" lon="145.3802">
    <ele>365.89000000000004</ele>
   </trkpt>
   <trkpt lat="-37.84451" lon="145.38000000000002">
    <ele>367.36</ele>
   </trkpt>
   <trkpt lat="-37.8444" lon="145.37967">
    <ele>373.73</ele>
   </trkpt>
   <trkpt lat="-37.84427" lon="145.37936000000002">
    <ele>377.04</ele>
   </trkpt>
   <trkpt lat="-37.84411" lon="145.37913">
    <ele>381.1</ele>
   </trkpt>
   <trkpt lat="-37.84375" lon="145.37878">
    <ele>385.6</ele>
   </trkpt>
   <trkpt lat="-37.84333" lon="145.37800000000001">
    <ele>396.17</ele>
   </trkpt>
   <trkpt lat="-37.84326" lon="145.3778">
    <ele>397.96000000000004</ele>
   </trkpt>
   <trkpt lat="-37.84324" lon="145.37767000000002">
    <ele>399.51000000000005</ele>
   </trkpt>
   <trkpt lat="-37.84326" lon="145.37756000000002">
    <ele>400.81000000000006</ele>
   </trkpt>
   <trkpt lat="-37.84333" lon="145.37742">
    <ele>403.22</ele>
   </trkpt>
   <trkpt lat="-37.84346" lon="145.37734">
    <ele>405.08000000000004</ele>
   </trkpt>
   <trkpt lat="-37.8436" lon="145.37728">
    <ele>409.99</ele>
   </trkpt>
   <trkpt lat="-37.84384" lon="145.37723000000003">
    <ele>415.06000000000006</ele>
   </trkpt>
   <trkpt lat="-37.84431" lon="145.37730000000002">
    <ele>424.7</ele>
   </trkpt>
   <trkpt lat="-37.84492" lon="145.37729000000002">
    <ele>433.94000000000005</ele>
   </trkpt>
   <trkpt lat="-37.84523" lon="145.37737">
    <ele>440.47</ele>
   </trkpt>
   <trkpt lat="-37.84582" lon="145.37730000000002">
    <ele>454.68</ele>
   </trkpt>
   <trkpt lat="-37.8459" lon="145.37727">
    <ele>456.98</ele>
   </trkpt>
   <trkpt lat="-37.8461" lon="145.37725">
    <ele>459.42</ele>
   </trkpt>
   <trkpt lat="-37.84633" lon="145.37718">
    <ele>465.43</ele>
   </trkpt>
   <trkpt lat="-37.84646" lon="145.37716">
    <ele>467.0</ele>
   </trkpt>
   <trkpt lat="-37.84666" lon="145.37718">
    <ele>471.47</ele>
   </trkpt>
   <trkpt lat="-37.8468" lon="145.37722000000002">
    <ele>472.25000000000006</ele>
   </trkpt>
   <trkpt lat="-37.84729" lon="145.37757000000002">
    <ele>481.53000000000003</ele>
   </trkpt>
   <trkpt lat="-37.84751" lon="145.37740000000002">
    <ele>484.31</ele>
   </trkpt>
   <trkpt lat="-37.84787" lon="145.37705000000003">
    <ele>486.86</ele>
   </trkpt>
   <trkpt lat="-37.8481" lon="145.3767">
    <ele>488.29</ele>
   </trkpt>
   <trkpt lat="-37.84814" lon="145.37654">
    <ele>488.27000000000004</ele>
   </trkpt>
   <trkpt lat="-37.84816" lon="145.37637">
    <ele>487.88000000000005</ele>
   </trkpt>
   <trkpt lat="-37.8481" lon="145.37556">
    <ele>482.69000000000005</ele>
   </trkpt>
   <trkpt lat="-37.84816" lon="145.37506000000002">
    <ele>479.84000000000003</ele>
   </trkpt>
   <trkpt lat="-37.84821" lon="145.37490000000003">
    <ele>479.19000000000005</ele>
   </trkpt>
   <trkpt lat="-37.84832" lon="145.37466">
    <ele>478.01000000000005</ele>
   </trkpt>
   <trkpt lat="-37.84834" lon="145.37454000000002">
    <ele>477.73</ele>
   </trkpt>
   <trkpt lat="-37.84834" lon="145.37458">
    <ele>477.73</ele>
   </trkpt>
   <trkpt lat="-37.84832" lon="145.37447">
    <ele>477.52000000000004</ele>
   </trkpt>
   <trkpt lat="-37.848200000000006" lon="145.37433000000001">
    <ele>477.5</ele>
   </trkpt>
   <trkpt lat="-37.84794" lon="145.37421">
    <ele>477.65000000000003</ele>
   </trkpt>
   <trkpt lat="-37.84765" lon="145.37413">
    <ele>478.31</ele>
   </trkpt>
   <trkpt lat="-37.84745" lon="145.37404">
    <ele>479.05</ele>
   </trkpt>
   <trkpt lat="-37.846700000000006" lon="145.37385">
    <ele>481.54</ele>
   </trkpt>
   <trkpt lat="-37.84595" lon="145.37358">
    <ele>486.32</ele>
   </trkpt>
   <trkpt lat="-37.8457" lon="145.37356000000003">
    <ele>486.50000000000006</ele>
   </trkpt>
   <trkpt lat="-37.84534" lon="145.3736">
    <ele>485.28000000000003</ele>
   </trkpt>
   <trkpt lat="-37.844895000037866" lon="145.37369500057332">
    <ele>483.35</ele>
   </trkpt>
   <trkpt lat="-37.84445" lon="145.37379">
    <ele>481.51000000000005</ele>
   </trkpt>
   <trkpt lat="-37.8442" lon="145.37382000000002">
    <ele>480.39000000000004</ele>
   </trkpt>
   <trkpt lat="-37.84373" lon="145.37384">
    <ele>477.86000000000007</ele>
   </trkpt>
   <trkpt lat="-37.843410000000006" lon="145.37382000000002">
    <ele>474.88</ele>
   </trkpt>
   <trkpt lat="-37.84313" lon="145.37378">
    <ele>472.6</ele>
   </trkpt>
   <trkpt lat="-37.84261" lon="145.37362000000002">
    <ele>468.58000000000004</ele>
   </trkpt>
   <trkpt lat="-37.84232" lon="145.37346000000002">
    <ele>467.14000000000004</ele>
   </trkpt>
   <trkpt lat="-37.84205" lon="145.37321">
    <ele>466.28000000000003</ele>
   </trkpt>
   <trkpt lat="-37.84183" lon="145.37294">
    <ele>466.03000000000003</ele>
   </trkpt>
   <trkpt lat="-37.8416" lon="145.37259">
    <ele>465.94</ele>
   </trkpt>
   <trkpt lat="-37.84124500209939" lon="145.3718899966855">
    <ele>464.24</ele>
   </trkpt>
   <trkpt lat="-37.84089" lon="145.37119">
    <ele>463.49</ele>
   </trkpt>
   <trkpt lat="-37.84075" lon="145.37084000000002">
    <ele>463.46000000000004</ele>
   </trkpt>
   <trkpt lat="-37.84073" lon="145.37071">
    <ele>463.56</ele>
   </trkpt>
   <trkpt lat="-37.84073" lon="145.37049000000002">
    <ele>463.76000000000005</ele>
   </trkpt>
   <trkpt lat="-37.84080500173234" lon="145.3698500006453">
    <ele>465.33</ele>
   </trkpt>
   <trkpt lat="-37.840880000000006" lon="145.36921">
    <ele>468.94</ele>
   </trkpt>
   <trkpt lat="-37.84087" lon="145.36892">
    <ele>471.05</ele>
   </trkpt>
   <trkpt lat="-37.84093" lon="145.36841">
    <ele>473.12</ele>
   </trkpt>
   <trkpt lat="-37.84091" lon="145.36816000000002">
    <ele>473.5</ele>
   </trkpt>
   <trkpt lat="-37.840385000248" lon="145.36839000162647">
    <ele>467.89000000000004</ele>
   </trkpt>
   <trkpt lat="-37.83986" lon="145.36862000000002">
    <ele>462.93000000000006</ele>
   </trkpt>
   <trkpt lat="-37.83905" lon="145.36902">
    <ele>453.56</ele>
   </trkpt>
   <trkpt lat="-37.83831" lon="145.3691">
    <ele>448.49000000000007</ele>
   </trkpt>
   <trkpt lat="-37.83782000004114" lon="145.36932500157403">
    <ele>443.29</ele>
   </trkpt>
   <trkpt lat="-37.83733" lon="145.36955">
    <ele>439.92</ele>
   </trkpt>
   <trkpt lat="-37.83708" lon="145.36950000000002">
    <ele>438.48</ele>
   </trkpt>
   <trkpt lat="-37.8369" lon="145.36942000000002">
    <ele>436.91</ele>
   </trkpt>
   <trkpt lat="-37.83668" lon="145.36922">
    <ele>432.82000000000005</ele>
   </trkpt>
   <trkpt lat="-37.83631000097565" lon="145.36872999749014">
    <ele>428.96</ele>
   </trkpt>
   <trkpt lat="-37.83594" lon="145.36824000000001">
    <ele>423.88000000000005</ele>
   </trkpt>
   <trkpt lat="-37.83552" lon="145.36745000000002">
    <ele>419.05</ele>
   </trkpt>
   <trkpt lat="-37.8354" lon="145.36739">
    <ele>418.75</ele>
   </trkpt>
   <trkpt lat="-37.83531" lon="145.36742">
    <ele>418.90000000000003</ele>
   </trkpt>
   <trkpt lat="-37.83522" lon="145.36747000000003">
    <ele>419.28000000000003</ele>
   </trkpt>
   <trkpt lat="-37.83527" lon="145.36759">
    <ele>418.87</ele>
   </trkpt>
   <trkpt lat="-37.83536" lon="145.3684">
    <ele>420.01000000000005</ele>
   </trkpt>
   <trkpt lat="-37.83547" lon="145.36883">
    <ele>419.50000000000006</ele>
   </trkpt>
   <trkpt lat="-37.83558" lon="145.36916000000002">
    <ele>419.05</ele>
   </trkpt>
   <trkpt lat="-37.83572" lon="145.36931">
    <ele>417.12000000000006</ele>
   </trkpt>
   <trkpt lat="-37.83583" lon="145.36949">
    <ele>414.37</ele>
   </trkpt>
   <trkpt lat="-37.83583" lon="145.36973">
    <ele>413.22</ele>
   </trkpt>
   <trkpt lat="-37.83578" lon="145.37018">
    <ele>411.05</ele>
   </trkpt>
   <trkpt lat="-37.83576" lon="145.37064">
    <ele>405.51000000000005</ele>
   </trkpt>
   <trkpt lat="-37.83574" lon="145.37077000000002">
    <ele>404.65</ele>
   </trkpt>
   <trkpt lat="-37.8353700019093" lon="145.37141000290262">
    <ele>400.91</ele>
   </trkpt>
   <trkpt lat="-37.835" lon="145.37205">
    <ele>401.29</ele>
   </trkpt>
   <trkpt lat="-37.83491" lon="145.37243">
    <ele>402.97</ele>
   </trkpt>
   <trkpt lat="-37.83491" lon="145.37251">
    <ele>403.47</ele>
   </trkpt>
   <trkpt lat="-37.835" lon="145.37262">
    <ele>403.95000000000005</ele>
   </trkpt>
   <trkpt lat="-37.83525" lon="145.37281000000002">
    <ele>400.18</ele>
   </trkpt>
   <trkpt lat="-37.83529" lon="145.37287">
    <ele>399.93</ele>
   </trkpt>
   <trkpt lat="-37.83534" lon="145.37307">
    <ele>399.72</ele>
   </trkpt>
   <trkpt lat="-37.83534" lon="145.37347000000003">
    <ele>396.70000000000005</ele>
   </trkpt>
   <trkpt lat="-37.8352" lon="145.37391000000002">
    <ele>388.36</ele>
   </trkpt>
   <trkpt lat="-37.835210000000004" lon="145.37390000000002">
    <ele>388.36</ele>
   </trkpt>
   <trkpt lat="-37.83516" lon="145.37397">
    <ele>387.02000000000004</ele>
   </trkpt>
   <trkpt lat="-37.835060000000006" lon="145.37404">
    <ele>385.63</ele>
   </trkpt>
   <trkpt lat="-37.83478" lon="145.37412">
    <ele>383.21999999999997</ele>
   </trkpt>
   <trkpt lat="-37.83442" lon="145.37417000000002">
    <ele>374.63</ele>
   </trkpt>
   <trkpt lat="-37.83413" lon="145.37428">
    <ele>365.03000000000003</ele>
   </trkpt>
   <trkpt lat="-37.83379" lon="145.3745">
    <ele>354.79</ele>
   </trkpt>
   <trkpt lat="-37.8337" lon="145.37454000000002">
    <ele>352.73</ele>
   </trkpt>
   <trkpt lat="-37.83357" lon="145.37456">
    <ele>350.72</ele>
   </trkpt>
   <trkpt lat="-37.83328" lon="145.37453000000002">
    <ele>348.43</ele>
   </trkpt>
   <trkpt lat="-37.83283" lon="145.37455">
    <ele>343.45000000000005</ele>
   </trkpt>
   <trkpt lat="-37.83261" lon="145.37459">
    <ele>339.54</ele>
   </trkpt>
   <trkpt lat="-37.83238" lon="145.37460000000002">
    <ele>337.56</ele>
   </trkpt>
   <trkpt lat="-37.83209" lon="145.37465">
    <ele>336.72</ele>
   </trkpt>
   <trkpt lat="-37.8316" lon="145.37477">
    <ele>336.68</ele>
   </trkpt>
   <trkpt lat="-37.83142" lon="145.37479000000002">
    <ele>336.6</ele>
   </trkpt>
   <trkpt lat="-37.83099" lon="145.37507000000002">
    <ele>331.82</ele>
   </trkpt>
   <trkpt lat="-37.8305" lon="145.3753">
    <ele>326.66</ele>
   </trkpt>
   <trkpt lat="-37.83019" lon="145.37533000000002">
    <ele>324.99</ele>
   </trkpt>
   <trkpt lat="-37.8299" lon="145.37518">
    <ele>315.23</ele>
   </trkpt>
   <trkpt lat="-37.8297" lon="145.37526000000003">
    <ele>309.44000000000005</ele>
   </trkpt>
   <trkpt lat="-37.82947" lon="145.37548">
    <ele>299.33000000000004</ele>
   </trkpt>
   <trkpt lat="-37.82934" lon="145.37553">
    <ele>294.97</ele>
   </trkpt>
   <trkpt lat="-37.82909" lon="145.37557">
    <ele>291.50000000000006</ele>
   </trkpt>
   <trkpt lat="-37.82898" lon="145.37562">
    <ele>287.7</ele>
   </trkpt>
   <trkpt lat="-37.82884" lon="145.37587000000002">
    <ele>280.05</ele>
   </trkpt>
   <trkpt lat="-37.82876" lon="145.37608">
    <ele>274.42</ele>
   </trkpt>
   <trkpt lat="-37.828880000000005" lon="145.37612000000001">
    <ele>274.85</ele>
   </trkpt>
   <trkpt lat="-37.828920000000004" lon="145.37623000000002">
    <ele>274.93</ele>
   </trkpt>
   <trkpt lat="-37.82893" lon="145.37641000000002">
    <ele>274.34000000000003</ele>
   </trkpt>
   <trkpt lat="-37.82887" lon="145.37672">
    <ele>273.90000000000003</ele>
   </trkpt>
   <trkpt lat="-37.82873" lon="145.37708">
    <ele>273.3</ele>
   </trkpt>
   <trkpt lat="-37.8286" lon="145.37732000000003">
    <ele>272.40000000000003</ele>
   </trkpt>
   <trkpt lat="-37.82824" lon="145.37775000000002">
    <ele>267.87</ele>
   </trkpt>
   <trkpt lat="-37.82797" lon="145.37800000000001">
    <ele>265.09000000000003</ele>
   </trkpt>
   <trkpt lat="-37.82797" lon="145.37777">
    <ele>265.79</ele>
   </trkpt>
   <trkpt lat="-37.827850000000005" lon="145.37757000000002">
    <ele>266.13000000000005</ele>
   </trkpt>
   <trkpt lat="-37.82752" lon="145.37702000000002">
    <ele>268.42</ele>
   </trkpt>
   <trkpt lat="-37.827470000000005" lon="145.3767">
    <ele>269.79</ele>
   </trkpt>
   <trkpt lat="-37.8275" lon="145.37586000000002">
    <ele>272.88</ele>
   </trkpt>
   <trkpt lat="-37.82743" lon="145.37548">
    <ele>274.69000000000005</ele>
   </trkpt>
   <trkpt lat="-37.8273" lon="145.37521">
    <ele>275.92</ele>
   </trkpt>
   <trkpt lat="-37.82708" lon="145.37504">
    <ele>277.15</ele>
   </trkpt>
   <trkpt lat="-37.82681" lon="145.37503">
    <ele>279.54</ele>
   </trkpt>
   <trkpt lat="-37.82627" lon="145.37519">
    <ele>282.75</ele>
   </trkpt>
   <trkpt lat="-37.82602" lon="145.37516000000002">
    <ele>284.05</ele>
   </trkpt>
   <trkpt lat="-37.82567" lon="145.37485">
    <ele>287.13</ele>
   </trkpt>
   <trkpt lat="-37.82555" lon="145.37484">
    <ele>287.72</ele>
   </trkpt>
   <trkpt lat="-37.82546" lon="145.37490000000003">
    <ele>288.96000000000004</ele>
   </trkpt>
   <trkpt lat="-37.82526" lon="145.37525000000002">
    <ele>290.56000000000006</ele>
   </trkpt>
   <trkpt lat="-37.82497" lon="145.37563">
    <ele>293.46</ele>
   </trkpt>
   <trkpt lat="-37.82484" lon="145.37576">
    <ele>294.71000000000004</ele>
   </trkpt>
   <trkpt lat="-37.8247" lon="145.37587000000002">
    <ele>295.76</ele>
   </trkpt>
   <trkpt lat="-37.82446" lon="145.37599">
    <ele>296.91</ele>
   </trkpt>
   <trkpt lat="-37.82426" lon="145.37605000000002">
    <ele>298.77000000000004</ele>
   </trkpt>
   <trkpt lat="-37.8241" lon="145.37608">
    <ele>300.52</ele>
   </trkpt>
   <trkpt lat="-37.82394" lon="145.37608">
    <ele>301.4</ele>
   </trkpt>
   <trkpt lat="-37.82381" lon="145.37606000000002">
    <ele>302.4</ele>
   </trkpt>
   <trkpt lat="-37.8237" lon="145.37601">
    <ele>302.4</ele>
   </trkpt>
   <trkpt lat="-37.82348" lon="145.37585">
    <ele>304.22</ele>
   </trkpt>
   <trkpt lat="-37.823350000000005" lon="145.37570000000002">
    <ele>305.21000000000004</ele>
   </trkpt>
   <trkpt lat="-37.82329" lon="145.37554">
    <ele>306.11000000000007</ele>
   </trkpt>
   <trkpt lat="-37.82314" lon="145.37489000000002">
    <ele>310.31</ele>
   </trkpt>
   <trkpt lat="-37.82311" lon="145.37467">
    <ele>310.87</ele>
   </trkpt>
   <trkpt lat="-37.82313500216376" lon="145.37395500016353">
    <ele>314.06</ele>
   </trkpt>
   <trkpt lat="-37.82316" lon="145.37324">
    <ele>317.49000000000007</ele>
   </trkpt>
   <trkpt lat="-37.82314" lon="145.37242">
    <ele>322.05</ele>
   </trkpt>
   <trkpt lat="-37.82307" lon="145.37217">
    <ele>322.65000000000003</ele>
   </trkpt>
   <trkpt lat="-37.82289" lon="145.37174000000002">
    <ele>325.58000000000004</ele>
   </trkpt>
   <trkpt lat="-37.822680000000005" lon="145.37130000000002">
    <ele>328.47</ele>
   </trkpt>
   <trkpt lat="-37.82264" lon="145.37116">
    <ele>329.35</ele>
   </trkpt>
   <trkpt lat="-37.8226" lon="145.37081">
    <ele>331.51000000000005</ele>
   </trkpt>
   <trkpt lat="-37.82255" lon="145.37071">
    <ele>331.8</ele>
   </trkpt>
   <trkpt lat="-37.82256" lon="145.37072">
    <ele>331.8</ele>
   </trkpt>
   <trkpt lat="-37.82242" lon="145.37063">
    <ele>332.1</ele>
   </trkpt>
   <trkpt lat="-37.82226" lon="145.37059000000002">
    <ele>333.73</ele>
   </trkpt>
   <trkpt lat="-37.82195" lon="145.37061">
    <ele>335.71</ele>
   </trkpt>
   <trkpt lat="-37.82159" lon="145.37087000000002">
    <ele>337.95000000000005</ele>
   </trkpt>
   <trkpt lat="-37.82132" lon="145.37094000000002">
    <ele>340.26</ele>
   </trkpt>
   <trkpt lat="-37.82076" lon="145.37087000000002">
    <ele>343.45000000000005</ele>
   </trkpt>
   <trkpt lat="-37.82067" lon="145.3709">
    <ele>344.85</ele>
   </trkpt>
   <trkpt lat="-37.82061" lon="145.37099">
    <ele>345.47</ele>
   </trkpt>
   <trkpt lat="-37.82063" lon="145.37140000000002">
    <ele>347.29</ele>
   </trkpt>
   <trkpt lat="-37.82061" lon="145.37163">
    <ele>348.93</ele>
   </trkpt>
   <trkpt lat="-37.82052" lon="145.37172">
    <ele>348.93</ele>
   </trkpt>
   <trkpt lat="-37.820440000000005" lon="145.37173">
    <ele>349.54</ele>
   </trkpt>
   <trkpt lat="-37.82034" lon="145.37149000000002">
    <ele>359.96</ele>
   </trkpt>
   <trkpt lat="-37.82011" lon="145.37133">
    <ele>365.56000000000006</ele>
   </trkpt>
   <trkpt lat="-37.82" lon="145.37113000000002">
    <ele>377.00000000000006</ele>
   </trkpt>
   <trkpt lat="-37.82" lon="145.37099">
    <ele>377.68</ele>
   </trkpt>
   <trkpt lat="-37.8198" lon="145.37084000000002">
    <ele>379.21000000000004</ele>
   </trkpt>
   <trkpt lat="-37.81976" lon="145.37066000000002">
    <ele>381.23</ele>
   </trkpt>
   <trkpt lat="-37.81958" lon="145.37056">
    <ele>383.37000000000006</ele>
   </trkpt>
   <trkpt lat="-37.81949" lon="145.3702">
    <ele>385.71000000000004</ele>
   </trkpt>
   <trkpt lat="-37.81953000342815" lon="145.36930000039118">
    <ele>401.25000000000006</ele>
   </trkpt>
   <trkpt lat="-37.819570000000006" lon="145.3684">
    <ele>415.14</ele>
   </trkpt>
   <trkpt lat="-37.81964" lon="145.36831">
    <ele>422.05</ele>
   </trkpt>
   <trkpt lat="-37.8196" lon="145.36814">
    <ele>422.12000000000006</ele>
   </trkpt>
   <trkpt lat="-37.81969" lon="145.36809000000002">
    <ele>428.89000000000004</ele>
   </trkpt>
   <trkpt lat="-37.81971" lon="145.36796">
    <ele>428.89000000000004</ele>
   </trkpt>
   <trkpt lat="-37.81991" lon="145.36784">
    <ele>426.09000000000003</ele>
   </trkpt>
   <trkpt lat="-37.8202" lon="145.3676">
    <ele>433.58</ele>
   </trkpt>
   <trkpt lat="-37.820350000000005" lon="145.36738000000003">
    <ele>437.48</ele>
   </trkpt>
   <trkpt lat="-37.81992000033949" lon="145.3671149984825">
    <ele>444.65000000000003</ele>
   </trkpt>
   <trkpt lat="-37.81949" lon="145.36685">
    <ele>449.36</ele>
   </trkpt>
   <trkpt lat="-37.81931" lon="145.36669">
    <ele>454.89</ele>
   </trkpt>
   <trkpt lat="-37.81915" lon="145.36646000000002">
    <ele>454.89</ele>
   </trkpt>
   <trkpt lat="-37.81895" lon="145.36637000000002">
    <ele>457.21000000000004</ele>
   </trkpt>
   <trkpt lat="-37.81873" lon="145.36641">
    <ele>459.87000000000006</ele>
   </trkpt>
   <trkpt lat="-37.81846" lon="145.36665000000002">
    <ele>464.25000000000006</ele>
   </trkpt>
   <trkpt lat="-37.81828" lon="145.36673000000002">
    <ele>465.70000000000005</ele>
   </trkpt>
   <trkpt lat="-37.81817" lon="145.36671">
    <ele>466.59000000000003</ele>
   </trkpt>
   <trkpt lat="-37.818090000000005" lon="145.3666">
    <ele>466.53000000000003</ele>
   </trkpt>
   <trkpt lat="-37.817980000000006" lon="145.36671">
    <ele>467.20000000000005</ele>
   </trkpt>
   <trkpt lat="-37.817840000000004" lon="145.36653">
    <ele>468.23</ele>
   </trkpt>
   <trkpt lat="-37.81776" lon="145.36664000000002">
    <ele>468.40000000000003</ele>
   </trkpt>
   <trkpt lat="-37.817750000000004" lon="145.36672000000002">
    <ele>468.40000000000003</ele>
   </trkpt>
   <trkpt lat="-37.81752" lon="145.36676">
    <ele>472.43</ele>
   </trkpt>
   <trkpt lat="-37.817530000000005" lon="145.36663000000001">
    <ele>474.14000000000004</ele>
   </trkpt>
   <trkpt lat="-37.81765" lon="145.36620000000002">
    <ele>475.7</ele>
   </trkpt>
   <trkpt lat="-37.81774" lon="145.36595">
    <ele>475.37</ele>
   </trkpt>
   <trkpt lat="-37.81774" lon="145.36581">
    <ele>473.98</ele>
   </trkpt>
   <trkpt lat="-37.8177" lon="145.36568000000003">
    <ele>473.66</ele>
   </trkpt>
   <trkpt lat="-37.817600000000006" lon="145.36507">
    <ele>470.9800000000001</ele>
   </trkpt>
   <trkpt lat="-37.817600000000006" lon="145.36438">
    <ele>468.24</ele>
   </trkpt>
   <trkpt lat="-37.81765" lon="145.36397000000002">
    <ele>466.76000000000005</ele>
   </trkpt>
   <trkpt lat="-37.81779" lon="145.36370000000002">
    <ele>466.65000000000003</ele>
   </trkpt>
   <trkpt lat="-37.817980000000006" lon="145.36344000000003">
    <ele>465.77</ele>
   </trkpt>
   <trkpt lat="-37.8183" lon="145.36328">
    <ele>465.64000000000004</ele>
   </trkpt>
   <trkpt lat="-37.81877" lon="145.36299000000002">
    <ele>472.34000000000003</ele>
   </trkpt>
   <trkpt lat="-37.81931" lon="145.36299000000002">
    <ele>489.64</ele>
   </trkpt>
   <trkpt lat="-37.81949" lon="145.36302">
    <ele>497.91</ele>
   </trkpt>
   <trkpt lat="-37.81958" lon="145.36325000000002">
    <ele>505.09999999999997</ele>
   </trkpt>
   <trkpt lat="-37.81969" lon="145.36317000000003">
    <ele>506.21000000000004</ele>
   </trkpt>
   <trkpt lat="-37.81976" lon="145.36298000000002">
    <ele>506.21999999999997</ele>
   </trkpt>
   <trkpt lat="-37.81996" lon="145.36259">
    <ele>508.84000000000003</ele>
   </trkpt>
   <trkpt lat="-37.82016" lon="145.36235000000002">
    <ele>514.47</ele>
   </trkpt>
   <trkpt lat="-37.82092" lon="145.36214">
    <ele>540.6</ele>
   </trkpt>
   <trkpt lat="-37.82114" lon="145.36204">
    <ele>547.63</ele>
   </trkpt>
   <trkpt lat="-37.82168" lon="145.36193">
    <ele>554.67</ele>
   </trkpt>
   <trkpt lat="-37.82186" lon="145.36196">
    <ele>555.48</ele>
   </trkpt>
   <trkpt lat="-37.82222" lon="145.36195">
    <ele>555.18</ele>
   </trkpt>
   <trkpt lat="-37.822390000000006" lon="145.36191000000002">
    <ele>555.18</ele>
   </trkpt>
   <trkpt lat="-37.82251" lon="145.36179">
    <ele>555.18</ele>
   </trkpt>
   <trkpt lat="-37.82278" lon="145.36161">
    <ele>554.32</ele>
   </trkpt>
   <trkpt lat="-37.82285" lon="145.36151">
    <ele>554.1700000000001</ele>
   </trkpt>
   <trkpt lat="-37.82287" lon="145.36139">
    <ele>553.8700000000001</ele>
   </trkpt>
   <trkpt lat="-37.82251" lon="145.36086">
    <ele>543.85</ele>
   </trkpt>
   <trkpt lat="-37.82247" lon="145.36068">
    <ele>542.07</ele>
   </trkpt>
   <trkpt lat="-37.82251" lon="145.36048000000002">
    <ele>540.8000000000001</ele>
   </trkpt>
   <trkpt lat="-37.82291" lon="145.35968000000003">
    <ele>544.6700000000001</ele>
   </trkpt>
   <trkpt lat="-37.82314" lon="145.35915">
    <ele>545.3</ele>
   </trkpt>
   <trkpt lat="-37.82334" lon="145.3588">
    <ele>551.32</ele>
   </trkpt>
   <trkpt lat="-37.8237" lon="145.35811">
    <ele>551.1400000000001</ele>
   </trkpt>
   <trkpt lat="-37.82405" lon="145.35753000000003">
    <ele>548.7800000000001</ele>
   </trkpt>
   <trkpt lat="-37.82419" lon="145.35738">
    <ele>548.73</ele>
   </trkpt>
   <trkpt lat="-37.82493" lon="145.35696000000002">
    <ele>559.24</ele>
   </trkpt>
   <trkpt lat="-37.82504" lon="145.35681000000002">
    <ele>562.4</ele>
   </trkpt>
   <trkpt lat="-37.825320000000005" lon="145.35658">
    <ele>567.88</ele>
   </trkpt>
   <trkpt lat="-37.82536" lon="145.35629">
    <ele>569.88</ele>
   </trkpt>
   <trkpt lat="-37.82529" lon="145.35569">
    <ele>573.2900000000001</ele>
   </trkpt>
   <trkpt lat="-37.82529" lon="145.35529000000002">
    <ele>573.85</ele>
   </trkpt>
   <trkpt lat="-37.82531" lon="145.35505">
    <ele>574.3900000000001</ele>
   </trkpt>
   <trkpt lat="-37.82535" lon="145.35486">
    <ele>575.5400000000001</ele>
   </trkpt>
   <trkpt lat="-37.82544" lon="145.35431">
    <ele>579.35</ele>
   </trkpt>
   <trkpt lat="-37.82555" lon="145.35337">
    <ele>586.59</ele>
   </trkpt>
   <trkpt lat="-37.82547" lon="145.35287000000002">
    <ele>587.43</ele>
   </trkpt>
   <trkpt lat="-37.82551" lon="145.35260000000002">
    <ele>586.7900000000001</ele>
   </trkpt>
   <trkpt lat="-37.82558" lon="145.35231000000002">
    <ele>586.0000000000001</ele>
   </trkpt>
   <trkpt lat="-37.82596" lon="145.35162000000003">
    <ele>582.74</ele>
   </trkpt>
   <trkpt lat="-37.826240000000006" lon="145.35123000000002">
    <ele>580.3600000000001</ele>
   </trkpt>
   <trkpt lat="-37.82658" lon="145.35101">
    <ele>578.3000000000001</ele>
   </trkpt>
   <trkpt lat="-37.82701" lon="145.35084">
    <ele>579.01</ele>
   </trkpt>
   <trkpt lat="-37.82758000007891" lon="145.35072500088367">
    <ele>577.38</ele>
   </trkpt>
   <trkpt lat="-37.82815" lon="145.35061000000002">
    <ele>576.21</ele>
   </trkpt>
   <trkpt lat="-37.8286300000965" lon="145.35060500003155">
    <ele>578.4100000000001</ele>
   </trkpt>
   <trkpt lat="-37.82911" lon="145.35060000000001">
    <ele>575.72</ele>
   </trkpt>
   <trkpt lat="-37.82943" lon="145.35047">
    <ele>569.91</ele>
   </trkpt>
   <trkpt lat="-37.82963" lon="145.35047">
    <ele>567.61</ele>
   </trkpt>
   <trkpt lat="-37.82999" lon="145.35055">
    <ele>564.7800000000001</ele>
   </trkpt>
   <trkpt lat="-37.83032" lon="145.35069000000001">
    <ele>562.0200000000001</ele>
   </trkpt>
   <trkpt lat="-37.83066" lon="145.35092">
    <ele>559.7800000000001</ele>
   </trkpt>
   <trkpt lat="-37.83093" lon="145.35097000000002">
    <ele>557.9900000000001</ele>
   </trkpt>
   <trkpt lat="-37.83122" lon="145.35091">
    <ele>558.3</ele>
   </trkpt>
   <trkpt lat="-37.83162" lon="145.35071000000002">
    <ele>566.5300000000001</ele>
   </trkpt>
   <trkpt lat="-37.83196" lon="145.35046">
    <ele>572.2</ele>
   </trkpt>
   <trkpt lat="-37.83231" lon="145.35010000000003">
    <ele>579.44</ele>
   </trkpt>
   <trkpt lat="-37.83267" lon="145.34969">
    <ele>587.5600000000001</ele>
   </trkpt>
   <trkpt lat="-37.83274" lon="145.34954000000002">
    <ele>588.2400000000001</ele>
   </trkpt>
   <trkpt lat="-37.83287" lon="145.34947000000003">
    <ele>588.9000000000001</ele>
   </trkpt>
   <trkpt lat="-37.83296" lon="145.34934">
    <ele>589.87</ele>
   </trkpt>
   <trkpt lat="-37.83323" lon="145.34911000000002">
    <ele>593.96</ele>
   </trkpt>
   <trkpt lat="-37.83334" lon="145.3484">
    <ele>596.7800000000001</ele>
   </trkpt>
   <trkpt lat="-37.83339" lon="145.34822">
    <ele>596.5100000000001</ele>
   </trkpt>
   <trkpt lat="-37.83346" lon="145.34808">
    <ele>596.65</ele>
   </trkpt>
   <trkpt lat="-37.83379500052499" lon="145.34767500204265">
    <ele>599.1899999999999</ele>
   </trkpt>
   <trkpt lat="-37.83413" lon="145.34727">
    <ele>599.13</ele>
   </trkpt>
   <trkpt lat="-37.8344" lon="145.34703000000002">
    <ele>598.86</ele>
   </trkpt>
   <trkpt lat="-37.83491" lon="145.3468">
    <ele>598.87</ele>
   </trkpt>
   <trkpt lat="-37.835150000000006" lon="145.34676000000002">
    <ele>599.31</ele>
   </trkpt>
   <trkpt lat="-37.83574" lon="145.34658000000002">
    <ele>603.1700000000001</ele>
   </trkpt>
   <trkpt lat="-37.83601" lon="145.34655">
    <ele>605.6400000000001</ele>
   </trkpt>
   <trkpt lat="-37.8363" lon="145.34654">
    <ele>608.3000000000001</ele>
   </trkpt>
   <trkpt lat="-37.83668" lon="145.34659000000002">
    <ele>612.58</ele>
   </trkpt>
   <trkpt lat="-37.83681" lon="145.34658000000002">
    <ele>612.4000000000001</ele>
   </trkpt>
   <trkpt lat="-37.83699" lon="145.34654">
    <ele>610.38</ele>
   </trkpt>
   <trkpt lat="-37.83706" lon="145.34649000000002">
    <ele>608.59</ele>
   </trkpt>
   <trkpt lat="-37.83726" lon="145.34629">
    <ele>601.77</ele>
   </trkpt>
   <trkpt lat="-37.83733" lon="145.34626">
    <ele>600.7800000000001</ele>
   </trkpt>
   <trkpt lat="-37.8376" lon="145.34623000000002">
    <ele>595.72</ele>
   </trkpt>
   <trkpt lat="-37.83771" lon="145.34619">
    <ele>592.48</ele>
   </trkpt>
   <trkpt lat="-37.83791" lon="145.34608">
    <ele>586.1200000000001</ele>
   </trkpt>
   <trkpt lat="-37.83813" lon="145.34605000000002">
    <ele>580.83</ele>
   </trkpt>
   <trkpt lat="-37.83834" lon="145.34596000000002">
    <ele>573.77</ele>
   </trkpt>
   <trkpt lat="-37.83843" lon="145.34587000000002">
    <ele>571.09</ele>
   </trkpt>
   <trkpt lat="-37.83856" lon="145.34584">
    <ele>567.97</ele>
   </trkpt>
   <trkpt lat="-37.83872" lon="145.34589000000003">
    <ele>566.57</ele>
   </trkpt>
   <trkpt lat="-37.83896" lon="145.34608">
    <ele>567.07</ele>
   </trkpt>
   <trkpt lat="-37.83894" lon="145.3462">
    <ele>569.34</ele>
   </trkpt>
   <trkpt lat="-37.8391" lon="145.34649000000002">
    <ele>573.73</ele>
   </trkpt>
   <trkpt lat="-37.83914" lon="145.34669000000002">
    <ele>576.16</ele>
   </trkpt>
   <trkpt lat="-37.83908" lon="145.34678000000002">
    <ele>576.8000000000001</ele>
   </trkpt>
   <trkpt lat="-37.83896" lon="145.34687000000002">
    <ele>579.62</ele>
   </trkpt>
   <trkpt lat="-37.83885" lon="145.34699">
    <ele>582.2700000000001</ele>
   </trkpt>
   <trkpt lat="-37.83858" lon="145.34734">
    <ele>585.9300000000001</ele>
   </trkpt>
   <trkpt lat="-37.8382" lon="145.34754">
    <ele>591.0300000000001</ele>
   </trkpt>
   <trkpt lat="-37.83822" lon="145.34768000000003">
    <ele>591.0300000000001</ele>
   </trkpt>
   <trkpt lat="-37.83831" lon="145.34782">
    <ele>583.8800000000001</ele>
   </trkpt>
   <trkpt lat="-37.83825" lon="145.34805">
    <ele>580.0500000000001</ele>
   </trkpt>
   <trkpt lat="-37.83811" lon="145.34829000000002">
    <ele>577.77</ele>
   </trkpt>
   <trkpt lat="-37.83793" lon="145.34877">
    <ele>573.74</ele>
   </trkpt>
   <trkpt lat="-37.83789" lon="145.34899000000001">
    <ele>570.64</ele>
   </trkpt>
   <trkpt lat="-37.83782" lon="145.34913">
    <ele>569.85</ele>
   </trkpt>
   <trkpt lat="-37.8378" lon="145.34934">
    <ele>568.61</ele>
   </trkpt>
   <trkpt lat="-37.83773" lon="145.34956000000003">
    <ele>567.5</ele>
   </trkpt>
   <trkpt lat="-37.83773" lon="145.34973000000002">
    <ele>566.99</ele>
   </trkpt>
   <trkpt lat="-37.83813" lon="145.35073">
    <ele>563.12</ele>
   </trkpt>
   <trkpt lat="-37.83836" lon="145.3512">
    <ele>561.34</ele>
   </trkpt>
   <trkpt lat="-37.838750000000005" lon="145.35182">
    <ele>558.0</ele>
   </trkpt>
   <trkpt lat="-37.839585000646906" lon="145.35220999558683">
    <ele>552.07</ele>
   </trkpt>
   <trkpt lat="-37.84042" lon="145.35260000000002">
    <ele>548.4499999999999</ele>
   </trkpt>
   <trkpt lat="-37.84051" lon="145.3528">
    <ele>548.1100000000001</ele>
   </trkpt>
   <trkpt lat="-37.84055" lon="145.35324">
    <ele>547.5000000000001</ele>
   </trkpt>
   <trkpt lat="-37.84131000002351" lon="145.35304500204458">
    <ele>544.9200000000001</ele>
   </trkpt>
   <trkpt lat="-37.84207" lon="145.35285000000002">
    <ele>542.44</ele>
   </trkpt>
   <trkpt lat="-37.84281" lon="145.35295000000002">
    <ele>536.85</ele>
   </trkpt>
   <trkpt lat="-37.843560000000004" lon="145.35324">
    <ele>532.5000000000001</ele>
   </trkpt>
   <trkpt lat="-37.84369" lon="145.35302000000001">
    <ele>530.97</ele>
   </trkpt>
   <trkpt lat="-37.84362" lon="145.3528">
    <ele>529.5500000000001</ele>
   </trkpt>
   <trkpt lat="-37.84335" lon="145.35238">
    <ele>527.05</ele>
   </trkpt>
   <trkpt lat="-37.84348" lon="145.3523">
    <ele>526.57</ele>
   </trkpt>
   <trkpt lat="-37.8436" lon="145.35240000000002">
    <ele>526.63</ele>
   </trkpt>
   <trkpt lat="-37.843790000000006" lon="145.35248">
    <ele>525.6800000000001</ele>
   </trkpt>
   <trkpt lat="-37.84407" lon="145.35236">
    <ele>521.2800000000001</ele>
   </trkpt>
   <trkpt lat="-37.844350000000006" lon="145.35216">
    <ele>513.4300000000001</ele>
   </trkpt>
   <trkpt lat="-37.84454" lon="145.35216">
    <ele>511.63</ele>
   </trkpt>
   <trkpt lat="-37.84476" lon="145.35224000000002">
    <ele>511.45000000000005</ele>
   </trkpt>
   <trkpt lat="-37.84503" lon="145.3523">
    <ele>511.81</ele>
   </trkpt>
   <trkpt lat="-37.84557" lon="145.35234">
    <ele>512.4399999999999</ele>
   </trkpt>
   <trkpt lat="-37.84568" lon="145.35239">
    <ele>512.81</ele>
   </trkpt>
   <trkpt lat="-37.845850000000006" lon="145.35258000000002">
    <ele>515.0</ele>
   </trkpt>
   <trkpt lat="-37.84601" lon="145.35263">
    <ele>515.3000000000001</ele>
   </trkpt>
   <trkpt lat="-37.846230000000006" lon="145.35278000000002">
    <ele>514.66</ele>
   </trkpt>
   <trkpt lat="-37.84633" lon="145.35282">
    <ele>514.37</ele>
   </trkpt>
   <trkpt lat="-37.84658" lon="145.35303000000002">
    <ele>513.15</ele>
   </trkpt>
   <trkpt lat="-37.84657" lon="145.35302000000001">
    <ele>513.15</ele>
   </trkpt>
   <trkpt lat="-37.84671" lon="145.35329000000002">
    <ele>512.33</ele>
   </trkpt>
   <trkpt lat="-37.84682" lon="145.35361">
    <ele>510.18000000000006</ele>
   </trkpt>
   <trkpt lat="-37.84685" lon="145.35385000000002">
    <ele>509.01000000000005</ele>
   </trkpt>
   <trkpt lat="-37.8468" lon="145.35404">
    <ele>507.41</ele>
   </trkpt>
   <trkpt lat="-37.84625666812739" lon="145.35445333941198">
    <ele>509.62000000000006</ele>
   </trkpt>
   <trkpt lat="-37.845713334810114" lon="145.354866672733">
    <ele>511.53000000000003</ele>
   </trkpt>
   <trkpt lat="-37.84517" lon="145.35528000000002">
    <ele>512.73</ele>
   </trkpt>
   <trkpt lat="-37.8453" lon="145.35535000000002">
    <ele>511.9600000000001</ele>
   </trkpt>
   <trkpt lat="-37.8456533370517" lon="145.3560133269724">
    <ele>511.30000000000007</ele>
   </trkpt>
   <trkpt lat="-37.84600667038273" lon="145.35667666030133">
    <ele>509.46000000000004</ele>
   </trkpt>
   <trkpt lat="-37.846360000000004" lon="145.35734000000002">
    <ele>509.18000000000006</ele>
   </trkpt>
   <trkpt lat="-37.84644" lon="145.35760000000002">
    <ele>510.24</ele>
   </trkpt>
   <trkpt lat="-37.846540000000005" lon="145.35771000000003">
    <ele>511.05</ele>
   </trkpt>
   <trkpt lat="-37.84664" lon="145.35795000000002">
    <ele>513.08</ele>
   </trkpt>
   <trkpt lat="-37.84695" lon="145.35840000000002">
    <ele>517.3199999999999</ele>
   </trkpt>
   <trkpt lat="-37.84709" lon="145.35882">
    <ele>516.08</ele>
   </trkpt>
   <trkpt lat="-37.84705" lon="145.35882">
    <ele>516.08</ele>
   </trkpt>
   <trkpt lat="-37.84721500229357" lon="145.35955999824685">
    <ele>514.02</ele>
   </trkpt>
   <trkpt lat="-37.84738" lon="145.36030000000002">
    <ele>510.2300000000001</ele>
   </trkpt>
   <trkpt lat="-37.84713" lon="145.36037000000002">
    <ele>510.73</ele>
   </trkpt>
   <trkpt lat="-37.84707" lon="145.3604">
    <ele>510.73</ele>
   </trkpt>
   <trkpt lat="-37.847030000000004" lon="145.36045000000001">
    <ele>510.73</ele>
   </trkpt>
   <trkpt lat="-37.84693" lon="145.36041">
    <ele>510.71</ele>
   </trkpt>
   <trkpt lat="-37.84631" lon="145.36051">
    <ele>511.6</ele>
   </trkpt>
   <trkpt lat="-37.84584" lon="145.36062">
    <ele>512.47</ele>
   </trkpt>
   <trkpt lat="-37.84586" lon="145.36079">
    <ele>511.31000000000006</ele>
   </trkpt>
   <trkpt lat="-37.8462" lon="145.36071">
    <ele>510.83</ele>
   </trkpt>
   <trkpt lat="-37.84630000000001" lon="145.3617">
    <ele>505.7900000000001</ele>
   </trkpt>
   <trkpt lat="-37.846410000000006" lon="145.3623">
    <ele>503.12</ele>
   </trkpt>
   <trkpt lat="-37.84655000174529" lon="145.36294499871246">
    <ele>487.83000000000004</ele>
   </trkpt>
   <trkpt lat="-37.84669" lon="145.36359000000002">
    <ele>487.99</ele>
   </trkpt>
   <trkpt lat="-37.846780001567424" lon="145.3642049990327">
    <ele>500.82000000000005</ele>
   </trkpt>
   <trkpt lat="-37.84687" lon="145.36482">
    <ele>508.9600000000001</ele>
   </trkpt>
   <trkpt lat="-37.84693" lon="145.36513000000002">
    <ele>511.58000000000004</ele>
   </trkpt>
   <trkpt lat="-37.84691" lon="145.36540000000002">
    <ele>515.0</ele>
   </trkpt>
   <trkpt lat="-37.847005002030606" lon="145.36609499901954">
    <ele>526.54</ele>
   </trkpt>
   <trkpt lat="-37.847100000000005" lon="145.36679">
    <ele>532.0600000000001</ele>
   </trkpt>
   <trkpt lat="-37.84709" lon="145.36678">
    <ele>532.0600000000001</ele>
   </trkpt>
   <trkpt lat="-37.847150000000006" lon="145.36692000000002">
    <ele>533.0</ele>
   </trkpt>
   <trkpt lat="-37.84779400376115" lon="145.36738998359903">
    <ele>533.78</ele>
   </trkpt>
   <trkpt lat="-37.84843800565443" lon="145.36785997540744">
    <ele>534.12</ele>
   </trkpt>
   <trkpt lat="-37.84908200567979" lon="145.3683299754256">
    <ele>539.61</ele>
   </trkpt>
   <trkpt lat="-37.84972600383714" lon="145.36879998365376">
    <ele>549.67</ele>
   </trkpt>
   <trkpt lat="-37.850370000000005" lon="145.36927">
    <ele>556.2</ele>
   </trkpt>
   <trkpt lat="-37.85072" lon="145.36927">
    <ele>558.39</ele>
   </trkpt>
   <trkpt lat="-37.85105" lon="145.36917000000003">
    <ele>559.7500000000001</ele>
   </trkpt>
   <trkpt lat="-37.85159" lon="145.36880000000002">
    <ele>561.34</ele>
   </trkpt>
   <trkpt lat="-37.851760000000006" lon="145.36859">
    <ele>562.46</ele>
   </trkpt>
   <trkpt lat="-37.85208" lon="145.36833000000001">
    <ele>564.5600000000001</ele>
   </trkpt>
   <trkpt lat="-37.85228" lon="145.36824000000001">
    <ele>568.11</ele>
   </trkpt>
   <trkpt lat="-37.85264" lon="145.36819">
    <ele>571.84</ele>
   </trkpt>
   <trkpt lat="-37.85295" lon="145.36822">
    <ele>574.72</ele>
   </trkpt>
   <trkpt lat="-37.85314" lon="145.36833000000001">
    <ele>575.69</ele>
   </trkpt>
   <trkpt lat="-37.853660000000005" lon="145.36857">
    <ele>577.48</ele>
   </trkpt>
   <trkpt lat="-37.85409000000001" lon="145.36882">
    <ele>575.7500000000001</ele>
   </trkpt>
   <trkpt lat="-37.85441" lon="145.36911">
    <ele>572.16</ele>
   </trkpt>
   <trkpt lat="-37.85445" lon="145.36905000000002">
    <ele>571.99</ele>
   </trkpt>
   <trkpt lat="-37.854580000000006" lon="145.36896000000002">
    <ele>571.84</ele>
   </trkpt>
   <trkpt lat="-37.85499" lon="145.36845000000002">
    <ele>572.19</ele>
   </trkpt>
   <trkpt lat="-37.85502" lon="145.36839">
    <ele>572.19</ele>
   </trkpt>
   <trkpt lat="-37.85502" lon="145.3684">
    <ele>572.19</ele>
   </trkpt>
   <trkpt lat="-37.85519" lon="145.36803">
    <ele>572.9399999999999</ele>
   </trkpt>
   <trkpt lat="-37.85536500350699" lon="145.36712000213168">
    <ele>573.11</ele>
   </trkpt>
   <trkpt lat="-37.855540000000005" lon="145.36621000000002">
    <ele>572.44</ele>
   </trkpt>
   <trkpt lat="-37.85577" lon="145.36512000000002">
    <ele>570.1</ele>
   </trkpt>
   <trkpt lat="-37.85582" lon="145.36514000000003">
    <ele>569.4800000000001</ele>
   </trkpt>
   <trkpt lat="-37.85591" lon="145.36497">
    <ele>568.97</ele>
   </trkpt>
   <trkpt lat="-37.85591" lon="145.36474">
    <ele>569.7</ele>
   </trkpt>
   <trkpt lat="-37.85598" lon="145.36440000000002">
    <ele>570.12</ele>
   </trkpt>
   <trkpt lat="-37.855940000000004" lon="145.36425">
    <ele>570.07</ele>
   </trkpt>
   <trkpt lat="-37.856010000000005" lon="145.36421">
    <ele>571.47</ele>
   </trkpt>
   <trkpt lat="-37.85596" lon="145.36408">
    <ele>576.22</ele>
   </trkpt>
   <trkpt lat="-37.85611500271802" lon="145.36327500180724">
    <ele>578.99</ele>
   </trkpt>
   <trkpt lat="-37.85627" lon="145.36247">
    <ele>583.2900000000001</ele>
   </trkpt>
   <trkpt lat="-37.855870000771944" lon="145.3620499977484">
    <ele>577.7500000000001</ele>
   </trkpt>
   <trkpt lat="-37.855470000000004" lon="145.36163000000002">
    <ele>574.99</ele>
   </trkpt>
   <trkpt lat="-37.85508" lon="145.36128000000002">
    <ele>570.08</ele>
   </trkpt>
   <trkpt lat="-37.854470001815734" lon="145.36062999465278">
    <ele>561.82</ele>
   </trkpt>
   <trkpt lat="-37.853860000000005" lon="145.35998">
    <ele>546.6</ele>
   </trkpt>
   <trkpt lat="-37.85394" lon="145.35982">
    <ele>545.79</ele>
   </trkpt>
   <trkpt lat="-37.854020000000006" lon="145.35943">
    <ele>542.5300000000001</ele>
   </trkpt>
   <trkpt lat="-37.85403" lon="145.35922000000002">
    <ele>540.78</ele>
   </trkpt>
   <trkpt lat="-37.85405" lon="145.35908">
    <ele>538.6800000000001</ele>
   </trkpt>
   <trkpt lat="-37.85421" lon="145.35869000000002">
    <ele>531.97</ele>
   </trkpt>
   <trkpt lat="-37.85423" lon="145.35841000000002">
    <ele>526.05</ele>
   </trkpt>
   <trkpt lat="-37.85432" lon="145.3581">
    <ele>523.36</ele>
   </trkpt>
   <trkpt lat="-37.8545" lon="145.35797000000002">
    <ele>524.6</ele>
   </trkpt>
   <trkpt lat="-37.85461" lon="145.35797000000002">
    <ele>525.95</ele>
   </trkpt>
   <trkpt lat="-37.85492" lon="145.35791">
    <ele>532.3100000000001</ele>
   </trkpt>
   <trkpt lat="-37.85513" lon="145.358">
    <ele>539.9200000000001</ele>
   </trkpt>
   <trkpt lat="-37.8553" lon="145.35817">
    <ele>547.59</ele>
   </trkpt>
   <trkpt lat="-37.85553" lon="145.35828">
    <ele>553.83</ele>
   </trkpt>
   <trkpt lat="-37.85571" lon="145.35829">
    <ele>556.76</ele>
   </trkpt>
   <trkpt lat="-37.85618" lon="145.35822000000002">
    <ele>561.46</ele>
   </trkpt>
   <trkpt lat="-37.85633" lon="145.35812">
    <ele>561.73</ele>
   </trkpt>
   <trkpt lat="-37.85647" lon="145.35798">
    <ele>561.3800000000001</ele>
   </trkpt>
   <trkpt lat="-37.85658" lon="145.35783">
    <ele>560.88</ele>
   </trkpt>
   <trkpt lat="-37.85665" lon="145.35757">
    <ele>561.0</ele>
   </trkpt>
   <trkpt lat="-37.85671" lon="145.35743000000002">
    <ele>562.4800000000001</ele>
   </trkpt>
   <trkpt lat="-37.85698" lon="145.35725000000002">
    <ele>567.3900000000001</ele>
   </trkpt>
   <trkpt lat="-37.85703" lon="145.35715000000002">
    <ele>567.86</ele>
   </trkpt>
   <trkpt lat="-37.85705" lon="145.35702">
    <ele>568.1400000000001</ele>
   </trkpt>
   <trkpt lat="-37.85718" lon="145.35671000000002">
    <ele>569.91</ele>
   </trkpt>
   <trkpt lat="-37.85727" lon="145.35627000000002">
    <ele>573.32</ele>
   </trkpt>
   <trkpt lat="-37.85725" lon="145.35584">
    <ele>575.07</ele>
   </trkpt>
   <trkpt lat="-37.85727" lon="145.35574000000003">
    <ele>575.19</ele>
   </trkpt>
   <trkpt lat="-37.857330000000005" lon="145.35569">
    <ele>575.34</ele>
   </trkpt>
   <trkpt lat="-37.85745" lon="145.35567">
    <ele>575.62</ele>
   </trkpt>
   <trkpt lat="-37.85756000000001" lon="145.35572000000002">
    <ele>575.5400000000001</ele>
   </trkpt>
   <trkpt lat="-37.85745" lon="145.35567">
    <ele>575.6</ele>
   </trkpt>
   <trkpt lat="-37.857330000000005" lon="145.35569">
    <ele>575.34</ele>
   </trkpt>
   <trkpt lat="-37.85745" lon="145.35567">
    <ele>575.6</ele>
   </trkpt>
   <trkpt lat="-37.85756000000001" lon="145.35572000000002">
    <ele>575.5400000000001</ele>
   </trkpt>
   <trkpt lat="-37.85765" lon="145.35573000000002">
    <ele>574.9000000000001</ele>
   </trkpt>
   <trkpt lat="-37.85774" lon="145.3557">
    <ele>574.0200000000001</ele>
   </trkpt>
   <trkpt lat="-37.85792" lon="145.35547000000003">
    <ele>568.77</ele>
   </trkpt>
   <trkpt lat="-37.85826" lon="145.35524">
    <ele>563.74</ele>
   </trkpt>
   <trkpt lat="-37.85846" lon="145.35508000000002">
    <ele>555.01</ele>
   </trkpt>
   <trkpt lat="-37.85866" lon="145.35498">
    <ele>549.18</ele>
   </trkpt>
   <trkpt lat="-37.85877" lon="145.35487">
    <ele>545.88</ele>
   </trkpt>
   <trkpt lat="-37.85889" lon="145.35466000000002">
    <ele>539.74</ele>
   </trkpt>
   <trkpt lat="-37.85915" lon="145.35439000000002">
    <ele>533.0400000000001</ele>
   </trkpt>
   <trkpt lat="-37.85942" lon="145.35421000000002">
    <ele>519.72</ele>
   </trkpt>
   <trkpt lat="-37.85956" lon="145.35415">
    <ele>517.6</ele>
   </trkpt>
   <trkpt lat="-37.85978" lon="145.35421000000002">
    <ele>514.05</ele>
   </trkpt>
   <trkpt lat="-37.860060000000004" lon="145.35438000000002">
    <ele>513.1999999999999</ele>
   </trkpt>
   <trkpt lat="-37.860325000891734" lon="145.35484499828854">
    <ele>515.47</ele>
   </trkpt>
   <trkpt lat="-37.86059" lon="145.35531">
    <ele>512.21</ele>
   </trkpt>
   <trkpt lat="-37.86061" lon="145.35545000000002">
    <ele>511.06000000000006</ele>
   </trkpt>
   <trkpt lat="-37.86063" lon="145.35594">
    <ele>497.96</ele>
   </trkpt>
   <trkpt lat="-37.86074" lon="145.3561">
    <ele>494.90000000000003</ele>
   </trkpt>
   <trkpt lat="-37.86084" lon="145.3562">
    <ele>492.39000000000004</ele>
   </trkpt>
   <trkpt lat="-37.86079" lon="145.35600000000002">
    <ele>492.02</ele>
   </trkpt>
   <trkpt lat="-37.86079" lon="145.35580000000002">
    <ele>491.8</ele>
   </trkpt>
   <trkpt lat="-37.86083" lon="145.35584">
    <ele>491.8</ele>
   </trkpt>
   <trkpt lat="-37.86106" lon="145.35584">
    <ele>491.8</ele>
   </trkpt>
   <trkpt lat="-37.86153" lon="145.35553000000002">
    <ele>491.8</ele>
   </trkpt>
   <trkpt lat="-37.86162" lon="145.35553000000002">
    <ele>491.8</ele>
   </trkpt>
   <trkpt lat="-37.86186" lon="145.35538000000003">
    <ele>495.99</ele>
   </trkpt>
   <trkpt lat="-37.86204" lon="145.35533">
    <ele>495.99</ele>
   </trkpt>
   <trkpt lat="-37.86236" lon="145.35511000000002">
    <ele>495.99</ele>
   </trkpt>
   <trkpt lat="-37.86251" lon="145.35493000000002">
    <ele>495.99</ele>
   </trkpt>
   <trkpt lat="-37.86292" lon="145.35475000000002">
    <ele>493.81</ele>
   </trkpt>
   <trkpt lat="-37.86296" lon="145.35467">
    <ele>492.14</ele>
   </trkpt>
   <trkpt lat="-37.86305" lon="145.35463000000001">
    <ele>490.41</ele>
   </trkpt>
   <trkpt lat="-37.86316" lon="145.35444">
    <ele>485.99</ele>
   </trkpt>
   <trkpt lat="-37.862820000000006" lon="145.35373">
    <ele>479.40000000000003</ele>
   </trkpt>
  </trkseg>
 </trk>
</gpx>
