<?xml version="1.0" encoding="UTF-8"?>
<gpx creator="StravaGPX" version="1.1" xmlns="http://www.topografix.com/GPX/1/1" xmlns:xsi="http://www.w3.org/2001/XMLSchema-instance" xsi:schemaLocation="http://www.topografix.com/GPX/1/1 http://www.topografix.com/GPX/1/1/gpx.xsd">
 <metadata>
  <name>DTR Sunday 10 Sept 8k</name>
  <author>
   <name>john csorgo</name>
  </author>
  <copyright author="OpenStreetMap contributors">
   <year>2020</year>
   <license>https://www.openstreetmap.org/copyright</license>
  </copyright>
 </metadata>
 <trk>
  <name>DTR Sunday 10 Sept 8k</name>
  <link href=""/>
  <type>trail_running</type>
  <trkseg>
   <trkpt lat="-37.852450000000005" lon="145.36821">
    <ele>569.9300000000001</ele>
   </trkpt>
   <trkpt lat="-37.85264" lon="145.36819">
    <ele>571.84</ele>
   </trkpt>
   <trkpt lat="-37.85295" lon="145.36822">
    <ele>574.72</ele>
   </trkpt>
   <trkpt lat="-37.85314" lon="145.36833000000001">
    <ele>575.69</ele>
   </trkpt>
   <trkpt lat="-37.853660000000005" lon="145.36857">
    <ele>577.48</ele>
   </trkpt>
   <trkpt lat="-37.85409000000001" lon="145.36882">
    <ele>575.7500000000001</ele>
   </trkpt>
   <trkpt lat="-37.85441" lon="145.36911">
    <ele>572.16</ele>
   </trkpt>
   <trkpt lat="-37.85421" lon="145.36937">
    <ele>572.22</ele>
   </trkpt>
   <trkpt lat="-37.85412500393108" lon="145.37033500118534">
    <ele>575.4800000000001</ele>
   </trkpt>
   <trkpt lat="-37.854040000000005" lon="145.37130000000002">
    <ele>578.85</ele>
   </trkpt>
   <trkpt lat="-37.854020000000006" lon="145.37171">
    <ele>579.5100000000001</ele>
   </trkpt>
   <trkpt lat="-37.85403" lon="145.37202000000002">
    <ele>579.95</ele>
   </trkpt>
   <trkpt lat="-37.85405" lon="145.37220000000002">
    <ele>580.08</ele>
   </trkpt>
   <trkpt lat="-37.85414" lon="145.37239000000002">
    <ele>580.0200000000001</ele>
   </trkpt>
   <trkpt lat="-37.8543" lon="145.37263000000002">
    <ele>579.6999999999999</ele>
   </trkpt>
   <trkpt lat="-37.85448" lon="145.37287">
    <ele>579.58</ele>
   </trkpt>
   <trkpt lat="-37.85484500071746" lon="145.3732699980644">
    <ele>578.77</ele>
   </trkpt>
   <trkpt lat="-37.85521" lon="145.37367">
    <ele>578.87</ele>
   </trkpt>
   <trkpt lat="-37.85531" lon="145.37379">
    <ele>578.91</ele>
   </trkpt>
   <trkpt lat="-37.85535" lon="145.37377">
    <ele>578.8199999999999</ele>
   </trkpt>
   <trkpt lat="-37.85567500077416" lon="145.37416499839765">
    <ele>579.26</ele>
   </trkpt>
   <trkpt lat="-37.856" lon="145.37456">
    <ele>577.07</ele>
   </trkpt>
   <trkpt lat="-37.856260000000006" lon="145.37480000000002">
    <ele>574.6800000000001</ele>
   </trkpt>
   <trkpt lat="-37.85622" lon="145.37490000000003">
    <ele>575.6600000000001</ele>
   </trkpt>
   <trkpt lat="-37.85683" lon="145.37527">
    <ele>568.38</ele>
   </trkpt>
   <trkpt lat="-37.85714" lon="145.37555">
    <ele>565.9000000000001</ele>
   </trkpt>
   <trkpt lat="-37.8575" lon="145.37597000000002">
    <ele>562.5400000000001</ele>
   </trkpt>
   <trkpt lat="-37.85786" lon="145.37659000000002">
    <ele>556.15</ele>
   </trkpt>
   <trkpt lat="-37.85819333708845" lon="145.37725332740155">
    <ele>550.49</ele>
   </trkpt>
   <trkpt lat="-37.85852667045583" lon="145.37791666080253">
    <ele>544.91</ele>
   </trkpt>
   <trkpt lat="-37.85886" lon="145.37858">
    <ele>539.2</ele>
   </trkpt>
   <trkpt lat="-37.859" lon="145.37889">
    <ele>535.73</ele>
   </trkpt>
   <trkpt lat="-37.85922" lon="145.37926000000002">
    <ele>533.35</ele>
   </trkpt>
   <trkpt lat="-37.8595700005479" lon="145.37964999804194">
    <ele>530.4000000000001</ele>
   </trkpt>
   <trkpt lat="-37.85992" lon="145.38004">
    <ele>528.2</ele>
   </trkpt>
   <trkpt lat="-37.86023" lon="145.3805">
    <ele>525.4000000000001</ele>
   </trkpt>
   <trkpt lat="-37.86025" lon="145.38061000000002">
    <ele>525.11</ele>
   </trkpt>
   <trkpt lat="-37.86025" lon="145.38059">
    <ele>525.11</ele>
   </trkpt>
   <trkpt lat="-37.86023" lon="145.38074">
    <ele>524.48</ele>
   </trkpt>
   <trkpt lat="-37.86016" lon="145.381">
    <ele>522.58</ele>
   </trkpt>
   <trkpt lat="-37.86007" lon="145.38119">
    <ele>521.96</ele>
   </trkpt>
   <trkpt lat="-37.86003" lon="145.38133000000002">
    <ele>522.66</ele>
   </trkpt>
   <trkpt lat="-37.85996" lon="145.38188000000002">
    <ele>522.7</ele>
   </trkpt>
   <trkpt lat="-37.85989" lon="145.38267000000002">
    <ele>520.35</ele>
   </trkpt>
   <trkpt lat="-37.85981" lon="145.38287000000003">
    <ele>505.0</ele>
   </trkpt>
   <trkpt lat="-37.85985" lon="145.38334">
    <ele>501.46</ele>
   </trkpt>
   <trkpt lat="-37.85985" lon="145.38353">
    <ele>500.09999999999997</ele>
   </trkpt>
   <trkpt lat="-37.85976" lon="145.38416">
    <ele>497.15000000000003</ele>
   </trkpt>
   <trkpt lat="-37.85965" lon="145.38444">
    <ele>494.2300000000001</ele>
   </trkpt>
   <trkpt lat="-37.85927" lon="145.38468">
    <ele>486.93</ele>
   </trkpt>
   <trkpt lat="-37.85924" lon="145.38477">
    <ele>486.11</ele>
   </trkpt>
   <trkpt lat="-37.85922" lon="145.38515">
    <ele>481.98</ele>
   </trkpt>
   <trkpt lat="-37.85918" lon="145.3854">
    <ele>478.45000000000005</ele>
   </trkpt>
   <trkpt lat="-37.85891" lon="145.38586">
    <ele>471.91</ele>
   </trkpt>
   <trkpt lat="-37.85875" lon="145.38602">
    <ele>469.54</ele>
   </trkpt>
   <trkpt lat="-37.8586" lon="145.38616000000002">
    <ele>468.23</ele>
   </trkpt>
   <trkpt lat="-37.85839" lon="145.38625000000002">
    <ele>464.45000000000005</ele>
   </trkpt>
   <trkpt lat="-37.85826" lon="145.38624000000002">
    <ele>460.21000000000004</ele>
   </trkpt>
   <trkpt lat="-37.85824" lon="145.38621">
    <ele>460.21000000000004</ele>
   </trkpt>
   <trkpt lat="-37.85824" lon="145.38594">
    <ele>457.28000000000003</ele>
   </trkpt>
   <trkpt lat="-37.85804" lon="145.38562000000002">
    <ele>450.25000000000006</ele>
   </trkpt>
   <trkpt lat="-37.85804" lon="145.38581000000002">
    <ele>450.72</ele>
   </trkpt>
   <trkpt lat="-37.857960000000006" lon="145.38599000000002">
    <ele>450.72</ele>
   </trkpt>
   <trkpt lat="-37.85745" lon="145.38663000000003">
    <ele>452.58000000000004</ele>
   </trkpt>
   <trkpt lat="-37.85705" lon="145.38755">
    <ele>454.32000000000005</ele>
   </trkpt>
   <trkpt lat="-37.85696" lon="145.38773">
    <ele>455.43000000000006</ele>
   </trkpt>
   <trkpt lat="-37.85676" lon="145.38799">
    <ele>456.11</ele>
   </trkpt>
   <trkpt lat="-37.85656" lon="145.38819">
    <ele>457.63000000000005</ele>
   </trkpt>
   <trkpt lat="-37.85627" lon="145.38844">
    <ele>458.09000000000003</ele>
   </trkpt>
   <trkpt lat="-37.85616" lon="145.38827">
    <ele>457.99000000000007</ele>
   </trkpt>
   <trkpt lat="-37.85613" lon="145.38815000000002">
    <ele>454.57</ele>
   </trkpt>
   <trkpt lat="-37.85573" lon="145.38751000000002">
    <ele>446.22</ele>
   </trkpt>
   <trkpt lat="-37.85535000099157" lon="145.38703499759845">
    <ele>436.91</ele>
   </trkpt>
   <trkpt lat="-37.85497" lon="145.38656">
    <ele>425.54</ele>
   </trkpt>
   <trkpt lat="-37.85497" lon="145.38651000000002">
    <ele>424.7</ele>
   </trkpt>
   <trkpt lat="-37.85504" lon="145.38646">
    <ele>423.55</ele>
   </trkpt>
   <trkpt lat="-37.85524" lon="145.3864">
    <ele>423.19</ele>
   </trkpt>
   <trkpt lat="-37.85537" lon="145.38641">
    <ele>423.43</ele>
   </trkpt>
   <trkpt lat="-37.85551" lon="145.38635000000002">
    <ele>424.68000000000006</ele>
   </trkpt>
   <trkpt lat="-37.85557" lon="145.38625000000002">
    <ele>425.17</ele>
   </trkpt>
   <trkpt lat="-37.855610000000006" lon="145.3861">
    <ele>424.91</ele>
   </trkpt>
   <trkpt lat="-37.85501" lon="145.38577">
    <ele>417.48</ele>
   </trkpt>
   <trkpt lat="-37.854490000000006" lon="145.38562000000002">
    <ele>407.2</ele>
   </trkpt>
   <trkpt lat="-37.854670000000006" lon="145.38531">
    <ele>402.56</ele>
   </trkpt>
   <trkpt lat="-37.85466" lon="145.38520000000003">
    <ele>400.39000000000004</ele>
   </trkpt>
   <trkpt lat="-37.854470000000006" lon="145.38507">
    <ele>395.88</ele>
   </trkpt>
   <trkpt lat="-37.854490000000006" lon="145.38507">
    <ele>396.58000000000004</ele>
   </trkpt>
   <trkpt lat="-37.85466" lon="145.38520000000003">
    <ele>401.52000000000004</ele>
   </trkpt>
   <trkpt lat="-37.854670000000006" lon="145.38531">
    <ele>403.47</ele>
   </trkpt>
   <trkpt lat="-37.854490000000006" lon="145.38562000000002">
    <ele>407.2</ele>
   </trkpt>
   <trkpt lat="-37.85396" lon="145.38551">
    <ele>394.0</ele>
   </trkpt>
   <trkpt lat="-37.85392" lon="145.38552">
    <ele>394.0</ele>
   </trkpt>
   <trkpt lat="-37.85309" lon="145.38565">
    <ele>376.57</ele>
   </trkpt>
   <trkpt lat="-37.85275" lon="145.38578">
    <ele>372.25</ele>
   </trkpt>
   <trkpt lat="-37.85233" lon="145.38585">
    <ele>365.3</ele>
   </trkpt>
   <trkpt lat="-37.8519" lon="145.38586">
    <ele>357.08</ele>
   </trkpt>
   <trkpt lat="-37.85116" lon="145.38566">
    <ele>346.41</ele>
   </trkpt>
   <trkpt lat="-37.850460000000005" lon="145.38531">
    <ele>333.32</ele>
   </trkpt>
   <trkpt lat="-37.84995" lon="145.38541">
    <ele>327.67</ele>
   </trkpt>
   <trkpt lat="-37.849500000000006" lon="145.38575">
    <ele>319.71999999999997</ele>
   </trkpt>
   <trkpt lat="-37.8498" lon="145.38495">
    <ele>314.15000000000003</ele>
   </trkpt>
   <trkpt lat="-37.84962" lon="145.38474000000002">
    <ele>312.12</ele>
   </trkpt>
   <trkpt lat="-37.84946" lon="145.38481000000002">
    <ele>311.44000000000005</ele>
   </trkpt>
   <trkpt lat="-37.84924" lon="145.38505">
    <ele>309.17</ele>
   </trkpt>
   <trkpt lat="-37.84908" lon="145.38527000000002">
    <ele>305.62</ele>
   </trkpt>
   <trkpt lat="-37.84886" lon="145.3855">
    <ele>305.62</ele>
   </trkpt>
   <trkpt lat="-37.84841" lon="145.38582000000002">
    <ele>300.75</ele>
   </trkpt>
   <trkpt lat="-37.84821" lon="145.38600000000002">
    <ele>297.47</ele>
   </trkpt>
   <trkpt lat="-37.84803" lon="145.38611">
    <ele>296.37</ele>
   </trkpt>
   <trkpt lat="-37.84774" lon="145.38622">
    <ele>294.78999999999996</ele>
   </trkpt>
   <trkpt lat="-37.84749" lon="145.38625000000002">
    <ele>294.71000000000004</ele>
   </trkpt>
   <trkpt lat="-37.84727" lon="145.38622">
    <ele>294.97</ele>
   </trkpt>
   <trkpt lat="-37.847280000000005" lon="145.38623">
    <ele>294.97</ele>
   </trkpt>
   <trkpt lat="-37.84655" lon="145.38557">
    <ele>302.28000000000003</ele>
   </trkpt>
   <trkpt lat="-37.84628" lon="145.3854">
    <ele>305.86</ele>
   </trkpt>
   <trkpt lat="-37.84601" lon="145.38532">
    <ele>309.64000000000004</ele>
   </trkpt>
   <trkpt lat="-37.84568" lon="145.38528000000002">
    <ele>314.6</ele>
   </trkpt>
   <trkpt lat="-37.84521" lon="145.38525">
    <ele>319.89</ele>
   </trkpt>
   <trkpt lat="-37.8451" lon="145.38520000000003">
    <ele>321.03000000000003</ele>
   </trkpt>
   <trkpt lat="-37.84512" lon="145.38515">
    <ele>321.03000000000003</ele>
   </trkpt>
   <trkpt lat="-37.84501" lon="145.38500000000002">
    <ele>320.65999999999997</ele>
   </trkpt>
   <trkpt lat="-37.84494" lon="145.38497">
    <ele>315.0</ele>
   </trkpt>
   <trkpt lat="-37.84487" lon="145.38496">
    <ele>315.0</ele>
   </trkpt>
   <trkpt lat="-37.84474" lon="145.38459">
    <ele>315.34</ele>
   </trkpt>
   <trkpt lat="-37.84463" lon="145.38432">
    <ele>314.46000000000004</ele>
   </trkpt>
   <trkpt lat="-37.84445" lon="145.38416">
    <ele>312.11</ele>
   </trkpt>
   <trkpt lat="-37.844350000000006" lon="145.38415">
    <ele>312.11</ele>
   </trkpt>
   <trkpt lat="-37.84425" lon="145.38410000000002">
    <ele>308.82000000000005</ele>
   </trkpt>
   <trkpt lat="-37.84407" lon="145.38397">
    <ele>306.53000000000003</ele>
   </trkpt>
   <trkpt lat="-37.84393" lon="145.38383000000002">
    <ele>304.88000000000005</ele>
   </trkpt>
   <trkpt lat="-37.84373" lon="145.38359">
    <ele>303.68</ele>
   </trkpt>
   <trkpt lat="-37.84364" lon="145.38343">
    <ele>303.35</ele>
   </trkpt>
   <trkpt lat="-37.84346" lon="145.38327">
    <ele>302.73</ele>
   </trkpt>
   <trkpt lat="-37.84335" lon="145.38330000000002">
    <ele>301.9</ele>
   </trkpt>
   <trkpt lat="-37.84326" lon="145.38336">
    <ele>300.74</ele>
   </trkpt>
   <trkpt lat="-37.84281" lon="145.38357000000002">
    <ele>293.26</ele>
   </trkpt>
   <trkpt lat="-37.84281" lon="145.38304000000002">
    <ele>296.76</ele>
   </trkpt>
   <trkpt lat="-37.84279" lon="145.38266000000002">
    <ele>300.69</ele>
   </trkpt>
   <trkpt lat="-37.84272" lon="145.38237">
    <ele>303.8</ele>
   </trkpt>
   <trkpt lat="-37.84263" lon="145.38217">
    <ele>307.21000000000004</ele>
   </trkpt>
   <trkpt lat="-37.84248" lon="145.38167">
    <ele>311.04</ele>
   </trkpt>
   <trkpt lat="-37.84248" lon="145.38133000000002">
    <ele>313.59000000000003</ele>
   </trkpt>
   <trkpt lat="-37.84243" lon="145.38109">
    <ele>314.6</ele>
   </trkpt>
   <trkpt lat="-37.8423" lon="145.38066">
    <ele>319.34000000000003</ele>
   </trkpt>
   <trkpt lat="-37.84205" lon="145.38012">
    <ele>324.14000000000004</ele>
   </trkpt>
   <trkpt lat="-37.84201" lon="145.38002">
    <ele>324.02000000000004</ele>
   </trkpt>
   <trkpt lat="-37.84185" lon="145.37971000000002">
    <ele>324.63</ele>
   </trkpt>
   <trkpt lat="-37.84154" lon="145.37922">
    <ele>328.19000000000005</ele>
   </trkpt>
   <trkpt lat="-37.84122" lon="145.37847000000002">
    <ele>330.61</ele>
   </trkpt>
   <trkpt lat="-37.84103" lon="145.37786">
    <ele>333.82</ele>
   </trkpt>
   <trkpt lat="-37.840990000000005" lon="145.37779">
    <ele>333.83</ele>
   </trkpt>
   <trkpt lat="-37.840970000000006" lon="145.37764">
    <ele>334.72</ele>
   </trkpt>
   <trkpt lat="-37.84089" lon="145.37754">
    <ele>335.44</ele>
   </trkpt>
   <trkpt lat="-37.84046" lon="145.37711000000002">
    <ele>343.14</ele>
   </trkpt>
   <trkpt lat="-37.84024" lon="145.37681">
    <ele>348.99</ele>
   </trkpt>
   <trkpt lat="-37.83999500117897" lon="145.37628499828548">
    <ele>355.06000000000006</ele>
   </trkpt>
   <trkpt lat="-37.83975" lon="145.37576">
    <ele>360.59000000000003</ele>
   </trkpt>
   <trkpt lat="-37.83948000280842" lon="145.37494499701748">
    <ele>366.97</ele>
   </trkpt>
   <trkpt lat="-37.83921" lon="145.37413">
    <ele>377.05000000000007</ele>
   </trkpt>
   <trkpt lat="-37.839220000000005" lon="145.37414">
    <ele>377.05000000000007</ele>
   </trkpt>
   <trkpt lat="-37.8391" lon="145.37399000000002">
    <ele>377.68</ele>
   </trkpt>
   <trkpt lat="-37.83883" lon="145.37376">
    <ele>378.29</ele>
   </trkpt>
   <trkpt lat="-37.83858" lon="145.37359">
    <ele>378.66</ele>
   </trkpt>
   <trkpt lat="-37.83847" lon="145.37354000000002">
    <ele>379.34</ele>
   </trkpt>
   <trkpt lat="-37.83822" lon="145.37348">
    <ele>381.53000000000003</ele>
   </trkpt>
   <trkpt lat="-37.83805" lon="145.37351">
    <ele>388.83</ele>
   </trkpt>
   <trkpt lat="-37.83793" lon="145.37357">
    <ele>391.1</ele>
   </trkpt>
   <trkpt lat="-37.83784" lon="145.37368">
    <ele>394.62</ele>
   </trkpt>
   <trkpt lat="-37.83764" lon="145.37427000000002">
    <ele>403.18</ele>
   </trkpt>
   <trkpt lat="-37.83746" lon="145.37449">
    <ele>408.12</ele>
   </trkpt>
   <trkpt lat="-37.83735" lon="145.37466">
    <ele>408.95000000000005</ele>
   </trkpt>
   <trkpt lat="-37.8372" lon="145.37408000000002">
    <ele>409.74000000000007</ele>
   </trkpt>
   <trkpt lat="-37.8372" lon="145.37407000000002">
    <ele>409.74000000000007</ele>
   </trkpt>
   <trkpt lat="-37.83719" lon="145.37388">
    <ele>410.28000000000003</ele>
   </trkpt>
   <trkpt lat="-37.83708" lon="145.37331">
    <ele>413.88</ele>
   </trkpt>
   <trkpt lat="-37.83699" lon="145.37235">
    <ele>423.99</ele>
   </trkpt>
   <trkpt lat="-37.837030000000006" lon="145.3719">
    <ele>426.77000000000004</ele>
   </trkpt>
   <trkpt lat="-37.83699" lon="145.37133">
    <ele>429.90000000000003</ele>
   </trkpt>
   <trkpt lat="-37.837030000000006" lon="145.37094000000002">
    <ele>433.13</ele>
   </trkpt>
   <trkpt lat="-37.83701000000001" lon="145.37063">
    <ele>433.84000000000003</ele>
   </trkpt>
   <trkpt lat="-37.83737" lon="145.37053">
    <ele>432.98</ele>
   </trkpt>
   <trkpt lat="-37.83769" lon="145.37040000000002">
    <ele>429.37</ele>
   </trkpt>
   <trkpt lat="-37.83798" lon="145.37023000000002">
    <ele>429.59000000000003</ele>
   </trkpt>
   <trkpt lat="-37.83849" lon="145.36997000000002">
    <ele>436.06000000000006</ele>
   </trkpt>
   <trkpt lat="-37.83869" lon="145.36991">
    <ele>439.64000000000004</ele>
   </trkpt>
   <trkpt lat="-37.83885" lon="145.3698">
    <ele>440.86</ele>
   </trkpt>
   <trkpt lat="-37.8391" lon="145.36968000000002">
    <ele>443.39000000000004</ele>
   </trkpt>
   <trkpt lat="-37.839560000000006" lon="145.36941000000002">
    <ele>452.18</ele>
   </trkpt>
   <trkpt lat="-37.83975" lon="145.36926000000003">
    <ele>454.31000000000006</ele>
   </trkpt>
   <trkpt lat="-37.839940000000006" lon="145.36906000000002">
    <ele>459.08000000000004</ele>
   </trkpt>
   <trkpt lat="-37.83999" lon="145.36903">
    <ele>459.59000000000003</ele>
   </trkpt>
   <trkpt lat="-37.84022" lon="145.36902">
    <ele>461.79</ele>
   </trkpt>
   <trkpt lat="-37.84057" lon="145.36894">
    <ele>467.61</ele>
   </trkpt>
   <trkpt lat="-37.84087" lon="145.36892">
    <ele>471.05</ele>
   </trkpt>
   <trkpt lat="-37.84093" lon="145.36841">
    <ele>473.12</ele>
   </trkpt>
   <trkpt lat="-37.84091" lon="145.36816000000002">
    <ele>473.5</ele>
   </trkpt>
   <trkpt lat="-37.84093" lon="145.36841">
    <ele>473.12</ele>
   </trkpt>
   <trkpt lat="-37.84087" lon="145.36892">
    <ele>471.05</ele>
   </trkpt>
   <trkpt lat="-37.84093" lon="145.36841">
    <ele>473.12</ele>
   </trkpt>
   <trkpt lat="-37.84091" lon="145.36816000000002">
    <ele>473.5</ele>
   </trkpt>
   <trkpt lat="-37.84135999986439" lon="145.36817499990394">
    <ele>477.84000000000003</ele>
   </trkpt>
   <trkpt lat="-37.84181" lon="145.36819">
    <ele>483.01000000000005</ele>
   </trkpt>
   <trkpt lat="-37.84223" lon="145.36838">
    <ele>489.71000000000004</ele>
   </trkpt>
   <trkpt lat="-37.84239" lon="145.36849">
    <ele>489.71000000000004</ele>
   </trkpt>
   <trkpt lat="-37.843005001577716" lon="145.3691049948502">
    <ele>499.92</ele>
   </trkpt>
   <trkpt lat="-37.84362" lon="145.36972">
    <ele>510.48</ele>
   </trkpt>
   <trkpt lat="-37.8438" lon="145.37016">
    <ele>514.08</ele>
   </trkpt>
   <trkpt lat="-37.84429" lon="145.37084000000002">
    <ele>517.95</ele>
   </trkpt>
   <trkpt lat="-37.84436" lon="145.37089">
    <ele>518.1600000000001</ele>
   </trkpt>
   <trkpt lat="-37.84447" lon="145.37095000000002">
    <ele>518.4100000000001</ele>
   </trkpt>
   <trkpt lat="-37.84518500013734" lon="145.37115499800083">
    <ele>518.82</ele>
   </trkpt>
   <trkpt lat="-37.8459" lon="145.37136">
    <ele>519.6</ele>
   </trkpt>
   <trkpt lat="-37.84665750023288" lon="145.37149249591846">
    <ele>520.86</ele>
   </trkpt>
   <trkpt lat="-37.847415000317305" lon="145.37162499455906">
    <ele>523.1600000000001</ele>
   </trkpt>
   <trkpt lat="-37.84817250025328" lon="145.37175749592188">
    <ele>528.11</ele>
   </trkpt>
   <trkpt lat="-37.84893" lon="145.37189">
    <ele>536.13</ele>
   </trkpt>
   <trkpt lat="-37.84904" lon="145.37184000000002">
    <ele>537.3</ele>
   </trkpt>
   <trkpt lat="-37.84915" lon="145.37173">
    <ele>538.1400000000001</ele>
   </trkpt>
   <trkpt lat="-37.849430001263556" lon="145.37117500218451">
    <ele>538.83</ele>
   </trkpt>
   <trkpt lat="-37.84971" lon="145.37062">
    <ele>539.91</ele>
   </trkpt>
   <trkpt lat="-37.84984" lon="145.37028">
    <ele>541.18</ele>
   </trkpt>
   <trkpt lat="-37.85004" lon="145.37006000000002">
    <ele>543.1400000000001</ele>
   </trkpt>
   <trkpt lat="-37.85038" lon="145.37003">
    <ele>546.7500000000001</ele>
   </trkpt>
   <trkpt lat="-37.850640000000006" lon="145.36993">
    <ele>548.7200000000001</ele>
   </trkpt>
   <trkpt lat="-37.85083" lon="145.3698">
    <ele>551.51</ele>
   </trkpt>
   <trkpt lat="-37.85107" lon="145.36952000000002">
    <ele>554.8700000000001</ele>
   </trkpt>
   <trkpt lat="-37.85141500104047" lon="145.36905500200578">
    <ele>560.0200000000001</ele>
   </trkpt>
   <trkpt lat="-37.851760000000006" lon="145.36859">
    <ele>562.74</ele>
   </trkpt>
   <trkpt lat="-37.85195" lon="145.36843000000002">
    <ele>564.44</ele>
   </trkpt>
  </trkseg>
 </trk>
</gpx>
