<?xml version="1.0" encoding="UTF-8"?>
<gpx creator="StravaGPX" version="1.1" xmlns="http://www.topografix.com/GPX/1/1" xmlns:xsi="http://www.w3.org/2001/XMLSchema-instance" xsi:schemaLocation="http://www.topografix.com/GPX/1/1 http://www.topografix.com/GPX/1/1/gpx.xsd">
 <metadata>
  <name>DTR 22 June 20km alternative 1000 steps</name>
  <author>
   <name>john csorgo</name>
  </author>
  <copyright author="OpenStreetMap contributors">
   <year>2020</year>
   <license>https://www.openstreetmap.org/copyright</license>
  </copyright>
 </metadata>
 <trk>
  <name>DTR 22 June 20km alternative 1000 steps</name>
  <link href=""/>
  <type>trail_running</type>
  <trkseg>
   <trkpt lat="-37.8911" lon="145.31723000000002">
    <ele>177.3</ele>
   </trkpt>
   <trkpt lat="-37.8909" lon="145.31737">
    <ele>179.48000000000002</ele>
   </trkpt>
   <trkpt lat="-37.89074" lon="145.31744">
    <ele>181.9</ele>
   </trkpt>
   <trkpt lat="-37.89067" lon="145.31745">
    <ele>182.83</ele>
   </trkpt>
   <trkpt lat="-37.89058" lon="145.31753">
    <ele>183.71</ele>
   </trkpt>
   <trkpt lat="-37.89049" lon="145.31752">
    <ele>184.48</ele>
   </trkpt>
   <trkpt lat="-37.89043" lon="145.31745">
    <ele>184.82000000000002</ele>
   </trkpt>
   <trkpt lat="-37.890280000000004" lon="145.31739000000002">
    <ele>186.05</ele>
   </trkpt>
   <trkpt lat="-37.88978" lon="145.31753">
    <ele>190.20000000000002</ele>
   </trkpt>
   <trkpt lat="-37.88973" lon="145.31761">
    <ele>191.43</ele>
   </trkpt>
   <trkpt lat="-37.88962" lon="145.31768000000002">
    <ele>192.76000000000002</ele>
   </trkpt>
   <trkpt lat="-37.889410000000005" lon="145.31771">
    <ele>194.62</ele>
   </trkpt>
   <trkpt lat="-37.88929" lon="145.31777000000002">
    <ele>196.39000000000001</ele>
   </trkpt>
   <trkpt lat="-37.88866" lon="145.31772">
    <ele>202.36</ele>
   </trkpt>
   <trkpt lat="-37.88846" lon="145.31753">
    <ele>204.77</ele>
   </trkpt>
   <trkpt lat="-37.88839" lon="145.31750000000002">
    <ele>204.77</ele>
   </trkpt>
   <trkpt lat="-37.88828" lon="145.31748000000002">
    <ele>207.16</ele>
   </trkpt>
   <trkpt lat="-37.888270000000006" lon="145.31747000000001">
    <ele>207.16</ele>
   </trkpt>
   <trkpt lat="-37.88808" lon="145.31744">
    <ele>208.17000000000002</ele>
   </trkpt>
   <trkpt lat="-37.88796" lon="145.31747000000001">
    <ele>210.26000000000002</ele>
   </trkpt>
   <trkpt lat="-37.88787000000001" lon="145.31756000000001">
    <ele>210.38</ele>
   </trkpt>
   <trkpt lat="-37.88781" lon="145.31755">
    <ele>211.88</ele>
   </trkpt>
   <trkpt lat="-37.88772" lon="145.31759000000002">
    <ele>211.88</ele>
   </trkpt>
   <trkpt lat="-37.88761" lon="145.31761">
    <ele>213.46</ele>
   </trkpt>
   <trkpt lat="-37.88725" lon="145.31765000000001">
    <ele>217.64000000000001</ele>
   </trkpt>
   <trkpt lat="-37.88712" lon="145.31764">
    <ele>220.34</ele>
   </trkpt>
   <trkpt lat="-37.886880000000005" lon="145.31755">
    <ele>225.28</ele>
   </trkpt>
   <trkpt lat="-37.88669" lon="145.31744">
    <ele>227.23000000000002</ele>
   </trkpt>
   <trkpt lat="-37.88655" lon="145.31725">
    <ele>235.47</ele>
   </trkpt>
   <trkpt lat="-37.88642" lon="145.31715">
    <ele>235.47</ele>
   </trkpt>
   <trkpt lat="-37.88608" lon="145.31701">
    <ele>242.50000000000003</ele>
   </trkpt>
   <trkpt lat="-37.88532" lon="145.3168">
    <ele>265.71</ele>
   </trkpt>
   <trkpt lat="-37.884980000000006" lon="145.31674">
    <ele>272.68</ele>
   </trkpt>
   <trkpt lat="-37.88454" lon="145.31663">
    <ele>283.31</ele>
   </trkpt>
   <trkpt lat="-37.88405" lon="145.31654">
    <ele>295.62000000000006</ele>
   </trkpt>
   <trkpt lat="-37.88338" lon="145.31629">
    <ele>308.39000000000004</ele>
   </trkpt>
   <trkpt lat="-37.883010000000006" lon="145.31627">
    <ele>319.47</ele>
   </trkpt>
   <trkpt lat="-37.88268" lon="145.31621">
    <ele>326.21</ele>
   </trkpt>
   <trkpt lat="-37.88203" lon="145.31637">
    <ele>344.51000000000005</ele>
   </trkpt>
   <trkpt lat="-37.88163" lon="145.31638">
    <ele>351.1</ele>
   </trkpt>
   <trkpt lat="-37.88111" lon="145.31625000000003">
    <ele>360.38000000000005</ele>
   </trkpt>
   <trkpt lat="-37.88085" lon="145.31625000000003">
    <ele>365.89000000000004</ele>
   </trkpt>
   <trkpt lat="-37.88067" lon="145.31623000000002">
    <ele>370.54</ele>
   </trkpt>
   <trkpt lat="-37.880230000085334" lon="145.3160849991326">
    <ele>377.76000000000005</ele>
   </trkpt>
   <trkpt lat="-37.87979" lon="145.31594">
    <ele>388.90000000000003</ele>
   </trkpt>
   <trkpt lat="-37.87964" lon="145.31593">
    <ele>393.82000000000005</ele>
   </trkpt>
   <trkpt lat="-37.87955" lon="145.31595000000002">
    <ele>395.73</ele>
   </trkpt>
   <trkpt lat="-37.87932" lon="145.31608">
    <ele>399.63000000000005</ele>
   </trkpt>
   <trkpt lat="-37.87888" lon="145.31655">
    <ele>407.19000000000005</ele>
   </trkpt>
   <trkpt lat="-37.87841500080895" lon="145.31695500245638">
    <ele>413.46000000000004</ele>
   </trkpt>
   <trkpt lat="-37.877950000000006" lon="145.31736">
    <ele>423.64</ele>
   </trkpt>
   <trkpt lat="-37.87773" lon="145.31763">
    <ele>426.87</ele>
   </trkpt>
   <trkpt lat="-37.8776" lon="145.31788">
    <ele>429.77000000000004</ele>
   </trkpt>
   <trkpt lat="-37.87726" lon="145.31836">
    <ele>437.11000000000007</ele>
   </trkpt>
   <trkpt lat="-37.87686" lon="145.31899">
    <ele>447.25</ele>
   </trkpt>
   <trkpt lat="-37.87659" lon="145.31948">
    <ele>454.5</ele>
   </trkpt>
   <trkpt lat="-37.87644" lon="145.31984">
    <ele>461.56</ele>
   </trkpt>
   <trkpt lat="-37.87632" lon="145.32018000000002">
    <ele>468.82</ele>
   </trkpt>
   <trkpt lat="-37.876180000000005" lon="145.32034000000002">
    <ele>472.1</ele>
   </trkpt>
   <trkpt lat="-37.876090000000005" lon="145.32037000000003">
    <ele>473.41</ele>
   </trkpt>
   <trkpt lat="-37.87599" lon="145.32032">
    <ele>476.36000000000007</ele>
   </trkpt>
   <trkpt lat="-37.87585" lon="145.32021">
    <ele>480.68000000000006</ele>
   </trkpt>
   <trkpt lat="-37.87565" lon="145.32011">
    <ele>485.09000000000003</ele>
   </trkpt>
   <trkpt lat="-37.87541" lon="145.32018000000002">
    <ele>488.13000000000005</ele>
   </trkpt>
   <trkpt lat="-37.87521" lon="145.32021">
    <ele>490.87</ele>
   </trkpt>
   <trkpt lat="-37.87498" lon="145.32019000000003">
    <ele>493.43</ele>
   </trkpt>
   <trkpt lat="-37.874880000000005" lon="145.3202">
    <ele>494.00000000000006</ele>
   </trkpt>
   <trkpt lat="-37.87473" lon="145.32017000000002">
    <ele>495.63</ele>
   </trkpt>
   <trkpt lat="-37.87442" lon="145.32003">
    <ele>499.64000000000004</ele>
   </trkpt>
   <trkpt lat="-37.87415" lon="145.32003">
    <ele>502.55000000000007</ele>
   </trkpt>
   <trkpt lat="-37.874" lon="145.32000000000002">
    <ele>504.06000000000006</ele>
   </trkpt>
   <trkpt lat="-37.87355" lon="145.31979">
    <ele>509.49</ele>
   </trkpt>
   <trkpt lat="-37.87328" lon="145.3197">
    <ele>512.71</ele>
   </trkpt>
   <trkpt lat="-37.87303" lon="145.31965000000002">
    <ele>514.14</ele>
   </trkpt>
   <trkpt lat="-37.87243" lon="145.31962000000001">
    <ele>515.23</ele>
   </trkpt>
   <trkpt lat="-37.87241" lon="145.31979">
    <ele>514.41</ele>
   </trkpt>
   <trkpt lat="-37.87232" lon="145.31989000000002">
    <ele>512.46</ele>
   </trkpt>
   <trkpt lat="-37.87223" lon="145.32034000000002">
    <ele>504.65999999999997</ele>
   </trkpt>
   <trkpt lat="-37.87203" lon="145.32099000000002">
    <ele>490.04</ele>
   </trkpt>
   <trkpt lat="-37.872" lon="145.32119">
    <ele>486.83000000000004</ele>
   </trkpt>
   <trkpt lat="-37.872" lon="145.32135000000002">
    <ele>484.88</ele>
   </trkpt>
   <trkpt lat="-37.87207" lon="145.32187000000002">
    <ele>477.46000000000004</ele>
   </trkpt>
   <trkpt lat="-37.87203" lon="145.32209">
    <ele>472.54</ele>
   </trkpt>
   <trkpt lat="-37.87191" lon="145.32233000000002">
    <ele>465.05</ele>
   </trkpt>
   <trkpt lat="-37.871840000000006" lon="145.32255">
    <ele>461.49</ele>
   </trkpt>
   <trkpt lat="-37.87187" lon="145.32276000000002">
    <ele>460.08000000000004</ele>
   </trkpt>
   <trkpt lat="-37.87185" lon="145.3232">
    <ele>460.07000000000005</ele>
   </trkpt>
   <trkpt lat="-37.871880000000004" lon="145.32333">
    <ele>463.4800000000001</ele>
   </trkpt>
   <trkpt lat="-37.87194" lon="145.32344">
    <ele>466.59000000000003</ele>
   </trkpt>
   <trkpt lat="-37.871830003680316" lon="145.32437000119666">
    <ele>477.4200000000001</ele>
   </trkpt>
   <trkpt lat="-37.87172" lon="145.3253">
    <ele>484.14</ele>
   </trkpt>
   <trkpt lat="-37.87171" lon="145.32548">
    <ele>484.17</ele>
   </trkpt>
   <trkpt lat="-37.87142" lon="145.32584">
    <ele>475.9200000000001</ele>
   </trkpt>
   <trkpt lat="-37.87124" lon="145.32594">
    <ele>473.18</ele>
   </trkpt>
   <trkpt lat="-37.87104" lon="145.32594">
    <ele>468.91</ele>
   </trkpt>
   <trkpt lat="-37.87093" lon="145.32597">
    <ele>466.9800000000001</ele>
   </trkpt>
   <trkpt lat="-37.87082" lon="145.32609000000002">
    <ele>462.95000000000005</ele>
   </trkpt>
   <trkpt lat="-37.870720000000006" lon="145.32623">
    <ele>461.06</ele>
   </trkpt>
   <trkpt lat="-37.87053" lon="145.32625000000002">
    <ele>455.93000000000006</ele>
   </trkpt>
   <trkpt lat="-37.87024" lon="145.32659">
    <ele>451.94000000000005</ele>
   </trkpt>
   <trkpt lat="-37.87006" lon="145.32671000000002">
    <ele>445.90000000000003</ele>
   </trkpt>
   <trkpt lat="-37.87003" lon="145.32679000000002">
    <ele>445.28</ele>
   </trkpt>
   <trkpt lat="-37.870020000000004" lon="145.32697000000002">
    <ele>443.49000000000007</ele>
   </trkpt>
   <trkpt lat="-37.870020000000004" lon="145.32696">
    <ele>443.49000000000007</ele>
   </trkpt>
   <trkpt lat="-37.87003" lon="145.32713">
    <ele>441.41</ele>
   </trkpt>
   <trkpt lat="-37.87008" lon="145.32731">
    <ele>437.84000000000003</ele>
   </trkpt>
   <trkpt lat="-37.87024" lon="145.32759000000001">
    <ele>431.70000000000005</ele>
   </trkpt>
   <trkpt lat="-37.87035" lon="145.32771000000002">
    <ele>429.01000000000005</ele>
   </trkpt>
   <trkpt lat="-37.87062" lon="145.32791">
    <ele>422.75</ele>
   </trkpt>
   <trkpt lat="-37.871" lon="145.32801">
    <ele>417.68000000000006</ele>
   </trkpt>
   <trkpt lat="-37.87131" lon="145.32817">
    <ele>415.41</ele>
   </trkpt>
   <trkpt lat="-37.8714" lon="145.32824000000002">
    <ele>414.46000000000004</ele>
   </trkpt>
   <trkpt lat="-37.87158" lon="145.32842000000002">
    <ele>410.61</ele>
   </trkpt>
   <trkpt lat="-37.87169" lon="145.32861000000003">
    <ele>407.63000000000005</ele>
   </trkpt>
   <trkpt lat="-37.87171" lon="145.32889">
    <ele>400.94</ele>
   </trkpt>
   <trkpt lat="-37.8718" lon="145.32905000000002">
    <ele>398.42</ele>
   </trkpt>
   <trkpt lat="-37.87196" lon="145.32921000000002">
    <ele>396.85</ele>
   </trkpt>
   <trkpt lat="-37.87216" lon="145.32951">
    <ele>398.53000000000003</ele>
   </trkpt>
   <trkpt lat="-37.87223" lon="145.32968000000002">
    <ele>399.39</ele>
   </trkpt>
   <trkpt lat="-37.87227" lon="145.33004000000003">
    <ele>398.66</ele>
   </trkpt>
   <trkpt lat="-37.87223" lon="145.33017">
    <ele>397.38</ele>
   </trkpt>
   <trkpt lat="-37.87221" lon="145.33038000000002">
    <ele>395.43000000000006</ele>
   </trkpt>
   <trkpt lat="-37.87223" lon="145.3309">
    <ele>392.05</ele>
   </trkpt>
   <trkpt lat="-37.87225" lon="145.33113">
    <ele>391.56</ele>
   </trkpt>
   <trkpt lat="-37.87236" lon="145.33138000000002">
    <ele>391.01</ele>
   </trkpt>
   <trkpt lat="-37.87263" lon="145.33171000000002">
    <ele>389.38000000000005</ele>
   </trkpt>
   <trkpt lat="-37.87279" lon="145.33183000000002">
    <ele>387.69000000000005</ele>
   </trkpt>
   <trkpt lat="-37.87297" lon="145.33206">
    <ele>385.67</ele>
   </trkpt>
   <trkpt lat="-37.87301" lon="145.33218000000002">
    <ele>385.02000000000004</ele>
   </trkpt>
   <trkpt lat="-37.87301" lon="145.33226000000002">
    <ele>385.0</ele>
   </trkpt>
   <trkpt lat="-37.872890000000005" lon="145.3325">
    <ele>384.96000000000004</ele>
   </trkpt>
   <trkpt lat="-37.87268" lon="145.33282">
    <ele>383.53000000000003</ele>
   </trkpt>
   <trkpt lat="-37.87238" lon="145.33305000000001">
    <ele>381.3</ele>
   </trkpt>
   <trkpt lat="-37.87207" lon="145.33307000000002">
    <ele>377.28</ele>
   </trkpt>
   <trkpt lat="-37.87167" lon="145.33290000000002">
    <ele>371.94000000000005</ele>
   </trkpt>
   <trkpt lat="-37.871280000000006" lon="145.33282">
    <ele>368.32000000000005</ele>
   </trkpt>
   <trkpt lat="-37.87113" lon="145.33284">
    <ele>368.05</ele>
   </trkpt>
   <trkpt lat="-37.87102" lon="145.33292">
    <ele>368.12</ele>
   </trkpt>
   <trkpt lat="-37.87091" lon="145.33315000000002">
    <ele>367.76000000000005</ele>
   </trkpt>
   <trkpt lat="-37.87082" lon="145.33339">
    <ele>366.01000000000005</ele>
   </trkpt>
   <trkpt lat="-37.87075" lon="145.33419">
    <ele>361.02</ele>
   </trkpt>
   <trkpt lat="-37.870810000000006" lon="145.33446">
    <ele>359.59000000000003</ele>
   </trkpt>
   <trkpt lat="-37.870810000000006" lon="145.3347">
    <ele>358.92</ele>
   </trkpt>
   <trkpt lat="-37.87075" lon="145.33478000000002">
    <ele>356.98</ele>
   </trkpt>
   <trkpt lat="-37.87066" lon="145.33478000000002">
    <ele>356.29</ele>
   </trkpt>
   <trkpt lat="-37.870450000000005" lon="145.33465">
    <ele>355.43</ele>
   </trkpt>
   <trkpt lat="-37.87055" lon="145.33518">
    <ele>365.54</ele>
   </trkpt>
   <trkpt lat="-37.87035" lon="145.3356">
    <ele>376.91</ele>
   </trkpt>
   <trkpt lat="-37.8701" lon="145.33595000000003">
    <ele>383.66</ele>
   </trkpt>
   <trkpt lat="-37.87001" lon="145.33628000000002">
    <ele>389.33</ele>
   </trkpt>
   <trkpt lat="-37.86983" lon="145.33668">
    <ele>396.39</ele>
   </trkpt>
   <trkpt lat="-37.86968" lon="145.33686">
    <ele>396.84000000000003</ele>
   </trkpt>
   <trkpt lat="-37.86927" lon="145.33711000000002">
    <ele>397.05</ele>
   </trkpt>
   <trkpt lat="-37.86914" lon="145.33722">
    <ele>398.71</ele>
   </trkpt>
   <trkpt lat="-37.86905" lon="145.33725">
    <ele>399.34000000000003</ele>
   </trkpt>
   <trkpt lat="-37.869060000000005" lon="145.33725">
    <ele>399.34000000000003</ele>
   </trkpt>
   <trkpt lat="-37.86891" lon="145.33724">
    <ele>399.39</ele>
   </trkpt>
   <trkpt lat="-37.8686" lon="145.33698">
    <ele>396.02000000000004</ele>
   </trkpt>
   <trkpt lat="-37.86831" lon="145.3368">
    <ele>396.29</ele>
   </trkpt>
   <trkpt lat="-37.86813" lon="145.33664000000002">
    <ele>397.16</ele>
   </trkpt>
   <trkpt lat="-37.867900000000006" lon="145.33622000000003">
    <ele>398.37000000000006</ele>
   </trkpt>
   <trkpt lat="-37.86762" lon="145.33587">
    <ele>399.67</ele>
   </trkpt>
   <trkpt lat="-37.86748" lon="145.33566000000002">
    <ele>400.4800000000001</ele>
   </trkpt>
   <trkpt lat="-37.86741" lon="145.33546">
    <ele>401.5</ele>
   </trkpt>
   <trkpt lat="-37.86735" lon="145.33513000000002">
    <ele>403.15</ele>
   </trkpt>
   <trkpt lat="-37.86735" lon="145.33496000000002">
    <ele>404.86000000000007</ele>
   </trkpt>
   <trkpt lat="-37.86744" lon="145.33439">
    <ele>407.47</ele>
   </trkpt>
   <trkpt lat="-37.86741" lon="145.33403">
    <ele>408.05</ele>
   </trkpt>
   <trkpt lat="-37.86737" lon="145.33386000000002">
    <ele>409.89000000000004</ele>
   </trkpt>
   <trkpt lat="-37.8673" lon="145.33371000000002">
    <ele>410.88</ele>
   </trkpt>
   <trkpt lat="-37.867200000000004" lon="145.33355">
    <ele>412.05</ele>
   </trkpt>
   <trkpt lat="-37.86697" lon="145.33335000000002">
    <ele>410.38</ele>
   </trkpt>
   <trkpt lat="-37.86634" lon="145.33317000000002">
    <ele>403.87</ele>
   </trkpt>
   <trkpt lat="-37.86568000015063" lon="145.33300499853112">
    <ele>399.01000000000005</ele>
   </trkpt>
   <trkpt lat="-37.86502" lon="145.33284">
    <ele>393.72</ele>
   </trkpt>
   <trkpt lat="-37.86482" lon="145.33287">
    <ele>391.81000000000006</ele>
   </trkpt>
   <trkpt lat="-37.86473" lon="145.33291">
    <ele>391.81000000000006</ele>
   </trkpt>
   <trkpt lat="-37.864740000000005" lon="145.33290000000002">
    <ele>391.81000000000006</ele>
   </trkpt>
   <trkpt lat="-37.86464" lon="145.333">
    <ele>391.38</ele>
   </trkpt>
   <trkpt lat="-37.86451" lon="145.3332">
    <ele>389.25000000000006</ele>
   </trkpt>
   <trkpt lat="-37.86475" lon="145.33338">
    <ele>399.07000000000005</ele>
   </trkpt>
   <trkpt lat="-37.86493" lon="145.33347">
    <ele>403.18</ele>
   </trkpt>
   <trkpt lat="-37.86529" lon="145.33396000000002">
    <ele>415.84000000000003</ele>
   </trkpt>
   <trkpt lat="-37.8656" lon="145.33411">
    <ele>423.37</ele>
   </trkpt>
   <trkpt lat="-37.86571" lon="145.3342">
    <ele>425.49</ele>
   </trkpt>
   <trkpt lat="-37.86576" lon="145.33428">
    <ele>426.37</ele>
   </trkpt>
   <trkpt lat="-37.86581500171866" lon="145.3349149996823">
    <ele>425.41</ele>
   </trkpt>
   <trkpt lat="-37.86587" lon="145.33555">
    <ele>422.77000000000004</ele>
   </trkpt>
   <trkpt lat="-37.86583" lon="145.33618">
    <ele>419.58</ele>
   </trkpt>
   <trkpt lat="-37.86562" lon="145.33726000000001">
    <ele>418.57000000000005</ele>
   </trkpt>
   <trkpt lat="-37.865465001196924" lon="145.3377950011717">
    <ele>418.05</ele>
   </trkpt>
   <trkpt lat="-37.86531" lon="145.33833">
    <ele>418.39000000000004</ele>
   </trkpt>
   <trkpt lat="-37.86506" lon="145.33889000000002">
    <ele>421.55</ele>
   </trkpt>
   <trkpt lat="-37.86495" lon="145.33935000000002">
    <ele>422.78000000000003</ele>
   </trkpt>
   <trkpt lat="-37.86486" lon="145.33964">
    <ele>423.39000000000004</ele>
   </trkpt>
   <trkpt lat="-37.864760000000004" lon="145.33979000000002">
    <ele>424.94000000000005</ele>
   </trkpt>
   <trkpt lat="-37.86464" lon="145.33988000000002">
    <ele>427.34000000000003</ele>
   </trkpt>
   <trkpt lat="-37.8645" lon="145.33989000000003">
    <ele>429.19</ele>
   </trkpt>
   <trkpt lat="-37.8641" lon="145.33975">
    <ele>431.8</ele>
   </trkpt>
   <trkpt lat="-37.863780000000006" lon="145.33974">
    <ele>434.18</ele>
   </trkpt>
   <trkpt lat="-37.86354" lon="145.33979000000002">
    <ele>435.96</ele>
   </trkpt>
   <trkpt lat="-37.86318" lon="145.33996000000002">
    <ele>439.39000000000004</ele>
   </trkpt>
   <trkpt lat="-37.862860000000005" lon="145.34025000000003">
    <ele>440.19</ele>
   </trkpt>
   <trkpt lat="-37.8622" lon="145.33963">
    <ele>420.71000000000004</ele>
   </trkpt>
   <trkpt lat="-37.86168" lon="145.33925000000002">
    <ele>412.35</ele>
   </trkpt>
   <trkpt lat="-37.86095" lon="145.33902">
    <ele>393.87000000000006</ele>
   </trkpt>
   <trkpt lat="-37.86079" lon="145.33893">
    <ele>391.39</ele>
   </trkpt>
   <trkpt lat="-37.8607" lon="145.33889000000002">
    <ele>390.35</ele>
   </trkpt>
   <trkpt lat="-37.8607" lon="145.33880000000002">
    <ele>390.51</ele>
   </trkpt>
   <trkpt lat="-37.860510000000005" lon="145.33876">
    <ele>396.08000000000004</ele>
   </trkpt>
   <trkpt lat="-37.8605" lon="145.33886">
    <ele>395.79</ele>
   </trkpt>
   <trkpt lat="-37.86056" lon="145.33914000000001">
    <ele>395.89</ele>
   </trkpt>
   <trkpt lat="-37.86081" lon="145.33949">
    <ele>396.68</ele>
   </trkpt>
   <trkpt lat="-37.86115" lon="145.33973">
    <ele>395.32</ele>
   </trkpt>
   <trkpt lat="-37.86117" lon="145.33978000000002">
    <ele>394.13000000000005</ele>
   </trkpt>
   <trkpt lat="-37.86117" lon="145.3399">
    <ele>390.78000000000003</ele>
   </trkpt>
   <trkpt lat="-37.86112" lon="145.34012">
    <ele>383.12</ele>
   </trkpt>
   <trkpt lat="-37.86086" lon="145.34071">
    <ele>364.89000000000004</ele>
   </trkpt>
   <trkpt lat="-37.860780000000005" lon="145.341">
    <ele>360.50000000000006</ele>
   </trkpt>
   <trkpt lat="-37.8603" lon="145.34063">
    <ele>349.79</ele>
   </trkpt>
   <trkpt lat="-37.86021" lon="145.34058000000002">
    <ele>349.79</ele>
   </trkpt>
   <trkpt lat="-37.86008" lon="145.34056">
    <ele>347.62</ele>
   </trkpt>
   <trkpt lat="-37.859460000000006" lon="145.34061">
    <ele>340.67</ele>
   </trkpt>
   <trkpt lat="-37.85927" lon="145.34058000000002">
    <ele>339.66</ele>
   </trkpt>
   <trkpt lat="-37.85913" lon="145.34049000000002">
    <ele>336.51000000000005</ele>
   </trkpt>
   <trkpt lat="-37.85902" lon="145.34036">
    <ele>336.51000000000005</ele>
   </trkpt>
   <trkpt lat="-37.858700000000006" lon="145.33980000000003">
    <ele>329.05</ele>
   </trkpt>
   <trkpt lat="-37.85869" lon="145.33979000000002">
    <ele>329.05</ele>
   </trkpt>
   <trkpt lat="-37.85835000302655" lon="145.33895499634093">
    <ele>320.85</ele>
   </trkpt>
   <trkpt lat="-37.85801" lon="145.33812">
    <ele>315.34</ele>
   </trkpt>
   <trkpt lat="-37.85788" lon="145.33765000000002">
    <ele>308.4</ele>
   </trkpt>
   <trkpt lat="-37.85772" lon="145.33722">
    <ele>303.21000000000004</ele>
   </trkpt>
   <trkpt lat="-37.85768" lon="145.33686">
    <ele>303.21000000000004</ele>
   </trkpt>
   <trkpt lat="-37.85768" lon="145.33662">
    <ele>296.19</ele>
   </trkpt>
   <trkpt lat="-37.85777" lon="145.33627">
    <ele>296.19</ele>
   </trkpt>
   <trkpt lat="-37.85799" lon="145.3357">
    <ele>288.77000000000004</ele>
   </trkpt>
   <trkpt lat="-37.85808" lon="145.33543">
    <ele>285.67</ele>
   </trkpt>
   <trkpt lat="-37.8581" lon="145.33530000000002">
    <ele>283.55</ele>
   </trkpt>
   <trkpt lat="-37.8581" lon="145.33454">
    <ele>277.35</ele>
   </trkpt>
   <trkpt lat="-37.857980000000005" lon="145.33416000000003">
    <ele>272.03000000000003</ele>
   </trkpt>
   <trkpt lat="-37.85797" lon="145.33415000000002">
    <ele>271.81</ele>
   </trkpt>
   <trkpt lat="-37.857960000000006" lon="145.33415000000002">
    <ele>271.81</ele>
   </trkpt>
   <trkpt lat="-37.85821" lon="145.33414000000002">
    <ele>274.06</ele>
   </trkpt>
   <trkpt lat="-37.85833" lon="145.33419">
    <ele>275.23</ele>
   </trkpt>
   <trkpt lat="-37.85844" lon="145.33431000000002">
    <ele>276.33000000000004</ele>
   </trkpt>
   <trkpt lat="-37.85887500137247" lon="145.3348699967549">
    <ele>281.30000000000007</ele>
   </trkpt>
   <trkpt lat="-37.85931" lon="145.33543">
    <ele>287.43</ele>
   </trkpt>
   <trkpt lat="-37.85965" lon="145.33569">
    <ele>290.74</ele>
   </trkpt>
   <trkpt lat="-37.85996" lon="145.33583000000002">
    <ele>293.81</ele>
   </trkpt>
   <trkpt lat="-37.86065" lon="145.33601000000002">
    <ele>302.24</ele>
   </trkpt>
   <trkpt lat="-37.8609" lon="145.33604000000003">
    <ele>302.83000000000004</ele>
   </trkpt>
   <trkpt lat="-37.86164" lon="145.33602000000002">
    <ele>302.04</ele>
   </trkpt>
   <trkpt lat="-37.862080000000006" lon="145.33605">
    <ele>304.6</ele>
   </trkpt>
   <trkpt lat="-37.86231" lon="145.33606">
    <ele>306.3</ele>
   </trkpt>
   <trkpt lat="-37.86292" lon="145.33596">
    <ele>308.06</ele>
   </trkpt>
   <trkpt lat="-37.86303" lon="145.33592000000002">
    <ele>307.66</ele>
   </trkpt>
   <trkpt lat="-37.8631" lon="145.33586000000003">
    <ele>307.41</ele>
   </trkpt>
   <trkpt lat="-37.86309" lon="145.33587">
    <ele>307.41</ele>
   </trkpt>
   <trkpt lat="-37.86314" lon="145.3357">
    <ele>306.89000000000004</ele>
   </trkpt>
   <trkpt lat="-37.86309" lon="145.33556000000002">
    <ele>306.48</ele>
   </trkpt>
   <trkpt lat="-37.8628" lon="145.33489">
    <ele>305.82000000000005</ele>
   </trkpt>
   <trkpt lat="-37.86242" lon="145.33416000000003">
    <ele>305.29</ele>
   </trkpt>
   <trkpt lat="-37.86229" lon="145.33376">
    <ele>304.82000000000005</ele>
   </trkpt>
   <trkpt lat="-37.86227" lon="145.33360000000002">
    <ele>304.82000000000005</ele>
   </trkpt>
   <trkpt lat="-37.86224" lon="145.33325000000002">
    <ele>304.37</ele>
   </trkpt>
   <trkpt lat="-37.86224" lon="145.33262000000002">
    <ele>304.29</ele>
   </trkpt>
   <trkpt lat="-37.86227" lon="145.33246000000003">
    <ele>304.44000000000005</ele>
   </trkpt>
   <trkpt lat="-37.862370000000006" lon="145.33226000000002">
    <ele>304.58</ele>
   </trkpt>
   <trkpt lat="-37.86252" lon="145.33206">
    <ele>304.71000000000004</ele>
   </trkpt>
   <trkpt lat="-37.86256" lon="145.33169">
    <ele>293.65000000000003</ele>
   </trkpt>
   <trkpt lat="-37.86247" lon="145.33146000000002">
    <ele>289.89000000000004</ele>
   </trkpt>
   <trkpt lat="-37.86256" lon="145.33127000000002">
    <ele>286.88</ele>
   </trkpt>
   <trkpt lat="-37.86218" lon="145.33063">
    <ele>269.61</ele>
   </trkpt>
   <trkpt lat="-37.862" lon="145.33024">
    <ele>261.44</ele>
   </trkpt>
   <trkpt lat="-37.86189" lon="145.33014">
    <ele>259.89</ele>
   </trkpt>
   <trkpt lat="-37.86186" lon="145.33004000000003">
    <ele>259.24</ele>
   </trkpt>
   <trkpt lat="-37.86175" lon="145.32975000000002">
    <ele>254.86</ele>
   </trkpt>
   <trkpt lat="-37.86162" lon="145.32949000000002">
    <ele>248.52</ele>
   </trkpt>
   <trkpt lat="-37.861450000000005" lon="145.32929000000001">
    <ele>244.76000000000002</ele>
   </trkpt>
   <trkpt lat="-37.86148" lon="145.32925">
    <ele>244.74</ele>
   </trkpt>
   <trkpt lat="-37.86159" lon="145.32860000000002">
    <ele>245.65</ele>
   </trkpt>
   <trkpt lat="-37.86159" lon="145.32859000000002">
    <ele>245.65</ele>
   </trkpt>
   <trkpt lat="-37.86177" lon="145.32821">
    <ele>246.64000000000001</ele>
   </trkpt>
   <trkpt lat="-37.861990000000006" lon="145.32794">
    <ele>246.98000000000002</ele>
   </trkpt>
   <trkpt lat="-37.86222" lon="145.32782">
    <ele>248.73</ele>
   </trkpt>
   <trkpt lat="-37.86265" lon="145.32778000000002">
    <ele>250.66</ele>
   </trkpt>
   <trkpt lat="-37.86307" lon="145.32762000000002">
    <ele>249.45000000000002</ele>
   </trkpt>
   <trkpt lat="-37.86356" lon="145.32760000000002">
    <ele>248.37</ele>
   </trkpt>
   <trkpt lat="-37.86397" lon="145.32753000000002">
    <ele>247.68</ele>
   </trkpt>
   <trkpt lat="-37.864180000000005" lon="145.32759000000001">
    <ele>247.82</ele>
   </trkpt>
   <trkpt lat="-37.8643" lon="145.32765">
    <ele>248.39000000000001</ele>
   </trkpt>
   <trkpt lat="-37.86446" lon="145.32787000000002">
    <ele>248.70000000000002</ele>
   </trkpt>
   <trkpt lat="-37.86453" lon="145.3279">
    <ele>246.74</ele>
   </trkpt>
   <trkpt lat="-37.86462" lon="145.3279">
    <ele>244.05</ele>
   </trkpt>
   <trkpt lat="-37.86471" lon="145.32788000000002">
    <ele>242.13</ele>
   </trkpt>
   <trkpt lat="-37.864810000000006" lon="145.32766">
    <ele>247.94000000000003</ele>
   </trkpt>
   <trkpt lat="-37.86482" lon="145.32749">
    <ele>249.50000000000003</ele>
   </trkpt>
   <trkpt lat="-37.86486" lon="145.32749">
    <ele>249.62</ele>
   </trkpt>
   <trkpt lat="-37.86491" lon="145.32743000000002">
    <ele>249.62</ele>
   </trkpt>
   <trkpt lat="-37.865" lon="145.32741000000001">
    <ele>252.92000000000002</ele>
   </trkpt>
   <trkpt lat="-37.865610000000004" lon="145.3274">
    <ele>271.31</ele>
   </trkpt>
   <trkpt lat="-37.86589" lon="145.3273">
    <ele>277.23</ele>
   </trkpt>
   <trkpt lat="-37.86596" lon="145.3273">
    <ele>277.23</ele>
   </trkpt>
   <trkpt lat="-37.86616" lon="145.32719">
    <ele>283.92</ele>
   </trkpt>
   <trkpt lat="-37.86623" lon="145.32717000000002">
    <ele>288.14</ele>
   </trkpt>
   <trkpt lat="-37.8663" lon="145.32718">
    <ele>288.14</ele>
   </trkpt>
   <trkpt lat="-37.86634" lon="145.32726000000002">
    <ele>290.11</ele>
   </trkpt>
   <trkpt lat="-37.86641" lon="145.32750000000001">
    <ele>294.95000000000005</ele>
   </trkpt>
   <trkpt lat="-37.866510000000005" lon="145.32752000000002">
    <ele>296.6</ele>
   </trkpt>
   <trkpt lat="-37.86652" lon="145.32690000000002">
    <ele>293.94000000000005</ele>
   </trkpt>
   <trkpt lat="-37.866580000000006" lon="145.32649">
    <ele>291.75</ele>
   </trkpt>
   <trkpt lat="-37.86692000197666" lon="145.32582500285992">
    <ele>298.22</ele>
   </trkpt>
   <trkpt lat="-37.86726" lon="145.32516">
    <ele>305.23</ele>
   </trkpt>
   <trkpt lat="-37.86771500169878" lon="145.32454000372869">
    <ele>311.77000000000004</ele>
   </trkpt>
   <trkpt lat="-37.868170000000006" lon="145.32392000000002">
    <ele>316.37000000000006</ele>
   </trkpt>
   <trkpt lat="-37.86827" lon="145.32375000000002">
    <ele>316.98</ele>
   </trkpt>
   <trkpt lat="-37.86826000000001" lon="145.32377000000002">
    <ele>316.98</ele>
   </trkpt>
   <trkpt lat="-37.868280000000006" lon="145.32366000000002">
    <ele>317.43000000000006</ele>
   </trkpt>
   <trkpt lat="-37.86824" lon="145.32357000000002">
    <ele>317.43000000000006</ele>
   </trkpt>
   <trkpt lat="-37.86782500174928" lon="145.3229399965594">
    <ele>319.37000000000006</ele>
   </trkpt>
   <trkpt lat="-37.86741" lon="145.32231000000002">
    <ele>323.49</ele>
   </trkpt>
   <trkpt lat="-37.86715" lon="145.32185">
    <ele>326.36</ele>
   </trkpt>
   <trkpt lat="-37.86706" lon="145.32158">
    <ele>327.64000000000004</ele>
   </trkpt>
   <trkpt lat="-37.86712" lon="145.32127">
    <ele>329.43</ele>
   </trkpt>
   <trkpt lat="-37.86737" lon="145.32079000000002">
    <ele>330.24</ele>
   </trkpt>
   <trkpt lat="-37.867720000000006" lon="145.32028000000003">
    <ele>329.36</ele>
   </trkpt>
   <trkpt lat="-37.86786" lon="145.31999000000002">
    <ele>328.70000000000005</ele>
   </trkpt>
   <trkpt lat="-37.86786" lon="145.31989000000002">
    <ele>328.81000000000006</ele>
   </trkpt>
   <trkpt lat="-37.86782" lon="145.31976">
    <ele>329.09000000000003</ele>
   </trkpt>
   <trkpt lat="-37.86762" lon="145.31942">
    <ele>331.92</ele>
   </trkpt>
   <trkpt lat="-37.86744" lon="145.31893000000002">
    <ele>335.04</ele>
   </trkpt>
   <trkpt lat="-37.86741" lon="145.31875000000002">
    <ele>336.16</ele>
   </trkpt>
   <trkpt lat="-37.86759" lon="145.31787">
    <ele>339.48</ele>
   </trkpt>
   <trkpt lat="-37.86785000216837" lon="145.31716000240527">
    <ele>341.72</ele>
   </trkpt>
   <trkpt lat="-37.86811" lon="145.31645">
    <ele>346.17</ele>
   </trkpt>
   <trkpt lat="-37.86842" lon="145.31596000000002">
    <ele>347.65000000000003</ele>
   </trkpt>
   <trkpt lat="-37.86871" lon="145.31564">
    <ele>348.73</ele>
   </trkpt>
   <trkpt lat="-37.86889" lon="145.31538">
    <ele>349.73</ele>
   </trkpt>
   <trkpt lat="-37.86896" lon="145.31523">
    <ele>351.16</ele>
   </trkpt>
   <trkpt lat="-37.869" lon="145.31505">
    <ele>352.48</ele>
   </trkpt>
   <trkpt lat="-37.86898" lon="145.31477">
    <ele>355.07000000000005</ele>
   </trkpt>
   <trkpt lat="-37.869020000000006" lon="145.31414">
    <ele>361.02</ele>
   </trkpt>
   <trkpt lat="-37.86878" lon="145.31396">
    <ele>358.75</ele>
   </trkpt>
   <trkpt lat="-37.86856" lon="145.31388">
    <ele>356.00000000000006</ele>
   </trkpt>
   <trkpt lat="-37.86833" lon="145.31385">
    <ele>354.35</ele>
   </trkpt>
   <trkpt lat="-37.86777" lon="145.31386">
    <ele>353.96000000000004</ele>
   </trkpt>
   <trkpt lat="-37.86723499999607" lon="145.31378999948856">
    <ele>347.36</ele>
   </trkpt>
   <trkpt lat="-37.8667" lon="145.31372000000002">
    <ele>345.16</ele>
   </trkpt>
   <trkpt lat="-37.86654" lon="145.31367">
    <ele>343.90000000000003</ele>
   </trkpt>
   <trkpt lat="-37.86634" lon="145.31354000000002">
    <ele>341.72</ele>
   </trkpt>
   <trkpt lat="-37.86623" lon="145.31341">
    <ele>340.15</ele>
   </trkpt>
   <trkpt lat="-37.86616" lon="145.31338000000002">
    <ele>338.84000000000003</ele>
   </trkpt>
   <trkpt lat="-37.86609" lon="145.31339">
    <ele>338.12</ele>
   </trkpt>
   <trkpt lat="-37.86603" lon="145.31349">
    <ele>335.82</ele>
   </trkpt>
   <trkpt lat="-37.86603" lon="145.31443000000002">
    <ele>329.06</ele>
   </trkpt>
   <trkpt lat="-37.866" lon="145.31425000000002">
    <ele>327.35</ele>
   </trkpt>
   <trkpt lat="-37.86571" lon="145.31355000000002">
    <ele>323.20000000000005</ele>
   </trkpt>
   <trkpt lat="-37.86547" lon="145.31276000000003">
    <ele>311.21000000000004</ele>
   </trkpt>
   <trkpt lat="-37.86533" lon="145.31178">
    <ele>300.73</ele>
   </trkpt>
   <trkpt lat="-37.86536" lon="145.31157000000002">
    <ele>300.66</ele>
   </trkpt>
   <trkpt lat="-37.86533" lon="145.31125">
    <ele>301.03000000000003</ele>
   </trkpt>
   <trkpt lat="-37.86522" lon="145.31083">
    <ele>299.51</ele>
   </trkpt>
   <trkpt lat="-37.86509" lon="145.31053">
    <ele>297.76</ele>
   </trkpt>
   <trkpt lat="-37.865" lon="145.31022000000002">
    <ele>293.6</ele>
   </trkpt>
   <trkpt lat="-37.86471" lon="145.30987000000002">
    <ele>284.14</ele>
   </trkpt>
   <trkpt lat="-37.86439" lon="145.30924000000002">
    <ele>271.93</ele>
   </trkpt>
   <trkpt lat="-37.86435" lon="145.30909000000003">
    <ele>270.55</ele>
   </trkpt>
   <trkpt lat="-37.86428" lon="145.30827000000002">
    <ele>271.13000000000005</ele>
   </trkpt>
   <trkpt lat="-37.86435" lon="145.30793">
    <ele>270.44</ele>
   </trkpt>
   <trkpt lat="-37.86417" lon="145.30737000000002">
    <ele>262.70000000000005</ele>
   </trkpt>
   <trkpt lat="-37.86415" lon="145.30717">
    <ele>260.44</ele>
   </trkpt>
   <trkpt lat="-37.86417" lon="145.30703000000003">
    <ele>259.75000000000006</ele>
   </trkpt>
   <trkpt lat="-37.86437" lon="145.30624">
    <ele>261.79</ele>
   </trkpt>
   <trkpt lat="-37.864560000000004" lon="145.30578">
    <ele>268.08000000000004</ele>
   </trkpt>
   <trkpt lat="-37.86462" lon="145.30557000000002">
    <ele>268.28000000000003</ele>
   </trkpt>
   <trkpt lat="-37.86462" lon="145.30539000000002">
    <ele>266.61</ele>
   </trkpt>
   <trkpt lat="-37.86457" lon="145.30517">
    <ele>263.98</ele>
   </trkpt>
   <trkpt lat="-37.8645" lon="145.30495000000002">
    <ele>261.35</ele>
   </trkpt>
   <trkpt lat="-37.86403" lon="145.30415000000002">
    <ele>251.04999999999998</ele>
   </trkpt>
   <trkpt lat="-37.863870000000006" lon="145.30377000000001">
    <ele>248.03000000000003</ele>
   </trkpt>
   <trkpt lat="-37.86379" lon="145.30353000000002">
    <ele>246.64000000000001</ele>
   </trkpt>
   <trkpt lat="-37.863710000000005" lon="145.30311">
    <ele>243.1</ele>
   </trkpt>
   <trkpt lat="-37.86395" lon="145.30280000000002">
    <ele>245.33</ele>
   </trkpt>
   <trkpt lat="-37.86413" lon="145.3026">
    <ele>251.74</ele>
   </trkpt>
   <trkpt lat="-37.86412" lon="145.30261000000002">
    <ele>251.74</ele>
   </trkpt>
   <trkpt lat="-37.86421" lon="145.30257">
    <ele>251.74</ele>
   </trkpt>
   <trkpt lat="-37.864340000000006" lon="145.30257">
    <ele>257.69</ele>
   </trkpt>
   <trkpt lat="-37.86442" lon="145.3026">
    <ele>257.69</ele>
   </trkpt>
   <trkpt lat="-37.86475" lon="145.30300000000003">
    <ele>267.26</ele>
   </trkpt>
   <trkpt lat="-37.86518" lon="145.30342000000002">
    <ele>276.56</ele>
   </trkpt>
   <trkpt lat="-37.86538" lon="145.30363">
    <ele>280.65</ele>
   </trkpt>
   <trkpt lat="-37.86547" lon="145.30376">
    <ele>287.13</ele>
   </trkpt>
   <trkpt lat="-37.86556" lon="145.30403">
    <ele>292.04</ele>
   </trkpt>
   <trkpt lat="-37.8656" lon="145.30425000000002">
    <ele>295.16</ele>
   </trkpt>
   <trkpt lat="-37.86565" lon="145.30462">
    <ele>299.07</ele>
   </trkpt>
   <trkpt lat="-37.86569" lon="145.30543">
    <ele>310.67</ele>
   </trkpt>
   <trkpt lat="-37.86574" lon="145.30550000000002">
    <ele>310.67</ele>
   </trkpt>
   <trkpt lat="-37.86578" lon="145.30555">
    <ele>310.67</ele>
   </trkpt>
   <trkpt lat="-37.86603" lon="145.30561">
    <ele>315.88000000000005</ele>
   </trkpt>
   <trkpt lat="-37.866080000000004" lon="145.30564">
    <ele>315.88000000000005</ele>
   </trkpt>
   <trkpt lat="-37.86614" lon="145.30567000000002">
    <ele>317.87000000000006</ele>
   </trkpt>
   <trkpt lat="-37.86623" lon="145.30582">
    <ele>321.19</ele>
   </trkpt>
   <trkpt lat="-37.86641" lon="145.30641">
    <ele>335.22</ele>
   </trkpt>
   <trkpt lat="-37.86641" lon="145.30684000000002">
    <ele>343.30000000000007</ele>
   </trkpt>
   <trkpt lat="-37.86645" lon="145.30707">
    <ele>346.5</ele>
   </trkpt>
   <trkpt lat="-37.8665" lon="145.30721">
    <ele>348.71000000000004</ele>
   </trkpt>
   <trkpt lat="-37.866690000000006" lon="145.30759">
    <ele>353.7</ele>
   </trkpt>
   <trkpt lat="-37.86674" lon="145.30782000000002">
    <ele>356.02</ele>
   </trkpt>
   <trkpt lat="-37.86683" lon="145.30835000000002">
    <ele>365.29</ele>
   </trkpt>
   <trkpt lat="-37.86719" lon="145.30918">
    <ele>388.12</ele>
   </trkpt>
   <trkpt lat="-37.86748" lon="145.30970000000002">
    <ele>398.84000000000003</ele>
   </trkpt>
   <trkpt lat="-37.86771" lon="145.31022000000002">
    <ele>404.61</ele>
   </trkpt>
   <trkpt lat="-37.86795" lon="145.31054">
    <ele>411.58000000000004</ele>
   </trkpt>
   <trkpt lat="-37.86822" lon="145.31095000000002">
    <ele>417.68000000000006</ele>
   </trkpt>
   <trkpt lat="-37.86836" lon="145.31107">
    <ele>418.05</ele>
   </trkpt>
   <trkpt lat="-37.86847" lon="145.31113000000002">
    <ele>417.52000000000004</ele>
   </trkpt>
   <trkpt lat="-37.86871" lon="145.31121000000002">
    <ele>415.18000000000006</ele>
   </trkpt>
   <trkpt lat="-37.868840000000006" lon="145.31129">
    <ele>412.92</ele>
   </trkpt>
   <trkpt lat="-37.86921" lon="145.31163">
    <ele>404.28000000000003</ele>
   </trkpt>
   <trkpt lat="-37.8695" lon="145.31185000000002">
    <ele>401.14000000000004</ele>
   </trkpt>
   <trkpt lat="-37.86963" lon="145.31187">
    <ele>400.27</ele>
   </trkpt>
   <trkpt lat="-37.86981" lon="145.31181">
    <ele>398.85</ele>
   </trkpt>
   <trkpt lat="-37.86994" lon="145.31179">
    <ele>396.63000000000005</ele>
   </trkpt>
   <trkpt lat="-37.87021" lon="145.31183000000001">
    <ele>395.12</ele>
   </trkpt>
   <trkpt lat="-37.8703" lon="145.31188">
    <ele>394.34000000000003</ele>
   </trkpt>
   <trkpt lat="-37.87046" lon="145.31199">
    <ele>393.57000000000005</ele>
   </trkpt>
   <trkpt lat="-37.87106" lon="145.31255000000002">
    <ele>390.17</ele>
   </trkpt>
   <trkpt lat="-37.87127" lon="145.31286">
    <ele>389.1</ele>
   </trkpt>
   <trkpt lat="-37.87091000185914" lon="145.31352500326963">
    <ele>393.03000000000003</ele>
   </trkpt>
   <trkpt lat="-37.87055" lon="145.31419000000002">
    <ele>388.14000000000004</ele>
   </trkpt>
   <trkpt lat="-37.87064" lon="145.31427000000002">
    <ele>389.54</ele>
   </trkpt>
   <trkpt lat="-37.871" lon="145.31480000000002">
    <ele>395.88</ele>
   </trkpt>
   <trkpt lat="-37.871190000000006" lon="145.31547">
    <ele>403.84000000000003</ele>
   </trkpt>
   <trkpt lat="-37.87133" lon="145.31546">
    <ele>405.53000000000003</ele>
   </trkpt>
   <trkpt lat="-37.87220000012609" lon="145.31547499982503">
    <ele>421.96000000000004</ele>
   </trkpt>
   <trkpt lat="-37.873070000000006" lon="145.31549">
    <ele>429.27000000000004</ele>
   </trkpt>
   <trkpt lat="-37.873070000000006" lon="145.31550000000001">
    <ele>421.26</ele>
   </trkpt>
   <trkpt lat="-37.873540000000006" lon="145.31558">
    <ele>426.05</ele>
   </trkpt>
   <trkpt lat="-37.87391" lon="145.31571000000002">
    <ele>430.31</ele>
   </trkpt>
   <trkpt lat="-37.87398" lon="145.31575">
    <ele>430.31</ele>
   </trkpt>
   <trkpt lat="-37.87397" lon="145.31575">
    <ele>430.31</ele>
   </trkpt>
   <trkpt lat="-37.87435" lon="145.31603">
    <ele>434.68</ele>
   </trkpt>
   <trkpt lat="-37.87465" lon="145.31616000000002">
    <ele>437.98</ele>
   </trkpt>
   <trkpt lat="-37.87478" lon="145.3162">
    <ele>439.43</ele>
   </trkpt>
   <trkpt lat="-37.87503" lon="145.31621">
    <ele>440.93</ele>
   </trkpt>
   <trkpt lat="-37.87559" lon="145.31611">
    <ele>448.26000000000005</ele>
   </trkpt>
   <trkpt lat="-37.87583" lon="145.31617">
    <ele>449.36</ele>
   </trkpt>
   <trkpt lat="-37.87635" lon="145.31637">
    <ele>454.57</ele>
   </trkpt>
   <trkpt lat="-37.8765" lon="145.31646">
    <ele>456.90000000000003</ele>
   </trkpt>
   <trkpt lat="-37.8767" lon="145.31663">
    <ele>458.58000000000004</ele>
   </trkpt>
   <trkpt lat="-37.87682" lon="145.31683">
    <ele>460.26000000000005</ele>
   </trkpt>
   <trkpt lat="-37.87693" lon="145.31661000000003">
    <ele>458.62</ele>
   </trkpt>
   <trkpt lat="-37.87735" lon="145.31589000000002">
    <ele>449.27000000000004</ele>
   </trkpt>
   <trkpt lat="-37.87744" lon="145.31578000000002">
    <ele>448.33000000000004</ele>
   </trkpt>
   <trkpt lat="-37.87753" lon="145.31569000000002">
    <ele>446.94000000000005</ele>
   </trkpt>
   <trkpt lat="-37.87778" lon="145.31557">
    <ele>445.11000000000007</ele>
   </trkpt>
   <trkpt lat="-37.87791" lon="145.31546">
    <ele>442.3</ele>
   </trkpt>
   <trkpt lat="-37.87829" lon="145.31506000000002">
    <ele>436.91</ele>
   </trkpt>
   <trkpt lat="-37.878600000000006" lon="145.31485">
    <ele>432.38000000000005</ele>
   </trkpt>
   <trkpt lat="-37.87885" lon="145.31461000000002">
    <ele>429.49</ele>
   </trkpt>
   <trkpt lat="-37.87939" lon="145.31436000000002">
    <ele>426.73</ele>
   </trkpt>
   <trkpt lat="-37.87946" lon="145.31428000000002">
    <ele>426.73</ele>
   </trkpt>
   <trkpt lat="-37.87948" lon="145.31417000000002">
    <ele>426.58</ele>
   </trkpt>
   <trkpt lat="-37.879450000000006" lon="145.31428000000002">
    <ele>426.66</ele>
   </trkpt>
   <trkpt lat="-37.87948" lon="145.31417000000002">
    <ele>426.58</ele>
   </trkpt>
   <trkpt lat="-37.87928" lon="145.31419000000002">
    <ele>424.41</ele>
   </trkpt>
   <trkpt lat="-37.87882999993238" lon="145.31413999968586">
    <ele>421.83000000000004</ele>
   </trkpt>
   <trkpt lat="-37.87838" lon="145.31409000000002">
    <ele>417.05</ele>
   </trkpt>
   <trkpt lat="-37.87796" lon="145.31396">
    <ele>410.79</ele>
   </trkpt>
   <trkpt lat="-37.87753" lon="145.31387">
    <ele>407.17</ele>
   </trkpt>
   <trkpt lat="-37.87729" lon="145.31387">
    <ele>404.81000000000006</ele>
   </trkpt>
   <trkpt lat="-37.87684" lon="145.31383000000002">
    <ele>397.8</ele>
   </trkpt>
   <trkpt lat="-37.87635" lon="145.31387">
    <ele>391.49</ele>
   </trkpt>
   <trkpt lat="-37.87585" lon="145.31401000000002">
    <ele>385.84000000000003</ele>
   </trkpt>
   <trkpt lat="-37.8757" lon="145.31402">
    <ele>385.84000000000003</ele>
   </trkpt>
   <trkpt lat="-37.87532" lon="145.31391000000002">
    <ele>380.98</ele>
   </trkpt>
   <trkpt lat="-37.87489" lon="145.31387">
    <ele>378.50000000000006</ele>
   </trkpt>
   <trkpt lat="-37.87447" lon="145.31404">
    <ele>373.95</ele>
   </trkpt>
   <trkpt lat="-37.8742" lon="145.31409000000002">
    <ele>372.19</ele>
   </trkpt>
   <trkpt lat="-37.87366" lon="145.31386">
    <ele>370.56000000000006</ele>
   </trkpt>
   <trkpt lat="-37.87344" lon="145.31381000000002">
    <ele>369.99</ele>
   </trkpt>
   <trkpt lat="-37.87288" lon="145.31377">
    <ele>368.06000000000006</ele>
   </trkpt>
   <trkpt lat="-37.872600000000006" lon="145.31367">
    <ele>364.14</ele>
   </trkpt>
   <trkpt lat="-37.87241" lon="145.3135">
    <ele>362.00000000000006</ele>
   </trkpt>
   <trkpt lat="-37.87229" lon="145.31326">
    <ele>359.47</ele>
   </trkpt>
   <trkpt lat="-37.87227" lon="145.31307">
    <ele>357.43</ele>
   </trkpt>
   <trkpt lat="-37.87229" lon="145.31288">
    <ele>356.31</ele>
   </trkpt>
   <trkpt lat="-37.87254" lon="145.31233">
    <ele>349.74000000000007</ele>
   </trkpt>
   <trkpt lat="-37.87259" lon="145.31212000000002">
    <ele>348.87</ele>
   </trkpt>
   <trkpt lat="-37.87254" lon="145.31198">
    <ele>348.41</ele>
   </trkpt>
   <trkpt lat="-37.87245" lon="145.31188">
    <ele>349.23</ele>
   </trkpt>
   <trkpt lat="-37.87236" lon="145.31185000000002">
    <ele>350.45000000000005</ele>
   </trkpt>
   <trkpt lat="-37.87227" lon="145.31188">
    <ele>352.3</ele>
   </trkpt>
   <trkpt lat="-37.87201" lon="145.31204000000002">
    <ele>360.85</ele>
   </trkpt>
   <trkpt lat="-37.871930000000006" lon="145.31158000000002">
    <ele>348.85</ele>
   </trkpt>
   <trkpt lat="-37.872" lon="145.31129">
    <ele>340.26</ele>
   </trkpt>
   <trkpt lat="-37.87205" lon="145.31123000000002">
    <ele>336.98</ele>
   </trkpt>
   <trkpt lat="-37.872130000000006" lon="145.31118">
    <ele>334.06</ele>
   </trkpt>
   <trkpt lat="-37.87236" lon="145.31108">
    <ele>326.29</ele>
   </trkpt>
   <trkpt lat="-37.8727" lon="145.31074">
    <ele>311.67</ele>
   </trkpt>
   <trkpt lat="-37.87299" lon="145.31035">
    <ele>295.53000000000003</ele>
   </trkpt>
   <trkpt lat="-37.87306" lon="145.31023000000002">
    <ele>294.13</ele>
   </trkpt>
   <trkpt lat="-37.87317" lon="145.30980000000002">
    <ele>282.61</ele>
   </trkpt>
   <trkpt lat="-37.87326" lon="145.30966">
    <ele>277.41</ele>
   </trkpt>
   <trkpt lat="-37.87353" lon="145.30943000000002">
    <ele>267.77</ele>
   </trkpt>
   <trkpt lat="-37.87357" lon="145.30935000000002">
    <ele>267.77</ele>
   </trkpt>
   <trkpt lat="-37.87369" lon="145.30894">
    <ele>257.43000000000006</ele>
   </trkpt>
   <trkpt lat="-37.87411" lon="145.30882000000003">
    <ele>251.60999999999999</ele>
   </trkpt>
   <trkpt lat="-37.87424" lon="145.30875">
    <ele>248.36</ele>
   </trkpt>
   <trkpt lat="-37.87458" lon="145.30846000000003">
    <ele>240.56000000000003</ele>
   </trkpt>
   <trkpt lat="-37.87473" lon="145.30829">
    <ele>235.05</ele>
   </trkpt>
   <trkpt lat="-37.87478" lon="145.3082">
    <ele>235.05</ele>
   </trkpt>
   <trkpt lat="-37.87482" lon="145.30769">
    <ele>228.30000000000004</ele>
   </trkpt>
   <trkpt lat="-37.874970000000005" lon="145.30769">
    <ele>227.32000000000002</ele>
   </trkpt>
   <trkpt lat="-37.87525" lon="145.30781000000002">
    <ele>229.35000000000002</ele>
   </trkpt>
   <trkpt lat="-37.87561" lon="145.30773000000002">
    <ele>234.90000000000003</ele>
   </trkpt>
   <trkpt lat="-37.87597" lon="145.30773000000002">
    <ele>237.86</ele>
   </trkpt>
   <trkpt lat="-37.876200000000004" lon="145.30781000000002">
    <ele>242.11</ele>
   </trkpt>
   <trkpt lat="-37.876470000000005" lon="145.30795">
    <ele>247.55</ele>
   </trkpt>
   <trkpt lat="-37.87664" lon="145.30818000000002">
    <ele>252.54999999999998</ele>
   </trkpt>
   <trkpt lat="-37.87675" lon="145.30823">
    <ele>255.48000000000005</ele>
   </trkpt>
   <trkpt lat="-37.87711" lon="145.30854000000002">
    <ele>266.74</ele>
   </trkpt>
   <trkpt lat="-37.87749" lon="145.30934000000002">
    <ele>290.08</ele>
   </trkpt>
   <trkpt lat="-37.8778" lon="145.30980000000002">
    <ele>309.31</ele>
   </trkpt>
   <trkpt lat="-37.87796" lon="145.30995000000001">
    <ele>312.29</ele>
   </trkpt>
   <trkpt lat="-37.87814" lon="145.31003">
    <ele>326.06</ele>
   </trkpt>
   <trkpt lat="-37.87847" lon="145.31033000000002">
    <ele>332.04</ele>
   </trkpt>
   <trkpt lat="-37.878600000000006" lon="145.31039">
    <ele>332.04</ele>
   </trkpt>
   <trkpt lat="-37.87885" lon="145.31058000000002">
    <ele>347.51000000000005</ele>
   </trkpt>
   <trkpt lat="-37.87903" lon="145.3108">
    <ele>350.79</ele>
   </trkpt>
   <trkpt lat="-37.8791" lon="145.31098">
    <ele>365.93</ele>
   </trkpt>
   <trkpt lat="-37.87912" lon="145.31145">
    <ele>376.54</ele>
   </trkpt>
   <trkpt lat="-37.87926" lon="145.31189">
    <ele>388.79</ele>
   </trkpt>
   <trkpt lat="-37.8793" lon="145.31218">
    <ele>394.12</ele>
   </trkpt>
   <trkpt lat="-37.87937" lon="145.31237000000002">
    <ele>400.54</ele>
   </trkpt>
   <trkpt lat="-37.87948" lon="145.31256000000002">
    <ele>407.66</ele>
   </trkpt>
   <trkpt lat="-37.87961" lon="145.3129">
    <ele>415.08000000000004</ele>
   </trkpt>
   <trkpt lat="-37.87975" lon="145.31343">
    <ele>422.93</ele>
   </trkpt>
   <trkpt lat="-37.87982" lon="145.31362000000001">
    <ele>424.33000000000004</ele>
   </trkpt>
   <trkpt lat="-37.87988" lon="145.31388">
    <ele>426.27000000000004</ele>
   </trkpt>
   <trkpt lat="-37.87997" lon="145.31387">
    <ele>426.2900000000001</ele>
   </trkpt>
   <trkpt lat="-37.88013" lon="145.31401000000002">
    <ele>426.00000000000006</ele>
   </trkpt>
   <trkpt lat="-37.88026" lon="145.31401000000002">
    <ele>424.92</ele>
   </trkpt>
   <trkpt lat="-37.88049" lon="145.31388">
    <ele>422.93</ele>
   </trkpt>
   <trkpt lat="-37.88082" lon="145.31362000000001">
    <ele>419.08</ele>
   </trkpt>
   <trkpt lat="-37.88118" lon="145.31343">
    <ele>414.91</ele>
   </trkpt>
   <trkpt lat="-37.88152" lon="145.31319000000002">
    <ele>411.28000000000003</ele>
   </trkpt>
   <trkpt lat="-37.88199" lon="145.31279">
    <ele>407.62</ele>
   </trkpt>
   <trkpt lat="-37.8825" lon="145.31224">
    <ele>408.83000000000004</ele>
   </trkpt>
   <trkpt lat="-37.882740000000005" lon="145.31214">
    <ele>408.5</ele>
   </trkpt>
   <trkpt lat="-37.88308" lon="145.31215">
    <ele>405.02000000000004</ele>
   </trkpt>
   <trkpt lat="-37.8834" lon="145.31222000000002">
    <ele>400.52000000000004</ele>
   </trkpt>
   <trkpt lat="-37.88369" lon="145.31236">
    <ele>395.35</ele>
   </trkpt>
   <trkpt lat="-37.88414" lon="145.31267000000003">
    <ele>388.11</ele>
   </trkpt>
   <trkpt lat="-37.88429" lon="145.31272">
    <ele>385.84000000000003</ele>
   </trkpt>
   <trkpt lat="-37.88488" lon="145.3128">
    <ele>371.92</ele>
   </trkpt>
   <trkpt lat="-37.88501" lon="145.31279">
    <ele>371.92</ele>
   </trkpt>
   <trkpt lat="-37.88519" lon="145.31273000000002">
    <ele>366.14</ele>
   </trkpt>
   <trkpt lat="-37.885270000000006" lon="145.31266000000002">
    <ele>364.46</ele>
   </trkpt>
   <trkpt lat="-37.8853" lon="145.31255000000002">
    <ele>364.46</ele>
   </trkpt>
   <trkpt lat="-37.88541" lon="145.31207">
    <ele>355.96000000000004</ele>
   </trkpt>
   <trkpt lat="-37.88548" lon="145.31186000000002">
    <ele>351.87</ele>
   </trkpt>
   <trkpt lat="-37.88579500183977" lon="145.31120500274952">
    <ele>338.84000000000003</ele>
   </trkpt>
   <trkpt lat="-37.88611" lon="145.31055">
    <ele>329.41</ele>
   </trkpt>
   <trkpt lat="-37.8862" lon="145.31044">
    <ele>324.31000000000006</ele>
   </trkpt>
   <trkpt lat="-37.88629" lon="145.31038">
    <ele>324.31000000000006</ele>
   </trkpt>
   <trkpt lat="-37.8866" lon="145.3102">
    <ele>319.15000000000003</ele>
   </trkpt>
   <trkpt lat="-37.88673" lon="145.31015000000002">
    <ele>317.59000000000003</ele>
   </trkpt>
   <trkpt lat="-37.88687" lon="145.31014000000002">
    <ele>316.76000000000005</ele>
   </trkpt>
   <trkpt lat="-37.88696" lon="145.31015000000002">
    <ele>315.64000000000004</ele>
   </trkpt>
   <trkpt lat="-37.88705" lon="145.31019">
    <ele>314.82000000000005</ele>
   </trkpt>
   <trkpt lat="-37.887330000000006" lon="145.31040000000002">
    <ele>310.39</ele>
   </trkpt>
   <trkpt lat="-37.88779" lon="145.31063">
    <ele>298.18</ele>
   </trkpt>
   <trkpt lat="-37.88794" lon="145.31068000000002">
    <ele>298.18</ele>
   </trkpt>
   <trkpt lat="-37.888450000000006" lon="145.31074">
    <ele>283.85</ele>
   </trkpt>
   <trkpt lat="-37.88859" lon="145.31071">
    <ele>280.11</ele>
   </trkpt>
   <trkpt lat="-37.88868" lon="145.31060000000002">
    <ele>278.57000000000005</ele>
   </trkpt>
   <trkpt lat="-37.88893" lon="145.31018">
    <ele>271.89000000000004</ele>
   </trkpt>
   <trkpt lat="-37.88902" lon="145.31014000000002">
    <ele>270.3</ele>
   </trkpt>
   <trkpt lat="-37.88908" lon="145.31016000000002">
    <ele>267.78000000000003</ele>
   </trkpt>
   <trkpt lat="-37.889210000000006" lon="145.31025000000002">
    <ele>266.18</ele>
   </trkpt>
   <trkpt lat="-37.88931" lon="145.31038">
    <ele>264.71</ele>
   </trkpt>
   <trkpt lat="-37.88951" lon="145.31074">
    <ele>255.86</ele>
   </trkpt>
   <trkpt lat="-37.88958" lon="145.3109">
    <ele>255.86</ele>
   </trkpt>
   <trkpt lat="-37.88958" lon="145.31101">
    <ele>253.60000000000005</ele>
   </trkpt>
   <trkpt lat="-37.88955" lon="145.31122000000002">
    <ele>250.65000000000003</ele>
   </trkpt>
   <trkpt lat="-37.88958" lon="145.31130000000002">
    <ele>250.65000000000003</ele>
   </trkpt>
   <trkpt lat="-37.8896" lon="145.31134">
    <ele>248.34000000000003</ele>
   </trkpt>
   <trkpt lat="-37.889680000000006" lon="145.31134">
    <ele>248.34000000000003</ele>
   </trkpt>
   <trkpt lat="-37.88993" lon="145.31119">
    <ele>243.52</ele>
   </trkpt>
   <trkpt lat="-37.89002" lon="145.31111">
    <ele>242.33</ele>
   </trkpt>
   <trkpt lat="-37.89016" lon="145.31092">
    <ele>239.01000000000002</ele>
   </trkpt>
   <trkpt lat="-37.89025" lon="145.31066">
    <ele>237.27</ele>
   </trkpt>
   <trkpt lat="-37.89027" lon="145.31046">
    <ele>234.29000000000002</ele>
   </trkpt>
   <trkpt lat="-37.89025" lon="145.31002">
    <ele>229.57000000000002</ele>
   </trkpt>
   <trkpt lat="-37.89027" lon="145.30997000000002">
    <ele>227.92000000000002</ele>
   </trkpt>
   <trkpt lat="-37.890330000000006" lon="145.30995000000001">
    <ele>227.92000000000002</ele>
   </trkpt>
   <trkpt lat="-37.890390000000004" lon="145.30998000000002">
    <ele>226.71</ele>
   </trkpt>
   <trkpt lat="-37.89038" lon="145.30997000000002">
    <ele>226.71</ele>
   </trkpt>
   <trkpt lat="-37.89092" lon="145.31052000000003">
    <ele>215.17000000000002</ele>
   </trkpt>
   <trkpt lat="-37.89119" lon="145.31122000000002">
    <ele>205.54000000000002</ele>
   </trkpt>
   <trkpt lat="-37.89121" lon="145.31161">
    <ele>201.02</ele>
   </trkpt>
   <trkpt lat="-37.891180000000006" lon="145.31198">
    <ele>198.13000000000002</ele>
   </trkpt>
   <trkpt lat="-37.89105" lon="145.31242">
    <ele>194.67000000000002</ele>
   </trkpt>
   <trkpt lat="-37.89101" lon="145.31248000000002">
    <ele>194.4</ele>
   </trkpt>
   <trkpt lat="-37.89072" lon="145.31278">
    <ele>193.75</ele>
   </trkpt>
   <trkpt lat="-37.890710000000006" lon="145.31282000000002">
    <ele>193.75</ele>
   </trkpt>
   <trkpt lat="-37.890710000000006" lon="145.31292000000002">
    <ele>193.73000000000002</ele>
   </trkpt>
   <trkpt lat="-37.89074" lon="145.31299">
    <ele>193.51000000000002</ele>
   </trkpt>
   <trkpt lat="-37.89092" lon="145.31309000000002">
    <ele>192.20000000000002</ele>
   </trkpt>
   <trkpt lat="-37.89132" lon="145.3134">
    <ele>187.50000000000003</ele>
   </trkpt>
   <trkpt lat="-37.8915" lon="145.31358">
    <ele>186.13000000000002</ele>
   </trkpt>
   <trkpt lat="-37.89159" lon="145.31376">
    <ele>184.55</ele>
   </trkpt>
   <trkpt lat="-37.89168" lon="145.31405">
    <ele>182.42000000000002</ele>
   </trkpt>
   <trkpt lat="-37.8917" lon="145.3142">
    <ele>180.84000000000003</ele>
   </trkpt>
   <trkpt lat="-37.89166" lon="145.31470000000002">
    <ele>178.66</ele>
   </trkpt>
   <trkpt lat="-37.89159" lon="145.3153">
    <ele>174.32</ele>
   </trkpt>
   <trkpt lat="-37.89148" lon="145.31548">
    <ele>175.36</ele>
   </trkpt>
   <trkpt lat="-37.89108" lon="145.31604000000002">
    <ele>181.24</ele>
   </trkpt>
   <trkpt lat="-37.89099" lon="145.31613000000002">
    <ele>182.09</ele>
   </trkpt>
   <trkpt lat="-37.89099" lon="145.31640000000002">
    <ele>182.04</ele>
   </trkpt>
   <trkpt lat="-37.8909" lon="145.31665">
    <ele>181.68</ele>
   </trkpt>
   <trkpt lat="-37.890730000000005" lon="145.31686000000002">
    <ele>182.09</ele>
   </trkpt>
   <trkpt lat="-37.89074" lon="145.31705000000002">
    <ele>181.21</ele>
   </trkpt>
   <trkpt lat="-37.890820000000005" lon="145.31716">
    <ele>180.65</ele>
   </trkpt>
  </trkseg>
 </trk>
</gpx>
