<?xml version="1.0" encoding="UTF-8"?>
<gpx creator="StravaGPX" version="1.1" xmlns="http://www.topografix.com/GPX/1/1" xmlns:xsi="http://www.w3.org/2001/XMLSchema-instance" xsi:schemaLocation="http://www.topografix.com/GPX/1/1 http://www.topografix.com/GPX/1/1/gpx.xsd">
 <metadata>
  <name>DTR Crazy Run 14 August</name>
  <author>
   <name>john csorgo</name>
  </author>
  <copyright author="OpenStreetMap contributors">
   <year>2020</year>
   <license>https://www.openstreetmap.org/copyright</license>
  </copyright>
 </metadata>
 <trk>
  <name>DTR Crazy Run 14 August</name>
  <link href=""/>
  <type>running</type>
  <trkseg>
   <trkpt lat="-37.85264" lon="145.36819">
    <ele>571.84</ele>
   </trkpt>
   <trkpt lat="-37.85228" lon="145.36824000000001">
    <ele>568.11</ele>
   </trkpt>
   <trkpt lat="-37.85208" lon="145.36833000000001">
    <ele>564.5600000000001</ele>
   </trkpt>
   <trkpt lat="-37.851760000000006" lon="145.36859">
    <ele>562.74</ele>
   </trkpt>
   <trkpt lat="-37.85141500078801" lon="145.36905500234604">
    <ele>560.0200000000001</ele>
   </trkpt>
   <trkpt lat="-37.85107" lon="145.36952000000002">
    <ele>554.8700000000001</ele>
   </trkpt>
   <trkpt lat="-37.85083" lon="145.3698">
    <ele>551.51</ele>
   </trkpt>
   <trkpt lat="-37.850640000000006" lon="145.36993">
    <ele>548.7200000000001</ele>
   </trkpt>
   <trkpt lat="-37.85038" lon="145.37003">
    <ele>546.7500000000001</ele>
   </trkpt>
   <trkpt lat="-37.85004" lon="145.37006000000002">
    <ele>543.1400000000001</ele>
   </trkpt>
   <trkpt lat="-37.84984" lon="145.37028">
    <ele>541.18</ele>
   </trkpt>
   <trkpt lat="-37.84971" lon="145.37062">
    <ele>539.91</ele>
   </trkpt>
   <trkpt lat="-37.84943000134118" lon="145.37117500203067">
    <ele>538.83</ele>
   </trkpt>
   <trkpt lat="-37.84915" lon="145.37173">
    <ele>538.1400000000001</ele>
   </trkpt>
   <trkpt lat="-37.8491" lon="145.37177">
    <ele>537.88</ele>
   </trkpt>
   <trkpt lat="-37.84911" lon="145.37177">
    <ele>537.9200000000001</ele>
   </trkpt>
   <trkpt lat="-37.84904" lon="145.37184000000002">
    <ele>537.3</ele>
   </trkpt>
   <trkpt lat="-37.84892" lon="145.3719">
    <ele>535.9200000000001</ele>
   </trkpt>
   <trkpt lat="-37.84816500021006" lon="145.37176499584945">
    <ele>528.11</ele>
   </trkpt>
   <trkpt lat="-37.84741000026599" lon="145.3716299944635">
    <ele>523.1600000000001</ele>
   </trkpt>
   <trkpt lat="-37.84665500016783" lon="145.37149499584203">
    <ele>520.6</ele>
   </trkpt>
   <trkpt lat="-37.8459" lon="145.37136">
    <ele>519.6</ele>
   </trkpt>
   <trkpt lat="-37.84518500021802" lon="145.371154998024">
    <ele>518.82</ele>
   </trkpt>
   <trkpt lat="-37.84447" lon="145.37095000000002">
    <ele>518.3100000000001</ele>
   </trkpt>
   <trkpt lat="-37.84436" lon="145.37089">
    <ele>518.1600000000001</ele>
   </trkpt>
   <trkpt lat="-37.84429" lon="145.37084000000002">
    <ele>517.95</ele>
   </trkpt>
   <trkpt lat="-37.8438" lon="145.37016">
    <ele>513.3199999999999</ele>
   </trkpt>
   <trkpt lat="-37.843770000000006" lon="145.37008">
    <ele>513.05</ele>
   </trkpt>
   <trkpt lat="-37.84362" lon="145.36972">
    <ele>510.48</ele>
   </trkpt>
   <trkpt lat="-37.843005001620455" lon="145.36910499489295">
    <ele>498.88000000000005</ele>
   </trkpt>
   <trkpt lat="-37.84239" lon="145.36849">
    <ele>489.71000000000004</ele>
   </trkpt>
   <trkpt lat="-37.84223" lon="145.36838">
    <ele>489.71000000000004</ele>
   </trkpt>
   <trkpt lat="-37.84181" lon="145.36819">
    <ele>483.01000000000005</ele>
   </trkpt>
   <trkpt lat="-37.841010000000004" lon="145.36816000000002">
    <ele>474.38</ele>
   </trkpt>
   <trkpt lat="-37.84091" lon="145.36816000000002">
    <ele>473.5</ele>
   </trkpt>
   <trkpt lat="-37.84093" lon="145.36841">
    <ele>473.12</ele>
   </trkpt>
   <trkpt lat="-37.84087" lon="145.36892">
    <ele>471.05</ele>
   </trkpt>
   <trkpt lat="-37.84057" lon="145.36894">
    <ele>467.61</ele>
   </trkpt>
   <trkpt lat="-37.84022" lon="145.36902">
    <ele>461.79</ele>
   </trkpt>
   <trkpt lat="-37.83999" lon="145.36903">
    <ele>459.59000000000003</ele>
   </trkpt>
   <trkpt lat="-37.839940000000006" lon="145.36906000000002">
    <ele>459.08000000000004</ele>
   </trkpt>
   <trkpt lat="-37.83975" lon="145.36926000000003">
    <ele>454.31000000000006</ele>
   </trkpt>
   <trkpt lat="-37.839560000000006" lon="145.36941000000002">
    <ele>452.18</ele>
   </trkpt>
   <trkpt lat="-37.8391" lon="145.36968000000002">
    <ele>443.39000000000004</ele>
   </trkpt>
   <trkpt lat="-37.83885" lon="145.3698">
    <ele>440.86</ele>
   </trkpt>
   <trkpt lat="-37.83869" lon="145.36991">
    <ele>439.64000000000004</ele>
   </trkpt>
   <trkpt lat="-37.83849" lon="145.36997000000002">
    <ele>436.06000000000006</ele>
   </trkpt>
   <trkpt lat="-37.83827" lon="145.37008">
    <ele>432.22</ele>
   </trkpt>
   <trkpt lat="-37.838280000000005" lon="145.37008">
    <ele>432.37</ele>
   </trkpt>
   <trkpt lat="-37.83769" lon="145.37040000000002">
    <ele>429.37</ele>
   </trkpt>
   <trkpt lat="-37.83737" lon="145.37053">
    <ele>432.98</ele>
   </trkpt>
   <trkpt lat="-37.83701000000001" lon="145.37063">
    <ele>433.84000000000003</ele>
   </trkpt>
   <trkpt lat="-37.83706" lon="145.3701">
    <ele>435.48</ele>
   </trkpt>
   <trkpt lat="-37.83719" lon="145.36971">
    <ele>437.71000000000004</ele>
   </trkpt>
   <trkpt lat="-37.83733" lon="145.36955">
    <ele>439.92</ele>
   </trkpt>
   <trkpt lat="-37.837070000000004" lon="145.36949">
    <ele>438.53000000000003</ele>
   </trkpt>
   <trkpt lat="-37.83733" lon="145.36955">
    <ele>439.92</ele>
   </trkpt>
   <trkpt lat="-37.83708" lon="145.36950000000002">
    <ele>438.48</ele>
   </trkpt>
   <trkpt lat="-37.8369" lon="145.36942000000002">
    <ele>436.91</ele>
   </trkpt>
   <trkpt lat="-37.83668" lon="145.36922">
    <ele>432.82000000000005</ele>
   </trkpt>
   <trkpt lat="-37.83631000097565" lon="145.36872999749014">
    <ele>428.96</ele>
   </trkpt>
   <trkpt lat="-37.83594" lon="145.36824000000001">
    <ele>423.88000000000005</ele>
   </trkpt>
   <trkpt lat="-37.83558" lon="145.36757">
    <ele>419.72</ele>
   </trkpt>
   <trkpt lat="-37.83552" lon="145.36745000000002">
    <ele>419.05</ele>
   </trkpt>
   <trkpt lat="-37.8354" lon="145.36739">
    <ele>418.75</ele>
   </trkpt>
   <trkpt lat="-37.83531" lon="145.36742">
    <ele>418.90000000000003</ele>
   </trkpt>
   <trkpt lat="-37.83522" lon="145.36747000000003">
    <ele>419.28000000000003</ele>
   </trkpt>
   <trkpt lat="-37.83527" lon="145.36759">
    <ele>418.87</ele>
   </trkpt>
   <trkpt lat="-37.83536" lon="145.3684">
    <ele>420.01000000000005</ele>
   </trkpt>
   <trkpt lat="-37.83547" lon="145.36883">
    <ele>419.50000000000006</ele>
   </trkpt>
   <trkpt lat="-37.83558" lon="145.36916000000002">
    <ele>419.05</ele>
   </trkpt>
   <trkpt lat="-37.83572" lon="145.36931">
    <ele>417.12000000000006</ele>
   </trkpt>
   <trkpt lat="-37.83583" lon="145.36949">
    <ele>414.37</ele>
   </trkpt>
   <trkpt lat="-37.83583" lon="145.36973">
    <ele>413.22</ele>
   </trkpt>
   <trkpt lat="-37.83578" lon="145.37018">
    <ele>411.66</ele>
   </trkpt>
   <trkpt lat="-37.835750000000004" lon="145.37073">
    <ele>405.02000000000004</ele>
   </trkpt>
   <trkpt lat="-37.835750000000004" lon="145.37072">
    <ele>404.98</ele>
   </trkpt>
   <trkpt lat="-37.83574" lon="145.37077000000002">
    <ele>404.65</ele>
   </trkpt>
   <trkpt lat="-37.8353700019093" lon="145.37141000290262">
    <ele>400.91</ele>
   </trkpt>
   <trkpt lat="-37.835" lon="145.37205">
    <ele>401.29</ele>
   </trkpt>
   <trkpt lat="-37.83491" lon="145.37243">
    <ele>402.97</ele>
   </trkpt>
   <trkpt lat="-37.83491" lon="145.37251">
    <ele>403.84000000000003</ele>
   </trkpt>
   <trkpt lat="-37.835" lon="145.37262">
    <ele>403.95000000000005</ele>
   </trkpt>
   <trkpt lat="-37.83525" lon="145.37281000000002">
    <ele>400.18</ele>
   </trkpt>
   <trkpt lat="-37.83529" lon="145.37287">
    <ele>399.93</ele>
   </trkpt>
   <trkpt lat="-37.83534" lon="145.37307">
    <ele>399.72</ele>
   </trkpt>
   <trkpt lat="-37.83534" lon="145.37321">
    <ele>399.4800000000001</ele>
   </trkpt>
   <trkpt lat="-37.83556" lon="145.37329000000003">
    <ele>398.23</ele>
   </trkpt>
   <trkpt lat="-37.83534" lon="145.37321">
    <ele>399.62</ele>
   </trkpt>
   <trkpt lat="-37.83534" lon="145.37347000000003">
    <ele>396.70000000000005</ele>
   </trkpt>
   <trkpt lat="-37.8352" lon="145.37391000000002">
    <ele>388.25000000000006</ele>
   </trkpt>
   <trkpt lat="-37.83516" lon="145.37397">
    <ele>387.58000000000004</ele>
   </trkpt>
   <trkpt lat="-37.835060000000006" lon="145.37404">
    <ele>385.63</ele>
   </trkpt>
   <trkpt lat="-37.83478" lon="145.37412">
    <ele>383.21999999999997</ele>
   </trkpt>
   <trkpt lat="-37.83442" lon="145.37417000000002">
    <ele>375.8</ele>
   </trkpt>
   <trkpt lat="-37.83413" lon="145.37428">
    <ele>365.03000000000003</ele>
   </trkpt>
   <trkpt lat="-37.83379" lon="145.3745">
    <ele>354.79</ele>
   </trkpt>
   <trkpt lat="-37.8337" lon="145.37454000000002">
    <ele>352.73</ele>
   </trkpt>
   <trkpt lat="-37.83357" lon="145.37456">
    <ele>350.72</ele>
   </trkpt>
   <trkpt lat="-37.83328" lon="145.37453000000002">
    <ele>348.43</ele>
   </trkpt>
   <trkpt lat="-37.83283" lon="145.37455">
    <ele>343.45000000000005</ele>
   </trkpt>
   <trkpt lat="-37.83261" lon="145.37459">
    <ele>339.54</ele>
   </trkpt>
   <trkpt lat="-37.83238" lon="145.37460000000002">
    <ele>337.56</ele>
   </trkpt>
   <trkpt lat="-37.83209" lon="145.37465">
    <ele>336.72</ele>
   </trkpt>
   <trkpt lat="-37.8316" lon="145.37477">
    <ele>336.68</ele>
   </trkpt>
   <trkpt lat="-37.83142" lon="145.37479000000002">
    <ele>336.6</ele>
   </trkpt>
   <trkpt lat="-37.83137" lon="145.37482">
    <ele>336.35</ele>
   </trkpt>
   <trkpt lat="-37.83138" lon="145.37482">
    <ele>336.36</ele>
   </trkpt>
   <trkpt lat="-37.83099" lon="145.37507000000002">
    <ele>331.82</ele>
   </trkpt>
   <trkpt lat="-37.8305" lon="145.3753">
    <ele>326.66</ele>
   </trkpt>
   <trkpt lat="-37.83019" lon="145.37533000000002">
    <ele>324.99</ele>
   </trkpt>
   <trkpt lat="-37.8299" lon="145.37518">
    <ele>316.57</ele>
   </trkpt>
   <trkpt lat="-37.8297" lon="145.37526000000003">
    <ele>309.44000000000005</ele>
   </trkpt>
   <trkpt lat="-37.82947" lon="145.37548">
    <ele>301.65000000000003</ele>
   </trkpt>
   <trkpt lat="-37.82934" lon="145.37553">
    <ele>299.33000000000004</ele>
   </trkpt>
   <trkpt lat="-37.82909" lon="145.37557">
    <ele>291.50000000000006</ele>
   </trkpt>
   <trkpt lat="-37.82898" lon="145.37562">
    <ele>287.7</ele>
   </trkpt>
   <trkpt lat="-37.82884" lon="145.37587000000002">
    <ele>280.05</ele>
   </trkpt>
   <trkpt lat="-37.82876" lon="145.37608">
    <ele>274.42</ele>
   </trkpt>
   <trkpt lat="-37.828880000000005" lon="145.37612000000001">
    <ele>274.85</ele>
   </trkpt>
   <trkpt lat="-37.82876" lon="145.37608">
    <ele>274.42</ele>
   </trkpt>
   <trkpt lat="-37.828880000000005" lon="145.37612000000001">
    <ele>274.85</ele>
   </trkpt>
   <trkpt lat="-37.828920000000004" lon="145.37623000000002">
    <ele>274.93</ele>
   </trkpt>
   <trkpt lat="-37.82893" lon="145.37641000000002">
    <ele>274.34000000000003</ele>
   </trkpt>
   <trkpt lat="-37.82887" lon="145.37672">
    <ele>273.90000000000003</ele>
   </trkpt>
   <trkpt lat="-37.82873" lon="145.37708">
    <ele>273.3</ele>
   </trkpt>
   <trkpt lat="-37.8286" lon="145.37732000000003">
    <ele>272.40000000000003</ele>
   </trkpt>
   <trkpt lat="-37.82824" lon="145.37775000000002">
    <ele>267.87</ele>
   </trkpt>
   <trkpt lat="-37.827920000000006" lon="145.37805">
    <ele>265.28000000000003</ele>
   </trkpt>
   <trkpt lat="-37.82799" lon="145.37812000000002">
    <ele>265.46000000000004</ele>
   </trkpt>
   <trkpt lat="-37.82799" lon="145.37820000000002">
    <ele>265.97999999999996</ele>
   </trkpt>
   <trkpt lat="-37.82793" lon="145.37837000000002">
    <ele>267.14000000000004</ele>
   </trkpt>
   <trkpt lat="-37.8279" lon="145.3785">
    <ele>268.86</ele>
   </trkpt>
   <trkpt lat="-37.827920000000006" lon="145.37853">
    <ele>268.86</ele>
   </trkpt>
   <trkpt lat="-37.82797" lon="145.37874000000002">
    <ele>273.13000000000005</ele>
   </trkpt>
   <trkpt lat="-37.828120000000006" lon="145.37881000000002">
    <ele>274.79</ele>
   </trkpt>
   <trkpt lat="-37.8282" lon="145.37878">
    <ele>275.56</ele>
   </trkpt>
   <trkpt lat="-37.82833" lon="145.37879">
    <ele>277.76</ele>
   </trkpt>
   <trkpt lat="-37.82882" lon="145.37863000000002">
    <ele>286.49</ele>
   </trkpt>
   <trkpt lat="-37.82907" lon="145.3786">
    <ele>294.69</ele>
   </trkpt>
   <trkpt lat="-37.82954" lon="145.37861">
    <ele>303.43</ele>
   </trkpt>
   <trkpt lat="-37.82981" lon="145.37858">
    <ele>309.11000000000007</ele>
   </trkpt>
   <trkpt lat="-37.8299" lon="145.37852">
    <ele>317.78</ele>
   </trkpt>
   <trkpt lat="-37.8301" lon="145.37836000000001">
    <ele>321.12</ele>
   </trkpt>
   <trkpt lat="-37.83032" lon="145.37802000000002">
    <ele>329.17</ele>
   </trkpt>
   <trkpt lat="-37.83088" lon="145.37755">
    <ele>349.33000000000004</ele>
   </trkpt>
   <trkpt lat="-37.83106" lon="145.37746">
    <ele>358.58</ele>
   </trkpt>
   <trkpt lat="-37.83131" lon="145.37743">
    <ele>365.34000000000003</ele>
   </trkpt>
   <trkpt lat="-37.83164" lon="145.37725">
    <ele>370.6700000000001</ele>
   </trkpt>
   <trkpt lat="-37.83187" lon="145.37702000000002">
    <ele>373.97</ele>
   </trkpt>
   <trkpt lat="-37.83202" lon="145.37691">
    <ele>375.26000000000005</ele>
   </trkpt>
   <trkpt lat="-37.83211" lon="145.37687000000003">
    <ele>376.48</ele>
   </trkpt>
   <trkpt lat="-37.8324" lon="145.37684000000002">
    <ele>382.04</ele>
   </trkpt>
   <trkpt lat="-37.83274" lon="145.37673">
    <ele>386.11</ele>
   </trkpt>
   <trkpt lat="-37.8329" lon="145.37657000000002">
    <ele>387.33</ele>
   </trkpt>
   <trkpt lat="-37.83314" lon="145.37650000000002">
    <ele>388.82000000000005</ele>
   </trkpt>
   <trkpt lat="-37.83343" lon="145.37654">
    <ele>391.18</ele>
   </trkpt>
   <trkpt lat="-37.833920000000006" lon="145.3768">
    <ele>395.32</ele>
   </trkpt>
   <trkpt lat="-37.83408" lon="145.37692">
    <ele>398.35</ele>
   </trkpt>
   <trkpt lat="-37.83408" lon="145.37746">
    <ele>395.68</ele>
   </trkpt>
   <trkpt lat="-37.83415" lon="145.37768">
    <ele>394.98</ele>
   </trkpt>
   <trkpt lat="-37.83426" lon="145.37779">
    <ele>395.46000000000004</ele>
   </trkpt>
   <trkpt lat="-37.83433" lon="145.37794000000002">
    <ele>395.63000000000005</ele>
   </trkpt>
   <trkpt lat="-37.8344" lon="145.37819000000002">
    <ele>395.03000000000003</ele>
   </trkpt>
   <trkpt lat="-37.8344" lon="145.3784">
    <ele>392.98</ele>
   </trkpt>
   <trkpt lat="-37.83437" lon="145.37837000000002">
    <ele>392.98</ele>
   </trkpt>
   <trkpt lat="-37.83431" lon="145.37820000000002">
    <ele>391.15000000000003</ele>
   </trkpt>
   <trkpt lat="-37.83424" lon="145.37819000000002">
    <ele>391.15000000000003</ele>
   </trkpt>
   <trkpt lat="-37.83431" lon="145.37839000000002">
    <ele>390.28000000000003</ele>
   </trkpt>
   <trkpt lat="-37.83431" lon="145.37854000000002">
    <ele>389.5</ele>
   </trkpt>
   <trkpt lat="-37.83435" lon="145.37866000000002">
    <ele>389.33</ele>
   </trkpt>
   <trkpt lat="-37.83444" lon="145.3788">
    <ele>389.85</ele>
   </trkpt>
   <trkpt lat="-37.83449" lon="145.37891000000002">
    <ele>390.65000000000003</ele>
   </trkpt>
   <trkpt lat="-37.834500000000006" lon="145.37906">
    <ele>391.15000000000003</ele>
   </trkpt>
   <trkpt lat="-37.83442" lon="145.37944000000002">
    <ele>389.57</ele>
   </trkpt>
   <trkpt lat="-37.83446" lon="145.37967">
    <ele>389.04</ele>
   </trkpt>
   <trkpt lat="-37.83444" lon="145.38021">
    <ele>386.22</ele>
   </trkpt>
   <trkpt lat="-37.83446" lon="145.38038">
    <ele>385.56</ele>
   </trkpt>
   <trkpt lat="-37.83464" lon="145.38086">
    <ele>385.19</ele>
   </trkpt>
   <trkpt lat="-37.83458" lon="145.38077">
    <ele>384.54</ele>
   </trkpt>
   <trkpt lat="-37.83451" lon="145.38065">
    <ele>384.06</ele>
   </trkpt>
   <trkpt lat="-37.83435" lon="145.38021">
    <ele>383.32000000000005</ele>
   </trkpt>
   <trkpt lat="-37.83422" lon="145.37978">
    <ele>381.44000000000005</ele>
   </trkpt>
   <trkpt lat="-37.83413" lon="145.37958">
    <ele>379.98</ele>
   </trkpt>
   <trkpt lat="-37.83408" lon="145.37972000000002">
    <ele>377.57</ele>
   </trkpt>
   <trkpt lat="-37.83413" lon="145.3805">
    <ele>373.92</ele>
   </trkpt>
   <trkpt lat="-37.83404" lon="145.38078000000002">
    <ele>369.94000000000005</ele>
   </trkpt>
   <trkpt lat="-37.83397" lon="145.38076">
    <ele>369.27000000000004</ele>
   </trkpt>
   <trkpt lat="-37.83393" lon="145.38078000000002">
    <ele>368.66</ele>
   </trkpt>
   <trkpt lat="-37.83393" lon="145.38093">
    <ele>366.93</ele>
   </trkpt>
   <trkpt lat="-37.8339" lon="145.38104">
    <ele>365.65000000000003</ele>
   </trkpt>
   <trkpt lat="-37.83381" lon="145.38102">
    <ele>364.94000000000005</ele>
   </trkpt>
   <trkpt lat="-37.83379" lon="145.38095">
    <ele>362.6</ele>
   </trkpt>
   <trkpt lat="-37.83375" lon="145.38101">
    <ele>361.88000000000005</ele>
   </trkpt>
   <trkpt lat="-37.8337" lon="145.38096000000002">
    <ele>361.24</ele>
   </trkpt>
   <trkpt lat="-37.83355" lon="145.38059">
    <ele>357.99</ele>
   </trkpt>
   <trkpt lat="-37.83348" lon="145.38031">
    <ele>356.35</ele>
   </trkpt>
   <trkpt lat="-37.83339" lon="145.38015000000001">
    <ele>355.55</ele>
   </trkpt>
   <trkpt lat="-37.83332" lon="145.37994">
    <ele>353.28000000000003</ele>
   </trkpt>
   <trkpt lat="-37.8333" lon="145.37976">
    <ele>351.12000000000006</ele>
   </trkpt>
   <trkpt lat="-37.83328" lon="145.37975">
    <ele>351.12000000000006</ele>
   </trkpt>
   <trkpt lat="-37.83323" lon="145.37983">
    <ele>350.14</ele>
   </trkpt>
   <trkpt lat="-37.83321" lon="145.38043000000002">
    <ele>346.09</ele>
   </trkpt>
   <trkpt lat="-37.833180000000006" lon="145.38076">
    <ele>344.0</ele>
   </trkpt>
   <trkpt lat="-37.83312" lon="145.38080000000002">
    <ele>341.09</ele>
   </trkpt>
   <trkpt lat="-37.83301" lon="145.38045000000002">
    <ele>338.09</ele>
   </trkpt>
   <trkpt lat="-37.83294" lon="145.38052000000002">
    <ele>336.27</ele>
   </trkpt>
   <trkpt lat="-37.83283" lon="145.38043000000002">
    <ele>334.53000000000003</ele>
   </trkpt>
   <trkpt lat="-37.83272" lon="145.38021">
    <ele>331.19000000000005</ele>
   </trkpt>
   <trkpt lat="-37.83267" lon="145.38018000000002">
    <ele>327.58000000000004</ele>
   </trkpt>
   <trkpt lat="-37.83258" lon="145.38037">
    <ele>325.34000000000003</ele>
   </trkpt>
   <trkpt lat="-37.832530000000006" lon="145.38095">
    <ele>321.31000000000006</ele>
   </trkpt>
   <trkpt lat="-37.832530000000006" lon="145.38113">
    <ele>320.19</ele>
   </trkpt>
   <trkpt lat="-37.83243" lon="145.38147">
    <ele>318.18</ele>
   </trkpt>
   <trkpt lat="-37.8324" lon="145.38176">
    <ele>318.43000000000006</ele>
   </trkpt>
   <trkpt lat="-37.8324" lon="145.38189">
    <ele>319.29</ele>
   </trkpt>
   <trkpt lat="-37.83245" lon="145.38221000000001">
    <ele>318.86</ele>
   </trkpt>
   <trkpt lat="-37.83243" lon="145.38225">
    <ele>318.86</ele>
   </trkpt>
   <trkpt lat="-37.8324" lon="145.38223000000002">
    <ele>318.86</ele>
   </trkpt>
   <trkpt lat="-37.83238" lon="145.38223000000002">
    <ele>317.77000000000004</ele>
   </trkpt>
   <trkpt lat="-37.83229" lon="145.38207">
    <ele>314.21000000000004</ele>
   </trkpt>
   <trkpt lat="-37.83225" lon="145.38207">
    <ele>313.38000000000005</ele>
   </trkpt>
   <trkpt lat="-37.83216" lon="145.38223000000002">
    <ele>311.4</ele>
   </trkpt>
   <trkpt lat="-37.83211" lon="145.38240000000002">
    <ele>310.26000000000005</ele>
   </trkpt>
   <trkpt lat="-37.83207" lon="145.38281">
    <ele>308.62</ele>
   </trkpt>
   <trkpt lat="-37.832060000000006" lon="145.38286000000002">
    <ele>308.08000000000004</ele>
   </trkpt>
   <trkpt lat="-37.832" lon="145.38279">
    <ele>306.71000000000004</ele>
   </trkpt>
   <trkpt lat="-37.83189" lon="145.38274">
    <ele>305.08</ele>
   </trkpt>
   <trkpt lat="-37.83182" lon="145.38274">
    <ele>302.39000000000004</ele>
   </trkpt>
   <trkpt lat="-37.83171" lon="145.3828">
    <ele>300.83000000000004</ele>
   </trkpt>
   <trkpt lat="-37.83167" lon="145.38286000000002">
    <ele>300.24</ele>
   </trkpt>
   <trkpt lat="-37.83151" lon="145.38327">
    <ele>297.78000000000003</ele>
   </trkpt>
   <trkpt lat="-37.831480000000006" lon="145.38330000000002">
    <ele>297.78000000000003</ele>
   </trkpt>
   <trkpt lat="-37.83149" lon="145.38346">
    <ele>297.17</ele>
   </trkpt>
   <trkpt lat="-37.83144" lon="145.38354">
    <ele>296.03000000000003</ele>
   </trkpt>
   <trkpt lat="-37.83135" lon="145.38362">
    <ele>295.67</ele>
   </trkpt>
   <trkpt lat="-37.831100000000006" lon="145.38430000000002">
    <ele>291.83000000000004</ele>
   </trkpt>
   <trkpt lat="-37.831120000000006" lon="145.38464000000002">
    <ele>291.61</ele>
   </trkpt>
   <trkpt lat="-37.83104" lon="145.38455000000002">
    <ele>290.63</ele>
   </trkpt>
   <trkpt lat="-37.83097" lon="145.38456000000002">
    <ele>290.34000000000003</ele>
   </trkpt>
   <trkpt lat="-37.83088" lon="145.38465000000002">
    <ele>289.81</ele>
   </trkpt>
   <trkpt lat="-37.83084" lon="145.38475000000003">
    <ele>289.71000000000004</ele>
   </trkpt>
   <trkpt lat="-37.83079" lon="145.38502000000003">
    <ele>289.8</ele>
   </trkpt>
   <trkpt lat="-37.83068" lon="145.38536000000002">
    <ele>289.73</ele>
   </trkpt>
   <trkpt lat="-37.8307" lon="145.38551">
    <ele>289.7</ele>
   </trkpt>
   <trkpt lat="-37.8307" lon="145.3855">
    <ele>289.68000000000006</ele>
   </trkpt>
   <trkpt lat="-37.83068" lon="145.38562000000002">
    <ele>289.46000000000004</ele>
   </trkpt>
   <trkpt lat="-37.83061" lon="145.38571000000002">
    <ele>289.25</ele>
   </trkpt>
   <trkpt lat="-37.83059" lon="145.38613">
    <ele>287.63</ele>
   </trkpt>
   <trkpt lat="-37.83057" lon="145.38617000000002">
    <ele>286.96000000000004</ele>
   </trkpt>
   <trkpt lat="-37.83055" lon="145.38616000000002">
    <ele>286.96000000000004</ele>
   </trkpt>
   <trkpt lat="-37.83046" lon="145.38585">
    <ele>286.49</ele>
   </trkpt>
   <trkpt lat="-37.83046" lon="145.38535000000002">
    <ele>286.33000000000004</ele>
   </trkpt>
   <trkpt lat="-37.83048" lon="145.38520000000003">
    <ele>286.6</ele>
   </trkpt>
   <trkpt lat="-37.83057" lon="145.38511000000003">
    <ele>286.57000000000005</ele>
   </trkpt>
   <trkpt lat="-37.83057" lon="145.38505">
    <ele>286.45000000000005</ele>
   </trkpt>
   <trkpt lat="-37.830560000000006" lon="145.38497">
    <ele>286.0</ele>
   </trkpt>
   <trkpt lat="-37.83057" lon="145.38487">
    <ele>285.69</ele>
   </trkpt>
   <trkpt lat="-37.830560000000006" lon="145.3848">
    <ele>284.63000000000005</ele>
   </trkpt>
   <trkpt lat="-37.8305" lon="145.3848">
    <ele>284.63000000000005</ele>
   </trkpt>
   <trkpt lat="-37.83041" lon="145.38489">
    <ele>283.94</ele>
   </trkpt>
   <trkpt lat="-37.83032" lon="145.38537000000002">
    <ele>283.49</ele>
   </trkpt>
   <trkpt lat="-37.83032" lon="145.38553000000002">
    <ele>283.22</ele>
   </trkpt>
   <trkpt lat="-37.83028" lon="145.38572000000002">
    <ele>282.46999999999997</ele>
   </trkpt>
   <trkpt lat="-37.83026" lon="145.38587">
    <ele>282.02000000000004</ele>
   </trkpt>
   <trkpt lat="-37.83019" lon="145.38578">
    <ele>281.23</ele>
   </trkpt>
   <trkpt lat="-37.8301" lon="145.3854">
    <ele>280.43</ele>
   </trkpt>
   <trkpt lat="-37.8301" lon="145.38509000000002">
    <ele>279.68</ele>
   </trkpt>
   <trkpt lat="-37.83017" lon="145.38471">
    <ele>278.95000000000005</ele>
   </trkpt>
   <trkpt lat="-37.83012" lon="145.38467">
    <ele>278.67</ele>
   </trkpt>
   <trkpt lat="-37.83003" lon="145.38482000000002">
    <ele>277.62</ele>
   </trkpt>
   <trkpt lat="-37.82999" lon="145.38513">
    <ele>277.23</ele>
   </trkpt>
   <trkpt lat="-37.83001" lon="145.38547">
    <ele>277.42</ele>
   </trkpt>
   <trkpt lat="-37.82999" lon="145.38576">
    <ele>277.11</ele>
   </trkpt>
   <trkpt lat="-37.83014" lon="145.38628">
    <ele>277.96000000000004</ele>
   </trkpt>
   <trkpt lat="-37.83012" lon="145.38636000000002">
    <ele>277.83000000000004</ele>
   </trkpt>
   <trkpt lat="-37.83019" lon="145.38676">
    <ele>276.65</ele>
   </trkpt>
   <trkpt lat="-37.83019" lon="145.38684">
    <ele>276.65</ele>
   </trkpt>
   <trkpt lat="-37.83019" lon="145.38683">
    <ele>276.52000000000004</ele>
   </trkpt>
   <trkpt lat="-37.83019" lon="145.387">
    <ele>275.72</ele>
   </trkpt>
   <trkpt lat="-37.83014" lon="145.38717000000003">
    <ele>274.58000000000004</ele>
   </trkpt>
   <trkpt lat="-37.83012" lon="145.38764">
    <ele>271.91</ele>
   </trkpt>
   <trkpt lat="-37.830180000000006" lon="145.38781">
    <ele>271.16</ele>
   </trkpt>
   <trkpt lat="-37.83012" lon="145.38837">
    <ele>269.34000000000003</ele>
   </trkpt>
   <trkpt lat="-37.830180000000006" lon="145.38864">
    <ele>269.11</ele>
   </trkpt>
   <trkpt lat="-37.830180000000006" lon="145.38875000000002">
    <ele>268.93</ele>
   </trkpt>
   <trkpt lat="-37.8301" lon="145.38915">
    <ele>267.67</ele>
   </trkpt>
   <trkpt lat="-37.8301" lon="145.38928">
    <ele>266.97</ele>
   </trkpt>
   <trkpt lat="-37.83005" lon="145.38945">
    <ele>266.57000000000005</ele>
   </trkpt>
   <trkpt lat="-37.82999" lon="145.38958000000002">
    <ele>266.07000000000005</ele>
   </trkpt>
   <trkpt lat="-37.82992" lon="145.38958000000002">
    <ele>266.07000000000005</ele>
   </trkpt>
   <trkpt lat="-37.829800000000006" lon="145.38951">
    <ele>264.40000000000003</ele>
   </trkpt>
   <trkpt lat="-37.8297" lon="145.38955">
    <ele>263.89</ele>
   </trkpt>
   <trkpt lat="-37.82965" lon="145.38978">
    <ele>263.09000000000003</ele>
   </trkpt>
   <trkpt lat="-37.82961" lon="145.3898">
    <ele>262.86</ele>
   </trkpt>
   <trkpt lat="-37.829530000000005" lon="145.38975000000002">
    <ele>262.6</ele>
   </trkpt>
   <trkpt lat="-37.82945" lon="145.3897">
    <ele>262.09000000000003</ele>
   </trkpt>
   <trkpt lat="-37.82938" lon="145.38969">
    <ele>260.16</ele>
   </trkpt>
   <trkpt lat="-37.82938" lon="145.39030000000002">
    <ele>258.36</ele>
   </trkpt>
   <trkpt lat="-37.829350000000005" lon="145.39053">
    <ele>258.53000000000003</ele>
   </trkpt>
   <trkpt lat="-37.82936" lon="145.39064000000002">
    <ele>258.35</ele>
   </trkpt>
   <trkpt lat="-37.82949" lon="145.39143">
    <ele>257.47</ele>
   </trkpt>
   <trkpt lat="-37.82969500418663" lon="145.39242499724256">
    <ele>254.60000000000005</ele>
   </trkpt>
   <trkpt lat="-37.8299" lon="145.39342000000002">
    <ele>248.73</ele>
   </trkpt>
   <trkpt lat="-37.82981" lon="145.39386000000002">
    <ele>246.19000000000003</ele>
   </trkpt>
   <trkpt lat="-37.82954" lon="145.39468000000002">
    <ele>242.50000000000003</ele>
   </trkpt>
   <trkpt lat="-37.82954" lon="145.39491">
    <ele>241.90000000000003</ele>
   </trkpt>
   <trkpt lat="-37.82963" lon="145.39519">
    <ele>239.46</ele>
   </trkpt>
   <trkpt lat="-37.82992" lon="145.39576000000002">
    <ele>236.88</ele>
   </trkpt>
   <trkpt lat="-37.82996" lon="145.39588">
    <ele>236.51000000000002</ele>
   </trkpt>
   <trkpt lat="-37.82999" lon="145.39610000000002">
    <ele>235.70000000000002</ele>
   </trkpt>
   <trkpt lat="-37.829980000000006" lon="145.39621000000002">
    <ele>235.36</ele>
   </trkpt>
   <trkpt lat="-37.82999" lon="145.39621000000002">
    <ele>235.37</ele>
   </trkpt>
   <trkpt lat="-37.82996" lon="145.39644">
    <ele>234.32000000000002</ele>
   </trkpt>
   <trkpt lat="-37.82983" lon="145.39694">
    <ele>232.64000000000001</ele>
   </trkpt>
   <trkpt lat="-37.82953000180905" lon="145.39760500283762">
    <ele>229.26000000000002</ele>
   </trkpt>
   <trkpt lat="-37.82923" lon="145.39827000000002">
    <ele>230.9</ele>
   </trkpt>
   <trkpt lat="-37.82898" lon="145.39888000000002">
    <ele>233.15</ele>
   </trkpt>
   <trkpt lat="-37.828810000000004" lon="145.39942000000002">
    <ele>234.31</ele>
   </trkpt>
   <trkpt lat="-37.8293" lon="145.39906000000002">
    <ele>231.0</ele>
   </trkpt>
   <trkpt lat="-37.82934" lon="145.39889000000002">
    <ele>248.82000000000002</ele>
   </trkpt>
   <trkpt lat="-37.8294" lon="145.39875">
    <ele>246.44000000000003</ele>
   </trkpt>
   <trkpt lat="-37.82958" lon="145.39857">
    <ele>247.10000000000002</ele>
   </trkpt>
   <trkpt lat="-37.82995000115219" lon="145.3980700023784">
    <ele>246.43</ele>
   </trkpt>
   <trkpt lat="-37.83032" lon="145.39757">
    <ele>245.45000000000002</ele>
   </trkpt>
   <trkpt lat="-37.83075" lon="145.39718000000002">
    <ele>249.32000000000002</ele>
   </trkpt>
   <trkpt lat="-37.83117" lon="145.39671">
    <ele>250.56</ele>
   </trkpt>
   <trkpt lat="-37.83164000101921" lon="145.39622500306393">
    <ele>251.4</ele>
   </trkpt>
   <trkpt lat="-37.83211" lon="145.39574000000002">
    <ele>249.95000000000002</ele>
   </trkpt>
   <trkpt lat="-37.832770001068916" lon="145.39524000446377">
    <ele>249.24</ele>
   </trkpt>
   <trkpt lat="-37.83343" lon="145.39474">
    <ele>248.67000000000002</ele>
   </trkpt>
   <trkpt lat="-37.83377" lon="145.39452">
    <ele>249.72000000000003</ele>
   </trkpt>
   <trkpt lat="-37.83422" lon="145.39430000000002">
    <ele>250.51000000000002</ele>
   </trkpt>
   <trkpt lat="-37.8346" lon="145.3942">
    <ele>248.98</ele>
   </trkpt>
   <trkpt lat="-37.83469" lon="145.39408">
    <ele>248.66000000000003</ele>
   </trkpt>
   <trkpt lat="-37.834860000000006" lon="145.39402">
    <ele>248.74</ele>
   </trkpt>
   <trkpt lat="-37.835150000000006" lon="145.39395000000002">
    <ele>248.42000000000002</ele>
   </trkpt>
   <trkpt lat="-37.83522" lon="145.39397000000002">
    <ele>248.49</ele>
   </trkpt>
   <trkpt lat="-37.83534" lon="145.39405000000002">
    <ele>248.92000000000002</ele>
   </trkpt>
   <trkpt lat="-37.83541" lon="145.39405000000002">
    <ele>248.97000000000003</ele>
   </trkpt>
   <trkpt lat="-37.83545" lon="145.39387000000002">
    <ele>247.71</ele>
   </trkpt>
   <trkpt lat="-37.83549" lon="145.39381">
    <ele>247.01</ele>
   </trkpt>
   <trkpt lat="-37.83572" lon="145.39354">
    <ele>245.48000000000002</ele>
   </trkpt>
   <trkpt lat="-37.83614500085438" lon="145.3930850026437">
    <ele>248.73</ele>
   </trkpt>
   <trkpt lat="-37.83657" lon="145.39263000000003">
    <ele>250.82000000000005</ele>
   </trkpt>
   <trkpt lat="-37.83722" lon="145.39226000000002">
    <ele>252.31000000000003</ele>
   </trkpt>
   <trkpt lat="-37.837410000000006" lon="145.39212">
    <ele>253.31000000000003</ele>
   </trkpt>
   <trkpt lat="-37.83731" lon="145.39181000000002">
    <ele>253.02</ele>
   </trkpt>
   <trkpt lat="-37.83726" lon="145.39154000000002">
    <ele>252.25000000000003</ele>
   </trkpt>
   <trkpt lat="-37.837270000000004" lon="145.39126000000002">
    <ele>251.0</ele>
   </trkpt>
   <trkpt lat="-37.83733500136969" lon="145.39069500032298">
    <ele>255.20000000000005</ele>
   </trkpt>
   <trkpt lat="-37.8374" lon="145.39013">
    <ele>257.13</ele>
   </trkpt>
   <trkpt lat="-37.837410000000006" lon="145.38957000000002">
    <ele>257.54</ele>
   </trkpt>
   <trkpt lat="-37.83751" lon="145.38939000000002">
    <ele>257.61</ele>
   </trkpt>
   <trkpt lat="-37.83769" lon="145.38928">
    <ele>257.82</ele>
   </trkpt>
   <trkpt lat="-37.83791" lon="145.38927">
    <ele>258.46000000000004</ele>
   </trkpt>
   <trkpt lat="-37.83816" lon="145.38933">
    <ele>259.18</ele>
   </trkpt>
   <trkpt lat="-37.83836" lon="145.38944">
    <ele>260.12</ele>
   </trkpt>
   <trkpt lat="-37.83849" lon="145.38949000000002">
    <ele>260.42</ele>
   </trkpt>
   <trkpt lat="-37.83865" lon="145.38945">
    <ele>261.16</ele>
   </trkpt>
   <trkpt lat="-37.83885" lon="145.38936">
    <ele>261.57</ele>
   </trkpt>
   <trkpt lat="-37.83908" lon="145.38930000000002">
    <ele>262.09000000000003</ele>
   </trkpt>
   <trkpt lat="-37.83932" lon="145.38919">
    <ele>262.48</ele>
   </trkpt>
   <trkpt lat="-37.83959" lon="145.38912000000002">
    <ele>263.09000000000003</ele>
   </trkpt>
   <trkpt lat="-37.83981" lon="145.38901">
    <ele>262.66</ele>
   </trkpt>
   <trkpt lat="-37.840030000000006" lon="145.38874">
    <ele>260.09000000000003</ele>
   </trkpt>
   <trkpt lat="-37.84024" lon="145.38854">
    <ele>259.49</ele>
   </trkpt>
   <trkpt lat="-37.84055" lon="145.38814000000002">
    <ele>262.34000000000003</ele>
   </trkpt>
   <trkpt lat="-37.840880000000006" lon="145.38792">
    <ele>265.20000000000005</ele>
   </trkpt>
   <trkpt lat="-37.84098" lon="145.3878">
    <ele>266.15</ele>
   </trkpt>
   <trkpt lat="-37.84118" lon="145.38735">
    <ele>267.99</ele>
   </trkpt>
   <trkpt lat="-37.84149" lon="145.387">
    <ele>269.63000000000005</ele>
   </trkpt>
   <trkpt lat="-37.84203" lon="145.38627000000002">
    <ele>274.58000000000004</ele>
   </trkpt>
   <trkpt lat="-37.84221" lon="145.38598000000002">
    <ele>275.18</ele>
   </trkpt>
   <trkpt lat="-37.84237" lon="145.38589000000002">
    <ele>275.90000000000003</ele>
   </trkpt>
   <trkpt lat="-37.842470000000006" lon="145.38578">
    <ele>276.21</ele>
   </trkpt>
   <trkpt lat="-37.84254" lon="145.38564000000002">
    <ele>276.84000000000003</ele>
   </trkpt>
   <trkpt lat="-37.842580000000005" lon="145.38546000000002">
    <ele>277.86</ele>
   </trkpt>
   <trkpt lat="-37.842580000000005" lon="145.38545000000002">
    <ele>277.88</ele>
   </trkpt>
   <trkpt lat="-37.84266" lon="145.38509000000002">
    <ele>280.73</ele>
   </trkpt>
   <trkpt lat="-37.84272" lon="145.38490000000002">
    <ele>281.32</ele>
   </trkpt>
   <trkpt lat="-37.84281" lon="145.38477">
    <ele>282.01000000000005</ele>
   </trkpt>
   <trkpt lat="-37.84288" lon="145.38473000000002">
    <ele>282.63000000000005</ele>
   </trkpt>
   <trkpt lat="-37.84292000000001" lon="145.38473000000002">
    <ele>282.63000000000005</ele>
   </trkpt>
   <trkpt lat="-37.84297" lon="145.38451">
    <ele>284.35</ele>
   </trkpt>
   <trkpt lat="-37.84295" lon="145.38430000000002">
    <ele>285.40999999999997</ele>
   </trkpt>
   <trkpt lat="-37.84286" lon="145.38411000000002">
    <ele>289.18000000000006</ele>
   </trkpt>
   <trkpt lat="-37.84281" lon="145.38376000000002">
    <ele>292.32</ele>
   </trkpt>
   <trkpt lat="-37.84281" lon="145.38304000000002">
    <ele>296.76</ele>
   </trkpt>
   <trkpt lat="-37.84279" lon="145.38266000000002">
    <ele>300.69</ele>
   </trkpt>
   <trkpt lat="-37.84272" lon="145.38237">
    <ele>303.8</ele>
   </trkpt>
   <trkpt lat="-37.84263" lon="145.38217">
    <ele>307.21000000000004</ele>
   </trkpt>
   <trkpt lat="-37.84248" lon="145.38167">
    <ele>311.04</ele>
   </trkpt>
   <trkpt lat="-37.84248" lon="145.38133000000002">
    <ele>313.59000000000003</ele>
   </trkpt>
   <trkpt lat="-37.84243" lon="145.38109">
    <ele>314.6</ele>
   </trkpt>
   <trkpt lat="-37.8423" lon="145.38066">
    <ele>319.34000000000003</ele>
   </trkpt>
   <trkpt lat="-37.84205" lon="145.38012">
    <ele>324.14000000000004</ele>
   </trkpt>
   <trkpt lat="-37.84223" lon="145.38017000000002">
    <ele>326.83</ele>
   </trkpt>
   <trkpt lat="-37.842380000000006" lon="145.38016000000002">
    <ele>329.21</ele>
   </trkpt>
   <trkpt lat="-37.8425" lon="145.38008000000002">
    <ele>332.21</ele>
   </trkpt>
   <trkpt lat="-37.84257" lon="145.37998000000002">
    <ele>333.83</ele>
   </trkpt>
   <trkpt lat="-37.84277" lon="145.37985">
    <ele>338.27</ele>
   </trkpt>
   <trkpt lat="-37.84297" lon="145.37982000000002">
    <ele>341.34000000000003</ele>
   </trkpt>
   <trkpt lat="-37.84315" lon="145.37983">
    <ele>344.1</ele>
   </trkpt>
   <trkpt lat="-37.84396" lon="145.38022">
    <ele>355.1</ele>
   </trkpt>
   <trkpt lat="-37.84431" lon="145.38042000000002">
    <ele>360.68000000000006</ele>
   </trkpt>
   <trkpt lat="-37.844440000000006" lon="145.3804">
    <ele>362.6</ele>
   </trkpt>
   <trkpt lat="-37.84449" lon="145.38033000000001">
    <ele>365.09000000000003</ele>
   </trkpt>
   <trkpt lat="-37.84451" lon="145.3802">
    <ele>365.89000000000004</ele>
   </trkpt>
   <trkpt lat="-37.84451" lon="145.38000000000002">
    <ele>367.36</ele>
   </trkpt>
   <trkpt lat="-37.8444" lon="145.37967">
    <ele>373.73</ele>
   </trkpt>
   <trkpt lat="-37.84427" lon="145.37936000000002">
    <ele>377.04</ele>
   </trkpt>
   <trkpt lat="-37.84411" lon="145.37913">
    <ele>381.1</ele>
   </trkpt>
   <trkpt lat="-37.84375" lon="145.37878">
    <ele>385.6</ele>
   </trkpt>
   <trkpt lat="-37.84333" lon="145.37800000000001">
    <ele>396.17</ele>
   </trkpt>
   <trkpt lat="-37.84326" lon="145.3778">
    <ele>397.96000000000004</ele>
   </trkpt>
   <trkpt lat="-37.84324" lon="145.37767000000002">
    <ele>399.51000000000005</ele>
   </trkpt>
   <trkpt lat="-37.84326" lon="145.37756000000002">
    <ele>400.81000000000006</ele>
   </trkpt>
   <trkpt lat="-37.84333" lon="145.37742">
    <ele>403.22</ele>
   </trkpt>
   <trkpt lat="-37.84346" lon="145.37734">
    <ele>405.08000000000004</ele>
   </trkpt>
   <trkpt lat="-37.8436" lon="145.37728">
    <ele>409.99</ele>
   </trkpt>
   <trkpt lat="-37.84384" lon="145.37723000000003">
    <ele>415.06000000000006</ele>
   </trkpt>
   <trkpt lat="-37.84431" lon="145.37730000000002">
    <ele>424.7</ele>
   </trkpt>
   <trkpt lat="-37.84492" lon="145.37729000000002">
    <ele>433.94000000000005</ele>
   </trkpt>
   <trkpt lat="-37.84523" lon="145.37737">
    <ele>440.47</ele>
   </trkpt>
   <trkpt lat="-37.845690000000005" lon="145.37731000000002">
    <ele>451.34000000000003</ele>
   </trkpt>
   <trkpt lat="-37.8457" lon="145.37731000000002">
    <ele>451.39</ele>
   </trkpt>
   <trkpt lat="-37.84582" lon="145.37730000000002">
    <ele>454.68</ele>
   </trkpt>
   <trkpt lat="-37.8459" lon="145.37727">
    <ele>456.98</ele>
   </trkpt>
   <trkpt lat="-37.8461" lon="145.37725">
    <ele>459.42</ele>
   </trkpt>
   <trkpt lat="-37.84633" lon="145.37718">
    <ele>465.43</ele>
   </trkpt>
   <trkpt lat="-37.84646" lon="145.37716">
    <ele>467.0</ele>
   </trkpt>
   <trkpt lat="-37.84666" lon="145.37718">
    <ele>471.47</ele>
   </trkpt>
   <trkpt lat="-37.8468" lon="145.37722000000002">
    <ele>472.25000000000006</ele>
   </trkpt>
   <trkpt lat="-37.84729" lon="145.37757000000002">
    <ele>481.53000000000003</ele>
   </trkpt>
   <trkpt lat="-37.84742" lon="145.3778">
    <ele>482.94</ele>
   </trkpt>
   <trkpt lat="-37.84747" lon="145.37811000000002">
    <ele>483.03000000000003</ele>
   </trkpt>
   <trkpt lat="-37.8476" lon="145.37832">
    <ele>482.36000000000007</ele>
   </trkpt>
   <trkpt lat="-37.84774" lon="145.37846000000002">
    <ele>482.37</ele>
   </trkpt>
   <trkpt lat="-37.84794" lon="145.37849">
    <ele>482.9700000000001</ele>
   </trkpt>
   <trkpt lat="-37.84825" lon="145.37846000000002">
    <ele>484.89000000000004</ele>
   </trkpt>
   <trkpt lat="-37.84848" lon="145.3784">
    <ele>486.07000000000005</ele>
   </trkpt>
   <trkpt lat="-37.8491" lon="145.37814">
    <ele>492.04</ele>
   </trkpt>
   <trkpt lat="-37.84951" lon="145.37792000000002">
    <ele>497.6</ele>
   </trkpt>
   <trkpt lat="-37.84964" lon="145.37782">
    <ele>500.06000000000006</ele>
   </trkpt>
   <trkpt lat="-37.85029" lon="145.3775">
    <ele>507.55000000000007</ele>
   </trkpt>
   <trkpt lat="-37.85047" lon="145.37738000000002">
    <ele>509.06000000000006</ele>
   </trkpt>
   <trkpt lat="-37.85085" lon="145.37730000000002">
    <ele>511.41</ele>
   </trkpt>
   <trkpt lat="-37.85121" lon="145.37741000000003">
    <ele>512.6800000000001</ele>
   </trkpt>
   <trkpt lat="-37.85157" lon="145.3776">
    <ele>510.69000000000005</ele>
   </trkpt>
   <trkpt lat="-37.85165000000001" lon="145.37766000000002">
    <ele>510.18000000000006</ele>
   </trkpt>
   <trkpt lat="-37.85172" lon="145.37773">
    <ele>509.39</ele>
   </trkpt>
   <trkpt lat="-37.85188" lon="145.37808">
    <ele>506.2300000000001</ele>
   </trkpt>
   <trkpt lat="-37.85201" lon="145.37857000000002">
    <ele>504.51</ele>
   </trkpt>
   <trkpt lat="-37.85228" lon="145.37909000000002">
    <ele>506.85</ele>
   </trkpt>
   <trkpt lat="-37.85251" lon="145.37935000000002">
    <ele>508.09999999999997</ele>
   </trkpt>
   <trkpt lat="-37.85282" lon="145.3796">
    <ele>510.59</ele>
   </trkpt>
   <trkpt lat="-37.85293" lon="145.37962000000002">
    <ele>511.55000000000007</ele>
   </trkpt>
   <trkpt lat="-37.853080000000006" lon="145.37959">
    <ele>512.0</ele>
   </trkpt>
   <trkpt lat="-37.85336" lon="145.37931">
    <ele>512.3199999999999</ele>
   </trkpt>
   <trkpt lat="-37.85351" lon="145.37909000000002">
    <ele>514.61</ele>
   </trkpt>
   <trkpt lat="-37.85387" lon="145.37866000000002">
    <ele>522.1</ele>
   </trkpt>
   <trkpt lat="-37.85392" lon="145.37857000000002">
    <ele>523.0400000000001</ele>
   </trkpt>
   <trkpt lat="-37.85392" lon="145.37856000000002">
    <ele>523.15</ele>
   </trkpt>
   <trkpt lat="-37.85427" lon="145.37793000000002">
    <ele>536.2</ele>
   </trkpt>
   <trkpt lat="-37.85468" lon="145.37728">
    <ele>546.5500000000001</ele>
   </trkpt>
   <trkpt lat="-37.854960000000005" lon="145.37689">
    <ele>552.8100000000001</ele>
   </trkpt>
   <trkpt lat="-37.85501" lon="145.37684000000002">
    <ele>554.7700000000001</ele>
   </trkpt>
   <trkpt lat="-37.85533" lon="145.37614000000002">
    <ele>564.8700000000001</ele>
   </trkpt>
   <trkpt lat="-37.85571" lon="145.37552000000002">
    <ele>570.74</ele>
   </trkpt>
   <trkpt lat="-37.85604" lon="145.37508000000003">
    <ele>574.13</ele>
   </trkpt>
   <trkpt lat="-37.85622" lon="145.37490000000003">
    <ele>575.6600000000001</ele>
   </trkpt>
   <trkpt lat="-37.856260000000006" lon="145.37480000000002">
    <ele>574.6800000000001</ele>
   </trkpt>
   <trkpt lat="-37.856" lon="145.37456">
    <ele>577.8199999999999</ele>
   </trkpt>
   <trkpt lat="-37.8556750005453" lon="145.37416499811948">
    <ele>579.26</ele>
   </trkpt>
   <trkpt lat="-37.85535" lon="145.37377">
    <ele>578.91</ele>
   </trkpt>
   <trkpt lat="-37.85531" lon="145.37379">
    <ele>578.91</ele>
   </trkpt>
   <trkpt lat="-37.85521" lon="145.37367">
    <ele>578.87</ele>
   </trkpt>
   <trkpt lat="-37.854845000635606" lon="145.37326999797466">
    <ele>578.77</ele>
   </trkpt>
   <trkpt lat="-37.85448" lon="145.37287">
    <ele>579.58</ele>
   </trkpt>
   <trkpt lat="-37.8543" lon="145.37263000000002">
    <ele>579.84</ele>
   </trkpt>
   <trkpt lat="-37.85414" lon="145.37239000000002">
    <ele>580.0200000000001</ele>
   </trkpt>
   <trkpt lat="-37.85405" lon="145.37220000000002">
    <ele>580.07</ele>
   </trkpt>
   <trkpt lat="-37.854020000000006" lon="145.37171">
    <ele>579.5100000000001</ele>
   </trkpt>
   <trkpt lat="-37.854040000000005" lon="145.37130000000002">
    <ele>578.85</ele>
   </trkpt>
   <trkpt lat="-37.85411500333797" lon="145.37041000103912">
    <ele>575.4800000000001</ele>
   </trkpt>
   <trkpt lat="-37.85419" lon="145.36952000000002">
    <ele>572.5100000000001</ele>
   </trkpt>
   <trkpt lat="-37.85421" lon="145.36937">
    <ele>572.22</ele>
   </trkpt>
   <trkpt lat="-37.85441" lon="145.36911">
    <ele>572.16</ele>
   </trkpt>
   <trkpt lat="-37.85409000000001" lon="145.36882">
    <ele>575.7500000000001</ele>
   </trkpt>
   <trkpt lat="-37.853660000000005" lon="145.36857">
    <ele>577.48</ele>
   </trkpt>
   <trkpt lat="-37.85314" lon="145.36833000000001">
    <ele>575.69</ele>
   </trkpt>
  </trkseg>
 </trk>
</gpx>
