<?xml version="1.0" encoding="UTF-8"?>
<gpx creator="StravaGPX" version="1.1" xmlns="http://www.topografix.com/GPX/1/1" xmlns:xsi="http://www.w3.org/2001/XMLSchema-instance" xsi:schemaLocation="http://www.topografix.com/GPX/1/1 http://www.topografix.com/GPX/1/1/gpx.xsd">
 <metadata>
  <name>DTR 6 August</name>
  <author>
   <name>john csorgo</name>
  </author>
  <copyright author="OpenStreetMap contributors">
   <year>2020</year>
   <license>https://www.openstreetmap.org/copyright</license>
  </copyright>
 </metadata>
 <trk>
  <name>DTR 6 August</name>
  <link href=""/>
  <type>running</type>
  <trkseg>
   <trkpt lat="-37.862860000000005" lon="145.35369">
    <ele>479.26</ele>
   </trkpt>
   <trkpt lat="-37.86263" lon="145.35319">
    <ele>477.21000000000004</ele>
   </trkpt>
   <trkpt lat="-37.86256" lon="145.353">
    <ele>474.59</ele>
   </trkpt>
   <trkpt lat="-37.86253" lon="145.35281">
    <ele>474.59</ele>
   </trkpt>
   <trkpt lat="-37.862460000000006" lon="145.35279">
    <ele>474.18000000000006</ele>
   </trkpt>
   <trkpt lat="-37.8624" lon="145.35274">
    <ele>473.66</ele>
   </trkpt>
   <trkpt lat="-37.862190000000005" lon="145.3522">
    <ele>470.6</ele>
   </trkpt>
   <trkpt lat="-37.86218" lon="145.35177000000002">
    <ele>467.79</ele>
   </trkpt>
   <trkpt lat="-37.8622" lon="145.3514">
    <ele>464.35</ele>
   </trkpt>
   <trkpt lat="-37.86256" lon="145.35098000000002">
    <ele>459.03000000000003</ele>
   </trkpt>
   <trkpt lat="-37.86258" lon="145.35084">
    <ele>456.49000000000007</ele>
   </trkpt>
   <trkpt lat="-37.86285" lon="145.35058">
    <ele>450.98</ele>
   </trkpt>
   <trkpt lat="-37.863150000000005" lon="145.34997">
    <ele>444.20000000000005</ele>
   </trkpt>
   <trkpt lat="-37.86318" lon="145.3494">
    <ele>438.87</ele>
   </trkpt>
   <trkpt lat="-37.86316" lon="145.34895">
    <ele>433.48</ele>
   </trkpt>
   <trkpt lat="-37.86316" lon="145.34836">
    <ele>426.26</ele>
   </trkpt>
   <trkpt lat="-37.86312" lon="145.34826">
    <ele>425.83000000000004</ele>
   </trkpt>
   <trkpt lat="-37.86296" lon="145.34810000000002">
    <ele>422.73</ele>
   </trkpt>
   <trkpt lat="-37.86256" lon="145.34787">
    <ele>419.86</ele>
   </trkpt>
   <trkpt lat="-37.86245" lon="145.34777000000003">
    <ele>417.93</ele>
   </trkpt>
   <trkpt lat="-37.8622" lon="145.34749000000002">
    <ele>413.91</ele>
   </trkpt>
   <trkpt lat="-37.86206" lon="145.34726">
    <ele>408.93</ele>
   </trkpt>
   <trkpt lat="-37.86202" lon="145.34712000000002">
    <ele>408.93</ele>
   </trkpt>
   <trkpt lat="-37.86193" lon="145.34642000000002">
    <ele>401.4200000000001</ele>
   </trkpt>
   <trkpt lat="-37.86209" lon="145.34566">
    <ele>395.20000000000005</ele>
   </trkpt>
   <trkpt lat="-37.86213" lon="145.34550000000002">
    <ele>394.84000000000003</ele>
   </trkpt>
   <trkpt lat="-37.86238" lon="145.34501">
    <ele>390.94</ele>
   </trkpt>
   <trkpt lat="-37.86253" lon="145.34477">
    <ele>388.36</ele>
   </trkpt>
   <trkpt lat="-37.862840000000006" lon="145.3444">
    <ele>381.71000000000004</ele>
   </trkpt>
   <trkpt lat="-37.86305" lon="145.34406">
    <ele>380.12</ele>
   </trkpt>
   <trkpt lat="-37.86307" lon="145.34395">
    <ele>379.63</ele>
   </trkpt>
   <trkpt lat="-37.863020000000006" lon="145.34386">
    <ele>379.44000000000005</ele>
   </trkpt>
   <trkpt lat="-37.863040000000005" lon="145.34388">
    <ele>379.44000000000005</ele>
   </trkpt>
   <trkpt lat="-37.86296" lon="145.34383000000003">
    <ele>379.04</ele>
   </trkpt>
   <trkpt lat="-37.86231" lon="145.34352">
    <ele>375.03000000000003</ele>
   </trkpt>
   <trkpt lat="-37.86229" lon="145.34367">
    <ele>372.51</ele>
   </trkpt>
   <trkpt lat="-37.86211" lon="145.34383000000003">
    <ele>364.46</ele>
   </trkpt>
   <trkpt lat="-37.86204" lon="145.34386">
    <ele>363.33000000000004</ele>
   </trkpt>
   <trkpt lat="-37.862" lon="145.34399000000002">
    <ele>360.34000000000003</ele>
   </trkpt>
   <trkpt lat="-37.86195" lon="145.34400000000002">
    <ele>358.76</ele>
   </trkpt>
   <trkpt lat="-37.86189" lon="145.34416000000002">
    <ele>357.51000000000005</ele>
   </trkpt>
   <trkpt lat="-37.86168" lon="145.34411">
    <ele>353.51000000000005</ele>
   </trkpt>
   <trkpt lat="-37.8612000006555" lon="145.34450500257603">
    <ele>348.81</ele>
   </trkpt>
   <trkpt lat="-37.86072" lon="145.34490000000002">
    <ele>343.24000000000007</ele>
   </trkpt>
   <trkpt lat="-37.860400000000006" lon="145.3451">
    <ele>339.33000000000004</ele>
   </trkpt>
   <trkpt lat="-37.859930000000006" lon="145.34519">
    <ele>344.21000000000004</ele>
   </trkpt>
   <trkpt lat="-37.85994" lon="145.34545">
    <ele>350.84000000000003</ele>
   </trkpt>
   <trkpt lat="-37.86012" lon="145.34572">
    <ele>355.44000000000005</ele>
   </trkpt>
   <trkpt lat="-37.86021" lon="145.34592">
    <ele>357.14</ele>
   </trkpt>
   <trkpt lat="-37.86027" lon="145.3463">
    <ele>359.82</ele>
   </trkpt>
   <trkpt lat="-37.8603" lon="145.34677000000002">
    <ele>364.85</ele>
   </trkpt>
   <trkpt lat="-37.86027" lon="145.34776000000002">
    <ele>369.75</ele>
   </trkpt>
   <trkpt lat="-37.859500000000004" lon="145.34782">
    <ele>362.21000000000004</ele>
   </trkpt>
   <trkpt lat="-37.85942" lon="145.34772">
    <ele>354.40000000000003</ele>
   </trkpt>
   <trkpt lat="-37.859370000000006" lon="145.34754">
    <ele>346.98</ele>
   </trkpt>
   <trkpt lat="-37.85931" lon="145.34758000000002">
    <ele>347.67</ele>
   </trkpt>
   <trkpt lat="-37.85918" lon="145.3476">
    <ele>349.15000000000003</ele>
   </trkpt>
   <trkpt lat="-37.8586" lon="145.34761">
    <ele>352.95000000000005</ele>
   </trkpt>
   <trkpt lat="-37.85853" lon="145.34743">
    <ele>351.53000000000003</ele>
   </trkpt>
   <trkpt lat="-37.85833" lon="145.34718">
    <ele>346.99</ele>
   </trkpt>
   <trkpt lat="-37.85806" lon="145.34698">
    <ele>343.51000000000005</ele>
   </trkpt>
   <trkpt lat="-37.85797" lon="145.34686000000002">
    <ele>342.36000000000007</ele>
   </trkpt>
   <trkpt lat="-37.85783" lon="145.34678000000002">
    <ele>341.5</ele>
   </trkpt>
   <trkpt lat="-37.8575" lon="145.34649000000002">
    <ele>335.26</ele>
   </trkpt>
   <trkpt lat="-37.8573" lon="145.34642000000002">
    <ele>334.02000000000004</ele>
   </trkpt>
   <trkpt lat="-37.85703" lon="145.34640000000002">
    <ele>332.08000000000004</ele>
   </trkpt>
   <trkpt lat="-37.85663" lon="145.34618">
    <ele>337.35</ele>
   </trkpt>
   <trkpt lat="-37.85622" lon="145.34578000000002">
    <ele>345.09</ele>
   </trkpt>
   <trkpt lat="-37.85609" lon="145.34559000000002">
    <ele>347.46000000000004</ele>
   </trkpt>
   <trkpt lat="-37.85593" lon="145.34545">
    <ele>351.65000000000003</ele>
   </trkpt>
   <trkpt lat="-37.85553" lon="145.34492">
    <ele>355.18000000000006</ele>
   </trkpt>
   <trkpt lat="-37.85544" lon="145.34475">
    <ele>355.57000000000005</ele>
   </trkpt>
   <trkpt lat="-37.85528" lon="145.34457">
    <ele>357.03000000000003</ele>
   </trkpt>
   <trkpt lat="-37.85515" lon="145.34415">
    <ele>356.78000000000003</ele>
   </trkpt>
   <trkpt lat="-37.8551" lon="145.34404">
    <ele>356.18000000000006</ele>
   </trkpt>
   <trkpt lat="-37.855050000000006" lon="145.34368">
    <ele>353.44</ele>
   </trkpt>
   <trkpt lat="-37.85492" lon="145.34354000000002">
    <ele>349.99</ele>
   </trkpt>
   <trkpt lat="-37.8549" lon="145.34348">
    <ele>349.32</ele>
   </trkpt>
   <trkpt lat="-37.85488" lon="145.34337000000002">
    <ele>348.04</ele>
   </trkpt>
   <trkpt lat="-37.85492" lon="145.34293000000002">
    <ele>342.24</ele>
   </trkpt>
   <trkpt lat="-37.85474" lon="145.3426">
    <ele>335.40000000000003</ele>
   </trkpt>
   <trkpt lat="-37.85472" lon="145.34233">
    <ele>332.57000000000005</ele>
   </trkpt>
   <trkpt lat="-37.85468" lon="145.34225">
    <ele>329.88</ele>
   </trkpt>
   <trkpt lat="-37.85448" lon="145.34206">
    <ele>320.85</ele>
   </trkpt>
   <trkpt lat="-37.85419" lon="145.34158000000002">
    <ele>310.52000000000004</ele>
   </trkpt>
   <trkpt lat="-37.85387" lon="145.34123000000002">
    <ele>313.75</ele>
   </trkpt>
   <trkpt lat="-37.85374" lon="145.34099">
    <ele>314.08000000000004</ele>
   </trkpt>
   <trkpt lat="-37.85365" lon="145.34067000000002">
    <ele>310.38000000000005</ele>
   </trkpt>
   <trkpt lat="-37.85358" lon="145.33991">
    <ele>301.83000000000004</ele>
   </trkpt>
   <trkpt lat="-37.853460000000005" lon="145.33943000000002">
    <ele>300.86</ele>
   </trkpt>
   <trkpt lat="-37.8534" lon="145.33894">
    <ele>297.81</ele>
   </trkpt>
   <trkpt lat="-37.85333" lon="145.33871000000002">
    <ele>296.08</ele>
   </trkpt>
   <trkpt lat="-37.85333" lon="145.33833">
    <ele>291.36</ele>
   </trkpt>
   <trkpt lat="-37.85327" lon="145.33823">
    <ele>290.74</ele>
   </trkpt>
   <trkpt lat="-37.85313" lon="145.33813">
    <ele>292.43</ele>
   </trkpt>
   <trkpt lat="-37.85304" lon="145.33812">
    <ele>294.63</ele>
   </trkpt>
   <trkpt lat="-37.85293" lon="145.33818000000002">
    <ele>297.45000000000005</ele>
   </trkpt>
   <trkpt lat="-37.85242" lon="145.33856">
    <ele>317.27000000000004</ele>
   </trkpt>
   <trkpt lat="-37.85233" lon="145.33851">
    <ele>319.08000000000004</ele>
   </trkpt>
   <trkpt lat="-37.85215" lon="145.33823">
    <ele>320.92</ele>
   </trkpt>
   <trkpt lat="-37.85206" lon="145.33798000000002">
    <ele>320.68</ele>
   </trkpt>
   <trkpt lat="-37.8519" lon="145.33773000000002">
    <ele>320.95</ele>
   </trkpt>
   <trkpt lat="-37.85177" lon="145.33761">
    <ele>320.84000000000003</ele>
   </trkpt>
   <trkpt lat="-37.85172" lon="145.33751">
    <ele>320.63</ele>
   </trkpt>
   <trkpt lat="-37.85168" lon="145.33735000000001">
    <ele>319.63</ele>
   </trkpt>
   <trkpt lat="-37.85139" lon="145.33696">
    <ele>318.19</ele>
   </trkpt>
   <trkpt lat="-37.85116" lon="145.33651">
    <ele>314.15000000000003</ele>
   </trkpt>
   <trkpt lat="-37.851060000000004" lon="145.33639000000002">
    <ele>313.56</ele>
   </trkpt>
   <trkpt lat="-37.85096" lon="145.33634">
    <ele>313.71000000000004</ele>
   </trkpt>
   <trkpt lat="-37.85085" lon="145.33637000000002">
    <ele>313.65000000000003</ele>
   </trkpt>
   <trkpt lat="-37.85074" lon="145.33634">
    <ele>313.45</ele>
   </trkpt>
   <trkpt lat="-37.85103" lon="145.33685">
    <ele>318.92</ele>
   </trkpt>
   <trkpt lat="-37.851110000000006" lon="145.33723">
    <ele>321.82000000000005</ele>
   </trkpt>
   <trkpt lat="-37.85105" lon="145.33794">
    <ele>332.9800000000001</ele>
   </trkpt>
   <trkpt lat="-37.85112" lon="145.33867">
    <ele>344.81</ele>
   </trkpt>
   <trkpt lat="-37.85112" lon="145.33899000000002">
    <ele>348.14</ele>
   </trkpt>
   <trkpt lat="-37.85121" lon="145.33961000000002">
    <ele>358.32</ele>
   </trkpt>
   <trkpt lat="-37.8513" lon="145.34011">
    <ele>363.24</ele>
   </trkpt>
   <trkpt lat="-37.85132" lon="145.34087000000002">
    <ele>371.55</ele>
   </trkpt>
   <trkpt lat="-37.85143" lon="145.34191">
    <ele>382.76000000000005</ele>
   </trkpt>
   <trkpt lat="-37.85143" lon="145.34219000000002">
    <ele>385.28000000000003</ele>
   </trkpt>
   <trkpt lat="-37.8515" lon="145.34263">
    <ele>394.02000000000004</ele>
   </trkpt>
   <trkpt lat="-37.85154" lon="145.34304">
    <ele>400.3</ele>
   </trkpt>
   <trkpt lat="-37.8519" lon="145.34376">
    <ele>415.76</ele>
   </trkpt>
   <trkpt lat="-37.8519" lon="145.34390000000002">
    <ele>411.1</ele>
   </trkpt>
   <trkpt lat="-37.85197" lon="145.34400000000002">
    <ele>413.15000000000003</ele>
   </trkpt>
   <trkpt lat="-37.85199" lon="145.34417000000002">
    <ele>417.7</ele>
   </trkpt>
   <trkpt lat="-37.85197" lon="145.34435000000002">
    <ele>422.11</ele>
   </trkpt>
   <trkpt lat="-37.85201" lon="145.34452000000002">
    <ele>423.16</ele>
   </trkpt>
   <trkpt lat="-37.85215" lon="145.34484">
    <ele>430.24</ele>
   </trkpt>
   <trkpt lat="-37.85222" lon="145.34492">
    <ele>432.81</ele>
   </trkpt>
   <trkpt lat="-37.85237" lon="145.34506000000002">
    <ele>435.29</ele>
   </trkpt>
   <trkpt lat="-37.85251" lon="145.34527">
    <ele>437.2300000000001</ele>
   </trkpt>
   <trkpt lat="-37.85282" lon="145.34555">
    <ele>437.92</ele>
   </trkpt>
   <trkpt lat="-37.85293" lon="145.34572">
    <ele>437.3</ele>
   </trkpt>
   <trkpt lat="-37.85295" lon="145.3459">
    <ele>436.84000000000003</ele>
   </trkpt>
   <trkpt lat="-37.85302" lon="145.34598000000003">
    <ele>436.84000000000003</ele>
   </trkpt>
   <trkpt lat="-37.853170000000006" lon="145.34639">
    <ele>433.34000000000003</ele>
   </trkpt>
   <trkpt lat="-37.85324" lon="145.34681">
    <ele>432.06000000000006</ele>
   </trkpt>
   <trkpt lat="-37.85347" lon="145.34726">
    <ele>431.28000000000003</ele>
   </trkpt>
   <trkpt lat="-37.85351" lon="145.34748000000002">
    <ele>431.28000000000003</ele>
   </trkpt>
   <trkpt lat="-37.85347" lon="145.34764">
    <ele>431.41</ele>
   </trkpt>
   <trkpt lat="-37.85349" lon="145.34832">
    <ele>435.94000000000005</ele>
   </trkpt>
   <trkpt lat="-37.85347" lon="145.34849">
    <ele>436.39000000000004</ele>
   </trkpt>
   <trkpt lat="-37.85349" lon="145.34869">
    <ele>446.11000000000007</ele>
   </trkpt>
   <trkpt lat="-37.85369" lon="145.34913">
    <ele>449.42</ele>
   </trkpt>
   <trkpt lat="-37.85378" lon="145.34931">
    <ele>453.05000000000007</ele>
   </trkpt>
   <trkpt lat="-37.85419" lon="145.34983000000003">
    <ele>460.13000000000005</ele>
   </trkpt>
   <trkpt lat="-37.85468" lon="145.35037">
    <ele>471.52000000000004</ele>
   </trkpt>
   <trkpt lat="-37.85507500138615" lon="145.35092499714384">
    <ele>482.03000000000003</ele>
   </trkpt>
   <trkpt lat="-37.855470000000004" lon="145.35148">
    <ele>490.8500000000001</ele>
   </trkpt>
   <trkpt lat="-37.85528" lon="145.35168000000002">
    <ele>488.09000000000003</ele>
   </trkpt>
   <trkpt lat="-37.85526" lon="145.35179000000002">
    <ele>486.76</ele>
   </trkpt>
   <trkpt lat="-37.85521" lon="145.35193">
    <ele>485.47</ele>
   </trkpt>
   <trkpt lat="-37.855140000000006" lon="145.35198000000003">
    <ele>483.72</ele>
   </trkpt>
   <trkpt lat="-37.85486" lon="145.3523">
    <ele>475.04</ele>
   </trkpt>
   <trkpt lat="-37.85472" lon="145.3527">
    <ele>469.0</ele>
   </trkpt>
   <trkpt lat="-37.85466" lon="145.35276000000002">
    <ele>465.6</ele>
   </trkpt>
   <trkpt lat="-37.85461" lon="145.35294000000002">
    <ele>464.01000000000005</ele>
   </trkpt>
   <trkpt lat="-37.85461" lon="145.35309">
    <ele>462.63000000000005</ele>
   </trkpt>
   <trkpt lat="-37.854580000000006" lon="145.35319">
    <ele>460.79</ele>
   </trkpt>
   <trkpt lat="-37.85452" lon="145.35320000000002">
    <ele>460.15000000000003</ele>
   </trkpt>
   <trkpt lat="-37.85439" lon="145.35299">
    <ele>455.67</ele>
   </trkpt>
   <trkpt lat="-37.854350000000004" lon="145.35299">
    <ele>455.67</ele>
   </trkpt>
   <trkpt lat="-37.854110000000006" lon="145.35328">
    <ele>452.83</ele>
   </trkpt>
   <trkpt lat="-37.85396" lon="145.35339000000002">
    <ele>449.74</ele>
   </trkpt>
   <trkpt lat="-37.85342" lon="145.35415">
    <ele>443.70000000000005</ele>
   </trkpt>
   <trkpt lat="-37.85331" lon="145.35443">
    <ele>440.53000000000003</ele>
   </trkpt>
   <trkpt lat="-37.853" lon="145.35505">
    <ele>439.75</ele>
   </trkpt>
   <trkpt lat="-37.85298" lon="145.3556">
    <ele>442.68</ele>
   </trkpt>
   <trkpt lat="-37.85289" lon="145.35602">
    <ele>444.04</ele>
   </trkpt>
   <trkpt lat="-37.85284" lon="145.3561">
    <ele>444.07</ele>
   </trkpt>
   <trkpt lat="-37.8526" lon="145.35617000000002">
    <ele>438.65000000000003</ele>
   </trkpt>
   <trkpt lat="-37.85195" lon="145.35605">
    <ele>422.21000000000004</ele>
   </trkpt>
   <trkpt lat="-37.85147999996115" lon="145.35608500022641">
    <ele>416.58000000000004</ele>
   </trkpt>
   <trkpt lat="-37.85101" lon="145.35612">
    <ele>417.00000000000006</ele>
   </trkpt>
   <trkpt lat="-37.85083" lon="145.35617000000002">
    <ele>417.85</ele>
   </trkpt>
   <trkpt lat="-37.85054" lon="145.35639">
    <ele>417.69000000000005</ele>
   </trkpt>
   <trkpt lat="-37.85009" lon="145.35676">
    <ele>414.13000000000005</ele>
   </trkpt>
   <trkpt lat="-37.84998" lon="145.35682">
    <ele>414.97</ele>
   </trkpt>
   <trkpt lat="-37.849700000000006" lon="145.35709">
    <ele>422.18000000000006</ele>
   </trkpt>
   <trkpt lat="-37.84951" lon="145.35711">
    <ele>426.52</ele>
   </trkpt>
   <trkpt lat="-37.84895" lon="145.35702">
    <ele>435.37</ele>
   </trkpt>
   <trkpt lat="-37.84886" lon="145.35699000000002">
    <ele>438.26000000000005</ele>
   </trkpt>
   <trkpt lat="-37.848780000000005" lon="145.35692">
    <ele>439.82000000000005</ele>
   </trkpt>
   <trkpt lat="-37.84872" lon="145.35680000000002">
    <ele>441.00000000000006</ele>
   </trkpt>
   <trkpt lat="-37.8487" lon="145.35663000000002">
    <ele>441.71000000000004</ele>
   </trkpt>
   <trkpt lat="-37.84866" lon="145.35649">
    <ele>442.42</ele>
   </trkpt>
   <trkpt lat="-37.84859" lon="145.35638">
    <ele>442.83000000000004</ele>
   </trkpt>
   <trkpt lat="-37.84821" lon="145.35601">
    <ele>445.65000000000003</ele>
   </trkpt>
   <trkpt lat="-37.84814" lon="145.35590000000002">
    <ele>445.03000000000003</ele>
   </trkpt>
   <trkpt lat="-37.84812" lon="145.35582000000002">
    <ele>444.22</ele>
   </trkpt>
   <trkpt lat="-37.84814" lon="145.3557">
    <ele>443.68</ele>
   </trkpt>
   <trkpt lat="-37.84839" lon="145.35525">
    <ele>446.49000000000007</ele>
   </trkpt>
   <trkpt lat="-37.84852" lon="145.35456000000002">
    <ele>451.61</ele>
   </trkpt>
   <trkpt lat="-37.84863" lon="145.35433">
    <ele>450.94000000000005</ele>
   </trkpt>
   <trkpt lat="-37.84881" lon="145.35385000000002">
    <ele>446.8</ele>
   </trkpt>
   <trkpt lat="-37.84884" lon="145.35374000000002">
    <ele>446.8</ele>
   </trkpt>
   <trkpt lat="-37.84877" lon="145.35304000000002">
    <ele>441.6700000000001</ele>
   </trkpt>
   <trkpt lat="-37.848670000000006" lon="145.35243">
    <ele>436.43</ele>
   </trkpt>
   <trkpt lat="-37.8485" lon="145.35187000000002">
    <ele>430.43</ele>
   </trkpt>
   <trkpt lat="-37.84819" lon="145.35123000000002">
    <ele>425.3</ele>
   </trkpt>
   <trkpt lat="-37.84792" lon="145.35086">
    <ele>421.96000000000004</ele>
   </trkpt>
   <trkpt lat="-37.847930000000005" lon="145.35087000000001">
    <ele>421.96000000000004</ele>
   </trkpt>
   <trkpt lat="-37.84767" lon="145.35063000000002">
    <ele>421.27000000000004</ele>
   </trkpt>
   <trkpt lat="-37.8472" lon="145.35029">
    <ele>417.59000000000003</ele>
   </trkpt>
   <trkpt lat="-37.84695" lon="145.35014">
    <ele>415.78000000000003</ele>
   </trkpt>
   <trkpt lat="-37.84678" lon="145.35007000000002">
    <ele>415.93</ele>
   </trkpt>
   <trkpt lat="-37.84653" lon="145.35004">
    <ele>417.00000000000006</ele>
   </trkpt>
   <trkpt lat="-37.845980000089995" lon="145.35005500010948">
    <ele>422.50000000000006</ele>
   </trkpt>
   <trkpt lat="-37.84543" lon="145.35007000000002">
    <ele>423.99</ele>
   </trkpt>
   <trkpt lat="-37.844934999841115" lon="145.35014000049526">
    <ele>427.94000000000005</ele>
   </trkpt>
   <trkpt lat="-37.844440000000006" lon="145.35021">
    <ele>432.51000000000005</ele>
   </trkpt>
   <trkpt lat="-37.84409" lon="145.35022">
    <ele>434.63</ele>
   </trkpt>
   <trkpt lat="-37.84355" lon="145.35018000000002">
    <ele>438.11000000000007</ele>
   </trkpt>
   <trkpt lat="-37.84306" lon="145.35005">
    <ele>440.13</ele>
   </trkpt>
   <trkpt lat="-37.84262500001824" lon="145.3498699988892">
    <ele>443.45</ele>
   </trkpt>
   <trkpt lat="-37.84219" lon="145.34969">
    <ele>447.05000000000007</ele>
   </trkpt>
   <trkpt lat="-37.84196" lon="145.34958">
    <ele>449.43000000000006</ele>
   </trkpt>
   <trkpt lat="-37.84179" lon="145.34944000000002">
    <ele>450.0</ele>
   </trkpt>
   <trkpt lat="-37.84176" lon="145.34928000000002">
    <ele>445.91</ele>
   </trkpt>
   <trkpt lat="-37.841860000000004" lon="145.34887">
    <ele>439.26000000000005</ele>
   </trkpt>
   <trkpt lat="-37.842000000000006" lon="145.34844">
    <ele>440.54</ele>
   </trkpt>
   <trkpt lat="-37.84221" lon="145.34804000000003">
    <ele>442.63</ele>
   </trkpt>
   <trkpt lat="-37.8423" lon="145.34775000000002">
    <ele>444.12</ele>
   </trkpt>
   <trkpt lat="-37.84232" lon="145.34731000000002">
    <ele>446.63</ele>
   </trkpt>
   <trkpt lat="-37.84228" lon="145.347">
    <ele>448.18</ele>
   </trkpt>
   <trkpt lat="-37.84228" lon="145.3468">
    <ele>448.76000000000005</ele>
   </trkpt>
   <trkpt lat="-37.8423" lon="145.34661">
    <ele>449.99000000000007</ele>
   </trkpt>
   <trkpt lat="-37.84239" lon="145.34612">
    <ele>451.70000000000005</ele>
   </trkpt>
   <trkpt lat="-37.84241" lon="145.34594">
    <ele>452.20000000000005</ele>
   </trkpt>
   <trkpt lat="-37.84239" lon="145.34554">
    <ele>454.41</ele>
   </trkpt>
   <trkpt lat="-37.8423" lon="145.34518">
    <ele>455.11</ele>
   </trkpt>
   <trkpt lat="-37.84221" lon="145.34492">
    <ele>455.8</ele>
   </trkpt>
   <trkpt lat="-37.842040000000004" lon="145.34463000000002">
    <ele>456.26000000000005</ele>
   </trkpt>
   <trkpt lat="-37.84183" lon="145.34441">
    <ele>457.19000000000005</ele>
   </trkpt>
   <trkpt lat="-37.841620000000006" lon="145.34425000000002">
    <ele>457.81000000000006</ele>
   </trkpt>
   <trkpt lat="-37.84163" lon="145.34426000000002">
    <ele>457.81000000000006</ele>
   </trkpt>
   <trkpt lat="-37.84125" lon="145.34408000000002">
    <ele>460.75000000000006</ele>
   </trkpt>
   <trkpt lat="-37.84091" lon="145.34394">
    <ele>463.06</ele>
   </trkpt>
   <trkpt lat="-37.84057" lon="145.34386">
    <ele>464.9200000000001</ele>
   </trkpt>
   <trkpt lat="-37.84024" lon="145.34384">
    <ele>468.66</ele>
   </trkpt>
   <trkpt lat="-37.83966" lon="145.34384">
    <ele>468.5</ele>
   </trkpt>
   <trkpt lat="-37.8391" lon="145.34374000000003">
    <ele>470.25000000000006</ele>
   </trkpt>
   <trkpt lat="-37.83874" lon="145.34358">
    <ele>473.70000000000005</ele>
   </trkpt>
   <trkpt lat="-37.83854" lon="145.34353000000002">
    <ele>474.46000000000004</ele>
   </trkpt>
   <trkpt lat="-37.8384" lon="145.34348">
    <ele>474.40000000000003</ele>
   </trkpt>
   <trkpt lat="-37.83818" lon="145.34336000000002">
    <ele>472.24000000000007</ele>
   </trkpt>
   <trkpt lat="-37.83807" lon="145.34326000000001">
    <ele>470.30000000000007</ele>
   </trkpt>
   <trkpt lat="-37.83789" lon="145.34306">
    <ele>466.36000000000007</ele>
   </trkpt>
   <trkpt lat="-37.8376" lon="145.34282000000002">
    <ele>462.6</ele>
   </trkpt>
   <trkpt lat="-37.83746" lon="145.34274000000002">
    <ele>459.71000000000004</ele>
   </trkpt>
   <trkpt lat="-37.83713" lon="145.34259">
    <ele>454.08000000000004</ele>
   </trkpt>
   <trkpt lat="-37.83682" lon="145.34251">
    <ele>450.73</ele>
   </trkpt>
   <trkpt lat="-37.83677" lon="145.34259">
    <ele>450.33000000000004</ele>
   </trkpt>
   <trkpt lat="-37.83666" lon="145.34268">
    <ele>449.31000000000006</ele>
   </trkpt>
   <trkpt lat="-37.83659" lon="145.34271">
    <ele>448.82000000000005</ele>
   </trkpt>
   <trkpt lat="-37.83601" lon="145.3428">
    <ele>445.40000000000003</ele>
   </trkpt>
   <trkpt lat="-37.8354" lon="145.34276">
    <ele>436.62</ele>
   </trkpt>
   <trkpt lat="-37.83509" lon="145.34275000000002">
    <ele>432.96</ele>
   </trkpt>
   <trkpt lat="-37.835" lon="145.34276">
    <ele>431.76000000000005</ele>
   </trkpt>
   <trkpt lat="-37.83471" lon="145.34282000000002">
    <ele>426.81</ele>
   </trkpt>
   <trkpt lat="-37.83449" lon="145.34293000000002">
    <ele>424.26</ele>
   </trkpt>
   <trkpt lat="-37.83428" lon="145.34307">
    <ele>421.42</ele>
   </trkpt>
   <trkpt lat="-37.83408" lon="145.34327000000002">
    <ele>419.90000000000003</ele>
   </trkpt>
   <trkpt lat="-37.8339" lon="145.34354000000002">
    <ele>417.52000000000004</ele>
   </trkpt>
   <trkpt lat="-37.83381" lon="145.34364000000002">
    <ele>416.53000000000003</ele>
   </trkpt>
   <trkpt lat="-37.83375" lon="145.34368">
    <ele>415.96000000000004</ele>
   </trkpt>
   <trkpt lat="-37.8335" lon="145.34375">
    <ele>412.38</ele>
   </trkpt>
   <trkpt lat="-37.83334" lon="145.34378">
    <ele>410.30000000000007</ele>
   </trkpt>
   <trkpt lat="-37.833180000000006" lon="145.34378">
    <ele>407.28000000000003</ele>
   </trkpt>
   <trkpt lat="-37.83272" lon="145.3436">
    <ele>393.35</ele>
   </trkpt>
   <trkpt lat="-37.83258" lon="145.34358">
    <ele>389.99000000000007</ele>
   </trkpt>
   <trkpt lat="-37.832240000000006" lon="145.34348">
    <ele>377.22</ele>
   </trkpt>
   <trkpt lat="-37.832" lon="145.34346000000002">
    <ele>373.26000000000005</ele>
   </trkpt>
   <trkpt lat="-37.83173" lon="145.34355000000002">
    <ele>364.9</ele>
   </trkpt>
   <trkpt lat="-37.83164" lon="145.34323">
    <ele>351.43</ele>
   </trkpt>
   <trkpt lat="-37.83169" lon="145.34243">
    <ele>336.67</ele>
   </trkpt>
   <trkpt lat="-37.83164" lon="145.34225">
    <ele>333.31000000000006</ele>
   </trkpt>
   <trkpt lat="-37.83153" lon="145.3424">
    <ele>333.63000000000005</ele>
   </trkpt>
   <trkpt lat="-37.83144" lon="145.34259">
    <ele>334.82</ele>
   </trkpt>
   <trkpt lat="-37.83124" lon="145.34334">
    <ele>335.1</ele>
   </trkpt>
   <trkpt lat="-37.83113" lon="145.34359">
    <ele>336.1</ele>
   </trkpt>
   <trkpt lat="-37.83095" lon="145.34385">
    <ele>335.96000000000004</ele>
   </trkpt>
   <trkpt lat="-37.83034" lon="145.34411">
    <ele>337.69000000000005</ele>
   </trkpt>
   <trkpt lat="-37.829930000000004" lon="145.34408000000002">
    <ele>329.49</ele>
   </trkpt>
   <trkpt lat="-37.82963" lon="145.34352">
    <ele>317.49000000000007</ele>
   </trkpt>
   <trkpt lat="-37.82952" lon="145.34314">
    <ele>309.75</ele>
   </trkpt>
   <trkpt lat="-37.82943" lon="145.34233">
    <ele>292.92</ele>
   </trkpt>
   <trkpt lat="-37.82923" lon="145.34232">
    <ele>292.39000000000004</ele>
   </trkpt>
   <trkpt lat="-37.829240000000006" lon="145.34232">
    <ele>292.39000000000004</ele>
   </trkpt>
   <trkpt lat="-37.828950000000006" lon="145.34237000000002">
    <ele>292.36</ele>
   </trkpt>
   <trkpt lat="-37.82878" lon="145.34246000000002">
    <ele>292.32</ele>
   </trkpt>
   <trkpt lat="-37.82831" lon="145.34295">
    <ele>291.26</ele>
   </trkpt>
   <trkpt lat="-37.82782" lon="145.34341">
    <ele>292.83000000000004</ele>
   </trkpt>
   <trkpt lat="-37.82755" lon="145.34356000000002">
    <ele>294.00000000000006</ele>
   </trkpt>
   <trkpt lat="-37.8273" lon="145.34364000000002">
    <ele>296.13</ele>
   </trkpt>
   <trkpt lat="-37.82705" lon="145.34382000000002">
    <ele>298.85</ele>
   </trkpt>
   <trkpt lat="-37.82692" lon="145.34395">
    <ele>300.09000000000003</ele>
   </trkpt>
   <trkpt lat="-37.82681" lon="145.34403">
    <ele>301.54</ele>
   </trkpt>
   <trkpt lat="-37.82638" lon="145.34404">
    <ele>303.26000000000005</ele>
   </trkpt>
   <trkpt lat="-37.82607" lon="145.34413">
    <ele>304.51</ele>
   </trkpt>
   <trkpt lat="-37.82573" lon="145.34427000000002">
    <ele>305.51</ele>
   </trkpt>
   <trkpt lat="-37.82555" lon="145.34439">
    <ele>306.4</ele>
   </trkpt>
   <trkpt lat="-37.82538" lon="145.34456">
    <ele>306.98</ele>
   </trkpt>
   <trkpt lat="-37.82488" lon="145.34525000000002">
    <ele>306.06</ele>
   </trkpt>
   <trkpt lat="-37.82446" lon="145.34535000000002">
    <ele>308.81</ele>
   </trkpt>
   <trkpt lat="-37.82428" lon="145.34546">
    <ele>311.97</ele>
   </trkpt>
   <trkpt lat="-37.82408" lon="145.34560000000002">
    <ele>314.24</ele>
   </trkpt>
   <trkpt lat="-37.82381" lon="145.34588000000002">
    <ele>317.86</ele>
   </trkpt>
   <trkpt lat="-37.823380000385534" lon="145.34611500128605">
    <ele>319.43000000000006</ele>
   </trkpt>
   <trkpt lat="-37.822950000000006" lon="145.34635">
    <ele>319.25</ele>
   </trkpt>
   <trkpt lat="-37.822770000000006" lon="145.34649000000002">
    <ele>320.83</ele>
   </trkpt>
   <trkpt lat="-37.82267" lon="145.34663">
    <ele>322.64000000000004</ele>
   </trkpt>
   <trkpt lat="-37.8226" lon="145.34677000000002">
    <ele>325.3</ele>
   </trkpt>
   <trkpt lat="-37.82253" lon="145.34703000000002">
    <ele>327.84000000000003</ele>
   </trkpt>
   <trkpt lat="-37.82253" lon="145.34733">
    <ele>332.14000000000004</ele>
   </trkpt>
   <trkpt lat="-37.82255" lon="145.34759000000003">
    <ele>335.28000000000003</ele>
   </trkpt>
   <trkpt lat="-37.82253" lon="145.34774000000002">
    <ele>337.15</ele>
   </trkpt>
   <trkpt lat="-37.82244" lon="145.3478">
    <ele>337.96000000000004</ele>
   </trkpt>
   <trkpt lat="-37.82204" lon="145.3479">
    <ele>340.71</ele>
   </trkpt>
   <trkpt lat="-37.82166" lon="145.34824">
    <ele>346.45000000000005</ele>
   </trkpt>
   <trkpt lat="-37.82126" lon="145.34882000000002">
    <ele>354.85</ele>
   </trkpt>
   <trkpt lat="-37.821270000000005" lon="145.34881000000001">
    <ele>354.85</ele>
   </trkpt>
   <trkpt lat="-37.82108" lon="145.3493">
    <ele>358.71000000000004</ele>
   </trkpt>
   <trkpt lat="-37.82103" lon="145.34965000000003">
    <ele>367.14</ele>
   </trkpt>
   <trkpt lat="-37.82101" lon="145.35052000000002">
    <ele>376.68</ele>
   </trkpt>
   <trkpt lat="-37.82103" lon="145.35089000000002">
    <ele>379.66</ele>
   </trkpt>
   <trkpt lat="-37.820980000000006" lon="145.35155">
    <ele>381.58000000000004</ele>
   </trkpt>
   <trkpt lat="-37.82088" lon="145.35202">
    <ele>381.35</ele>
   </trkpt>
   <trkpt lat="-37.82052" lon="145.35284000000001">
    <ele>381.78</ele>
   </trkpt>
   <trkpt lat="-37.82047" lon="145.35311000000002">
    <ele>381.84000000000003</ele>
   </trkpt>
   <trkpt lat="-37.82047" lon="145.35327">
    <ele>382.13</ele>
   </trkpt>
   <trkpt lat="-37.82052" lon="145.35340000000002">
    <ele>382.17</ele>
   </trkpt>
   <trkpt lat="-37.82063" lon="145.35363">
    <ele>382.08000000000004</ele>
   </trkpt>
   <trkpt lat="-37.82101" lon="145.35419000000002">
    <ele>381.48</ele>
   </trkpt>
   <trkpt lat="-37.821450000000006" lon="145.35441">
    <ele>381.63</ele>
   </trkpt>
   <trkpt lat="-37.8215" lon="145.3545">
    <ele>381.66</ele>
   </trkpt>
   <trkpt lat="-37.82155" lon="145.35462">
    <ele>381.64000000000004</ele>
   </trkpt>
   <trkpt lat="-37.82159" lon="145.3548">
    <ele>381.6</ele>
   </trkpt>
   <trkpt lat="-37.82152" lon="145.35504">
    <ele>381.31</ele>
   </trkpt>
   <trkpt lat="-37.82123" lon="145.35564000000002">
    <ele>381.38000000000005</ele>
   </trkpt>
   <trkpt lat="-37.82101" lon="145.35605">
    <ele>381.29</ele>
   </trkpt>
   <trkpt lat="-37.82081" lon="145.35627000000002">
    <ele>381.35</ele>
   </trkpt>
   <trkpt lat="-37.82034" lon="145.35669000000001">
    <ele>382.35</ele>
   </trkpt>
   <trkpt lat="-37.82021" lon="145.35685">
    <ele>382.33000000000004</ele>
   </trkpt>
   <trkpt lat="-37.82014" lon="145.35699000000002">
    <ele>382.08000000000004</ele>
   </trkpt>
   <trkpt lat="-37.82009" lon="145.35717000000002">
    <ele>382.02000000000004</ele>
   </trkpt>
   <trkpt lat="-37.82007" lon="145.35739">
    <ele>382.11</ele>
   </trkpt>
   <trkpt lat="-37.82011" lon="145.35786000000002">
    <ele>381.99000000000007</ele>
   </trkpt>
   <trkpt lat="-37.82011" lon="145.35802">
    <ele>381.57</ele>
   </trkpt>
   <trkpt lat="-37.82005" lon="145.35831000000002">
    <ele>381.45</ele>
   </trkpt>
   <trkpt lat="-37.81978" lon="145.35862">
    <ele>381.78</ele>
   </trkpt>
   <trkpt lat="-37.81935500048139" lon="145.35900000230328">
    <ele>381.23</ele>
   </trkpt>
   <trkpt lat="-37.81893" lon="145.35938000000002">
    <ele>381.49000000000007</ele>
   </trkpt>
   <trkpt lat="-37.81866" lon="145.35975000000002">
    <ele>380.84000000000003</ele>
   </trkpt>
   <trkpt lat="-37.81864" lon="145.35987">
    <ele>380.44000000000005</ele>
   </trkpt>
   <trkpt lat="-37.81873" lon="145.35982">
    <ele>380.44000000000005</ele>
   </trkpt>
   <trkpt lat="-37.81895" lon="145.35959000000003">
    <ele>389.01</ele>
   </trkpt>
   <trkpt lat="-37.81929" lon="145.35952">
    <ele>393.23</ele>
   </trkpt>
   <trkpt lat="-37.81951" lon="145.35937">
    <ele>393.11</ele>
   </trkpt>
   <trkpt lat="-37.81987" lon="145.35896000000002">
    <ele>392.29</ele>
   </trkpt>
   <trkpt lat="-37.820330000000006" lon="145.35863">
    <ele>396.01000000000005</ele>
   </trkpt>
   <trkpt lat="-37.82043" lon="145.35848000000001">
    <ele>395.95</ele>
   </trkpt>
   <trkpt lat="-37.8205" lon="145.35833000000002">
    <ele>395.74</ele>
   </trkpt>
   <trkpt lat="-37.820420000000006" lon="145.35778000000002">
    <ele>395.38</ele>
   </trkpt>
   <trkpt lat="-37.82043" lon="145.35744000000003">
    <ele>395.24</ele>
   </trkpt>
   <trkpt lat="-37.82045" lon="145.3573">
    <ele>395.33</ele>
   </trkpt>
   <trkpt lat="-37.82085" lon="145.35671000000002">
    <ele>394.93000000000006</ele>
   </trkpt>
   <trkpt lat="-37.82099" lon="145.35655">
    <ele>395.55</ele>
   </trkpt>
   <trkpt lat="-37.82112" lon="145.35653000000002">
    <ele>396.31000000000006</ele>
   </trkpt>
   <trkpt lat="-37.82126" lon="145.35643000000002">
    <ele>398.32</ele>
   </trkpt>
   <trkpt lat="-37.821450000000006" lon="145.35625000000002">
    <ele>398.47</ele>
   </trkpt>
   <trkpt lat="-37.82164" lon="145.35581000000002">
    <ele>399.90000000000003</ele>
   </trkpt>
   <trkpt lat="-37.82202" lon="145.35513">
    <ele>397.8</ele>
   </trkpt>
   <trkpt lat="-37.82204" lon="145.35498">
    <ele>396.99</ele>
   </trkpt>
   <trkpt lat="-37.82204" lon="145.35479">
    <ele>396.45</ele>
   </trkpt>
   <trkpt lat="-37.82193" lon="145.3544">
    <ele>401.20000000000005</ele>
   </trkpt>
   <trkpt lat="-37.82164" lon="145.35381">
    <ele>409.94</ele>
   </trkpt>
   <trkpt lat="-37.82159" lon="145.35368000000003">
    <ele>409.94</ele>
   </trkpt>
   <trkpt lat="-37.82155" lon="145.35288">
    <ele>418.29</ele>
   </trkpt>
   <trkpt lat="-37.82159" lon="145.35263">
    <ele>420.76</ele>
   </trkpt>
   <trkpt lat="-37.82209" lon="145.35202">
    <ele>437.08000000000004</ele>
   </trkpt>
   <trkpt lat="-37.82234000081451" lon="145.3515450018735">
    <ele>444.81</ele>
   </trkpt>
   <trkpt lat="-37.822590000000005" lon="145.35107000000002">
    <ele>449.17</ele>
   </trkpt>
   <trkpt lat="-37.82276" lon="145.35129">
    <ele>459.46000000000004</ele>
   </trkpt>
   <trkpt lat="-37.822860000000006" lon="145.35153000000003">
    <ele>466.03000000000003</ele>
   </trkpt>
   <trkpt lat="-37.822950000000006" lon="145.35162000000003">
    <ele>471.24000000000007</ele>
   </trkpt>
   <trkpt lat="-37.82305" lon="145.35166">
    <ele>471.24000000000007</ele>
   </trkpt>
   <trkpt lat="-37.82323" lon="145.35186000000002">
    <ele>481.96000000000004</ele>
   </trkpt>
   <trkpt lat="-37.82336" lon="145.3521">
    <ele>490.49</ele>
   </trkpt>
   <trkpt lat="-37.82352" lon="145.35215000000002">
    <ele>498.57</ele>
   </trkpt>
   <trkpt lat="-37.82363" lon="145.35215000000002">
    <ele>501.83</ele>
   </trkpt>
   <trkpt lat="-37.82372" lon="145.35218">
    <ele>503.50000000000006</ele>
   </trkpt>
   <trkpt lat="-37.82383" lon="145.35227">
    <ele>510.65000000000003</ele>
   </trkpt>
   <trkpt lat="-37.82399" lon="145.35247">
    <ele>520.34</ele>
   </trkpt>
   <trkpt lat="-37.82439" lon="145.35239">
    <ele>537.2</ele>
   </trkpt>
   <trkpt lat="-37.82455" lon="145.35246">
    <ele>541.01</ele>
   </trkpt>
   <trkpt lat="-37.82475" lon="145.35263">
    <ele>554.94</ele>
   </trkpt>
   <trkpt lat="-37.82547" lon="145.35287000000002">
    <ele>587.43</ele>
   </trkpt>
   <trkpt lat="-37.82551" lon="145.35260000000002">
    <ele>586.7900000000001</ele>
   </trkpt>
   <trkpt lat="-37.82558" lon="145.35231000000002">
    <ele>586.08</ele>
   </trkpt>
   <trkpt lat="-37.82596" lon="145.35162000000003">
    <ele>583.13</ele>
   </trkpt>
   <trkpt lat="-37.82625" lon="145.35123000000002">
    <ele>580.2400000000001</ele>
   </trkpt>
   <trkpt lat="-37.82658" lon="145.35101">
    <ele>578.3000000000001</ele>
   </trkpt>
   <trkpt lat="-37.82701" lon="145.35084">
    <ele>579.01</ele>
   </trkpt>
   <trkpt lat="-37.82758000007891" lon="145.35072500088367">
    <ele>577.38</ele>
   </trkpt>
   <trkpt lat="-37.82815" lon="145.35061000000002">
    <ele>576.21</ele>
   </trkpt>
   <trkpt lat="-37.8286300000965" lon="145.35060500003155">
    <ele>578.4100000000001</ele>
   </trkpt>
   <trkpt lat="-37.82911" lon="145.35060000000001">
    <ele>576.32</ele>
   </trkpt>
   <trkpt lat="-37.82943" lon="145.35047">
    <ele>569.91</ele>
   </trkpt>
   <trkpt lat="-37.82963" lon="145.35047">
    <ele>568.0500000000001</ele>
   </trkpt>
   <trkpt lat="-37.82999" lon="145.35055">
    <ele>565.2</ele>
   </trkpt>
   <trkpt lat="-37.83032" lon="145.35069000000001">
    <ele>562.0200000000001</ele>
   </trkpt>
   <trkpt lat="-37.83066" lon="145.35092">
    <ele>559.7800000000001</ele>
   </trkpt>
   <trkpt lat="-37.83093" lon="145.35097000000002">
    <ele>557.9900000000001</ele>
   </trkpt>
   <trkpt lat="-37.83122" lon="145.35091">
    <ele>558.3</ele>
   </trkpt>
   <trkpt lat="-37.83162" lon="145.35071000000002">
    <ele>566.5300000000001</ele>
   </trkpt>
   <trkpt lat="-37.83196" lon="145.35046">
    <ele>572.2</ele>
   </trkpt>
   <trkpt lat="-37.83231" lon="145.35010000000003">
    <ele>579.44</ele>
   </trkpt>
   <trkpt lat="-37.83267" lon="145.34969">
    <ele>587.5600000000001</ele>
   </trkpt>
   <trkpt lat="-37.83274" lon="145.34954000000002">
    <ele>588.2400000000001</ele>
   </trkpt>
   <trkpt lat="-37.83287" lon="145.34947000000003">
    <ele>588.9000000000001</ele>
   </trkpt>
   <trkpt lat="-37.83296" lon="145.34934">
    <ele>589.87</ele>
   </trkpt>
   <trkpt lat="-37.83323" lon="145.34911000000002">
    <ele>592.98</ele>
   </trkpt>
   <trkpt lat="-37.83334" lon="145.3484">
    <ele>596.7800000000001</ele>
   </trkpt>
   <trkpt lat="-37.83339" lon="145.34822">
    <ele>596.5100000000001</ele>
   </trkpt>
   <trkpt lat="-37.83346" lon="145.34808">
    <ele>596.65</ele>
   </trkpt>
   <trkpt lat="-37.83379500052499" lon="145.34767500204265">
    <ele>599.0300000000001</ele>
   </trkpt>
   <trkpt lat="-37.83413" lon="145.34727">
    <ele>599.13</ele>
   </trkpt>
   <trkpt lat="-37.8344" lon="145.34703000000002">
    <ele>598.86</ele>
   </trkpt>
   <trkpt lat="-37.83491" lon="145.3468">
    <ele>598.9000000000001</ele>
   </trkpt>
   <trkpt lat="-37.835150000000006" lon="145.34676000000002">
    <ele>599.31</ele>
   </trkpt>
   <trkpt lat="-37.83574" lon="145.34658000000002">
    <ele>603.1700000000001</ele>
   </trkpt>
   <trkpt lat="-37.83601" lon="145.34655">
    <ele>605.6400000000001</ele>
   </trkpt>
   <trkpt lat="-37.8363" lon="145.34654">
    <ele>608.3000000000001</ele>
   </trkpt>
   <trkpt lat="-37.83668" lon="145.34659000000002">
    <ele>612.58</ele>
   </trkpt>
   <trkpt lat="-37.83681" lon="145.34658000000002">
    <ele>612.4000000000001</ele>
   </trkpt>
   <trkpt lat="-37.83699" lon="145.34654">
    <ele>610.38</ele>
   </trkpt>
   <trkpt lat="-37.83706" lon="145.34649000000002">
    <ele>608.59</ele>
   </trkpt>
   <trkpt lat="-37.83726" lon="145.34629">
    <ele>601.77</ele>
   </trkpt>
   <trkpt lat="-37.83733" lon="145.34626">
    <ele>600.7800000000001</ele>
   </trkpt>
   <trkpt lat="-37.8376" lon="145.34623000000002">
    <ele>594.74</ele>
   </trkpt>
   <trkpt lat="-37.83771" lon="145.34619">
    <ele>592.48</ele>
   </trkpt>
   <trkpt lat="-37.83791" lon="145.34608">
    <ele>586.1200000000001</ele>
   </trkpt>
   <trkpt lat="-37.83813" lon="145.34605000000002">
    <ele>580.83</ele>
   </trkpt>
   <trkpt lat="-37.83834" lon="145.34596000000002">
    <ele>573.77</ele>
   </trkpt>
   <trkpt lat="-37.83843" lon="145.34587000000002">
    <ele>571.09</ele>
   </trkpt>
   <trkpt lat="-37.838570000000004" lon="145.34584">
    <ele>567.86</ele>
   </trkpt>
   <trkpt lat="-37.83856" lon="145.34584">
    <ele>567.86</ele>
   </trkpt>
   <trkpt lat="-37.83872" lon="145.34589000000003">
    <ele>566.57</ele>
   </trkpt>
   <trkpt lat="-37.83896" lon="145.34608">
    <ele>567.07</ele>
   </trkpt>
   <trkpt lat="-37.83894" lon="145.3462">
    <ele>569.34</ele>
   </trkpt>
   <trkpt lat="-37.8391" lon="145.34649000000002">
    <ele>573.73</ele>
   </trkpt>
   <trkpt lat="-37.83914" lon="145.34669000000002">
    <ele>576.16</ele>
   </trkpt>
   <trkpt lat="-37.83908" lon="145.34678000000002">
    <ele>576.8000000000001</ele>
   </trkpt>
   <trkpt lat="-37.83896" lon="145.34687000000002">
    <ele>579.62</ele>
   </trkpt>
   <trkpt lat="-37.83885" lon="145.34699">
    <ele>583.04</ele>
   </trkpt>
   <trkpt lat="-37.83858" lon="145.34734">
    <ele>585.9300000000001</ele>
   </trkpt>
   <trkpt lat="-37.8382" lon="145.34754">
    <ele>591.0300000000001</ele>
   </trkpt>
   <trkpt lat="-37.83822" lon="145.34768000000003">
    <ele>591.0300000000001</ele>
   </trkpt>
   <trkpt lat="-37.83831" lon="145.34782">
    <ele>583.8800000000001</ele>
   </trkpt>
   <trkpt lat="-37.83825" lon="145.34805">
    <ele>579.38</ele>
   </trkpt>
   <trkpt lat="-37.83811" lon="145.34829000000002">
    <ele>577.77</ele>
   </trkpt>
   <trkpt lat="-37.83793" lon="145.34877">
    <ele>573.74</ele>
   </trkpt>
   <trkpt lat="-37.83789" lon="145.34899000000001">
    <ele>570.64</ele>
   </trkpt>
   <trkpt lat="-37.83782" lon="145.34913">
    <ele>569.5</ele>
   </trkpt>
   <trkpt lat="-37.8378" lon="145.34934">
    <ele>568.61</ele>
   </trkpt>
   <trkpt lat="-37.83773" lon="145.34956000000003">
    <ele>567.5</ele>
   </trkpt>
   <trkpt lat="-37.83773" lon="145.34973000000002">
    <ele>566.99</ele>
   </trkpt>
   <trkpt lat="-37.83813" lon="145.35073">
    <ele>562.45</ele>
   </trkpt>
   <trkpt lat="-37.83836" lon="145.3512">
    <ele>561.34</ele>
   </trkpt>
   <trkpt lat="-37.838750000000005" lon="145.35182">
    <ele>558.0</ele>
   </trkpt>
   <trkpt lat="-37.839585000646906" lon="145.35220999558683">
    <ele>552.07</ele>
   </trkpt>
   <trkpt lat="-37.84042" lon="145.35260000000002">
    <ele>548.4499999999999</ele>
   </trkpt>
   <trkpt lat="-37.84051" lon="145.3528">
    <ele>548.1100000000001</ele>
   </trkpt>
   <trkpt lat="-37.84055" lon="145.35324">
    <ele>547.5000000000001</ele>
   </trkpt>
   <trkpt lat="-37.84131000002351" lon="145.35304500204458">
    <ele>544.9200000000001</ele>
   </trkpt>
   <trkpt lat="-37.84207" lon="145.35285000000002">
    <ele>542.44</ele>
   </trkpt>
   <trkpt lat="-37.84281" lon="145.35295000000002">
    <ele>536.85</ele>
   </trkpt>
   <trkpt lat="-37.843560000000004" lon="145.35324">
    <ele>532.5000000000001</ele>
   </trkpt>
   <trkpt lat="-37.84369" lon="145.35302000000001">
    <ele>530.97</ele>
   </trkpt>
   <trkpt lat="-37.84362" lon="145.3528">
    <ele>529.5500000000001</ele>
   </trkpt>
   <trkpt lat="-37.84335" lon="145.35238">
    <ele>526.82</ele>
   </trkpt>
   <trkpt lat="-37.84348" lon="145.3523">
    <ele>526.57</ele>
   </trkpt>
   <trkpt lat="-37.8436" lon="145.35240000000002">
    <ele>526.63</ele>
   </trkpt>
   <trkpt lat="-37.843790000000006" lon="145.35248">
    <ele>525.1600000000001</ele>
   </trkpt>
   <trkpt lat="-37.84407" lon="145.35236">
    <ele>519.3100000000001</ele>
   </trkpt>
   <trkpt lat="-37.844350000000006" lon="145.35216">
    <ele>512.7700000000001</ele>
   </trkpt>
   <trkpt lat="-37.84454" lon="145.35216">
    <ele>511.48</ele>
   </trkpt>
   <trkpt lat="-37.84476" lon="145.35224000000002">
    <ele>511.45000000000005</ele>
   </trkpt>
   <trkpt lat="-37.84503" lon="145.3523">
    <ele>512.1800000000001</ele>
   </trkpt>
   <trkpt lat="-37.84557" lon="145.35234">
    <ele>512.4399999999999</ele>
   </trkpt>
   <trkpt lat="-37.84568" lon="145.35239">
    <ele>513.17</ele>
   </trkpt>
   <trkpt lat="-37.845850000000006" lon="145.35258000000002">
    <ele>515.24</ele>
   </trkpt>
   <trkpt lat="-37.84601" lon="145.35263">
    <ele>515.3000000000001</ele>
   </trkpt>
   <trkpt lat="-37.846230000000006" lon="145.35278000000002">
    <ele>514.66</ele>
   </trkpt>
   <trkpt lat="-37.846340000000005" lon="145.35282">
    <ele>514.41</ele>
   </trkpt>
   <trkpt lat="-37.84633" lon="145.35281">
    <ele>514.41</ele>
   </trkpt>
   <trkpt lat="-37.84657" lon="145.35303000000002">
    <ele>512.99</ele>
   </trkpt>
   <trkpt lat="-37.84671" lon="145.35329000000002">
    <ele>512.33</ele>
   </trkpt>
   <trkpt lat="-37.84682" lon="145.35361">
    <ele>510.18000000000006</ele>
   </trkpt>
   <trkpt lat="-37.84685" lon="145.35385000000002">
    <ele>509.01000000000005</ele>
   </trkpt>
   <trkpt lat="-37.84691" lon="145.35384000000002">
    <ele>509.01000000000005</ele>
   </trkpt>
   <trkpt lat="-37.84698" lon="145.35392000000002">
    <ele>508.19</ele>
   </trkpt>
   <trkpt lat="-37.846810000000005" lon="145.35467">
    <ele>503.28000000000003</ele>
   </trkpt>
   <trkpt lat="-37.84673" lon="145.35492000000002">
    <ele>502.0</ele>
   </trkpt>
   <trkpt lat="-37.84662" lon="145.35509000000002">
    <ele>502.0</ele>
   </trkpt>
   <trkpt lat="-37.84631" lon="145.3554">
    <ele>503.9800000000001</ele>
   </trkpt>
   <trkpt lat="-37.84624" lon="145.35552">
    <ele>504.39</ele>
   </trkpt>
   <trkpt lat="-37.84626" lon="145.35571000000002">
    <ele>504.11000000000007</ele>
   </trkpt>
   <trkpt lat="-37.84651" lon="145.3563">
    <ele>499.72</ele>
   </trkpt>
   <trkpt lat="-37.84682" lon="145.35668">
    <ele>495.3</ele>
   </trkpt>
   <trkpt lat="-37.84713" lon="145.35719">
    <ele>498.00000000000006</ele>
   </trkpt>
   <trkpt lat="-37.84772" lon="145.35768000000002">
    <ele>496.86</ele>
   </trkpt>
   <trkpt lat="-37.84783" lon="145.35772">
    <ele>495.88000000000005</ele>
   </trkpt>
   <trkpt lat="-37.84836" lon="145.35825">
    <ele>492.93</ele>
   </trkpt>
   <trkpt lat="-37.84874500087952" lon="145.35868999777225">
    <ele>496.82000000000005</ele>
   </trkpt>
   <trkpt lat="-37.84913" lon="145.35913000000002">
    <ele>497.99</ele>
   </trkpt>
   <trkpt lat="-37.84942" lon="145.35956000000002">
    <ele>495.2300000000001</ele>
   </trkpt>
   <trkpt lat="-37.84975" lon="145.35991">
    <ele>491.00000000000006</ele>
   </trkpt>
   <trkpt lat="-37.84977000000001" lon="145.35993000000002">
    <ele>491.00000000000006</ele>
   </trkpt>
   <trkpt lat="-37.84998" lon="145.35999">
    <ele>487.28000000000003</ele>
   </trkpt>
   <trkpt lat="-37.85013" lon="145.35996">
    <ele>482.78000000000003</ele>
   </trkpt>
   <trkpt lat="-37.85051" lon="145.35993000000002">
    <ele>474.96000000000004</ele>
   </trkpt>
   <trkpt lat="-37.850640000000006" lon="145.35994000000002">
    <ele>472.89000000000004</ele>
   </trkpt>
   <trkpt lat="-37.850730000000006" lon="145.35992000000002">
    <ele>472.16</ele>
   </trkpt>
   <trkpt lat="-37.85085" lon="145.35979">
    <ele>468.81000000000006</ele>
   </trkpt>
   <trkpt lat="-37.85092" lon="145.35967000000002">
    <ele>465.74</ele>
   </trkpt>
   <trkpt lat="-37.851110000000006" lon="145.35914000000002">
    <ele>463.12</ele>
   </trkpt>
   <trkpt lat="-37.85121" lon="145.35867000000002">
    <ele>466.12</ele>
   </trkpt>
   <trkpt lat="-37.85132" lon="145.35802">
    <ele>463.74</ele>
   </trkpt>
   <trkpt lat="-37.8515" lon="145.35757">
    <ele>459.38</ele>
   </trkpt>
   <trkpt lat="-37.85157" lon="145.35757">
    <ele>460.15000000000003</ele>
   </trkpt>
   <trkpt lat="-37.85177" lon="145.35780000000003">
    <ele>467.5</ele>
   </trkpt>
   <trkpt lat="-37.851910000000004" lon="145.35784">
    <ele>471.81000000000006</ele>
   </trkpt>
   <trkpt lat="-37.85195" lon="145.3579">
    <ele>472.58000000000004</ele>
   </trkpt>
   <trkpt lat="-37.852050000000006" lon="145.35793">
    <ele>473.85</ele>
   </trkpt>
   <trkpt lat="-37.852140000000006" lon="145.35791">
    <ele>474.48</ele>
   </trkpt>
   <trkpt lat="-37.85262" lon="145.35772">
    <ele>472.99</ele>
   </trkpt>
   <trkpt lat="-37.8528" lon="145.35759000000002">
    <ele>471.65</ele>
   </trkpt>
   <trkpt lat="-37.85295" lon="145.35742000000002">
    <ele>468.68</ele>
   </trkpt>
   <trkpt lat="-37.85302" lon="145.35724000000002">
    <ele>466.45000000000005</ele>
   </trkpt>
   <trkpt lat="-37.85311" lon="145.35713">
    <ele>465.12</ele>
   </trkpt>
   <trkpt lat="-37.85351" lon="145.35703">
    <ele>470.04</ele>
   </trkpt>
   <trkpt lat="-37.85374" lon="145.35714000000002">
    <ele>474.43</ele>
   </trkpt>
   <trkpt lat="-37.8538" lon="145.35702">
    <ele>474.36000000000007</ele>
   </trkpt>
   <trkpt lat="-37.85412" lon="145.35674">
    <ele>471.85</ele>
   </trkpt>
   <trkpt lat="-37.85421" lon="145.35660000000001">
    <ele>471.85</ele>
   </trkpt>
   <trkpt lat="-37.85423" lon="145.35635000000002">
    <ele>470.35</ele>
   </trkpt>
   <trkpt lat="-37.85421" lon="145.35626000000002">
    <ele>469.63000000000005</ele>
   </trkpt>
   <trkpt lat="-37.854310000000005" lon="145.3562">
    <ele>499.00000000000006</ele>
   </trkpt>
   <trkpt lat="-37.85434" lon="145.35638">
    <ele>499.66</ele>
   </trkpt>
   <trkpt lat="-37.8543" lon="145.35694">
    <ele>505.6400000000001</ele>
   </trkpt>
   <trkpt lat="-37.854200000000006" lon="145.35747">
    <ele>515.49</ele>
   </trkpt>
   <trkpt lat="-37.85407" lon="145.35779000000002">
    <ele>521.15</ele>
   </trkpt>
   <trkpt lat="-37.85389" lon="145.35817">
    <ele>525.44</ele>
   </trkpt>
   <trkpt lat="-37.85367" lon="145.35837">
    <ele>523.22</ele>
   </trkpt>
   <trkpt lat="-37.85356" lon="145.35836">
    <ele>521.25</ele>
   </trkpt>
   <trkpt lat="-37.85345" lon="145.35829">
    <ele>517.1600000000001</ele>
   </trkpt>
   <trkpt lat="-37.85336" lon="145.3583">
    <ele>515.9100000000001</ele>
   </trkpt>
   <trkpt lat="-37.85322" lon="145.35838">
    <ele>515.46</ele>
   </trkpt>
   <trkpt lat="-37.853100000000005" lon="145.35855">
    <ele>517.0</ele>
   </trkpt>
   <trkpt lat="-37.85316" lon="145.35866000000001">
    <ele>518.15</ele>
   </trkpt>
   <trkpt lat="-37.85311" lon="145.35873">
    <ele>518.15</ele>
   </trkpt>
   <trkpt lat="-37.85309" lon="145.35899">
    <ele>520.0</ele>
   </trkpt>
   <trkpt lat="-37.85314" lon="145.35923000000003">
    <ele>522.22</ele>
   </trkpt>
   <trkpt lat="-37.85349500053548" lon="145.35960499813183">
    <ele>535.64</ele>
   </trkpt>
   <trkpt lat="-37.85385" lon="145.35998">
    <ele>546.5500000000001</ele>
   </trkpt>
   <trkpt lat="-37.853860000000005" lon="145.35998">
    <ele>546.5500000000001</ele>
   </trkpt>
   <trkpt lat="-37.85394" lon="145.35982">
    <ele>546.1</ele>
   </trkpt>
   <trkpt lat="-37.854020000000006" lon="145.35943">
    <ele>542.5300000000001</ele>
   </trkpt>
   <trkpt lat="-37.85403" lon="145.35922000000002">
    <ele>540.78</ele>
   </trkpt>
   <trkpt lat="-37.85405" lon="145.35908">
    <ele>538.6800000000001</ele>
   </trkpt>
   <trkpt lat="-37.85421" lon="145.35869000000002">
    <ele>531.97</ele>
   </trkpt>
   <trkpt lat="-37.85423" lon="145.35841000000002">
    <ele>526.05</ele>
   </trkpt>
   <trkpt lat="-37.85432" lon="145.3581">
    <ele>523.51</ele>
   </trkpt>
   <trkpt lat="-37.8545" lon="145.35797000000002">
    <ele>524.6</ele>
   </trkpt>
   <trkpt lat="-37.85461" lon="145.35797000000002">
    <ele>525.95</ele>
   </trkpt>
   <trkpt lat="-37.85492" lon="145.35791">
    <ele>532.3100000000001</ele>
   </trkpt>
   <trkpt lat="-37.85513" lon="145.358">
    <ele>538.54</ele>
   </trkpt>
   <trkpt lat="-37.8553" lon="145.35817">
    <ele>549.0500000000001</ele>
   </trkpt>
   <trkpt lat="-37.85553" lon="145.35828">
    <ele>553.83</ele>
   </trkpt>
   <trkpt lat="-37.85571" lon="145.35829">
    <ele>556.76</ele>
   </trkpt>
   <trkpt lat="-37.85618" lon="145.35822000000002">
    <ele>561.2900000000001</ele>
   </trkpt>
   <trkpt lat="-37.85633" lon="145.35812">
    <ele>561.72</ele>
   </trkpt>
   <trkpt lat="-37.85647" lon="145.35798">
    <ele>561.52</ele>
   </trkpt>
   <trkpt lat="-37.85658" lon="145.35783">
    <ele>560.88</ele>
   </trkpt>
   <trkpt lat="-37.85665" lon="145.35757">
    <ele>561.0</ele>
   </trkpt>
   <trkpt lat="-37.85671" lon="145.35743000000002">
    <ele>562.4800000000001</ele>
   </trkpt>
   <trkpt lat="-37.85698" lon="145.35725000000002">
    <ele>566.97</ele>
   </trkpt>
   <trkpt lat="-37.85703" lon="145.35715000000002">
    <ele>567.67</ele>
   </trkpt>
   <trkpt lat="-37.85705" lon="145.35702">
    <ele>568.1400000000001</ele>
   </trkpt>
   <trkpt lat="-37.85718" lon="145.35671000000002">
    <ele>569.91</ele>
   </trkpt>
   <trkpt lat="-37.85727" lon="145.35627000000002">
    <ele>573.32</ele>
   </trkpt>
   <trkpt lat="-37.85725" lon="145.35584">
    <ele>575.07</ele>
   </trkpt>
   <trkpt lat="-37.85727" lon="145.35574000000003">
    <ele>575.19</ele>
   </trkpt>
   <trkpt lat="-37.857330000000005" lon="145.35569">
    <ele>575.34</ele>
   </trkpt>
   <trkpt lat="-37.85745" lon="145.35567">
    <ele>575.6</ele>
   </trkpt>
   <trkpt lat="-37.85756000000001" lon="145.35572000000002">
    <ele>575.5400000000001</ele>
   </trkpt>
   <trkpt lat="-37.85765" lon="145.35573000000002">
    <ele>574.9000000000001</ele>
   </trkpt>
   <trkpt lat="-37.85774" lon="145.3557">
    <ele>574.0200000000001</ele>
   </trkpt>
   <trkpt lat="-37.85792" lon="145.35547000000003">
    <ele>568.77</ele>
   </trkpt>
   <trkpt lat="-37.85826" lon="145.35524">
    <ele>563.74</ele>
   </trkpt>
   <trkpt lat="-37.85846" lon="145.35508000000002">
    <ele>555.01</ele>
   </trkpt>
   <trkpt lat="-37.85866" lon="145.35498">
    <ele>549.18</ele>
   </trkpt>
   <trkpt lat="-37.85877" lon="145.35487">
    <ele>545.88</ele>
   </trkpt>
   <trkpt lat="-37.85889" lon="145.35466000000002">
    <ele>539.74</ele>
   </trkpt>
   <trkpt lat="-37.85915" lon="145.35439000000002">
    <ele>529.96</ele>
   </trkpt>
   <trkpt lat="-37.85942" lon="145.35421000000002">
    <ele>519.72</ele>
   </trkpt>
   <trkpt lat="-37.85956" lon="145.35415">
    <ele>517.6</ele>
   </trkpt>
   <trkpt lat="-37.85978" lon="145.35421000000002">
    <ele>514.05</ele>
   </trkpt>
   <trkpt lat="-37.860060000000004" lon="145.35438000000002">
    <ele>513.1999999999999</ele>
   </trkpt>
   <trkpt lat="-37.860325000891734" lon="145.35484499828854">
    <ele>515.47</ele>
   </trkpt>
   <trkpt lat="-37.86059" lon="145.35531">
    <ele>512.21</ele>
   </trkpt>
   <trkpt lat="-37.86061" lon="145.35545000000002">
    <ele>511.06000000000006</ele>
   </trkpt>
   <trkpt lat="-37.86063" lon="145.35594">
    <ele>499.12000000000006</ele>
   </trkpt>
   <trkpt lat="-37.86074" lon="145.3561">
    <ele>494.90000000000003</ele>
   </trkpt>
   <trkpt lat="-37.86084" lon="145.3562">
    <ele>492.39000000000004</ele>
   </trkpt>
   <trkpt lat="-37.86079" lon="145.35600000000002">
    <ele>492.02</ele>
   </trkpt>
   <trkpt lat="-37.86079" lon="145.35580000000002">
    <ele>491.8</ele>
   </trkpt>
   <trkpt lat="-37.86086" lon="145.35562000000002">
    <ele>491.8</ele>
   </trkpt>
   <trkpt lat="-37.86108" lon="145.35531">
    <ele>489.98</ele>
   </trkpt>
   <trkpt lat="-37.86153" lon="145.35481000000001">
    <ele>486.79</ele>
   </trkpt>
   <trkpt lat="-37.86198" lon="145.35437000000002">
    <ele>483.87</ele>
   </trkpt>
   <trkpt lat="-37.86229" lon="145.35409">
    <ele>481.06000000000006</ele>
   </trkpt>
   <trkpt lat="-37.86299" lon="145.35359000000003">
    <ele>478.59000000000003</ele>
   </trkpt>
  </trkseg>
 </trk>
</gpx>
