<?xml version="1.0" encoding="UTF-8"?>
<gpx creator="StravaGPX" version="1.1" xmlns="http://www.topografix.com/GPX/1/1" xmlns:xsi="http://www.w3.org/2001/XMLSchema-instance" xsi:schemaLocation="http://www.topografix.com/GPX/1/1 http://www.topografix.com/GPX/1/1/gpx.xsd">
 <metadata>
  <name>DTR 3 June 14k</name>
  <author>
   <name>john csorgo</name>
  </author>
  <copyright author="OpenStreetMap contributors">
   <year>2020</year>
   <license>https://www.openstreetmap.org/copyright</license>
  </copyright>
 </metadata>
 <trk>
  <name>DTR 3 June 14k</name>
  <link href=""/>
  <type>running</type>
  <trkseg>
   <trkpt lat="-37.886970000000005" lon="145.37051000000002">
    <ele>353.31</ele>
   </trkpt>
   <trkpt lat="-37.886810000000004" lon="145.37066000000002">
    <ele>354.36</ele>
   </trkpt>
   <trkpt lat="-37.886610000000005" lon="145.37060000000002">
    <ele>354.55</ele>
   </trkpt>
   <trkpt lat="-37.88646" lon="145.37032000000002">
    <ele>355.59000000000003</ele>
   </trkpt>
   <trkpt lat="-37.88631" lon="145.37007">
    <ele>357.28000000000003</ele>
   </trkpt>
   <trkpt lat="-37.88606" lon="145.37008">
    <ele>359.26</ele>
   </trkpt>
   <trkpt lat="-37.88608" lon="145.3699">
    <ele>354.13000000000005</ele>
   </trkpt>
   <trkpt lat="-37.8857" lon="145.36968000000002">
    <ele>357.3</ele>
   </trkpt>
   <trkpt lat="-37.88528" lon="145.36933000000002">
    <ele>362.06000000000006</ele>
   </trkpt>
   <trkpt lat="-37.884930000000004" lon="145.36932000000002">
    <ele>366.69</ele>
   </trkpt>
   <trkpt lat="-37.8849" lon="145.36935000000003">
    <ele>366.69</ele>
   </trkpt>
   <trkpt lat="-37.88481" lon="145.36933000000002">
    <ele>366.79</ele>
   </trkpt>
   <trkpt lat="-37.88476" lon="145.36925000000002">
    <ele>366.45000000000005</ele>
   </trkpt>
   <trkpt lat="-37.88479" lon="145.36904">
    <ele>365.61</ele>
   </trkpt>
   <trkpt lat="-37.88465" lon="145.36878000000002">
    <ele>365.04</ele>
   </trkpt>
   <trkpt lat="-37.88434" lon="145.36845000000002">
    <ele>368.27000000000004</ele>
   </trkpt>
   <trkpt lat="-37.88414" lon="145.3683">
    <ele>370.11000000000007</ele>
   </trkpt>
   <trkpt lat="-37.88361000033348" lon="145.3685250015686">
    <ele>380.6</ele>
   </trkpt>
   <trkpt lat="-37.88308" lon="145.36875">
    <ele>383.62</ele>
   </trkpt>
   <trkpt lat="-37.88259" lon="145.36881000000002">
    <ele>386.05</ele>
   </trkpt>
   <trkpt lat="-37.88246" lon="145.36877">
    <ele>387.86</ele>
   </trkpt>
   <trkpt lat="-37.88214" lon="145.36857">
    <ele>391.99</ele>
   </trkpt>
   <trkpt lat="-37.8819" lon="145.36846">
    <ele>390.20000000000005</ele>
   </trkpt>
   <trkpt lat="-37.88181" lon="145.36846">
    <ele>389.61</ele>
   </trkpt>
   <trkpt lat="-37.88152" lon="145.36864">
    <ele>385.90000000000003</ele>
   </trkpt>
   <trkpt lat="-37.88118" lon="145.36876">
    <ele>380.68</ele>
   </trkpt>
   <trkpt lat="-37.88109" lon="145.36876">
    <ele>380.56</ele>
   </trkpt>
   <trkpt lat="-37.88094" lon="145.36870000000002">
    <ele>380.58000000000004</ele>
   </trkpt>
   <trkpt lat="-37.88024" lon="145.36867">
    <ele>375.89000000000004</ele>
   </trkpt>
   <trkpt lat="-37.88022" lon="145.36870000000002">
    <ele>375.22</ele>
   </trkpt>
   <trkpt lat="-37.880190000000006" lon="145.36890000000002">
    <ele>369.52</ele>
   </trkpt>
   <trkpt lat="-37.87975000075657" lon="145.3692800021441">
    <ele>369.52</ele>
   </trkpt>
   <trkpt lat="-37.879310000000004" lon="145.36966">
    <ele>356.66</ele>
   </trkpt>
   <trkpt lat="-37.87928" lon="145.36964">
    <ele>356.66</ele>
   </trkpt>
   <trkpt lat="-37.879090000000005" lon="145.36959000000002">
    <ele>359.99</ele>
   </trkpt>
   <trkpt lat="-37.878530000000005" lon="145.36994">
    <ele>354.16</ele>
   </trkpt>
   <trkpt lat="-37.87811000276733" lon="145.370745004539">
    <ele>346.63000000000005</ele>
   </trkpt>
   <trkpt lat="-37.87769" lon="145.37155">
    <ele>337.07000000000005</ele>
   </trkpt>
   <trkpt lat="-37.877660000000006" lon="145.37156000000002">
    <ele>336.65</ele>
   </trkpt>
   <trkpt lat="-37.87742" lon="145.37142">
    <ele>335.68</ele>
   </trkpt>
   <trkpt lat="-37.87704" lon="145.37123000000003">
    <ele>334.59000000000003</ele>
   </trkpt>
   <trkpt lat="-37.876850000000005" lon="145.37126">
    <ele>332.19000000000005</ele>
   </trkpt>
   <trkpt lat="-37.87675" lon="145.37167000000002">
    <ele>331.88</ele>
   </trkpt>
   <trkpt lat="-37.8765" lon="145.37138000000002">
    <ele>332.54</ele>
   </trkpt>
   <trkpt lat="-37.87635" lon="145.37115">
    <ele>341.84000000000003</ele>
   </trkpt>
   <trkpt lat="-37.87614000000001" lon="145.37109">
    <ele>355.40000000000003</ele>
   </trkpt>
   <trkpt lat="-37.87608" lon="145.37106">
    <ele>356.21000000000004</ele>
   </trkpt>
   <trkpt lat="-37.87559" lon="145.37066000000002">
    <ele>377.00000000000006</ele>
   </trkpt>
   <trkpt lat="-37.87552" lon="145.37054">
    <ele>378.38000000000005</ele>
   </trkpt>
   <trkpt lat="-37.87545" lon="145.37030000000001">
    <ele>380.55000000000007</ele>
   </trkpt>
   <trkpt lat="-37.87538" lon="145.36979000000002">
    <ele>384.37000000000006</ele>
   </trkpt>
   <trkpt lat="-37.87554" lon="145.36915000000002">
    <ele>378.94000000000005</ele>
   </trkpt>
   <trkpt lat="-37.87556" lon="145.36883">
    <ele>377.21000000000004</ele>
   </trkpt>
   <trkpt lat="-37.87545" lon="145.3683">
    <ele>378.95</ele>
   </trkpt>
   <trkpt lat="-37.875510000000006" lon="145.36811">
    <ele>378.26000000000005</ele>
   </trkpt>
   <trkpt lat="-37.87561" lon="145.36792">
    <ele>377.95</ele>
   </trkpt>
   <trkpt lat="-37.875690000000006" lon="145.36763000000002">
    <ele>379.24</ele>
   </trkpt>
   <trkpt lat="-37.8757" lon="145.3675">
    <ele>380.06</ele>
   </trkpt>
   <trkpt lat="-37.87559" lon="145.36734">
    <ele>381.8</ele>
   </trkpt>
   <trkpt lat="-37.87523" lon="145.36692000000002">
    <ele>383.58000000000004</ele>
   </trkpt>
   <trkpt lat="-37.87509" lon="145.36668">
    <ele>384.28000000000003</ele>
   </trkpt>
   <trkpt lat="-37.87482" lon="145.36636000000001">
    <ele>386.96000000000004</ele>
   </trkpt>
   <trkpt lat="-37.8748" lon="145.36626">
    <ele>386.66</ele>
   </trkpt>
   <trkpt lat="-37.87485" lon="145.36601000000002">
    <ele>384.78000000000003</ele>
   </trkpt>
   <trkpt lat="-37.87485" lon="145.36586">
    <ele>384.5</ele>
   </trkpt>
   <trkpt lat="-37.87467" lon="145.36552">
    <ele>386.57</ele>
   </trkpt>
   <trkpt lat="-37.87456" lon="145.36519">
    <ele>387.89</ele>
   </trkpt>
   <trkpt lat="-37.87444" lon="145.36466000000001">
    <ele>386.19</ele>
   </trkpt>
   <trkpt lat="-37.87444" lon="145.36441000000002">
    <ele>385.46000000000004</ele>
   </trkpt>
   <trkpt lat="-37.87438" lon="145.3642">
    <ele>384.02000000000004</ele>
   </trkpt>
   <trkpt lat="-37.87438" lon="145.36402">
    <ele>383.48</ele>
   </trkpt>
   <trkpt lat="-37.874100000000006" lon="145.36338">
    <ele>382.93000000000006</ele>
   </trkpt>
   <trkpt lat="-37.87404" lon="145.36333000000002">
    <ele>382.21000000000004</ele>
   </trkpt>
   <trkpt lat="-37.87409" lon="145.36301">
    <ele>379.55000000000007</ele>
   </trkpt>
   <trkpt lat="-37.874010000000006" lon="145.36278000000001">
    <ele>378.1</ele>
   </trkpt>
   <trkpt lat="-37.87377" lon="145.36227000000002">
    <ele>374.81</ele>
   </trkpt>
   <trkpt lat="-37.873740000000005" lon="145.36213">
    <ele>374.13</ele>
   </trkpt>
   <trkpt lat="-37.87377" lon="145.36206">
    <ele>387.65000000000003</ele>
   </trkpt>
   <trkpt lat="-37.873720000000006" lon="145.36151">
    <ele>396.05</ele>
   </trkpt>
   <trkpt lat="-37.87391" lon="145.36107">
    <ele>396.52000000000004</ele>
   </trkpt>
   <trkpt lat="-37.87406" lon="145.36083000000002">
    <ele>397.12</ele>
   </trkpt>
   <trkpt lat="-37.87469" lon="145.36031">
    <ele>407.29</ele>
   </trkpt>
   <trkpt lat="-37.87505" lon="145.35992000000002">
    <ele>414.39000000000004</ele>
   </trkpt>
   <trkpt lat="-37.87509" lon="145.35984000000002">
    <ele>415.02000000000004</ele>
   </trkpt>
   <trkpt lat="-37.87512" lon="145.35974000000002">
    <ele>416.16</ele>
   </trkpt>
   <trkpt lat="-37.87505" lon="145.35948000000002">
    <ele>418.08</ele>
   </trkpt>
   <trkpt lat="-37.87496" lon="145.35946">
    <ele>421.23</ele>
   </trkpt>
   <trkpt lat="-37.87487" lon="145.35939000000002">
    <ele>421.58</ele>
   </trkpt>
   <trkpt lat="-37.87435" lon="145.35875000000001">
    <ele>430.7300000000001</ele>
   </trkpt>
   <trkpt lat="-37.87402" lon="145.35851000000002">
    <ele>432.61</ele>
   </trkpt>
   <trkpt lat="-37.87373" lon="145.3582">
    <ele>438.15000000000003</ele>
   </trkpt>
   <trkpt lat="-37.873630000000006" lon="145.35801">
    <ele>439.04</ele>
   </trkpt>
   <trkpt lat="-37.87357" lon="145.35787000000002">
    <ele>440.89000000000004</ele>
   </trkpt>
   <trkpt lat="-37.87346" lon="145.35765">
    <ele>442.22</ele>
   </trkpt>
   <trkpt lat="-37.87335" lon="145.35702">
    <ele>446.78000000000003</ele>
   </trkpt>
   <trkpt lat="-37.873270000000005" lon="145.35671000000002">
    <ele>447.81000000000006</ele>
   </trkpt>
   <trkpt lat="-37.873270000000005" lon="145.35669000000001">
    <ele>447.81000000000006</ele>
   </trkpt>
   <trkpt lat="-37.8733" lon="145.35656">
    <ele>448.55000000000007</ele>
   </trkpt>
   <trkpt lat="-37.87339" lon="145.35662000000002">
    <ele>449.03000000000003</ele>
   </trkpt>
   <trkpt lat="-37.87368" lon="145.35735000000003">
    <ele>451.86</ele>
   </trkpt>
   <trkpt lat="-37.87375" lon="145.35745">
    <ele>453.25000000000006</ele>
   </trkpt>
   <trkpt lat="-37.874" lon="145.35763">
    <ele>455.47</ele>
   </trkpt>
   <trkpt lat="-37.87433" lon="145.35779000000002">
    <ele>460.57000000000005</ele>
   </trkpt>
   <trkpt lat="-37.8746" lon="145.35783">
    <ele>460.57000000000005</ele>
   </trkpt>
   <trkpt lat="-37.87489" lon="145.35784">
    <ele>462.73</ele>
   </trkpt>
   <trkpt lat="-37.87545" lon="145.35776">
    <ele>465.27</ele>
   </trkpt>
   <trkpt lat="-37.87561" lon="145.35771000000003">
    <ele>466.72</ele>
   </trkpt>
   <trkpt lat="-37.87579" lon="145.35753000000003">
    <ele>469.61</ele>
   </trkpt>
   <trkpt lat="-37.87597" lon="145.35711">
    <ele>473.44</ele>
   </trkpt>
   <trkpt lat="-37.876160000000006" lon="145.35686">
    <ele>474.0</ele>
   </trkpt>
   <trkpt lat="-37.8763" lon="145.35676">
    <ele>473.6</ele>
   </trkpt>
   <trkpt lat="-37.87664" lon="145.35663000000002">
    <ele>472.19000000000005</ele>
   </trkpt>
   <trkpt lat="-37.87675" lon="145.35661000000002">
    <ele>472.19000000000005</ele>
   </trkpt>
   <trkpt lat="-37.87684" lon="145.35664">
    <ele>471.62</ele>
   </trkpt>
   <trkpt lat="-37.87693" lon="145.35664">
    <ele>458.0</ele>
   </trkpt>
   <trkpt lat="-37.87675" lon="145.35619">
    <ele>455.93000000000006</ele>
   </trkpt>
   <trkpt lat="-37.87635" lon="145.35549">
    <ele>457.37000000000006</ele>
   </trkpt>
   <trkpt lat="-37.8763" lon="145.35531">
    <ele>459.3</ele>
   </trkpt>
   <trkpt lat="-37.876290000000004" lon="145.35504">
    <ele>461.84000000000003</ele>
   </trkpt>
   <trkpt lat="-37.876180000000005" lon="145.35491000000002">
    <ele>466.24</ele>
   </trkpt>
   <trkpt lat="-37.8761" lon="145.35474000000002">
    <ele>467.67</ele>
   </trkpt>
   <trkpt lat="-37.87599" lon="145.35412000000002">
    <ele>474.13000000000005</ele>
   </trkpt>
   <trkpt lat="-37.87619" lon="145.35323000000002">
    <ele>481.16</ele>
   </trkpt>
   <trkpt lat="-37.87635" lon="145.35294000000002">
    <ele>484.11</ele>
   </trkpt>
   <trkpt lat="-37.87635" lon="145.35272">
    <ele>486.56000000000006</ele>
   </trkpt>
   <trkpt lat="-37.87621" lon="145.35214000000002">
    <ele>494.58</ele>
   </trkpt>
   <trkpt lat="-37.87621" lon="145.35187000000002">
    <ele>497.52</ele>
   </trkpt>
   <trkpt lat="-37.87617" lon="145.35166">
    <ele>498.94000000000005</ele>
   </trkpt>
   <trkpt lat="-37.87601" lon="145.35145">
    <ele>502.92999999999995</ele>
   </trkpt>
   <trkpt lat="-37.87592" lon="145.35115000000002">
    <ele>508.44</ele>
   </trkpt>
   <trkpt lat="-37.87576" lon="145.35083">
    <ele>513.26</ele>
   </trkpt>
   <trkpt lat="-37.8755" lon="145.3505">
    <ele>517.07</ele>
   </trkpt>
   <trkpt lat="-37.87518" lon="145.35024">
    <ele>519.27</ele>
   </trkpt>
   <trkpt lat="-37.8748" lon="145.34975">
    <ele>522.6</ele>
   </trkpt>
   <trkpt lat="-37.87438" lon="145.34938000000002">
    <ele>522.37</ele>
   </trkpt>
   <trkpt lat="-37.87413" lon="145.34910000000002">
    <ele>522.96</ele>
   </trkpt>
   <trkpt lat="-37.87397" lon="145.34883000000002">
    <ele>523.83</ele>
   </trkpt>
   <trkpt lat="-37.87397" lon="145.34874000000002">
    <ele>524.58</ele>
   </trkpt>
   <trkpt lat="-37.87402" lon="145.34863">
    <ele>525.02</ele>
   </trkpt>
   <trkpt lat="-37.87432000204222" lon="145.3479450026575">
    <ele>525.66</ele>
   </trkpt>
   <trkpt lat="-37.87462" lon="145.34726">
    <ele>524.4100000000001</ele>
   </trkpt>
   <trkpt lat="-37.87462" lon="145.34694000000002">
    <ele>524.72</ele>
   </trkpt>
   <trkpt lat="-37.87438500130286" lon="145.34636499793243">
    <ele>527.07</ele>
   </trkpt>
   <trkpt lat="-37.87415" lon="145.34579000000002">
    <ele>524.59</ele>
   </trkpt>
   <trkpt lat="-37.873630002516855" lon="145.34524999242925">
    <ele>523.37</ele>
   </trkpt>
   <trkpt lat="-37.87311000256732" lon="145.34470999248174">
    <ele>519.84</ele>
   </trkpt>
   <trkpt lat="-37.87259" lon="145.34417000000002">
    <ele>515.78</ele>
   </trkpt>
   <trkpt lat="-37.87217500045653" lon="145.34379499776279">
    <ele>514.02</ele>
   </trkpt>
   <trkpt lat="-37.87176" lon="145.34342">
    <ele>512.38</ele>
   </trkpt>
   <trkpt lat="-37.87145000053656" lon="145.34383500200292">
    <ele>509.14000000000004</ele>
   </trkpt>
   <trkpt lat="-37.871140000000004" lon="145.34425000000002">
    <ele>507.6700000000001</ele>
   </trkpt>
   <trkpt lat="-37.870830000000005" lon="145.34461000000002">
    <ele>507.76</ele>
   </trkpt>
   <trkpt lat="-37.870630000000006" lon="145.34474">
    <ele>509.92</ele>
   </trkpt>
   <trkpt lat="-37.87035" lon="145.34482">
    <ele>512.07</ele>
   </trkpt>
   <trkpt lat="-37.87024" lon="145.34483">
    <ele>513.2500000000001</ele>
   </trkpt>
   <trkpt lat="-37.86983" lon="145.34474">
    <ele>517.99</ele>
   </trkpt>
   <trkpt lat="-37.86956" lon="145.34455">
    <ele>515.24</ele>
   </trkpt>
   <trkpt lat="-37.86907" lon="145.34435000000002">
    <ele>508.86000000000007</ele>
   </trkpt>
   <trkpt lat="-37.86889" lon="145.34432">
    <ele>507.99000000000007</ele>
   </trkpt>
   <trkpt lat="-37.86862" lon="145.34431">
    <ele>506.65000000000003</ele>
   </trkpt>
   <trkpt lat="-37.86844" lon="145.34437">
    <ele>506.30000000000007</ele>
   </trkpt>
   <trkpt lat="-37.86792500002919" lon="145.3444400004881">
    <ele>504.0300000000001</ele>
   </trkpt>
   <trkpt lat="-37.86741" lon="145.34451">
    <ele>500.16</ele>
   </trkpt>
   <trkpt lat="-37.86697" lon="145.34459">
    <ele>495.97</ele>
   </trkpt>
   <trkpt lat="-37.86621" lon="145.34518">
    <ele>489.72</ele>
   </trkpt>
   <trkpt lat="-37.865990000000004" lon="145.34539">
    <ele>496.00000000000006</ele>
   </trkpt>
   <trkpt lat="-37.86594" lon="145.34547">
    <ele>496.7300000000001</ele>
   </trkpt>
   <trkpt lat="-37.86589" lon="145.34556">
    <ele>497.76000000000005</ele>
   </trkpt>
   <trkpt lat="-37.866" lon="145.34601">
    <ele>499.6700000000001</ele>
   </trkpt>
   <trkpt lat="-37.86598" lon="145.34626">
    <ele>500.4700000000001</ele>
   </trkpt>
   <trkpt lat="-37.86589" lon="145.34647">
    <ele>500.2000000000001</ele>
   </trkpt>
   <trkpt lat="-37.8659" lon="145.34657">
    <ele>499.86</ele>
   </trkpt>
   <trkpt lat="-37.865370000000006" lon="145.34673">
    <ele>504.5900000000001</ele>
   </trkpt>
   <trkpt lat="-37.86493" lon="145.34701">
    <ele>508.46000000000004</ele>
   </trkpt>
   <trkpt lat="-37.86482" lon="145.34718">
    <ele>510.6700000000001</ele>
   </trkpt>
   <trkpt lat="-37.864810000000006" lon="145.34757000000002">
    <ele>515.47</ele>
   </trkpt>
   <trkpt lat="-37.86484" lon="145.34797">
    <ele>519.36</ele>
   </trkpt>
   <trkpt lat="-37.86491" lon="145.34814">
    <ele>520.1800000000001</ele>
   </trkpt>
   <trkpt lat="-37.86497" lon="145.34822">
    <ele>523.61</ele>
   </trkpt>
   <trkpt lat="-37.86496" lon="145.34829000000002">
    <ele>523.61</ele>
   </trkpt>
   <trkpt lat="-37.86491" lon="145.34857000000002">
    <ele>522.3800000000001</ele>
   </trkpt>
   <trkpt lat="-37.864695001511485" lon="145.3491700017808">
    <ele>517.12</ele>
   </trkpt>
   <trkpt lat="-37.86448" lon="145.34977">
    <ele>510.56</ele>
   </trkpt>
   <trkpt lat="-37.86417" lon="145.35060000000001">
    <ele>499.41</ele>
   </trkpt>
   <trkpt lat="-37.8641" lon="145.35074">
    <ele>497.2300000000001</ele>
   </trkpt>
   <trkpt lat="-37.8641" lon="145.35089000000002">
    <ele>496.07000000000005</ele>
   </trkpt>
   <trkpt lat="-37.864050000000006" lon="145.35102">
    <ele>494.48</ele>
   </trkpt>
   <trkpt lat="-37.86379" lon="145.35118">
    <ele>487.38000000000005</ele>
   </trkpt>
   <trkpt lat="-37.86368" lon="145.35119">
    <ele>484.13000000000005</ele>
   </trkpt>
   <trkpt lat="-37.86359" lon="145.35126000000002">
    <ele>481.50000000000006</ele>
   </trkpt>
   <trkpt lat="-37.8635" lon="145.3513">
    <ele>480.21000000000004</ele>
   </trkpt>
   <trkpt lat="-37.863420000000005" lon="145.35147">
    <ele>478.91</ele>
   </trkpt>
   <trkpt lat="-37.8633" lon="145.35153000000003">
    <ele>478.18000000000006</ele>
   </trkpt>
   <trkpt lat="-37.863110000000006" lon="145.35169000000002">
    <ele>477.6</ele>
   </trkpt>
   <trkpt lat="-37.86309" lon="145.35176">
    <ele>477.6</ele>
   </trkpt>
   <trkpt lat="-37.86312" lon="145.35186000000002">
    <ele>478.17</ele>
   </trkpt>
   <trkpt lat="-37.86340500158147" lon="145.3524799975066">
    <ele>480.56000000000006</ele>
   </trkpt>
   <trkpt lat="-37.863690000000005" lon="145.3531">
    <ele>478.03000000000003</ele>
   </trkpt>
   <trkpt lat="-37.862990001034184" lon="145.353595004703">
    <ele>478.06</ele>
   </trkpt>
   <trkpt lat="-37.86229" lon="145.35409">
    <ele>480.84000000000003</ele>
   </trkpt>
   <trkpt lat="-37.86198" lon="145.35437000000002">
    <ele>482.7</ele>
   </trkpt>
   <trkpt lat="-37.86153" lon="145.35481000000001">
    <ele>486.36</ele>
   </trkpt>
   <trkpt lat="-37.86108" lon="145.35531">
    <ele>489.68000000000006</ele>
   </trkpt>
   <trkpt lat="-37.86086" lon="145.35562000000002">
    <ele>491.53000000000003</ele>
   </trkpt>
   <trkpt lat="-37.86079" lon="145.35580000000002">
    <ele>491.53000000000003</ele>
   </trkpt>
   <trkpt lat="-37.86079" lon="145.35600000000002">
    <ele>491.82000000000005</ele>
   </trkpt>
   <trkpt lat="-37.86083" lon="145.35618000000002">
    <ele>492.11</ele>
   </trkpt>
   <trkpt lat="-37.86084" lon="145.3562">
    <ele>492.11</ele>
   </trkpt>
   <trkpt lat="-37.86074" lon="145.3561">
    <ele>493.91</ele>
   </trkpt>
   <trkpt lat="-37.86063" lon="145.35594">
    <ele>497.83000000000004</ele>
   </trkpt>
   <trkpt lat="-37.86061" lon="145.35545000000002">
    <ele>511.0800000000001</ele>
   </trkpt>
   <trkpt lat="-37.86059" lon="145.35531">
    <ele>512.12</ele>
   </trkpt>
   <trkpt lat="-37.8603250009369" lon="145.35484499836775">
    <ele>515.15</ele>
   </trkpt>
   <trkpt lat="-37.860060000000004" lon="145.35438000000002">
    <ele>512.81</ele>
   </trkpt>
   <trkpt lat="-37.85978" lon="145.35421000000002">
    <ele>513.72</ele>
   </trkpt>
   <trkpt lat="-37.85956" lon="145.35415">
    <ele>517.0100000000001</ele>
   </trkpt>
   <trkpt lat="-37.85942" lon="145.35421000000002">
    <ele>519.09</ele>
   </trkpt>
   <trkpt lat="-37.85915" lon="145.35439000000002">
    <ele>532.8000000000001</ele>
   </trkpt>
   <trkpt lat="-37.85889" lon="145.35466000000002">
    <ele>539.49</ele>
   </trkpt>
   <trkpt lat="-37.85877" lon="145.35487">
    <ele>544.48</ele>
   </trkpt>
   <trkpt lat="-37.85866" lon="145.35498">
    <ele>549.12</ele>
   </trkpt>
   <trkpt lat="-37.85846" lon="145.35508000000002">
    <ele>556.18</ele>
   </trkpt>
   <trkpt lat="-37.85826" lon="145.35524">
    <ele>560.69</ele>
   </trkpt>
   <trkpt lat="-37.85792" lon="145.35547000000003">
    <ele>569.85</ele>
   </trkpt>
   <trkpt lat="-37.85774" lon="145.3557">
    <ele>574.1700000000001</ele>
   </trkpt>
   <trkpt lat="-37.85765" lon="145.35573000000002">
    <ele>575.0200000000001</ele>
   </trkpt>
   <trkpt lat="-37.85756000000001" lon="145.35572000000002">
    <ele>575.59</ele>
   </trkpt>
   <trkpt lat="-37.85745" lon="145.35598000000002">
    <ele>573.67</ele>
   </trkpt>
   <trkpt lat="-37.85752" lon="145.35645000000002">
    <ele>574.2400000000001</ele>
   </trkpt>
   <trkpt lat="-37.85748" lon="145.35684">
    <ele>574.38</ele>
   </trkpt>
   <trkpt lat="-37.85721" lon="145.35766">
    <ele>575.2400000000001</ele>
   </trkpt>
   <trkpt lat="-37.85711500265833" lon="145.35845500114274">
    <ele>582.1</ele>
   </trkpt>
   <trkpt lat="-37.857020000000006" lon="145.35925">
    <ele>591.6</ele>
   </trkpt>
   <trkpt lat="-37.856880000000004" lon="145.35975000000002">
    <ele>598.5500000000001</ele>
   </trkpt>
   <trkpt lat="-37.85667" lon="145.36065000000002">
    <ele>600.1500000000001</ele>
   </trkpt>
   <trkpt lat="-37.85663" lon="145.36112">
    <ele>595.7800000000001</ele>
   </trkpt>
   <trkpt lat="-37.856455002169064" lon="145.3618400018036">
    <ele>585.67</ele>
   </trkpt>
   <trkpt lat="-37.856280000000005" lon="145.36256">
    <ele>580.22</ele>
   </trkpt>
   <trkpt lat="-37.85622" lon="145.36302">
    <ele>577.62</ele>
   </trkpt>
   <trkpt lat="-37.85604" lon="145.36396000000002">
    <ele>572.73</ele>
   </trkpt>
   <trkpt lat="-37.856030000000004" lon="145.36413000000002">
    <ele>572.58</ele>
   </trkpt>
   <trkpt lat="-37.856" lon="145.36419">
    <ele>572.58</ele>
   </trkpt>
   <trkpt lat="-37.855940000000004" lon="145.36425">
    <ele>569.64</ele>
   </trkpt>
   <trkpt lat="-37.855740004063435" lon="145.36523000264646">
    <ele>570.1400000000001</ele>
   </trkpt>
   <trkpt lat="-37.855540000000005" lon="145.36621000000002">
    <ele>571.8199999999999</ele>
   </trkpt>
   <trkpt lat="-37.85536500349598" lon="145.3671200021889">
    <ele>572.5600000000001</ele>
   </trkpt>
   <trkpt lat="-37.85519" lon="145.36803">
    <ele>572.21</ele>
   </trkpt>
   <trkpt lat="-37.85499" lon="145.36845000000002">
    <ele>571.5100000000001</ele>
   </trkpt>
   <trkpt lat="-37.854580000000006" lon="145.36896000000002">
    <ele>571.5600000000001</ele>
   </trkpt>
   <trkpt lat="-37.85445" lon="145.36905000000002">
    <ele>571.72</ele>
   </trkpt>
   <trkpt lat="-37.85421" lon="145.36937">
    <ele>571.9399999999999</ele>
   </trkpt>
   <trkpt lat="-37.85412500393108" lon="145.37033500118534">
    <ele>574.72</ele>
   </trkpt>
   <trkpt lat="-37.854040000000005" lon="145.37130000000002">
    <ele>578.3600000000001</ele>
   </trkpt>
   <trkpt lat="-37.854020000000006" lon="145.37171">
    <ele>579.2</ele>
   </trkpt>
   <trkpt lat="-37.85392" lon="145.37179">
    <ele>578.5400000000001</ele>
   </trkpt>
   <trkpt lat="-37.85398" lon="145.37198">
    <ele>578.33</ele>
   </trkpt>
   <trkpt lat="-37.854040001512296" lon="145.37256999991746">
    <ele>578.8199999999999</ele>
   </trkpt>
   <trkpt lat="-37.8541" lon="145.37316">
    <ele>578.87</ele>
   </trkpt>
   <trkpt lat="-37.854200000000006" lon="145.37338000000003">
    <ele>579.21</ele>
   </trkpt>
   <trkpt lat="-37.85428" lon="145.37347000000003">
    <ele>579.33</ele>
   </trkpt>
   <trkpt lat="-37.85439" lon="145.3735">
    <ele>579.46</ele>
   </trkpt>
   <trkpt lat="-37.854580000000006" lon="145.37358">
    <ele>579.5</ele>
   </trkpt>
   <trkpt lat="-37.85472" lon="145.37377">
    <ele>579.5600000000001</ele>
   </trkpt>
   <trkpt lat="-37.85479" lon="145.37378">
    <ele>579.5600000000001</ele>
   </trkpt>
   <trkpt lat="-37.85492" lon="145.37389000000002">
    <ele>579.22</ele>
   </trkpt>
   <trkpt lat="-37.85515" lon="145.37389000000002">
    <ele>579.22</ele>
   </trkpt>
   <trkpt lat="-37.85535" lon="145.37377">
    <ele>578.5400000000001</ele>
   </trkpt>
   <trkpt lat="-37.85567500077416" lon="145.37416499839765">
    <ele>578.57</ele>
   </trkpt>
   <trkpt lat="-37.856" lon="145.37456">
    <ele>577.0200000000001</ele>
   </trkpt>
   <trkpt lat="-37.856260000000006" lon="145.37480000000002">
    <ele>574.26</ele>
   </trkpt>
   <trkpt lat="-37.85669" lon="145.37504">
    <ele>570.69</ele>
   </trkpt>
   <trkpt lat="-37.85714" lon="145.37533000000002">
    <ele>568.11</ele>
   </trkpt>
   <trkpt lat="-37.85743" lon="145.37563">
    <ele>563.64</ele>
   </trkpt>
   <trkpt lat="-37.8579" lon="145.37639000000001">
    <ele>555.72</ele>
   </trkpt>
   <trkpt lat="-37.85817" lon="145.377">
    <ele>549.69</ele>
   </trkpt>
   <trkpt lat="-37.858506670360725" lon="145.3776633272205">
    <ele>543.9000000000001</ele>
   </trkpt>
   <trkpt lat="-37.85884333700035" lon="145.37832666050045">
    <ele>538.39</ele>
   </trkpt>
   <trkpt lat="-37.85918" lon="145.37899000000002">
    <ele>530.84</ele>
   </trkpt>
   <trkpt lat="-37.8596" lon="145.37961">
    <ele>526.58</ele>
   </trkpt>
   <trkpt lat="-37.859935000495554" lon="145.3799949980994">
    <ele>523.83</ele>
   </trkpt>
   <trkpt lat="-37.86027" lon="145.38038">
    <ele>520.2800000000001</ele>
   </trkpt>
   <trkpt lat="-37.860330000000005" lon="145.38052000000002">
    <ele>518.99</ele>
   </trkpt>
   <trkpt lat="-37.8603250020452" lon="145.3798250003289">
    <ele>527.0100000000001</ele>
   </trkpt>
   <trkpt lat="-37.86032" lon="145.37913">
    <ele>539.59</ele>
   </trkpt>
   <trkpt lat="-37.86043" lon="145.37803000000002">
    <ele>553.2</ele>
   </trkpt>
   <trkpt lat="-37.86046000312985" lon="145.37717000028042">
    <ele>557.82</ele>
   </trkpt>
   <trkpt lat="-37.860490000000006" lon="145.37631000000002">
    <ele>556.5400000000001</ele>
   </trkpt>
   <trkpt lat="-37.86096500012671" lon="145.37640499940548">
    <ele>556.21</ele>
   </trkpt>
   <trkpt lat="-37.86144" lon="145.37650000000002">
    <ele>558.28</ele>
   </trkpt>
   <trkpt lat="-37.86211" lon="145.37661">
    <ele>561.98</ele>
   </trkpt>
   <trkpt lat="-37.86268000007556" lon="145.37668499942674">
    <ele>564.23</ele>
   </trkpt>
   <trkpt lat="-37.86325" lon="145.37676000000002">
    <ele>564.57</ele>
   </trkpt>
   <trkpt lat="-37.863350000000004" lon="145.3768">
    <ele>564.4200000000001</ele>
   </trkpt>
   <trkpt lat="-37.86352" lon="145.37678000000002">
    <ele>566.11</ele>
   </trkpt>
   <trkpt lat="-37.86374" lon="145.3768">
    <ele>568.96</ele>
   </trkpt>
   <trkpt lat="-37.864370000119614" lon="145.37687999932783">
    <ele>572.37</ele>
   </trkpt>
   <trkpt lat="-37.865" lon="145.37696000000003">
    <ele>568.74</ele>
   </trkpt>
   <trkpt lat="-37.86504" lon="145.37697">
    <ele>568.74</ele>
   </trkpt>
   <trkpt lat="-37.86513" lon="145.37712000000002">
    <ele>567.98</ele>
   </trkpt>
   <trkpt lat="-37.86527" lon="145.37714000000003">
    <ele>566.25</ele>
   </trkpt>
   <trkpt lat="-37.86547" lon="145.3771">
    <ele>564.07</ele>
   </trkpt>
   <trkpt lat="-37.86558" lon="145.3771">
    <ele>562.36</ele>
   </trkpt>
   <trkpt lat="-37.86632" lon="145.37727">
    <ele>552.28</ele>
   </trkpt>
   <trkpt lat="-37.86663" lon="145.37732000000003">
    <ele>547.3100000000001</ele>
   </trkpt>
   <trkpt lat="-37.86694" lon="145.37748000000002">
    <ele>541.91</ele>
   </trkpt>
   <trkpt lat="-37.86731" lon="145.37782">
    <ele>536.2800000000001</ele>
   </trkpt>
   <trkpt lat="-37.867360000000005" lon="145.3778">
    <ele>536.85</ele>
   </trkpt>
   <trkpt lat="-37.86764" lon="145.37802000000002">
    <ele>535.1100000000001</ele>
   </trkpt>
   <trkpt lat="-37.86802" lon="145.37826">
    <ele>533.81</ele>
   </trkpt>
   <trkpt lat="-37.86849" lon="145.37853">
    <ele>531.9</ele>
   </trkpt>
   <trkpt lat="-37.86914" lon="145.37900000000002">
    <ele>526.19</ele>
   </trkpt>
   <trkpt lat="-37.86988" lon="145.37951">
    <ele>517.36</ele>
   </trkpt>
   <trkpt lat="-37.87006" lon="145.37962000000002">
    <ele>515.03</ele>
   </trkpt>
   <trkpt lat="-37.87024" lon="145.37967">
    <ele>511.01000000000005</ele>
   </trkpt>
   <trkpt lat="-37.87039" lon="145.37975">
    <ele>507.99000000000007</ele>
   </trkpt>
   <trkpt lat="-37.87059" lon="145.37978">
    <ele>503.99000000000007</ele>
   </trkpt>
   <trkpt lat="-37.87077" lon="145.37989000000002">
    <ele>501.04</ele>
   </trkpt>
   <trkpt lat="-37.87124" lon="145.38013">
    <ele>495.84000000000003</ele>
   </trkpt>
   <trkpt lat="-37.871725000301105" lon="145.38032499877272">
    <ele>493.22</ele>
   </trkpt>
   <trkpt lat="-37.87221" lon="145.38052000000002">
    <ele>492.12000000000006</ele>
   </trkpt>
   <trkpt lat="-37.87261" lon="145.38073">
    <ele>490.21000000000004</ele>
   </trkpt>
   <trkpt lat="-37.872690000000006" lon="145.38075">
    <ele>489.36</ele>
   </trkpt>
   <trkpt lat="-37.87279" lon="145.38043000000002">
    <ele>491.44000000000005</ele>
   </trkpt>
   <trkpt lat="-37.8729" lon="145.37994">
    <ele>493.34000000000003</ele>
   </trkpt>
   <trkpt lat="-37.873050000000006" lon="145.37942">
    <ele>489.00000000000006</ele>
   </trkpt>
   <trkpt lat="-37.8732200097698" lon="145.378542506071">
    <ele>476.71000000000004</ele>
   </trkpt>
   <trkpt lat="-37.87339001302693" lon="145.37766500809204">
    <ele>468.81000000000006</ele>
   </trkpt>
   <trkpt lat="-37.87356000977134" lon="145.3767875060633">
    <ele>457.91</ele>
   </trkpt>
   <trkpt lat="-37.87373" lon="145.37591">
    <ele>442.61000000000007</ele>
   </trkpt>
   <trkpt lat="-37.87386" lon="145.37503">
    <ele>430.20000000000005</ele>
   </trkpt>
   <trkpt lat="-37.87405000202032" lon="145.37434000175463">
    <ele>418.50000000000006</ele>
   </trkpt>
   <trkpt lat="-37.87424" lon="145.37365">
    <ele>407.23</ele>
   </trkpt>
   <trkpt lat="-37.87433" lon="145.37300000000002">
    <ele>396.90000000000003</ele>
   </trkpt>
   <trkpt lat="-37.87449500152985" lon="145.372400001317">
    <ele>381.70000000000005</ele>
   </trkpt>
   <trkpt lat="-37.874660000000006" lon="145.3718">
    <ele>358.79</ele>
   </trkpt>
   <trkpt lat="-37.874700000000004" lon="145.37130000000002">
    <ele>344.73</ele>
   </trkpt>
   <trkpt lat="-37.875040000000006" lon="145.37126">
    <ele>343.31</ele>
   </trkpt>
   <trkpt lat="-37.875220000000006" lon="145.37127">
    <ele>341.68</ele>
   </trkpt>
   <trkpt lat="-37.87579" lon="145.37137">
    <ele>338.25000000000006</ele>
   </trkpt>
   <trkpt lat="-37.87597" lon="145.37137">
    <ele>335.14000000000004</ele>
   </trkpt>
   <trkpt lat="-37.87628" lon="145.37130000000002">
    <ele>333.59000000000003</ele>
   </trkpt>
   <trkpt lat="-37.87637" lon="145.37132000000003">
    <ele>333.13000000000005</ele>
   </trkpt>
   <trkpt lat="-37.8765" lon="145.37138000000002">
    <ele>332.54</ele>
   </trkpt>
   <trkpt lat="-37.87704" lon="145.37202000000002">
    <ele>329.90000000000003</ele>
   </trkpt>
   <trkpt lat="-37.87744500059276" lon="145.37245499738538">
    <ele>326.11</ele>
   </trkpt>
   <trkpt lat="-37.87785" lon="145.37289">
    <ele>322.31000000000006</ele>
   </trkpt>
   <trkpt lat="-37.87792" lon="145.37301000000002">
    <ele>321.63</ele>
   </trkpt>
   <trkpt lat="-37.87807" lon="145.37275000000002">
    <ele>339.93</ele>
   </trkpt>
   <trkpt lat="-37.87832" lon="145.37275000000002">
    <ele>331.34000000000003</ele>
   </trkpt>
   <trkpt lat="-37.87841" lon="145.37286">
    <ele>330.21</ele>
   </trkpt>
   <trkpt lat="-37.878460000000004" lon="145.37306">
    <ele>325.12</ele>
   </trkpt>
   <trkpt lat="-37.87863" lon="145.37271">
    <ele>330.34000000000003</ele>
   </trkpt>
   <trkpt lat="-37.87883" lon="145.37248000000002">
    <ele>333.95000000000005</ele>
   </trkpt>
   <trkpt lat="-37.878980000000006" lon="145.3724">
    <ele>335.01000000000005</ele>
   </trkpt>
   <trkpt lat="-37.87935" lon="145.37225">
    <ele>339.15</ele>
   </trkpt>
   <trkpt lat="-37.879430000000006" lon="145.37229000000002">
    <ele>339.41</ele>
   </trkpt>
   <trkpt lat="-37.87955" lon="145.37228000000002">
    <ele>340.21</ele>
   </trkpt>
   <trkpt lat="-37.88013" lon="145.37231">
    <ele>342.67</ele>
   </trkpt>
   <trkpt lat="-37.88033" lon="145.37229000000002">
    <ele>343.59</ele>
   </trkpt>
   <trkpt lat="-37.88073" lon="145.37217">
    <ele>345.68000000000006</ele>
   </trkpt>
   <trkpt lat="-37.88098" lon="145.37206">
    <ele>348.36</ele>
   </trkpt>
   <trkpt lat="-37.88146500028017" lon="145.37177500191407">
    <ele>352.98</ele>
   </trkpt>
   <trkpt lat="-37.88195" lon="145.37149000000002">
    <ele>355.62000000000006</ele>
   </trkpt>
   <trkpt lat="-37.8819" lon="145.37178">
    <ele>359.94000000000005</ele>
   </trkpt>
   <trkpt lat="-37.88192500181996" lon="145.3724349999213">
    <ele>371.04</ele>
   </trkpt>
   <trkpt lat="-37.88195" lon="145.37309000000002">
    <ele>381.93000000000006</ele>
   </trkpt>
   <trkpt lat="-37.88261" lon="145.37303">
    <ele>386.83</ele>
   </trkpt>
   <trkpt lat="-37.88279" lon="145.37299000000002">
    <ele>388.44</ele>
   </trkpt>
   <trkpt lat="-37.88304" lon="145.37297">
    <ele>391.52000000000004</ele>
   </trkpt>
   <trkpt lat="-37.88356" lon="145.37298">
    <ele>401.0</ele>
   </trkpt>
   <trkpt lat="-37.884015000188214" lon="145.37297500002884">
    <ele>416.08000000000004</ele>
   </trkpt>
   <trkpt lat="-37.88447" lon="145.37297">
    <ele>426.17</ele>
   </trkpt>
   <trkpt lat="-37.88535" lon="145.37292000000002">
    <ele>430.00000000000006</ele>
   </trkpt>
   <trkpt lat="-37.88511500135821" lon="145.37235499821637">
    <ele>408.46000000000004</ele>
   </trkpt>
   <trkpt lat="-37.88488" lon="145.37179">
    <ele>388.99000000000007</ele>
   </trkpt>
   <trkpt lat="-37.884890001757675" lon="145.37114500020886">
    <ele>384.12</ele>
   </trkpt>
   <trkpt lat="-37.8849" lon="145.37050000000002">
    <ele>374.52000000000004</ele>
   </trkpt>
   <trkpt lat="-37.8849" lon="145.37049000000002">
    <ele>370.76000000000005</ele>
   </trkpt>
   <trkpt lat="-37.88506" lon="145.37043">
    <ele>369.15000000000003</ele>
   </trkpt>
   <trkpt lat="-37.88543000000001" lon="145.37133">
    <ele>372.12</ele>
   </trkpt>
   <trkpt lat="-37.88559" lon="145.37135">
    <ele>371.44000000000005</ele>
   </trkpt>
   <trkpt lat="-37.88584" lon="145.37130000000002">
    <ele>368.25</ele>
   </trkpt>
   <trkpt lat="-37.88617" lon="145.37130000000002">
    <ele>363.7</ele>
   </trkpt>
   <trkpt lat="-37.88618" lon="145.37129000000002">
    <ele>363.7</ele>
   </trkpt>
   <trkpt lat="-37.88642" lon="145.37114000000003">
    <ele>357.99</ele>
   </trkpt>
   <trkpt lat="-37.88689" lon="145.37060000000002">
    <ele>353.32</ele>
   </trkpt>
   <trkpt lat="-37.88653" lon="145.37102000000002">
    <ele>375.43</ele>
   </trkpt>
   <trkpt lat="-37.88600500006275" lon="145.3711800011546">
    <ele>375.43</ele>
   </trkpt>
   <trkpt lat="-37.88548" lon="145.37134">
    <ele>372.1</ele>
   </trkpt>
   <trkpt lat="-37.88559" lon="145.37135">
    <ele>371.81</ele>
   </trkpt>
   <trkpt lat="-37.88584" lon="145.37130000000002">
    <ele>368.25</ele>
   </trkpt>
   <trkpt lat="-37.88617" lon="145.37130000000002">
    <ele>364.74</ele>
   </trkpt>
   <trkpt lat="-37.88642" lon="145.37114000000003">
    <ele>357.99</ele>
   </trkpt>
   <trkpt lat="-37.88689" lon="145.37060000000002">
    <ele>353.32</ele>
   </trkpt>
   <trkpt lat="-37.88693" lon="145.37054">
    <ele>353.59000000000003</ele>
   </trkpt>
   <trkpt lat="-37.887260000000005" lon="145.37026">
    <ele>351.92</ele>
   </trkpt>
  </trkseg>
 </trk>
</gpx>
