<?xml version="1.0" encoding="UTF-8"?>
<gpx creator="StravaGPX" version="1.1" xmlns="http://www.topografix.com/GPX/1/1" xmlns:xsi="http://www.w3.org/2001/XMLSchema-instance" xsi:schemaLocation="http://www.topografix.com/GPX/1/1 http://www.topografix.com/GPX/1/1/gpx.xsd">
 <metadata>
  <name>DTR 28 May 2023</name>
  <author>
   <name>john csorgo</name>
  </author>
  <copyright author="OpenStreetMap contributors">
   <year>2020</year>
   <license>https://www.openstreetmap.org/copyright</license>
  </copyright>
 </metadata>
 <trk>
  <name>DTR 28 May 2023</name>
  <link href=""/>
  <type>running</type>
  <trkseg>
   <trkpt lat="-37.862950000000005" lon="145.35362">
    <ele>478.53000000000003</ele>
   </trkpt>
   <trkpt lat="-37.863690000000005" lon="145.3531">
    <ele>478.03000000000003</ele>
   </trkpt>
   <trkpt lat="-37.863405001669506" lon="145.3524799976981">
    <ele>480.56000000000006</ele>
   </trkpt>
   <trkpt lat="-37.86312" lon="145.35186000000002">
    <ele>478.17</ele>
   </trkpt>
   <trkpt lat="-37.86309" lon="145.35176">
    <ele>477.96000000000004</ele>
   </trkpt>
   <trkpt lat="-37.863110000000006" lon="145.35169000000002">
    <ele>477.6</ele>
   </trkpt>
   <trkpt lat="-37.8633" lon="145.35153000000003">
    <ele>478.02000000000004</ele>
   </trkpt>
   <trkpt lat="-37.863420000000005" lon="145.35147">
    <ele>478.57000000000005</ele>
   </trkpt>
   <trkpt lat="-37.8635" lon="145.3513">
    <ele>480.21000000000004</ele>
   </trkpt>
   <trkpt lat="-37.86359" lon="145.35126000000002">
    <ele>481.50000000000006</ele>
   </trkpt>
   <trkpt lat="-37.86368" lon="145.35119">
    <ele>484.13000000000005</ele>
   </trkpt>
   <trkpt lat="-37.86379" lon="145.35118">
    <ele>487.38000000000005</ele>
   </trkpt>
   <trkpt lat="-37.864050000000006" lon="145.35102">
    <ele>494.51000000000005</ele>
   </trkpt>
   <trkpt lat="-37.8641" lon="145.35089000000002">
    <ele>496.07000000000005</ele>
   </trkpt>
   <trkpt lat="-37.8641" lon="145.35074">
    <ele>497.2300000000001</ele>
   </trkpt>
   <trkpt lat="-37.86417" lon="145.35060000000001">
    <ele>499.41</ele>
   </trkpt>
   <trkpt lat="-37.86448" lon="145.34977">
    <ele>510.56</ele>
   </trkpt>
   <trkpt lat="-37.864695001533185" lon="145.34917000172027">
    <ele>517.12</ele>
   </trkpt>
   <trkpt lat="-37.86491" lon="145.34857000000002">
    <ele>521.95</ele>
   </trkpt>
   <trkpt lat="-37.86496" lon="145.34829000000002">
    <ele>523.61</ele>
   </trkpt>
   <trkpt lat="-37.86497" lon="145.34822">
    <ele>523.61</ele>
   </trkpt>
   <trkpt lat="-37.86491" lon="145.34814">
    <ele>523.61</ele>
   </trkpt>
   <trkpt lat="-37.86484" lon="145.34797">
    <ele>519.36</ele>
   </trkpt>
   <trkpt lat="-37.864810000000006" lon="145.34757000000002">
    <ele>515.47</ele>
   </trkpt>
   <trkpt lat="-37.86482" lon="145.34718">
    <ele>510.6700000000001</ele>
   </trkpt>
   <trkpt lat="-37.86493" lon="145.34701">
    <ele>508.46000000000004</ele>
   </trkpt>
   <trkpt lat="-37.865370000000006" lon="145.34673">
    <ele>504.5900000000001</ele>
   </trkpt>
   <trkpt lat="-37.8659" lon="145.34657">
    <ele>499.86</ele>
   </trkpt>
   <trkpt lat="-37.86589" lon="145.34647">
    <ele>500.2000000000001</ele>
   </trkpt>
   <trkpt lat="-37.86598" lon="145.34626">
    <ele>500.4700000000001</ele>
   </trkpt>
   <trkpt lat="-37.866" lon="145.34601">
    <ele>499.6700000000001</ele>
   </trkpt>
   <trkpt lat="-37.86589" lon="145.34556">
    <ele>497.76000000000005</ele>
   </trkpt>
   <trkpt lat="-37.86594" lon="145.34547">
    <ele>496.7300000000001</ele>
   </trkpt>
   <trkpt lat="-37.865990000000004" lon="145.3454">
    <ele>496.08</ele>
   </trkpt>
   <trkpt lat="-37.865990000000004" lon="145.34539">
    <ele>496.00000000000006</ele>
   </trkpt>
   <trkpt lat="-37.86621" lon="145.34518">
    <ele>489.72</ele>
   </trkpt>
   <trkpt lat="-37.86697" lon="145.34459">
    <ele>495.97</ele>
   </trkpt>
   <trkpt lat="-37.86741" lon="145.34451">
    <ele>500.16</ele>
   </trkpt>
   <trkpt lat="-37.86792500001225" lon="145.3444400004904">
    <ele>504.0300000000001</ele>
   </trkpt>
   <trkpt lat="-37.86844" lon="145.34437">
    <ele>506.30000000000007</ele>
   </trkpt>
   <trkpt lat="-37.86862" lon="145.34431">
    <ele>506.7900000000001</ele>
   </trkpt>
   <trkpt lat="-37.86889" lon="145.34432">
    <ele>507.99000000000007</ele>
   </trkpt>
   <trkpt lat="-37.86907" lon="145.34435000000002">
    <ele>508.86000000000007</ele>
   </trkpt>
   <trkpt lat="-37.86956" lon="145.34455">
    <ele>515.24</ele>
   </trkpt>
   <trkpt lat="-37.86983" lon="145.34474">
    <ele>517.99</ele>
   </trkpt>
   <trkpt lat="-37.87024" lon="145.34483">
    <ele>513.2500000000001</ele>
   </trkpt>
   <trkpt lat="-37.87035" lon="145.34482">
    <ele>512.07</ele>
   </trkpt>
   <trkpt lat="-37.870630000000006" lon="145.34474">
    <ele>509.92</ele>
   </trkpt>
   <trkpt lat="-37.870830000000005" lon="145.34461000000002">
    <ele>507.76</ele>
   </trkpt>
   <trkpt lat="-37.871140000000004" lon="145.34425000000002">
    <ele>507.6700000000001</ele>
   </trkpt>
   <trkpt lat="-37.87088" lon="145.34415">
    <ele>504.11000000000007</ele>
   </trkpt>
   <trkpt lat="-37.87066" lon="145.34400000000002">
    <ele>500.5400000000001</ele>
   </trkpt>
   <trkpt lat="-37.87037" lon="145.34387">
    <ele>494.55</ele>
   </trkpt>
   <trkpt lat="-37.87026" lon="145.34375">
    <ele>494.02</ele>
   </trkpt>
   <trkpt lat="-37.86997" lon="145.34354000000002">
    <ele>498.00000000000006</ele>
   </trkpt>
   <trkpt lat="-37.86992" lon="145.34348">
    <ele>498.69</ele>
   </trkpt>
   <trkpt lat="-37.86992" lon="145.34339">
    <ele>499.70000000000005</ele>
   </trkpt>
   <trkpt lat="-37.86914" lon="145.34323">
    <ele>495.42</ele>
   </trkpt>
   <trkpt lat="-37.86891" lon="145.34316">
    <ele>493.81</ele>
   </trkpt>
   <trkpt lat="-37.86838" lon="145.34305">
    <ele>490.56000000000006</ele>
   </trkpt>
   <trkpt lat="-37.86766" lon="145.34284000000002">
    <ele>485.67</ele>
   </trkpt>
   <trkpt lat="-37.86741" lon="145.34287">
    <ele>482.24000000000007</ele>
   </trkpt>
   <trkpt lat="-37.86717" lon="145.34283000000002">
    <ele>479.03000000000003</ele>
   </trkpt>
   <trkpt lat="-37.86663" lon="145.34261">
    <ele>478.01000000000005</ele>
   </trkpt>
   <trkpt lat="-37.86634" lon="145.34241">
    <ele>479.02000000000004</ele>
   </trkpt>
   <trkpt lat="-37.86587" lon="145.34215">
    <ele>480.31</ele>
   </trkpt>
   <trkpt lat="-37.86565" lon="145.34188">
    <ele>481.6</ele>
   </trkpt>
   <trkpt lat="-37.865610000000004" lon="145.34172">
    <ele>482.05</ele>
   </trkpt>
   <trkpt lat="-37.86567" lon="145.3417">
    <ele>481.57000000000005</ele>
   </trkpt>
   <trkpt lat="-37.86571" lon="145.34146">
    <ele>480.62000000000006</ele>
   </trkpt>
   <trkpt lat="-37.8658" lon="145.34115">
    <ele>478.84000000000003</ele>
   </trkpt>
   <trkpt lat="-37.86592" lon="145.34042000000002">
    <ele>469.54</ele>
   </trkpt>
   <trkpt lat="-37.866" lon="145.33999">
    <ele>466.86000000000007</ele>
   </trkpt>
   <trkpt lat="-37.86612" lon="145.33962000000002">
    <ele>464.46000000000004</ele>
   </trkpt>
   <trkpt lat="-37.86639" lon="145.33861000000002">
    <ele>453.70000000000005</ele>
   </trkpt>
   <trkpt lat="-37.86647" lon="145.33834000000002">
    <ele>451.54</ele>
   </trkpt>
   <trkpt lat="-37.866530000000004" lon="145.33823">
    <ele>451.54</ele>
   </trkpt>
   <trkpt lat="-37.86663" lon="145.33813">
    <ele>451.11</ele>
   </trkpt>
   <trkpt lat="-37.8667" lon="145.33810000000003">
    <ele>449.32000000000005</ele>
   </trkpt>
   <trkpt lat="-37.86679" lon="145.33809000000002">
    <ele>448.33000000000004</ele>
   </trkpt>
   <trkpt lat="-37.867250000000006" lon="145.33818000000002">
    <ele>443.13</ele>
   </trkpt>
   <trkpt lat="-37.86755" lon="145.33847">
    <ele>442.40000000000003</ele>
   </trkpt>
   <trkpt lat="-37.86771" lon="145.33857">
    <ele>443.44000000000005</ele>
   </trkpt>
   <trkpt lat="-37.86786" lon="145.33862000000002">
    <ele>444.55000000000007</ele>
   </trkpt>
   <trkpt lat="-37.86822" lon="145.33868">
    <ele>448.6</ele>
   </trkpt>
   <trkpt lat="-37.86849" lon="145.33881000000002">
    <ele>450.29</ele>
   </trkpt>
   <trkpt lat="-37.86891" lon="145.33893">
    <ele>454.6</ele>
   </trkpt>
   <trkpt lat="-37.86918" lon="145.33896000000001">
    <ele>456.19000000000005</ele>
   </trkpt>
   <trkpt lat="-37.86941" lon="145.33893">
    <ele>458.22</ele>
   </trkpt>
   <trkpt lat="-37.86954" lon="145.33893">
    <ele>458.84000000000003</ele>
   </trkpt>
   <trkpt lat="-37.8701" lon="145.33884">
    <ele>460.3</ele>
   </trkpt>
   <trkpt lat="-37.87019" lon="145.33884">
    <ele>460.3</ele>
   </trkpt>
   <trkpt lat="-37.87026" lon="145.33888000000002">
    <ele>460.41</ele>
   </trkpt>
   <trkpt lat="-37.87035" lon="145.33879000000002">
    <ele>457.66</ele>
   </trkpt>
   <trkpt lat="-37.87046" lon="145.33875">
    <ele>455.15000000000003</ele>
   </trkpt>
   <trkpt lat="-37.87059" lon="145.33873">
    <ele>452.05000000000007</ele>
   </trkpt>
   <trkpt lat="-37.87075" lon="145.33874">
    <ele>451.33000000000004</ele>
   </trkpt>
   <trkpt lat="-37.87078" lon="145.33871000000002">
    <ele>449.98</ele>
   </trkpt>
   <trkpt lat="-37.87088" lon="145.33873">
    <ele>449.16</ele>
   </trkpt>
   <trkpt lat="-37.87115" lon="145.33883">
    <ele>448.07</ele>
   </trkpt>
   <trkpt lat="-37.87122" lon="145.33881000000002">
    <ele>447.90000000000003</ele>
   </trkpt>
   <trkpt lat="-37.87135" lon="145.33871000000002">
    <ele>446.50000000000006</ele>
   </trkpt>
   <trkpt lat="-37.87158" lon="145.33859">
    <ele>442.69</ele>
   </trkpt>
   <trkpt lat="-37.8722800003669" lon="145.33879499810763">
    <ele>442.69</ele>
   </trkpt>
   <trkpt lat="-37.872980000000005" lon="145.339">
    <ele>461.18</ele>
   </trkpt>
   <trkpt lat="-37.87299" lon="145.33918">
    <ele>462.71</ele>
   </trkpt>
   <trkpt lat="-37.87303" lon="145.3393">
    <ele>464.94</ele>
   </trkpt>
   <trkpt lat="-37.87312" lon="145.33936">
    <ele>466.99</ele>
   </trkpt>
   <trkpt lat="-37.87321" lon="145.33939">
    <ele>468.18</ele>
   </trkpt>
   <trkpt lat="-37.87364" lon="145.33924000000002">
    <ele>482.79</ele>
   </trkpt>
   <trkpt lat="-37.87395" lon="145.33916000000002">
    <ele>488.01000000000005</ele>
   </trkpt>
   <trkpt lat="-37.87413" lon="145.33915000000002">
    <ele>491.26000000000005</ele>
   </trkpt>
   <trkpt lat="-37.8742" lon="145.3391">
    <ele>492.1</ele>
   </trkpt>
   <trkpt lat="-37.87422" lon="145.33898000000002">
    <ele>493.2</ele>
   </trkpt>
   <trkpt lat="-37.8742" lon="145.33787">
    <ele>497.53000000000003</ele>
   </trkpt>
   <trkpt lat="-37.87395" lon="145.33692000000002">
    <ele>492.25</ele>
   </trkpt>
   <trkpt lat="-37.87391" lon="145.33668">
    <ele>487.74000000000007</ele>
   </trkpt>
   <trkpt lat="-37.87393" lon="145.33620000000002">
    <ele>484.69000000000005</ele>
   </trkpt>
   <trkpt lat="-37.87406" lon="145.33561">
    <ele>479.11</ele>
   </trkpt>
   <trkpt lat="-37.87414000145162" lon="145.33503000041983">
    <ele>474.28000000000003</ele>
   </trkpt>
   <trkpt lat="-37.87422" lon="145.33445">
    <ele>470.07000000000005</ele>
   </trkpt>
   <trkpt lat="-37.87442500199419" lon="145.33376500187345">
    <ele>465.24</ele>
   </trkpt>
   <trkpt lat="-37.87463" lon="145.33308000000002">
    <ele>458.52000000000004</ele>
   </trkpt>
   <trkpt lat="-37.87489" lon="145.33247">
    <ele>451.63</ele>
   </trkpt>
   <trkpt lat="-37.87534" lon="145.33156000000002">
    <ele>438.97</ele>
   </trkpt>
   <trkpt lat="-37.87543" lon="145.33131">
    <ele>436.9</ele>
   </trkpt>
   <trkpt lat="-37.87545" lon="145.33118000000002">
    <ele>436.28000000000003</ele>
   </trkpt>
   <trkpt lat="-37.87543" lon="145.33104">
    <ele>436.11000000000007</ele>
   </trkpt>
   <trkpt lat="-37.875400000000006" lon="145.33097">
    <ele>435.83000000000004</ele>
   </trkpt>
   <trkpt lat="-37.87514" lon="145.33068">
    <ele>436.06000000000006</ele>
   </trkpt>
   <trkpt lat="-37.87491" lon="145.33029000000002">
    <ele>436.35</ele>
   </trkpt>
   <trkpt lat="-37.8748" lon="145.32998">
    <ele>436.29</ele>
   </trkpt>
   <trkpt lat="-37.87469" lon="145.32956000000001">
    <ele>437.29</ele>
   </trkpt>
   <trkpt lat="-37.87456" lon="145.32923000000002">
    <ele>439.63</ele>
   </trkpt>
   <trkpt lat="-37.87435" lon="145.32887000000002">
    <ele>443.57</ele>
   </trkpt>
   <trkpt lat="-37.87382" lon="145.32833000000002">
    <ele>449.40000000000003</ele>
   </trkpt>
   <trkpt lat="-37.87375" lon="145.3282">
    <ele>450.96000000000004</ele>
   </trkpt>
   <trkpt lat="-37.87368" lon="145.32803">
    <ele>453.36</ele>
   </trkpt>
   <trkpt lat="-37.87366" lon="145.32778000000002">
    <ele>459.14000000000004</ele>
   </trkpt>
   <trkpt lat="-37.87359" lon="145.32762000000002">
    <ele>462.1</ele>
   </trkpt>
   <trkpt lat="-37.87315500148315" lon="145.32701999640304">
    <ele>469.44</ele>
   </trkpt>
   <trkpt lat="-37.87272" lon="145.32642">
    <ele>477.6</ele>
   </trkpt>
   <trkpt lat="-37.87261" lon="145.32628000000003">
    <ele>478.93</ele>
   </trkpt>
   <trkpt lat="-37.87238" lon="145.32607000000002">
    <ele>480.69000000000005</ele>
   </trkpt>
   <trkpt lat="-37.87182" lon="145.3257">
    <ele>481.7</ele>
   </trkpt>
   <trkpt lat="-37.87171" lon="145.32548">
    <ele>482.14</ele>
   </trkpt>
   <trkpt lat="-37.87174" lon="145.32545000000002">
    <ele>482.33000000000004</ele>
   </trkpt>
   <trkpt lat="-37.87198" lon="145.32489">
    <ele>483.54</ele>
   </trkpt>
   <trkpt lat="-37.87245" lon="145.32441">
    <ele>484.03000000000003</ele>
   </trkpt>
   <trkpt lat="-37.87268" lon="145.32410000000002">
    <ele>482.06000000000006</ele>
   </trkpt>
   <trkpt lat="-37.87272" lon="145.32376000000002">
    <ele>476.74000000000007</ele>
   </trkpt>
   <trkpt lat="-37.87263" lon="145.32314000000002">
    <ele>472.96000000000004</ele>
   </trkpt>
   <trkpt lat="-37.87256" lon="145.32222000000002">
    <ele>478.02000000000004</ele>
   </trkpt>
   <trkpt lat="-37.87259" lon="145.32189000000002">
    <ele>483.57000000000005</ele>
   </trkpt>
   <trkpt lat="-37.87272" lon="145.32133000000002">
    <ele>492.17</ele>
   </trkpt>
   <trkpt lat="-37.87272" lon="145.32123">
    <ele>494.05</ele>
   </trkpt>
   <trkpt lat="-37.87261" lon="145.32053000000002">
    <ele>504.75</ele>
   </trkpt>
   <trkpt lat="-37.87268" lon="145.32001000000002">
    <ele>512.2500000000001</ele>
   </trkpt>
   <trkpt lat="-37.87272" lon="145.31971000000001">
    <ele>513.82</ele>
   </trkpt>
   <trkpt lat="-37.87275" lon="145.31964000000002">
    <ele>513.84</ele>
   </trkpt>
   <trkpt lat="-37.87303" lon="145.31965000000002">
    <ele>512.07</ele>
   </trkpt>
   <trkpt lat="-37.87328" lon="145.3197">
    <ele>510.50000000000006</ele>
   </trkpt>
   <trkpt lat="-37.87355" lon="145.31979">
    <ele>508.28000000000003</ele>
   </trkpt>
   <trkpt lat="-37.874" lon="145.32000000000002">
    <ele>503.51</ele>
   </trkpt>
   <trkpt lat="-37.87415" lon="145.32003">
    <ele>497.66</ele>
   </trkpt>
   <trkpt lat="-37.87442" lon="145.32003">
    <ele>497.66</ele>
   </trkpt>
   <trkpt lat="-37.87473" lon="145.32017000000002">
    <ele>493.2</ele>
   </trkpt>
   <trkpt lat="-37.87491" lon="145.3202">
    <ele>492.04</ele>
   </trkpt>
   <trkpt lat="-37.874970000000005" lon="145.32116000000002">
    <ele>488.77000000000004</ele>
   </trkpt>
   <trkpt lat="-37.87518" lon="145.32162000000002">
    <ele>490.09000000000003</ele>
   </trkpt>
   <trkpt lat="-37.87534" lon="145.32181">
    <ele>491.49</ele>
   </trkpt>
   <trkpt lat="-37.87541" lon="145.32191">
    <ele>491.49</ele>
   </trkpt>
   <trkpt lat="-37.87566" lon="145.32217">
    <ele>493.34000000000003</ele>
   </trkpt>
   <trkpt lat="-37.876205000213425" lon="145.32235499865456">
    <ele>493.74000000000007</ele>
   </trkpt>
   <trkpt lat="-37.87675" lon="145.32254">
    <ele>491.74000000000007</ele>
   </trkpt>
   <trkpt lat="-37.877" lon="145.32270000000003">
    <ele>493.25</ele>
   </trkpt>
   <trkpt lat="-37.87783" lon="145.32313000000002">
    <ele>496.00000000000006</ele>
   </trkpt>
   <trkpt lat="-37.8782" lon="145.32342">
    <ele>495.42</ele>
   </trkpt>
   <trkpt lat="-37.8787" lon="145.32406">
    <ele>496.40000000000003</ele>
   </trkpt>
   <trkpt lat="-37.87892" lon="145.32431000000003">
    <ele>497.38000000000005</ele>
   </trkpt>
   <trkpt lat="-37.87932" lon="145.32488">
    <ele>495.46000000000004</ele>
   </trkpt>
   <trkpt lat="-37.87993" lon="145.32551">
    <ele>490.7</ele>
   </trkpt>
   <trkpt lat="-37.88067" lon="145.32611">
    <ele>482.88</ele>
   </trkpt>
   <trkpt lat="-37.88132" lon="145.32653000000002">
    <ele>476.98</ele>
   </trkpt>
   <trkpt lat="-37.88172" lon="145.32688000000002">
    <ele>471.9200000000001</ele>
   </trkpt>
   <trkpt lat="-37.88181" lon="145.32698000000002">
    <ele>470.76</ele>
   </trkpt>
   <trkpt lat="-37.88201" lon="145.32736">
    <ele>468.80000000000007</ele>
   </trkpt>
   <trkpt lat="-37.88223" lon="145.32806000000002">
    <ele>462.85</ele>
   </trkpt>
   <trkpt lat="-37.88241" lon="145.32832000000002">
    <ele>457.94</ele>
   </trkpt>
   <trkpt lat="-37.88264" lon="145.32853">
    <ele>452.3</ele>
   </trkpt>
   <trkpt lat="-37.88284" lon="145.32863">
    <ele>447.20000000000005</ele>
   </trkpt>
   <trkpt lat="-37.88311" lon="145.32864">
    <ele>443.1</ele>
   </trkpt>
   <trkpt lat="-37.88342" lon="145.32859000000002">
    <ele>436.8</ele>
   </trkpt>
   <trkpt lat="-37.88378" lon="145.32857">
    <ele>433.46</ele>
   </trkpt>
   <trkpt lat="-37.88407" lon="145.32862">
    <ele>427.74</ele>
   </trkpt>
   <trkpt lat="-37.88447" lon="145.32879">
    <ele>421.34000000000003</ele>
   </trkpt>
   <trkpt lat="-37.88499" lon="145.32899">
    <ele>409.02000000000004</ele>
   </trkpt>
   <trkpt lat="-37.88555" lon="145.32899">
    <ele>400.07000000000005</ele>
   </trkpt>
   <trkpt lat="-37.88584" lon="145.32891">
    <ele>393.25000000000006</ele>
   </trkpt>
   <trkpt lat="-37.88604" lon="145.32873">
    <ele>386.64000000000004</ele>
   </trkpt>
   <trkpt lat="-37.88624" lon="145.32841000000002">
    <ele>381.77000000000004</ele>
   </trkpt>
   <trkpt lat="-37.886390000000006" lon="145.32833000000002">
    <ele>380.51</ele>
   </trkpt>
   <trkpt lat="-37.88638" lon="145.32786000000002">
    <ele>377.07</ele>
   </trkpt>
   <trkpt lat="-37.88633" lon="145.32777000000002">
    <ele>376.63</ele>
   </trkpt>
   <trkpt lat="-37.88624" lon="145.32741000000001">
    <ele>374.95</ele>
   </trkpt>
   <trkpt lat="-37.886190000000006" lon="145.32696">
    <ele>374.01</ele>
   </trkpt>
   <trkpt lat="-37.88608" lon="145.32707000000002">
    <ele>372.3</ele>
   </trkpt>
   <trkpt lat="-37.8857" lon="145.3273">
    <ele>367.16</ele>
   </trkpt>
   <trkpt lat="-37.88559" lon="145.32723000000001">
    <ele>366.69</ele>
   </trkpt>
   <trkpt lat="-37.88555" lon="145.32716000000002">
    <ele>365.65000000000003</ele>
   </trkpt>
   <trkpt lat="-37.88546" lon="145.32689000000002">
    <ele>363.25</ele>
   </trkpt>
   <trkpt lat="-37.88539" lon="145.32682">
    <ele>362.07</ele>
   </trkpt>
   <trkpt lat="-37.88532" lon="145.32677">
    <ele>360.43</ele>
   </trkpt>
   <trkpt lat="-37.88517" lon="145.32679000000002">
    <ele>360.43</ele>
   </trkpt>
   <trkpt lat="-37.8851" lon="145.32674">
    <ele>357.25</ele>
   </trkpt>
   <trkpt lat="-37.88503" lon="145.32657">
    <ele>356.06000000000006</ele>
   </trkpt>
   <trkpt lat="-37.88501" lon="145.32641">
    <ele>353.55</ele>
   </trkpt>
   <trkpt lat="-37.88481" lon="145.32615">
    <ele>351.46999999999997</ele>
   </trkpt>
   <trkpt lat="-37.88472" lon="145.32611">
    <ele>349.34000000000003</ele>
   </trkpt>
   <trkpt lat="-37.8847" lon="145.32606">
    <ele>349.34000000000003</ele>
   </trkpt>
   <trkpt lat="-37.88467" lon="145.32594">
    <ele>348.36</ele>
   </trkpt>
   <trkpt lat="-37.88472" lon="145.32581000000002">
    <ele>347.11</ele>
   </trkpt>
   <trkpt lat="-37.88483" lon="145.32566">
    <ele>344.02000000000004</ele>
   </trkpt>
   <trkpt lat="-37.8849" lon="145.32534">
    <ele>340.26</ele>
   </trkpt>
   <trkpt lat="-37.88494" lon="145.32504">
    <ele>336.13000000000005</ele>
   </trkpt>
   <trkpt lat="-37.88494" lon="145.32475000000002">
    <ele>331.70000000000005</ele>
   </trkpt>
   <trkpt lat="-37.8849" lon="145.32459">
    <ele>331.70000000000005</ele>
   </trkpt>
   <trkpt lat="-37.88481" lon="145.32436">
    <ele>327.82</ele>
   </trkpt>
   <trkpt lat="-37.88481" lon="145.32417">
    <ele>325.05</ele>
   </trkpt>
   <trkpt lat="-37.88483" lon="145.32404000000002">
    <ele>323.97</ele>
   </trkpt>
   <trkpt lat="-37.88481" lon="145.32355">
    <ele>314.33</ele>
   </trkpt>
   <trkpt lat="-37.8849" lon="145.32336">
    <ele>309.73</ele>
   </trkpt>
   <trkpt lat="-37.88488" lon="145.32315">
    <ele>306.84</ele>
   </trkpt>
   <trkpt lat="-37.88479" lon="145.32282">
    <ele>304.1</ele>
   </trkpt>
   <trkpt lat="-37.88456" lon="145.32247">
    <ele>298.24</ele>
   </trkpt>
   <trkpt lat="-37.88447" lon="145.32227">
    <ele>296.84000000000003</ele>
   </trkpt>
   <trkpt lat="-37.88443" lon="145.32186000000002">
    <ele>292.91</ele>
   </trkpt>
   <trkpt lat="-37.88432" lon="145.32141000000001">
    <ele>286.24000000000007</ele>
   </trkpt>
   <trkpt lat="-37.88423" lon="145.32127">
    <ele>285.03</ele>
   </trkpt>
   <trkpt lat="-37.88416" lon="145.3211">
    <ele>283.15000000000003</ele>
   </trkpt>
   <trkpt lat="-37.88416" lon="145.32099000000002">
    <ele>280.55</ele>
   </trkpt>
   <trkpt lat="-37.88425" lon="145.32069">
    <ele>278.76</ele>
   </trkpt>
   <trkpt lat="-37.88429" lon="145.32048">
    <ele>276.13000000000005</ele>
   </trkpt>
   <trkpt lat="-37.88425" lon="145.3202">
    <ele>273.3</ele>
   </trkpt>
   <trkpt lat="-37.88416" lon="145.31998000000002">
    <ele>271.55</ele>
   </trkpt>
   <trkpt lat="-37.88416" lon="145.31972000000002">
    <ele>270.01000000000005</ele>
   </trkpt>
   <trkpt lat="-37.88409" lon="145.31915">
    <ele>263.12</ele>
   </trkpt>
   <trkpt lat="-37.884" lon="145.31884000000002">
    <ele>260.95</ele>
   </trkpt>
   <trkpt lat="-37.88378" lon="145.31852">
    <ele>258.09000000000003</ele>
   </trkpt>
   <trkpt lat="-37.88373" lon="145.31835">
    <ele>256.17</ele>
   </trkpt>
   <trkpt lat="-37.88396" lon="145.31833">
    <ele>252.81000000000003</ele>
   </trkpt>
   <trkpt lat="-37.88429" lon="145.31839000000002">
    <ele>248.91000000000003</ele>
   </trkpt>
   <trkpt lat="-37.88477" lon="145.31835">
    <ele>242.44</ele>
   </trkpt>
   <trkpt lat="-37.88528" lon="145.31820000000002">
    <ele>231.69</ele>
   </trkpt>
   <trkpt lat="-37.88555" lon="145.31807">
    <ele>228.69000000000003</ele>
   </trkpt>
   <trkpt lat="-37.88611" lon="145.31784000000002">
    <ele>225.13000000000002</ele>
   </trkpt>
   <trkpt lat="-37.88669" lon="145.31744">
    <ele>225.09</ele>
   </trkpt>
   <trkpt lat="-37.886880000000005" lon="145.31755">
    <ele>222.56</ele>
   </trkpt>
   <trkpt lat="-37.88712" lon="145.31764">
    <ele>219.26000000000002</ele>
   </trkpt>
   <trkpt lat="-37.88725" lon="145.31765000000001">
    <ele>219.26000000000002</ele>
   </trkpt>
   <trkpt lat="-37.88761" lon="145.31761">
    <ele>213.50000000000003</ele>
   </trkpt>
   <trkpt lat="-37.88783" lon="145.31755">
    <ele>211.6</ele>
   </trkpt>
   <trkpt lat="-37.88799" lon="145.31761">
    <ele>209.52</ele>
   </trkpt>
   <trkpt lat="-37.88817" lon="145.31758000000002">
    <ele>207.89000000000001</ele>
   </trkpt>
   <trkpt lat="-37.88839" lon="145.31764">
    <ele>205.59000000000003</ele>
   </trkpt>
   <trkpt lat="-37.88846" lon="145.31753">
    <ele>204.58</ele>
   </trkpt>
   <trkpt lat="-37.88899" lon="145.31718">
    <ele>202.31</ele>
   </trkpt>
   <trkpt lat="-37.889680000000006" lon="145.31692">
    <ele>197.47</ele>
   </trkpt>
   <trkpt lat="-37.8902" lon="145.31674">
    <ele>191.58</ele>
   </trkpt>
   <trkpt lat="-37.89072" lon="145.31638">
    <ele>184.77</ele>
   </trkpt>
   <trkpt lat="-37.89108" lon="145.31604000000002">
    <ele>181.28000000000003</ele>
   </trkpt>
   <trkpt lat="-37.89148" lon="145.31548">
    <ele>173.19</ele>
   </trkpt>
   <trkpt lat="-37.89159" lon="145.3153">
    <ele>171.96</ele>
   </trkpt>
   <trkpt lat="-37.89164" lon="145.31531">
    <ele>171.96</ele>
   </trkpt>
   <trkpt lat="-37.89202" lon="145.31486">
    <ele>164.43</ele>
   </trkpt>
   <trkpt lat="-37.892360000000004" lon="145.31427000000002">
    <ele>159.70000000000002</ele>
   </trkpt>
   <trkpt lat="-37.892680000000006" lon="145.31344">
    <ele>151.62</ele>
   </trkpt>
   <trkpt lat="-37.89278" lon="145.31323">
    <ele>149.33</ele>
   </trkpt>
   <trkpt lat="-37.8928" lon="145.31221000000002">
    <ele>147.25000000000003</ele>
   </trkpt>
   <trkpt lat="-37.89278" lon="145.31192000000001">
    <ele>145.8</ele>
   </trkpt>
   <trkpt lat="-37.892830000000004" lon="145.31176000000002">
    <ele>144.85</ele>
   </trkpt>
   <trkpt lat="-37.89287" lon="145.31158000000002">
    <ele>143.74</ele>
   </trkpt>
   <trkpt lat="-37.89287" lon="145.31123000000002">
    <ele>142.52</ele>
   </trkpt>
   <trkpt lat="-37.89282" lon="145.31105000000002">
    <ele>142.72</ele>
   </trkpt>
   <trkpt lat="-37.89273" lon="145.31087000000002">
    <ele>143.44</ele>
   </trkpt>
   <trkpt lat="-37.89269" lon="145.31058000000002">
    <ele>143.59000000000003</ele>
   </trkpt>
   <trkpt lat="-37.89265" lon="145.31045">
    <ele>143.48000000000002</ele>
   </trkpt>
   <trkpt lat="-37.89253" lon="145.31028">
    <ele>143.44</ele>
   </trkpt>
   <trkpt lat="-37.89242667342418" lon="145.3093866642151">
    <ele>140.39000000000001</ele>
   </trkpt>
   <trkpt lat="-37.89232334009733" lon="145.30849333093795">
    <ele>135.81</ele>
   </trkpt>
   <trkpt lat="-37.89222" lon="145.3076">
    <ele>137.07</ele>
   </trkpt>
   <trkpt lat="-37.89215" lon="145.30678">
    <ele>137.89000000000001</ele>
   </trkpt>
   <trkpt lat="-37.89213" lon="145.30673000000002">
    <ele>137.85</ele>
   </trkpt>
   <trkpt lat="-37.892030000000005" lon="145.30664000000002">
    <ele>137.55</ele>
   </trkpt>
   <trkpt lat="-37.89197" lon="145.3067">
    <ele>139.09</ele>
   </trkpt>
   <trkpt lat="-37.89193" lon="145.30672">
    <ele>139.09</ele>
   </trkpt>
   <trkpt lat="-37.89141499981064" lon="145.30681000066863">
    <ele>145.86</ele>
   </trkpt>
   <trkpt lat="-37.8909" lon="145.3069">
    <ele>151.60000000000002</ele>
   </trkpt>
   <trkpt lat="-37.89082000143661" lon="145.30630999909545">
    <ele>153.41000000000003</ele>
   </trkpt>
   <trkpt lat="-37.89074" lon="145.30572">
    <ele>158.83</ele>
   </trkpt>
   <trkpt lat="-37.89049" lon="145.30525">
    <ele>167.09</ele>
   </trkpt>
   <trkpt lat="-37.890440000000005" lon="145.3052">
    <ele>168.93000000000004</ele>
   </trkpt>
   <trkpt lat="-37.89047" lon="145.30508">
    <ele>170.77</ele>
   </trkpt>
   <trkpt lat="-37.89045" lon="145.30499">
    <ele>170.77</ele>
   </trkpt>
   <trkpt lat="-37.89011" lon="145.30418">
    <ele>180.49</ele>
   </trkpt>
   <trkpt lat="-37.88996" lon="145.30399">
    <ele>184.55</ele>
   </trkpt>
   <trkpt lat="-37.88950499992609" lon="145.30395999980948">
    <ele>189.4</ele>
   </trkpt>
   <trkpt lat="-37.889050000000005" lon="145.30393">
    <ele>192.26000000000002</ele>
   </trkpt>
   <trkpt lat="-37.88935" lon="145.30413000000001">
    <ele>196.52</ele>
   </trkpt>
   <trkpt lat="-37.88951" lon="145.3042">
    <ele>200.25</ele>
   </trkpt>
   <trkpt lat="-37.88955" lon="145.30427">
    <ele>202.0</ele>
   </trkpt>
   <trkpt lat="-37.88953" lon="145.30433000000002">
    <ele>202.0</ele>
   </trkpt>
   <trkpt lat="-37.88931" lon="145.30447">
    <ele>207.57</ele>
   </trkpt>
   <trkpt lat="-37.88913" lon="145.30452000000002">
    <ele>212.32</ele>
   </trkpt>
   <trkpt lat="-37.888870000000004" lon="145.30451000000002">
    <ele>214.6</ele>
   </trkpt>
   <trkpt lat="-37.8887" lon="145.30462">
    <ele>213.94000000000003</ele>
   </trkpt>
   <trkpt lat="-37.88848" lon="145.30454">
    <ele>212.12000000000003</ele>
   </trkpt>
   <trkpt lat="-37.88828" lon="145.30439">
    <ele>209.51000000000002</ele>
   </trkpt>
   <trkpt lat="-37.88823" lon="145.30448">
    <ele>209.09000000000003</ele>
   </trkpt>
   <trkpt lat="-37.888020000000004" lon="145.30467000000002">
    <ele>206.25</ele>
   </trkpt>
   <trkpt lat="-37.88801" lon="145.30462">
    <ele>206.25</ele>
   </trkpt>
   <trkpt lat="-37.88799" lon="145.30458000000002">
    <ele>206.25</ele>
   </trkpt>
   <trkpt lat="-37.88758" lon="145.30437">
    <ele>199.45000000000002</ele>
   </trkpt>
   <trkpt lat="-37.88705" lon="145.30406000000002">
    <ele>190.4</ele>
   </trkpt>
   <trkpt lat="-37.886610000000005" lon="145.30383">
    <ele>185.8</ele>
   </trkpt>
   <trkpt lat="-37.88629" lon="145.30371000000002">
    <ele>182.19000000000003</ele>
   </trkpt>
   <trkpt lat="-37.88599" lon="145.30387000000002">
    <ele>186.18</ele>
   </trkpt>
   <trkpt lat="-37.88548" lon="145.30434000000002">
    <ele>194.54000000000002</ele>
   </trkpt>
   <trkpt lat="-37.885450000000006" lon="145.30435">
    <ele>194.54000000000002</ele>
   </trkpt>
   <trkpt lat="-37.8853" lon="145.30432000000002">
    <ele>195.38000000000002</ele>
   </trkpt>
   <trkpt lat="-37.88517" lon="145.30418">
    <ele>196.69</ele>
   </trkpt>
   <trkpt lat="-37.8849" lon="145.30398000000002">
    <ele>199.93</ele>
   </trkpt>
   <trkpt lat="-37.8847" lon="145.3039">
    <ele>201.99</ele>
   </trkpt>
   <trkpt lat="-37.884420000000006" lon="145.30389000000002">
    <ele>205.19</ele>
   </trkpt>
   <trkpt lat="-37.88391" lon="145.30401">
    <ele>211.28000000000003</ele>
   </trkpt>
   <trkpt lat="-37.88367" lon="145.30412">
    <ele>214.09000000000003</ele>
   </trkpt>
   <trkpt lat="-37.88331" lon="145.30435">
    <ele>217.95</ele>
   </trkpt>
   <trkpt lat="-37.88309" lon="145.30454">
    <ele>221.44000000000003</ele>
   </trkpt>
   <trkpt lat="-37.88313500228168" lon="145.30527499949974">
    <ele>278.18</ele>
   </trkpt>
   <trkpt lat="-37.88318" lon="145.30601000000001">
    <ele>279.51000000000005</ele>
   </trkpt>
   <trkpt lat="-37.88275000003905" lon="145.30620000115962">
    <ele>285.40999999999997</ele>
   </trkpt>
   <trkpt lat="-37.88232" lon="145.30639000000002">
    <ele>289.88</ele>
   </trkpt>
   <trkpt lat="-37.88183" lon="145.30649000000003">
    <ele>296.12000000000006</ele>
   </trkpt>
   <trkpt lat="-37.88105" lon="145.30653">
    <ele>302.65000000000003</ele>
   </trkpt>
   <trkpt lat="-37.881" lon="145.30655000000002">
    <ele>303.05</ele>
   </trkpt>
   <trkpt lat="-37.880880000000005" lon="145.30665000000002">
    <ele>303.81</ele>
   </trkpt>
   <trkpt lat="-37.88087" lon="145.30666000000002">
    <ele>303.81</ele>
   </trkpt>
   <trkpt lat="-37.88083" lon="145.30677">
    <ele>305.00000000000006</ele>
   </trkpt>
   <trkpt lat="-37.880860000000006" lon="145.30694000000003">
    <ele>306.37</ele>
   </trkpt>
   <trkpt lat="-37.88089" lon="145.30704">
    <ele>309.98</ele>
   </trkpt>
   <trkpt lat="-37.88109" lon="145.30728000000002">
    <ele>309.98</ele>
   </trkpt>
   <trkpt lat="-37.881640000000004" lon="145.30761">
    <ele>323.26000000000005</ele>
   </trkpt>
   <trkpt lat="-37.88167" lon="145.30768">
    <ele>323.26000000000005</ele>
   </trkpt>
   <trkpt lat="-37.88167" lon="145.30778">
    <ele>327.43000000000006</ele>
   </trkpt>
   <trkpt lat="-37.88174" lon="145.3077">
    <ele>327.94</ele>
   </trkpt>
   <trkpt lat="-37.88185" lon="145.30775">
    <ele>329.09000000000003</ele>
   </trkpt>
   <trkpt lat="-37.88214" lon="145.30780000000001">
    <ele>332.92</ele>
   </trkpt>
   <trkpt lat="-37.88255" lon="145.30797">
    <ele>338.89000000000004</ele>
   </trkpt>
   <trkpt lat="-37.88277" lon="145.30814">
    <ele>342.78000000000003</ele>
   </trkpt>
   <trkpt lat="-37.88279" lon="145.3082">
    <ele>345.67</ele>
   </trkpt>
   <trkpt lat="-37.88275" lon="145.30824">
    <ele>346.59</ele>
   </trkpt>
   <trkpt lat="-37.88255" lon="145.30833">
    <ele>348.28000000000003</ele>
   </trkpt>
   <trkpt lat="-37.88223" lon="145.30856">
    <ele>356.32</ele>
   </trkpt>
   <trkpt lat="-37.88219" lon="145.30866">
    <ele>359.13</ele>
   </trkpt>
   <trkpt lat="-37.88221" lon="145.30869">
    <ele>359.13</ele>
   </trkpt>
   <trkpt lat="-37.8823" lon="145.30873000000003">
    <ele>360.87</ele>
   </trkpt>
   <trkpt lat="-37.88244" lon="145.30873000000003">
    <ele>362.36</ele>
   </trkpt>
   <trkpt lat="-37.88255" lon="145.30877">
    <ele>366.26000000000005</ele>
   </trkpt>
   <trkpt lat="-37.88302" lon="145.30928">
    <ele>374.35</ele>
   </trkpt>
   <trkpt lat="-37.88308" lon="145.30941">
    <ele>376.89000000000004</ele>
   </trkpt>
   <trkpt lat="-37.88311" lon="145.30958">
    <ele>379.1</ele>
   </trkpt>
   <trkpt lat="-37.88311" lon="145.30974">
    <ele>382.87000000000006</ele>
   </trkpt>
   <trkpt lat="-37.88286" lon="145.31015000000002">
    <ele>385.99000000000007</ele>
   </trkpt>
   <trkpt lat="-37.88286" lon="145.31025000000002">
    <ele>386.41</ele>
   </trkpt>
   <trkpt lat="-37.88302" lon="145.31131000000002">
    <ele>396.44</ele>
   </trkpt>
   <trkpt lat="-37.88302" lon="145.31185000000002">
    <ele>401.53000000000003</ele>
   </trkpt>
   <trkpt lat="-37.88297" lon="145.31193000000002">
    <ele>403.40000000000003</ele>
   </trkpt>
   <trkpt lat="-37.882740000000005" lon="145.31214">
    <ele>405.84000000000003</ele>
   </trkpt>
   <trkpt lat="-37.8825" lon="145.31224">
    <ele>406.09</ele>
   </trkpt>
   <trkpt lat="-37.88199" lon="145.31279">
    <ele>404.68</ele>
   </trkpt>
   <trkpt lat="-37.88152" lon="145.31319000000002">
    <ele>408.05</ele>
   </trkpt>
   <trkpt lat="-37.88118" lon="145.31343">
    <ele>411.49</ele>
   </trkpt>
   <trkpt lat="-37.88082" lon="145.31362000000001">
    <ele>415.46000000000004</ele>
   </trkpt>
   <trkpt lat="-37.88049" lon="145.31388">
    <ele>419.28000000000003</ele>
   </trkpt>
   <trkpt lat="-37.88026" lon="145.31400000000002">
    <ele>421.42</ele>
   </trkpt>
   <trkpt lat="-37.88026" lon="145.31401000000002">
    <ele>421.43</ele>
   </trkpt>
   <trkpt lat="-37.88013" lon="145.31401000000002">
    <ele>422.41</ele>
   </trkpt>
   <trkpt lat="-37.88006" lon="145.31393">
    <ele>422.8</ele>
   </trkpt>
   <trkpt lat="-37.87993" lon="145.31385">
    <ele>422.91</ele>
   </trkpt>
   <trkpt lat="-37.87975" lon="145.31393">
    <ele>423.50000000000006</ele>
   </trkpt>
   <trkpt lat="-37.87953" lon="145.31416000000002">
    <ele>423.71000000000004</ele>
   </trkpt>
   <trkpt lat="-37.87941" lon="145.31419000000002">
    <ele>422.66</ele>
   </trkpt>
   <trkpt lat="-37.87928" lon="145.31419000000002">
    <ele>422.02000000000004</ele>
   </trkpt>
   <trkpt lat="-37.87882999993238" lon="145.31413999968586">
    <ele>418.80000000000007</ele>
   </trkpt>
   <trkpt lat="-37.87838" lon="145.31409000000002">
    <ele>413.54</ele>
   </trkpt>
   <trkpt lat="-37.87796" lon="145.31396">
    <ele>408.82</ele>
   </trkpt>
   <trkpt lat="-37.87753" lon="145.31387">
    <ele>404.81000000000006</ele>
   </trkpt>
   <trkpt lat="-37.87729" lon="145.31387">
    <ele>400.28000000000003</ele>
   </trkpt>
   <trkpt lat="-37.87684" lon="145.31383000000002">
    <ele>395.49</ele>
   </trkpt>
   <trkpt lat="-37.87635" lon="145.31387">
    <ele>388.16</ele>
   </trkpt>
   <trkpt lat="-37.87585" lon="145.31401000000002">
    <ele>382.03000000000003</ele>
   </trkpt>
   <trkpt lat="-37.8757" lon="145.31402">
    <ele>382.03000000000003</ele>
   </trkpt>
   <trkpt lat="-37.87532" lon="145.31391000000002">
    <ele>378.66</ele>
   </trkpt>
   <trkpt lat="-37.87489" lon="145.31387">
    <ele>376.02000000000004</ele>
   </trkpt>
   <trkpt lat="-37.87447" lon="145.31404">
    <ele>371.77000000000004</ele>
   </trkpt>
   <trkpt lat="-37.8742" lon="145.31409000000002">
    <ele>369.96</ele>
   </trkpt>
   <trkpt lat="-37.87366" lon="145.31386">
    <ele>368.34000000000003</ele>
   </trkpt>
   <trkpt lat="-37.87344" lon="145.31381000000002">
    <ele>367.94000000000005</ele>
   </trkpt>
   <trkpt lat="-37.87288" lon="145.31377">
    <ele>365.65000000000003</ele>
   </trkpt>
   <trkpt lat="-37.872600000000006" lon="145.31367">
    <ele>361.72</ele>
   </trkpt>
   <trkpt lat="-37.87241" lon="145.3135">
    <ele>358.95000000000005</ele>
   </trkpt>
   <trkpt lat="-37.87229" lon="145.31326">
    <ele>358.03000000000003</ele>
   </trkpt>
   <trkpt lat="-37.87227" lon="145.31307">
    <ele>355.52</ele>
   </trkpt>
   <trkpt lat="-37.87229" lon="145.31288">
    <ele>353.27000000000004</ele>
   </trkpt>
   <trkpt lat="-37.87254" lon="145.31233">
    <ele>347.49</ele>
   </trkpt>
   <trkpt lat="-37.87259" lon="145.31212000000002">
    <ele>346.71000000000004</ele>
   </trkpt>
   <trkpt lat="-37.87254" lon="145.31198">
    <ele>347.07000000000005</ele>
   </trkpt>
   <trkpt lat="-37.87245" lon="145.31188">
    <ele>347.94</ele>
   </trkpt>
   <trkpt lat="-37.87236" lon="145.31185000000002">
    <ele>350.24000000000007</ele>
   </trkpt>
   <trkpt lat="-37.87227" lon="145.31188">
    <ele>352.48</ele>
   </trkpt>
   <trkpt lat="-37.87201" lon="145.31204000000002">
    <ele>360.00000000000006</ele>
   </trkpt>
   <trkpt lat="-37.87182" lon="145.31231000000002">
    <ele>369.70000000000005</ele>
   </trkpt>
   <trkpt lat="-37.87174" lon="145.31253">
    <ele>375.98</ele>
   </trkpt>
   <trkpt lat="-37.87165" lon="145.31262">
    <ele>379.83000000000004</ele>
   </trkpt>
   <trkpt lat="-37.87133" lon="145.3128">
    <ele>388.55</ele>
   </trkpt>
   <trkpt lat="-37.87127" lon="145.31286">
    <ele>388.55</ele>
   </trkpt>
   <trkpt lat="-37.87091000185914" lon="145.31352500326963">
    <ele>391.93000000000006</ele>
   </trkpt>
   <trkpt lat="-37.87055" lon="145.31419000000002">
    <ele>386.29</ele>
   </trkpt>
   <trkpt lat="-37.87041" lon="145.31411">
    <ele>383.59000000000003</ele>
   </trkpt>
   <trkpt lat="-37.870340000000006" lon="145.31408000000002">
    <ele>382.95</ele>
   </trkpt>
   <trkpt lat="-37.87026" lon="145.31409000000002">
    <ele>381.56</ele>
   </trkpt>
   <trkpt lat="-37.87017" lon="145.31414">
    <ele>378.63</ele>
   </trkpt>
   <trkpt lat="-37.86997" lon="145.31447">
    <ele>373.13</ele>
   </trkpt>
   <trkpt lat="-37.86988" lon="145.31455000000003">
    <ele>373.13</ele>
   </trkpt>
   <trkpt lat="-37.86972" lon="145.31458">
    <ele>368.1700000000001</ele>
   </trkpt>
   <trkpt lat="-37.86956" lon="145.31449">
    <ele>368.1700000000001</ele>
   </trkpt>
   <trkpt lat="-37.869020000000006" lon="145.31414">
    <ele>358.96000000000004</ele>
   </trkpt>
   <trkpt lat="-37.86898" lon="145.31477">
    <ele>352.2</ele>
   </trkpt>
   <trkpt lat="-37.868990000000004" lon="145.31497000000002">
    <ele>349.58</ele>
   </trkpt>
   <trkpt lat="-37.869" lon="145.31505">
    <ele>349.58</ele>
   </trkpt>
   <trkpt lat="-37.86896" lon="145.31523">
    <ele>348.18000000000006</ele>
   </trkpt>
   <trkpt lat="-37.86889" lon="145.31538">
    <ele>347.03</ele>
   </trkpt>
   <trkpt lat="-37.86871" lon="145.31564">
    <ele>345.61</ele>
   </trkpt>
   <trkpt lat="-37.86842" lon="145.31596000000002">
    <ele>343.80000000000007</ele>
   </trkpt>
   <trkpt lat="-37.86811" lon="145.31645">
    <ele>342.34000000000003</ele>
   </trkpt>
   <trkpt lat="-37.86785000209512" lon="145.31716000260528">
    <ele>337.93</ele>
   </trkpt>
   <trkpt lat="-37.86759" lon="145.31787">
    <ele>335.45000000000005</ele>
   </trkpt>
   <trkpt lat="-37.86741" lon="145.31875000000002">
    <ele>331.77</ele>
   </trkpt>
   <trkpt lat="-37.86744" lon="145.31893000000002">
    <ele>330.65</ele>
   </trkpt>
   <trkpt lat="-37.86762" lon="145.31942">
    <ele>327.68</ele>
   </trkpt>
   <trkpt lat="-37.86782" lon="145.31976">
    <ele>325.11</ele>
   </trkpt>
   <trkpt lat="-37.86786" lon="145.31989000000002">
    <ele>324.72</ele>
   </trkpt>
   <trkpt lat="-37.86786" lon="145.31999000000002">
    <ele>324.66</ele>
   </trkpt>
   <trkpt lat="-37.867720000000006" lon="145.32028000000003">
    <ele>324.78000000000003</ele>
   </trkpt>
   <trkpt lat="-37.86737" lon="145.32079000000002">
    <ele>325.74</ele>
   </trkpt>
   <trkpt lat="-37.86712" lon="145.32127">
    <ele>324.71000000000004</ele>
   </trkpt>
   <trkpt lat="-37.86706" lon="145.32158">
    <ele>322.58000000000004</ele>
   </trkpt>
   <trkpt lat="-37.86715" lon="145.32185">
    <ele>321.91</ele>
   </trkpt>
   <trkpt lat="-37.86741" lon="145.32231000000002">
    <ele>316.59000000000003</ele>
   </trkpt>
   <trkpt lat="-37.867805001486104" lon="145.32290999672855">
    <ele>314.23</ele>
   </trkpt>
   <trkpt lat="-37.8682" lon="145.32351">
    <ele>313.02000000000004</ele>
   </trkpt>
   <trkpt lat="-37.868280000000006" lon="145.32366000000002">
    <ele>312.12</ele>
   </trkpt>
   <trkpt lat="-37.86827" lon="145.32377000000002">
    <ele>311.37</ele>
   </trkpt>
   <trkpt lat="-37.868190000000006" lon="145.32392000000002">
    <ele>310.95</ele>
   </trkpt>
   <trkpt lat="-37.86772500170464" lon="145.32454000380716">
    <ele>307.77000000000004</ele>
   </trkpt>
   <trkpt lat="-37.86726" lon="145.32516">
    <ele>303.01</ele>
   </trkpt>
   <trkpt lat="-37.866920001763475" lon="145.32582500327686">
    <ele>298.22</ele>
   </trkpt>
   <trkpt lat="-37.866580000000006" lon="145.32649">
    <ele>290.50000000000006</ele>
   </trkpt>
   <trkpt lat="-37.86652" lon="145.32690000000002">
    <ele>293.55</ele>
   </trkpt>
   <trkpt lat="-37.866510000000005" lon="145.32752000000002">
    <ele>295.40000000000003</ele>
   </trkpt>
   <trkpt lat="-37.86641" lon="145.32750000000001">
    <ele>294.48</ele>
   </trkpt>
   <trkpt lat="-37.86634" lon="145.32726000000002">
    <ele>287.85</ele>
   </trkpt>
   <trkpt lat="-37.8663" lon="145.32718">
    <ele>287.85</ele>
   </trkpt>
   <trkpt lat="-37.86623" lon="145.32717000000002">
    <ele>285.95000000000005</ele>
   </trkpt>
   <trkpt lat="-37.86616" lon="145.32719">
    <ele>285.95000000000005</ele>
   </trkpt>
   <trkpt lat="-37.86596" lon="145.3273">
    <ele>280.99</ele>
   </trkpt>
   <trkpt lat="-37.86589" lon="145.3273">
    <ele>276.81</ele>
   </trkpt>
   <trkpt lat="-37.865610000000004" lon="145.3274">
    <ele>270.89</ele>
   </trkpt>
   <trkpt lat="-37.865" lon="145.32741000000001">
    <ele>252.12</ele>
   </trkpt>
   <trkpt lat="-37.86491" lon="145.32743000000002">
    <ele>251.18</ele>
   </trkpt>
   <trkpt lat="-37.86484" lon="145.32752000000002">
    <ele>248.41000000000003</ele>
   </trkpt>
   <trkpt lat="-37.86471" lon="145.32788000000002">
    <ele>261.0</ele>
   </trkpt>
   <trkpt lat="-37.86462" lon="145.3279">
    <ele>262.19000000000005</ele>
   </trkpt>
   <trkpt lat="-37.86453" lon="145.3279">
    <ele>264.01</ele>
   </trkpt>
   <trkpt lat="-37.86446" lon="145.32787000000002">
    <ele>265.27</ele>
   </trkpt>
   <trkpt lat="-37.8643" lon="145.32765">
    <ele>264.39</ele>
   </trkpt>
   <trkpt lat="-37.86419" lon="145.32758">
    <ele>262.84000000000003</ele>
   </trkpt>
   <trkpt lat="-37.86401" lon="145.32756">
    <ele>260.77</ele>
   </trkpt>
   <trkpt lat="-37.86321" lon="145.32762000000002">
    <ele>256.19</ele>
   </trkpt>
   <trkpt lat="-37.86267" lon="145.32777000000002">
    <ele>254.20000000000005</ele>
   </trkpt>
   <trkpt lat="-37.86222" lon="145.32782">
    <ele>249.18</ele>
   </trkpt>
   <trkpt lat="-37.86202" lon="145.32789000000002">
    <ele>245.32</ele>
   </trkpt>
   <trkpt lat="-37.861990000000006" lon="145.32794">
    <ele>245.32</ele>
   </trkpt>
   <trkpt lat="-37.86206" lon="145.32807000000003">
    <ele>247.95000000000002</ele>
   </trkpt>
   <trkpt lat="-37.86209" lon="145.32809">
    <ele>247.95000000000002</ele>
   </trkpt>
   <trkpt lat="-37.86218" lon="145.32828">
    <ele>250.17</ele>
   </trkpt>
   <trkpt lat="-37.862370000000006" lon="145.32841000000002">
    <ele>253.85000000000002</ele>
   </trkpt>
   <trkpt lat="-37.86242" lon="145.32841000000002">
    <ele>258.12</ele>
   </trkpt>
   <trkpt lat="-37.86247" lon="145.32846">
    <ele>258.12</ele>
   </trkpt>
   <trkpt lat="-37.86256" lon="145.32867000000002">
    <ele>261.93</ele>
   </trkpt>
   <trkpt lat="-37.86265" lon="145.32876000000002">
    <ele>266.23</ele>
   </trkpt>
   <trkpt lat="-37.86269" lon="145.32891">
    <ele>266.23</ele>
   </trkpt>
   <trkpt lat="-37.8628" lon="145.32904000000002">
    <ele>269.91</ele>
   </trkpt>
   <trkpt lat="-37.86287" lon="145.32920000000001">
    <ele>273.19000000000005</ele>
   </trkpt>
   <trkpt lat="-37.86294" lon="145.32931000000002">
    <ele>275.75</ele>
   </trkpt>
   <trkpt lat="-37.86305" lon="145.32935">
    <ele>281.28000000000003</ele>
   </trkpt>
   <trkpt lat="-37.86309" lon="145.32941000000002">
    <ele>282.59</ele>
   </trkpt>
   <trkpt lat="-37.86321" lon="145.32951">
    <ele>286.39000000000004</ele>
   </trkpt>
   <trkpt lat="-37.86325" lon="145.32963">
    <ele>289.13</ele>
   </trkpt>
   <trkpt lat="-37.86332" lon="145.32969">
    <ele>292.28000000000003</ele>
   </trkpt>
   <trkpt lat="-37.863400000000006" lon="145.3298">
    <ele>294.01000000000005</ele>
   </trkpt>
   <trkpt lat="-37.863400000000006" lon="145.32991">
    <ele>303.04</ele>
   </trkpt>
   <trkpt lat="-37.86316" lon="145.33042">
    <ele>302.58</ele>
   </trkpt>
   <trkpt lat="-37.86303" lon="145.33113">
    <ele>302.43</ele>
   </trkpt>
   <trkpt lat="-37.86294" lon="145.33152">
    <ele>302.34</ele>
   </trkpt>
   <trkpt lat="-37.8628" lon="145.33177">
    <ele>302.22</ele>
   </trkpt>
   <trkpt lat="-37.862480000000005" lon="145.33209000000002">
    <ele>301.56000000000006</ele>
   </trkpt>
   <trkpt lat="-37.86236" lon="145.33227000000002">
    <ele>301.52</ele>
   </trkpt>
   <trkpt lat="-37.86227" lon="145.33246000000003">
    <ele>301.38000000000005</ele>
   </trkpt>
   <trkpt lat="-37.86224" lon="145.33262000000002">
    <ele>301.06000000000006</ele>
   </trkpt>
   <trkpt lat="-37.86224" lon="145.33325000000002">
    <ele>300.83000000000004</ele>
   </trkpt>
   <trkpt lat="-37.86227" lon="145.33360000000002">
    <ele>301.15000000000003</ele>
   </trkpt>
   <trkpt lat="-37.86242" lon="145.33416000000003">
    <ele>301.71000000000004</ele>
   </trkpt>
   <trkpt lat="-37.8628" lon="145.33489">
    <ele>302.14</ele>
   </trkpt>
   <trkpt lat="-37.86309" lon="145.33556000000002">
    <ele>302.39000000000004</ele>
   </trkpt>
   <trkpt lat="-37.86314" lon="145.3357">
    <ele>302.79</ele>
   </trkpt>
   <trkpt lat="-37.86309" lon="145.33587">
    <ele>303.13</ele>
   </trkpt>
   <trkpt lat="-37.8631" lon="145.33586000000003">
    <ele>303.36</ele>
   </trkpt>
   <trkpt lat="-37.86303" lon="145.33592000000002">
    <ele>303.77000000000004</ele>
   </trkpt>
   <trkpt lat="-37.86292" lon="145.33596">
    <ele>304.05</ele>
   </trkpt>
   <trkpt lat="-37.86231" lon="145.33606">
    <ele>301.88000000000005</ele>
   </trkpt>
   <trkpt lat="-37.86204" lon="145.33606">
    <ele>300.55</ele>
   </trkpt>
   <trkpt lat="-37.86164" lon="145.33602000000002">
    <ele>298.13</ele>
   </trkpt>
   <trkpt lat="-37.8609" lon="145.33604000000003">
    <ele>299.15000000000003</ele>
   </trkpt>
   <trkpt lat="-37.86065" lon="145.33601000000002">
    <ele>298.7</ele>
   </trkpt>
   <trkpt lat="-37.85996" lon="145.33583000000002">
    <ele>290.63</ele>
   </trkpt>
   <trkpt lat="-37.85965" lon="145.33569">
    <ele>287.72</ele>
   </trkpt>
   <trkpt lat="-37.85931" lon="145.33543">
    <ele>282.72</ele>
   </trkpt>
   <trkpt lat="-37.85887500127963" lon="145.33486999663535">
    <ele>278.33000000000004</ele>
   </trkpt>
   <trkpt lat="-37.85844" lon="145.33431000000002">
    <ele>273.90000000000003</ele>
   </trkpt>
   <trkpt lat="-37.85833" lon="145.33419">
    <ele>273.16</ele>
   </trkpt>
   <trkpt lat="-37.85821" lon="145.33414000000002">
    <ele>271.6</ele>
   </trkpt>
   <trkpt lat="-37.857960000000006" lon="145.33415000000002">
    <ele>269.43</ele>
   </trkpt>
   <trkpt lat="-37.857980000000005" lon="145.33416000000003">
    <ele>269.6</ele>
   </trkpt>
   <trkpt lat="-37.8581" lon="145.33454">
    <ele>276.06</ele>
   </trkpt>
   <trkpt lat="-37.8581" lon="145.33530000000002">
    <ele>281.2</ele>
   </trkpt>
   <trkpt lat="-37.85808" lon="145.33543">
    <ele>284.79</ele>
   </trkpt>
   <trkpt lat="-37.85799" lon="145.3357">
    <ele>287.79</ele>
   </trkpt>
   <trkpt lat="-37.85777" lon="145.33627">
    <ele>290.90999999999997</ele>
   </trkpt>
   <trkpt lat="-37.85768" lon="145.33674000000002">
    <ele>296.99</ele>
   </trkpt>
   <trkpt lat="-37.85768" lon="145.33698">
    <ele>300.74</ele>
   </trkpt>
   <trkpt lat="-37.85772" lon="145.33722">
    <ele>300.74</ele>
   </trkpt>
   <trkpt lat="-37.85788" lon="145.33765000000002">
    <ele>305.33000000000004</ele>
   </trkpt>
   <trkpt lat="-37.85801" lon="145.33812">
    <ele>309.02000000000004</ele>
   </trkpt>
   <trkpt lat="-37.858345002981416" lon="145.33895499628792">
    <ele>317.71999999999997</ele>
   </trkpt>
   <trkpt lat="-37.85868" lon="145.33979000000002">
    <ele>327.53000000000003</ele>
   </trkpt>
   <trkpt lat="-37.85902" lon="145.34036">
    <ele>334.09000000000003</ele>
   </trkpt>
   <trkpt lat="-37.85913" lon="145.34049000000002">
    <ele>334.09000000000003</ele>
   </trkpt>
   <trkpt lat="-37.85927" lon="145.34058000000002">
    <ele>337.20000000000005</ele>
   </trkpt>
   <trkpt lat="-37.859460000000006" lon="145.34061">
    <ele>338.7</ele>
   </trkpt>
   <trkpt lat="-37.86012" lon="145.34056">
    <ele>346.08000000000004</ele>
   </trkpt>
   <trkpt lat="-37.8603" lon="145.34063">
    <ele>347.04</ele>
   </trkpt>
   <trkpt lat="-37.86092" lon="145.34113000000002">
    <ele>353.6</ele>
   </trkpt>
   <trkpt lat="-37.86097" lon="145.34123000000002">
    <ele>355.77000000000004</ele>
   </trkpt>
   <trkpt lat="-37.86108" lon="145.3417">
    <ele>358.13</ele>
   </trkpt>
   <trkpt lat="-37.86121" lon="145.34249">
    <ele>363.28000000000003</ele>
   </trkpt>
   <trkpt lat="-37.86128" lon="145.34276">
    <ele>365.13</ele>
   </trkpt>
   <trkpt lat="-37.86139" lon="145.34300000000002">
    <ele>365.98</ele>
   </trkpt>
   <trkpt lat="-37.861520000000006" lon="145.34317000000001">
    <ele>368.4</ele>
   </trkpt>
   <trkpt lat="-37.86168" lon="145.34332">
    <ele>368.4</ele>
   </trkpt>
   <trkpt lat="-37.86231" lon="145.34352">
    <ele>372.68</ele>
   </trkpt>
   <trkpt lat="-37.86296" lon="145.34383000000003">
    <ele>376.85</ele>
   </trkpt>
   <trkpt lat="-37.86303" lon="145.34388">
    <ele>377.3</ele>
   </trkpt>
   <trkpt lat="-37.86307" lon="145.34395">
    <ele>377.69</ele>
   </trkpt>
   <trkpt lat="-37.86307" lon="145.34397">
    <ele>377.69</ele>
   </trkpt>
   <trkpt lat="-37.86307" lon="145.34395">
    <ele>377.69</ele>
   </trkpt>
   <trkpt lat="-37.86305" lon="145.34406">
    <ele>378.45</ele>
   </trkpt>
   <trkpt lat="-37.862840000000006" lon="145.3444">
    <ele>383.23</ele>
   </trkpt>
   <trkpt lat="-37.86253" lon="145.34477">
    <ele>387.37000000000006</ele>
   </trkpt>
   <trkpt lat="-37.86238" lon="145.34501">
    <ele>388.26000000000005</ele>
   </trkpt>
   <trkpt lat="-37.86213" lon="145.34550000000002">
    <ele>392.44</ele>
   </trkpt>
   <trkpt lat="-37.86209" lon="145.34566">
    <ele>393.99</ele>
   </trkpt>
   <trkpt lat="-37.86193" lon="145.34642000000002">
    <ele>399.9200000000001</ele>
   </trkpt>
   <trkpt lat="-37.86202" lon="145.34712000000002">
    <ele>408.91</ele>
   </trkpt>
   <trkpt lat="-37.86206" lon="145.34726">
    <ele>408.91</ele>
   </trkpt>
   <trkpt lat="-37.8622" lon="145.34749000000002">
    <ele>412.1</ele>
   </trkpt>
   <trkpt lat="-37.86245" lon="145.34777000000003">
    <ele>417.59000000000003</ele>
   </trkpt>
   <trkpt lat="-37.86256" lon="145.34787">
    <ele>419.68000000000006</ele>
   </trkpt>
   <trkpt lat="-37.86296" lon="145.34810000000002">
    <ele>423.65000000000003</ele>
   </trkpt>
   <trkpt lat="-37.86312" lon="145.34826">
    <ele>427.19</ele>
   </trkpt>
   <trkpt lat="-37.86316" lon="145.34836">
    <ele>427.19</ele>
   </trkpt>
   <trkpt lat="-37.86316" lon="145.34895">
    <ele>432.08</ele>
   </trkpt>
   <trkpt lat="-37.86318" lon="145.3494">
    <ele>438.95000000000005</ele>
   </trkpt>
   <trkpt lat="-37.863150000000005" lon="145.34997">
    <ele>444.61000000000007</ele>
   </trkpt>
   <trkpt lat="-37.86285" lon="145.35058">
    <ele>451.17</ele>
   </trkpt>
   <trkpt lat="-37.86258" lon="145.35084">
    <ele>458.35</ele>
   </trkpt>
   <trkpt lat="-37.86256" lon="145.35098000000002">
    <ele>458.35</ele>
   </trkpt>
   <trkpt lat="-37.8622" lon="145.3514">
    <ele>464.8</ele>
   </trkpt>
   <trkpt lat="-37.86218" lon="145.35177000000002">
    <ele>467.71</ele>
   </trkpt>
   <trkpt lat="-37.862190000000005" lon="145.3522">
    <ele>470.64000000000004</ele>
   </trkpt>
   <trkpt lat="-37.8624" lon="145.35274">
    <ele>473.55</ele>
   </trkpt>
   <trkpt lat="-37.862460000000006" lon="145.35279">
    <ele>473.99</ele>
   </trkpt>
   <trkpt lat="-37.862570000000005" lon="145.35281">
    <ele>474.33000000000004</ele>
   </trkpt>
   <trkpt lat="-37.86258" lon="145.35298">
    <ele>475.43</ele>
   </trkpt>
   <trkpt lat="-37.86265" lon="145.35319">
    <ele>477.02000000000004</ele>
   </trkpt>
   <trkpt lat="-37.862660000000005" lon="145.35319">
    <ele>477.02000000000004</ele>
   </trkpt>
  </trkseg>
 </trk>
</gpx>
