<?xml version="1.0" encoding="UTF-8"?>
<gpx creator="StravaGPX" version="1.1" xmlns="http://www.topografix.com/GPX/1/1" xmlns:xsi="http://www.w3.org/2001/XMLSchema-instance" xsi:schemaLocation="http://www.topografix.com/GPX/1/1 http://www.topografix.com/GPX/1/1/gpx.xsd">
 <metadata>
  <name>Lystie Thursday</name>
  <author>
   <name>john csorgo</name>
  </author>
  <copyright author="OpenStreetMap contributors">
   <year>2020</year>
   <license>https://www.openstreetmap.org/copyright</license>
  </copyright>
 </metadata>
 <trk>
  <name>Lystie Thursday</name>
  <link href=""/>
  <type>running</type>
  <trkseg>
   <trkpt lat="-37.966460000000005" lon="145.30145000000002">
    <ele>84.48000000000002</ele>
   </trkpt>
   <trkpt lat="-37.96613" lon="145.30134">
    <ele>84.21000000000001</ele>
   </trkpt>
   <trkpt lat="-37.96616" lon="145.30113">
    <ele>83.34</ele>
   </trkpt>
   <trkpt lat="-37.966120000000004" lon="145.30099">
    <ele>82.04</ele>
   </trkpt>
   <trkpt lat="-37.965880000000006" lon="145.30127000000002">
    <ele>84.71000000000001</ele>
   </trkpt>
   <trkpt lat="-37.96571" lon="145.30137000000002">
    <ele>85.64</ele>
   </trkpt>
   <trkpt lat="-37.965680000000006" lon="145.30136000000002">
    <ele>85.64</ele>
   </trkpt>
   <trkpt lat="-37.96553" lon="145.30144">
    <ele>85.87</ele>
   </trkpt>
   <trkpt lat="-37.96508" lon="145.30193">
    <ele>86.15</ele>
   </trkpt>
   <trkpt lat="-37.964980000000004" lon="145.30207000000001">
    <ele>85.74000000000001</ele>
   </trkpt>
   <trkpt lat="-37.96497" lon="145.30214">
    <ele>85.68</ele>
   </trkpt>
   <trkpt lat="-37.96479" lon="145.30245000000002">
    <ele>85.42</ele>
   </trkpt>
   <trkpt lat="-37.96459" lon="145.30272000000002">
    <ele>84.55</ele>
   </trkpt>
   <trkpt lat="-37.96439" lon="145.30289000000002">
    <ele>83.41000000000001</ele>
   </trkpt>
   <trkpt lat="-37.96414" lon="145.30323">
    <ele>81.92</ele>
   </trkpt>
   <trkpt lat="-37.96381" lon="145.30355">
    <ele>80.44000000000001</ele>
   </trkpt>
   <trkpt lat="-37.96369" lon="145.30373">
    <ele>79.96000000000001</ele>
   </trkpt>
   <trkpt lat="-37.96354" lon="145.30392">
    <ele>79.78999999999999</ele>
   </trkpt>
   <trkpt lat="-37.96331" lon="145.30431000000002">
    <ele>80.34</ele>
   </trkpt>
   <trkpt lat="-37.96309" lon="145.30455">
    <ele>80.44000000000001</ele>
   </trkpt>
   <trkpt lat="-37.96278" lon="145.30473">
    <ele>80.39</ele>
   </trkpt>
   <trkpt lat="-37.96264" lon="145.30468000000002">
    <ele>80.03</ele>
   </trkpt>
   <trkpt lat="-37.96255" lon="145.30469000000002">
    <ele>80.02000000000001</ele>
   </trkpt>
   <trkpt lat="-37.962500000000006" lon="145.30481">
    <ele>80.05000000000001</ele>
   </trkpt>
   <trkpt lat="-37.96224" lon="145.30504000000002">
    <ele>80.5</ele>
   </trkpt>
   <trkpt lat="-37.96215" lon="145.30509">
    <ele>80.5</ele>
   </trkpt>
   <trkpt lat="-37.96206" lon="145.30518">
    <ele>80.65</ele>
   </trkpt>
   <trkpt lat="-37.96184" lon="145.30547">
    <ele>80.74000000000001</ele>
   </trkpt>
   <trkpt lat="-37.96166" lon="145.30569">
    <ele>81.43</ele>
   </trkpt>
   <trkpt lat="-37.96157" lon="145.30576000000002">
    <ele>81.43</ele>
   </trkpt>
   <trkpt lat="-37.961580000000005" lon="145.30575000000002">
    <ele>81.43</ele>
   </trkpt>
   <trkpt lat="-37.96139" lon="145.30577000000002">
    <ele>81.69000000000001</ele>
   </trkpt>
   <trkpt lat="-37.96103000606044" lon="145.30492332501527">
    <ele>81.26</ele>
   </trkpt>
   <trkpt lat="-37.96067000605304" lon="145.30407665833135">
    <ele>81.2</ele>
   </trkpt>
   <trkpt lat="-37.96031" lon="145.30323">
    <ele>82.03</ele>
   </trkpt>
   <trkpt lat="-37.96087000095412" lon="145.30276500351346">
    <ele>82.62</ele>
   </trkpt>
   <trkpt lat="-37.96143" lon="145.3023">
    <ele>82.39</ele>
   </trkpt>
   <trkpt lat="-37.9615" lon="145.30222">
    <ele>82.49000000000001</ele>
   </trkpt>
   <trkpt lat="-37.96152" lon="145.30215">
    <ele>82.57000000000001</ele>
   </trkpt>
   <trkpt lat="-37.961560000000006" lon="145.30133">
    <ele>82.71000000000001</ele>
   </trkpt>
   <trkpt lat="-37.9615" lon="145.30119000000002">
    <ele>82.76</ele>
   </trkpt>
   <trkpt lat="-37.96137" lon="145.30105">
    <ele>82.95</ele>
   </trkpt>
   <trkpt lat="-37.96125" lon="145.30115">
    <ele>84.19</ele>
   </trkpt>
   <trkpt lat="-37.96072" lon="145.30143">
    <ele>87.94</ele>
   </trkpt>
   <trkpt lat="-37.95994" lon="145.30191000000002">
    <ele>90.63</ele>
   </trkpt>
   <trkpt lat="-37.959435000426424" lon="145.30218000179354">
    <ele>91.93</ele>
   </trkpt>
   <trkpt lat="-37.95893" lon="145.30245000000002">
    <ele>92.43</ele>
   </trkpt>
   <trkpt lat="-37.95855" lon="145.30269">
    <ele>93.6</ele>
   </trkpt>
   <trkpt lat="-37.95794" lon="145.30301">
    <ele>95.55000000000001</ele>
   </trkpt>
   <trkpt lat="-37.95772" lon="145.30305">
    <ele>95.94000000000001</ele>
   </trkpt>
   <trkpt lat="-37.95749" lon="145.30303">
    <ele>97.71000000000001</ele>
   </trkpt>
   <trkpt lat="-37.957150000000006" lon="145.3031">
    <ele>98.45</ele>
   </trkpt>
   <trkpt lat="-37.95696" lon="145.30317000000002">
    <ele>99.66000000000001</ele>
   </trkpt>
   <trkpt lat="-37.95664" lon="145.30336">
    <ele>101.30000000000001</ele>
   </trkpt>
   <trkpt lat="-37.95649" lon="145.30342000000002">
    <ele>101.30000000000001</ele>
   </trkpt>
   <trkpt lat="-37.95593" lon="145.30354">
    <ele>102.71000000000001</ele>
   </trkpt>
   <trkpt lat="-37.95577" lon="145.30360000000002">
    <ele>102.87</ele>
   </trkpt>
   <trkpt lat="-37.95566" lon="145.30370000000002">
    <ele>103.42000000000002</ele>
   </trkpt>
   <trkpt lat="-37.95537" lon="145.30416000000002">
    <ele>103.78000000000002</ele>
   </trkpt>
   <trkpt lat="-37.9553" lon="145.30434000000002">
    <ele>103.49000000000001</ele>
   </trkpt>
   <trkpt lat="-37.95528" lon="145.30455">
    <ele>102.79</ele>
   </trkpt>
   <trkpt lat="-37.95521" lon="145.30457">
    <ele>102.78</ele>
   </trkpt>
   <trkpt lat="-37.955220000000004" lon="145.30457">
    <ele>102.78</ele>
   </trkpt>
   <trkpt lat="-37.95514" lon="145.30456">
    <ele>102.88000000000001</ele>
   </trkpt>
   <trkpt lat="-37.9551" lon="145.30450000000002">
    <ele>102.88000000000001</ele>
   </trkpt>
   <trkpt lat="-37.95503" lon="145.30446">
    <ele>102.88000000000001</ele>
   </trkpt>
   <trkpt lat="-37.95494" lon="145.30446">
    <ele>103.45000000000002</ele>
   </trkpt>
   <trkpt lat="-37.95487" lon="145.30441000000002">
    <ele>103.45000000000002</ele>
   </trkpt>
   <trkpt lat="-37.954710000000006" lon="145.30443000000002">
    <ele>103.71000000000001</ele>
   </trkpt>
   <trkpt lat="-37.95463" lon="145.30441000000002">
    <ele>103.77000000000001</ele>
   </trkpt>
   <trkpt lat="-37.95449" lon="145.30456">
    <ele>103.78000000000002</ele>
   </trkpt>
   <trkpt lat="-37.9542" lon="145.30464">
    <ele>104.34</ele>
   </trkpt>
   <trkpt lat="-37.95411" lon="145.30462">
    <ele>104.42000000000002</ele>
   </trkpt>
   <trkpt lat="-37.95402" lon="145.30446">
    <ele>104.57000000000001</ele>
   </trkpt>
   <trkpt lat="-37.9538" lon="145.30436">
    <ele>104.64000000000001</ele>
   </trkpt>
   <trkpt lat="-37.9536" lon="145.30441000000002">
    <ele>104.78000000000002</ele>
   </trkpt>
   <trkpt lat="-37.95355" lon="145.30436">
    <ele>104.82000000000001</ele>
   </trkpt>
   <trkpt lat="-37.95346" lon="145.30437">
    <ele>104.82000000000001</ele>
   </trkpt>
   <trkpt lat="-37.95315" lon="145.30450000000002">
    <ele>105.63000000000001</ele>
   </trkpt>
   <trkpt lat="-37.95295" lon="145.30442000000002">
    <ele>105.75000000000001</ele>
   </trkpt>
   <trkpt lat="-37.95282" lon="145.30450000000002">
    <ele>106.29</ele>
   </trkpt>
   <trkpt lat="-37.952740000000006" lon="145.30457">
    <ele>106.4</ele>
   </trkpt>
   <trkpt lat="-37.95266" lon="145.30455">
    <ele>106.97000000000001</ele>
   </trkpt>
   <trkpt lat="-37.95243" lon="145.30466">
    <ele>107.19000000000001</ele>
   </trkpt>
   <trkpt lat="-37.95223" lon="145.30464">
    <ele>107.50000000000001</ele>
   </trkpt>
   <trkpt lat="-37.9521" lon="145.30457">
    <ele>107.67000000000002</ele>
   </trkpt>
   <trkpt lat="-37.95196" lon="145.30465">
    <ele>108.12</ele>
   </trkpt>
   <trkpt lat="-37.9519" lon="145.30464">
    <ele>108.12</ele>
   </trkpt>
   <trkpt lat="-37.95183" lon="145.30457">
    <ele>108.2</ele>
   </trkpt>
   <trkpt lat="-37.95176" lon="145.30455">
    <ele>108.28000000000002</ele>
   </trkpt>
   <trkpt lat="-37.95161" lon="145.30466">
    <ele>108.07000000000001</ele>
   </trkpt>
   <trkpt lat="-37.95154" lon="145.30491">
    <ele>107.34</ele>
   </trkpt>
   <trkpt lat="-37.95149" lon="145.30495000000002">
    <ele>106.34</ele>
   </trkpt>
   <trkpt lat="-37.95143" lon="145.30494000000002">
    <ele>106.34</ele>
   </trkpt>
   <trkpt lat="-37.95136" lon="145.305">
    <ele>106.11000000000001</ele>
   </trkpt>
   <trkpt lat="-37.95107" lon="145.30494000000002">
    <ele>104.9</ele>
   </trkpt>
   <trkpt lat="-37.95089" lon="145.30487000000002">
    <ele>104.48</ele>
   </trkpt>
   <trkpt lat="-37.95078" lon="145.30478000000002">
    <ele>104.45000000000002</ele>
   </trkpt>
   <trkpt lat="-37.95062" lon="145.30470000000003">
    <ele>104.8</ele>
   </trkpt>
   <trkpt lat="-37.95058" lon="145.30471">
    <ele>104.8</ele>
   </trkpt>
   <trkpt lat="-37.950520000000004" lon="145.30421">
    <ele>107.21000000000001</ele>
   </trkpt>
   <trkpt lat="-37.95006" lon="145.30426">
    <ele>106.84</ele>
   </trkpt>
   <trkpt lat="-37.94957" lon="145.30428">
    <ele>106.87</ele>
   </trkpt>
   <trkpt lat="-37.9491" lon="145.30434000000002">
    <ele>108.22000000000001</ele>
   </trkpt>
   <trkpt lat="-37.94858" lon="145.30436">
    <ele>112.09</ele>
   </trkpt>
   <trkpt lat="-37.948420000000006" lon="145.30435">
    <ele>114.28</ele>
   </trkpt>
   <trkpt lat="-37.9482" lon="145.30423000000002">
    <ele>115.29</ele>
   </trkpt>
   <trkpt lat="-37.94787" lon="145.30425000000002">
    <ele>118.37</ele>
   </trkpt>
   <trkpt lat="-37.94762" lon="145.30422000000002">
    <ele>119.27000000000001</ele>
   </trkpt>
   <trkpt lat="-37.94733" lon="145.30425000000002">
    <ele>121.52</ele>
   </trkpt>
   <trkpt lat="-37.94708" lon="145.30431000000002">
    <ele>121.52</ele>
   </trkpt>
   <trkpt lat="-37.94668" lon="145.30431000000002">
    <ele>124.46000000000001</ele>
   </trkpt>
   <trkpt lat="-37.94641" lon="145.30435">
    <ele>127.48</ele>
   </trkpt>
   <trkpt lat="-37.94601" lon="145.30429">
    <ele>130.66</ele>
   </trkpt>
   <trkpt lat="-37.945750000000004" lon="145.30422000000002">
    <ele>133.41</ele>
   </trkpt>
   <trkpt lat="-37.94532" lon="145.30434000000002">
    <ele>139.71</ele>
   </trkpt>
   <trkpt lat="-37.94514" lon="145.30432000000002">
    <ele>140.77</ele>
   </trkpt>
   <trkpt lat="-37.94491" lon="145.3042">
    <ele>142.64000000000001</ele>
   </trkpt>
   <trkpt lat="-37.9446" lon="145.30406000000002">
    <ele>143.52</ele>
   </trkpt>
   <trkpt lat="-37.94438" lon="145.30407000000002">
    <ele>144.18</ele>
   </trkpt>
   <trkpt lat="-37.94397" lon="145.30416000000002">
    <ele>145.17000000000002</ele>
   </trkpt>
   <trkpt lat="-37.94337" lon="145.30448">
    <ele>148.23</ele>
   </trkpt>
   <trkpt lat="-37.94308" lon="145.30457">
    <ele>148.23</ele>
   </trkpt>
   <trkpt lat="-37.94279" lon="145.30461000000003">
    <ele>150.3</ele>
   </trkpt>
   <trkpt lat="-37.94254" lon="145.30455">
    <ele>152.03000000000003</ele>
   </trkpt>
   <trkpt lat="-37.94234" lon="145.30448">
    <ele>153.4</ele>
   </trkpt>
   <trkpt lat="-37.94223" lon="145.30447">
    <ele>153.83</ele>
   </trkpt>
   <trkpt lat="-37.94221" lon="145.30445">
    <ele>153.83</ele>
   </trkpt>
   <trkpt lat="-37.94196" lon="145.30441000000002">
    <ele>153.26</ele>
   </trkpt>
   <trkpt lat="-37.94158" lon="145.30439">
    <ele>151.14000000000001</ele>
   </trkpt>
   <trkpt lat="-37.94131" lon="145.30435">
    <ele>148.18</ele>
   </trkpt>
   <trkpt lat="-37.941300000000005" lon="145.30435">
    <ele>148.18</ele>
   </trkpt>
   <trkpt lat="-37.94129" lon="145.3039">
    <ele>142.8</ele>
   </trkpt>
   <trkpt lat="-37.94124" lon="145.30375">
    <ele>140.74</ele>
   </trkpt>
   <trkpt lat="-37.94126" lon="145.30362000000002">
    <ele>139.22</ele>
   </trkpt>
   <trkpt lat="-37.94138" lon="145.30349">
    <ele>137.45000000000002</ele>
   </trkpt>
   <trkpt lat="-37.9414" lon="145.30333000000002">
    <ele>135.29000000000002</ele>
   </trkpt>
   <trkpt lat="-37.94129" lon="145.30315000000002">
    <ele>131.31</ele>
   </trkpt>
   <trkpt lat="-37.941140000000004" lon="145.30285">
    <ele>128.32000000000002</ele>
   </trkpt>
   <trkpt lat="-37.94101401533827" lon="145.3018979934564">
    <ele>119.09000000000002</ele>
   </trkpt>
   <trkpt lat="-37.94088802300632" lon="145.30094599017687">
    <ele>109.29</ele>
   </trkpt>
   <trkpt lat="-37.940762023004275" lon="145.29999399016165">
    <ele>102.74000000000001</ele>
   </trkpt>
   <trkpt lat="-37.94063601533216" lon="145.2990419934109">
    <ele>99.86</ele>
   </trkpt>
   <trkpt lat="-37.94051" lon="145.29809">
    <ele>97.89</ele>
   </trkpt>
   <trkpt lat="-37.94052000000001" lon="145.29809">
    <ele>97.89</ele>
   </trkpt>
   <trkpt lat="-37.94137666687331" lon="145.29792333722452">
    <ele>95.2</ele>
   </trkpt>
   <trkpt lat="-37.94223333351153" lon="145.29775667056347">
    <ele>92.08000000000001</ele>
   </trkpt>
   <trkpt lat="-37.943090000000005" lon="145.29759">
    <ele>89.74000000000001</ele>
   </trkpt>
   <trkpt lat="-37.94308" lon="145.29726000000002">
    <ele>89.64000000000001</ele>
   </trkpt>
   <trkpt lat="-37.94326" lon="145.29651">
    <ele>89.72000000000001</ele>
   </trkpt>
   <trkpt lat="-37.94319" lon="145.29622">
    <ele>90.08000000000001</ele>
   </trkpt>
   <trkpt lat="-37.94321" lon="145.29589">
    <ele>90.35000000000001</ele>
   </trkpt>
   <trkpt lat="-37.94314" lon="145.29568">
    <ele>91.08000000000001</ele>
   </trkpt>
   <trkpt lat="-37.94326" lon="145.29515">
    <ele>92.89000000000001</ele>
   </trkpt>
   <trkpt lat="-37.94339" lon="145.2948">
    <ele>95.11000000000001</ele>
   </trkpt>
   <trkpt lat="-37.94344" lon="145.29464000000002">
    <ele>96.63000000000001</ele>
   </trkpt>
   <trkpt lat="-37.94339" lon="145.29449000000002">
    <ele>97.89</ele>
   </trkpt>
   <trkpt lat="-37.94332" lon="145.29432">
    <ele>98.95</ele>
   </trkpt>
   <trkpt lat="-37.94341" lon="145.29382">
    <ele>101.96000000000001</ele>
   </trkpt>
   <trkpt lat="-37.94339" lon="145.29362">
    <ele>103.01</ele>
   </trkpt>
   <trkpt lat="-37.943400000000004" lon="145.29365">
    <ele>103.01</ele>
   </trkpt>
   <trkpt lat="-37.94323" lon="145.29325">
    <ele>107.15</ele>
   </trkpt>
   <trkpt lat="-37.94312" lon="145.29311">
    <ele>107.93</ele>
   </trkpt>
   <trkpt lat="-37.94306" lon="145.29305000000002">
    <ele>108.61000000000001</ele>
   </trkpt>
   <trkpt lat="-37.94281" lon="145.29309">
    <ele>110.22000000000001</ele>
   </trkpt>
   <trkpt lat="-37.94265" lon="145.29316">
    <ele>111.4</ele>
   </trkpt>
   <trkpt lat="-37.94252" lon="145.29313000000002">
    <ele>113.49000000000001</ele>
   </trkpt>
   <trkpt lat="-37.94247" lon="145.29307">
    <ele>114.11</ele>
   </trkpt>
   <trkpt lat="-37.94232" lon="145.29254">
    <ele>120.86000000000001</ele>
   </trkpt>
   <trkpt lat="-37.94218" lon="145.29243000000002">
    <ele>123.27</ele>
   </trkpt>
   <trkpt lat="-37.94207" lon="145.29239">
    <ele>125.13000000000001</ele>
   </trkpt>
   <trkpt lat="-37.94198" lon="145.29233000000002">
    <ele>126.32000000000001</ele>
   </trkpt>
   <trkpt lat="-37.94196" lon="145.29201">
    <ele>130.20000000000002</ele>
   </trkpt>
   <trkpt lat="-37.94191" lon="145.29185">
    <ele>131.29000000000002</ele>
   </trkpt>
   <trkpt lat="-37.94178" lon="145.29177">
    <ele>133.33</ele>
   </trkpt>
   <trkpt lat="-37.94167" lon="145.29178000000002">
    <ele>133.33</ele>
   </trkpt>
   <trkpt lat="-37.941570000000006" lon="145.29176">
    <ele>134.95000000000002</ele>
   </trkpt>
   <trkpt lat="-37.94149" lon="145.29171000000002">
    <ele>135.46</ele>
   </trkpt>
   <trkpt lat="-37.94142" lon="145.29158">
    <ele>137.32</ele>
   </trkpt>
   <trkpt lat="-37.9414" lon="145.29145000000003">
    <ele>139.29000000000002</ele>
   </trkpt>
   <trkpt lat="-37.94131" lon="145.29134000000002">
    <ele>139.29000000000002</ele>
   </trkpt>
   <trkpt lat="-37.94102" lon="145.29127000000003">
    <ele>142.37000000000003</ele>
   </trkpt>
   <trkpt lat="-37.94075" lon="145.29128">
    <ele>143.32</ele>
   </trkpt>
   <trkpt lat="-37.94001" lon="145.29100000000003">
    <ele>143.63</ele>
   </trkpt>
   <trkpt lat="-37.93988" lon="145.29098000000002">
    <ele>143.23000000000002</ele>
   </trkpt>
   <trkpt lat="-37.93972" lon="145.29090000000002">
    <ele>142.98000000000002</ele>
   </trkpt>
   <trkpt lat="-37.93932" lon="145.29075">
    <ele>142.99</ele>
   </trkpt>
   <trkpt lat="-37.93896" lon="145.29073000000002">
    <ele>143.56000000000003</ele>
   </trkpt>
   <trkpt lat="-37.938840000000006" lon="145.29077">
    <ele>143.56000000000003</ele>
   </trkpt>
   <trkpt lat="-37.93891" lon="145.29067">
    <ele>143.15</ele>
   </trkpt>
   <trkpt lat="-37.93898" lon="145.29051">
    <ele>142.33</ele>
   </trkpt>
   <trkpt lat="-37.939040000000006" lon="145.29046000000002">
    <ele>141.28</ele>
   </trkpt>
   <trkpt lat="-37.93914" lon="145.29041">
    <ele>140.67000000000002</ele>
   </trkpt>
   <trkpt lat="-37.939510000000006" lon="145.29041">
    <ele>139.3</ele>
   </trkpt>
   <trkpt lat="-37.939600000000006" lon="145.29039">
    <ele>138.83</ele>
   </trkpt>
   <trkpt lat="-37.93981" lon="145.29022">
    <ele>136.98000000000002</ele>
   </trkpt>
   <trkpt lat="-37.9399" lon="145.29012">
    <ele>135.48000000000002</ele>
   </trkpt>
   <trkpt lat="-37.94008" lon="145.28985">
    <ele>130.79000000000002</ele>
   </trkpt>
   <trkpt lat="-37.9403" lon="145.28930000000003">
    <ele>125.72</ele>
   </trkpt>
   <trkpt lat="-37.94044" lon="145.28907">
    <ele>123.39000000000001</ele>
   </trkpt>
   <trkpt lat="-37.94068" lon="145.28869">
    <ele>120.46000000000001</ele>
   </trkpt>
   <trkpt lat="-37.94086" lon="145.28849000000002">
    <ele>118.06000000000002</ele>
   </trkpt>
   <trkpt lat="-37.9412" lon="145.28827">
    <ele>117.03</ele>
   </trkpt>
   <trkpt lat="-37.94167" lon="145.28804000000002">
    <ele>114.40000000000002</ele>
   </trkpt>
   <trkpt lat="-37.94205" lon="145.28783">
    <ele>112.64</ele>
   </trkpt>
   <trkpt lat="-37.94256" lon="145.28750000000002">
    <ele>109.05000000000001</ele>
   </trkpt>
   <trkpt lat="-37.94299" lon="145.28731000000002">
    <ele>107.64000000000001</ele>
   </trkpt>
   <trkpt lat="-37.94303" lon="145.28725">
    <ele>107.57000000000001</ele>
   </trkpt>
   <trkpt lat="-37.94303" lon="145.28718">
    <ele>107.57000000000001</ele>
   </trkpt>
   <trkpt lat="-37.94285" lon="145.28688000000002">
    <ele>107.88</ele>
   </trkpt>
   <trkpt lat="-37.94272" lon="145.28634000000002">
    <ele>108.58000000000001</ele>
   </trkpt>
   <trkpt lat="-37.942750000000004" lon="145.28623000000002">
    <ele>108.44000000000001</ele>
   </trkpt>
   <trkpt lat="-37.94274" lon="145.28624000000002">
    <ele>108.44000000000001</ele>
   </trkpt>
   <trkpt lat="-37.942890000000006" lon="145.28619">
    <ele>108.23</ele>
   </trkpt>
   <trkpt lat="-37.94338500022657" lon="145.2860950006038">
    <ele>106.45</ele>
   </trkpt>
   <trkpt lat="-37.94388" lon="145.286">
    <ele>105.92000000000002</ele>
   </trkpt>
   <trkpt lat="-37.94454000004512" lon="145.285855001312">
    <ele>102.71000000000001</ele>
   </trkpt>
   <trkpt lat="-37.9452" lon="145.28571000000002">
    <ele>101.95000000000002</ele>
   </trkpt>
   <trkpt lat="-37.94576" lon="145.28581">
    <ele>100.84000000000002</ele>
   </trkpt>
   <trkpt lat="-37.94662000033115" lon="145.28561500224382">
    <ele>99.0</ele>
   </trkpt>
   <trkpt lat="-37.947480000000006" lon="145.28542000000002">
    <ele>98.19000000000001</ele>
   </trkpt>
   <trkpt lat="-37.9476" lon="145.2852">
    <ele>98.17</ele>
   </trkpt>
   <trkpt lat="-37.94811" lon="145.28502">
    <ele>99.41000000000001</ele>
   </trkpt>
   <trkpt lat="-37.9482" lon="145.28485">
    <ele>100.05000000000001</ele>
   </trkpt>
   <trkpt lat="-37.94879" lon="145.28474">
    <ele>103.33</ele>
   </trkpt>
   <trkpt lat="-37.94908" lon="145.28512">
    <ele>103.61</ele>
   </trkpt>
   <trkpt lat="-37.94937" lon="145.28538">
    <ele>103.67000000000002</ele>
   </trkpt>
   <trkpt lat="-37.9497" lon="145.28564">
    <ele>103.84</ele>
   </trkpt>
   <trkpt lat="-37.9502" lon="145.28594">
    <ele>103.79</ele>
   </trkpt>
   <trkpt lat="-37.950390000000006" lon="145.2859">
    <ele>103.93</ele>
   </trkpt>
   <trkpt lat="-37.95049" lon="145.28585">
    <ele>103.94</ele>
   </trkpt>
   <trkpt lat="-37.950680000000006" lon="145.28567">
    <ele>104.0</ele>
   </trkpt>
   <trkpt lat="-37.95102" lon="145.28512">
    <ele>104.15</ele>
   </trkpt>
   <trkpt lat="-37.95125" lon="145.28486">
    <ele>104.4</ele>
   </trkpt>
   <trkpt lat="-37.95134" lon="145.28481000000002">
    <ele>104.39000000000001</ele>
   </trkpt>
   <trkpt lat="-37.95154" lon="145.28485">
    <ele>104.21000000000001</ele>
   </trkpt>
   <trkpt lat="-37.95152" lon="145.28484">
    <ele>104.21000000000001</ele>
   </trkpt>
   <trkpt lat="-37.95165" lon="145.28494">
    <ele>104.09</ele>
   </trkpt>
   <trkpt lat="-37.95194" lon="145.28527000000003">
    <ele>104.01</ele>
   </trkpt>
   <trkpt lat="-37.95266" lon="145.28577">
    <ele>103.95000000000002</ele>
   </trkpt>
   <trkpt lat="-37.95284" lon="145.28594">
    <ele>103.95000000000002</ele>
   </trkpt>
   <trkpt lat="-37.953120000000006" lon="145.28614000000002">
    <ele>103.9</ele>
   </trkpt>
   <trkpt lat="-37.95358" lon="145.28644">
    <ele>103.78000000000002</ele>
   </trkpt>
   <trkpt lat="-37.95369" lon="145.28656">
    <ele>103.85000000000001</ele>
   </trkpt>
   <trkpt lat="-37.95411" lon="145.28695000000002">
    <ele>103.82000000000001</ele>
   </trkpt>
   <trkpt lat="-37.95449" lon="145.28735">
    <ele>103.83</ele>
   </trkpt>
   <trkpt lat="-37.95481" lon="145.28762">
    <ele>103.76</ele>
   </trkpt>
   <trkpt lat="-37.955270000000006" lon="145.28814">
    <ele>103.64000000000001</ele>
   </trkpt>
   <trkpt lat="-37.95543" lon="145.28847000000002">
    <ele>103.68</ele>
   </trkpt>
   <trkpt lat="-37.95575" lon="145.28924">
    <ele>103.60000000000001</ele>
   </trkpt>
   <trkpt lat="-37.95579" lon="145.28946000000002">
    <ele>103.58</ele>
   </trkpt>
   <trkpt lat="-37.95586" lon="145.29018000000002">
    <ele>103.70000000000002</ele>
   </trkpt>
   <trkpt lat="-37.9559" lon="145.29122">
    <ele>103.71000000000001</ele>
   </trkpt>
   <trkpt lat="-37.95593" lon="145.29148">
    <ele>103.66</ele>
   </trkpt>
   <trkpt lat="-37.95597" lon="145.29172">
    <ele>103.66</ele>
   </trkpt>
   <trkpt lat="-37.95615" lon="145.29208">
    <ele>103.63000000000001</ele>
   </trkpt>
   <trkpt lat="-37.95633" lon="145.29232000000002">
    <ele>103.66</ele>
   </trkpt>
   <trkpt lat="-37.95673" lon="145.29258000000002">
    <ele>103.53000000000002</ele>
   </trkpt>
   <trkpt lat="-37.957060000000006" lon="145.29273">
    <ele>103.53000000000002</ele>
   </trkpt>
   <trkpt lat="-37.95734" lon="145.29283">
    <ele>103.54</ele>
   </trkpt>
   <trkpt lat="-37.95763" lon="145.29287000000002">
    <ele>103.56000000000002</ele>
   </trkpt>
   <trkpt lat="-37.95785" lon="145.29288000000003">
    <ele>103.46000000000001</ele>
   </trkpt>
   <trkpt lat="-37.95808" lon="145.29286000000002">
    <ele>103.49000000000001</ele>
   </trkpt>
   <trkpt lat="-37.958290000000005" lon="145.29275">
    <ele>103.73</ele>
   </trkpt>
   <trkpt lat="-37.95840000396794" lon="145.29371999842266">
    <ele>93.54</ele>
   </trkpt>
   <trkpt lat="-37.958510000000004" lon="145.29469">
    <ele>88.28000000000002</ele>
   </trkpt>
   <trkpt lat="-37.95872" lon="145.29461">
    <ele>87.75</ele>
   </trkpt>
   <trkpt lat="-37.95881" lon="145.29464000000002">
    <ele>86.68</ele>
   </trkpt>
   <trkpt lat="-37.95884" lon="145.29471">
    <ele>86.68</ele>
   </trkpt>
   <trkpt lat="-37.95899" lon="145.29473000000002">
    <ele>85.92</ele>
   </trkpt>
   <trkpt lat="-37.95908" lon="145.29471">
    <ele>85.47</ele>
   </trkpt>
   <trkpt lat="-37.95917" lon="145.29474000000002">
    <ele>84.72</ele>
   </trkpt>
   <trkpt lat="-37.959210000000006" lon="145.29481">
    <ele>84.72</ele>
   </trkpt>
   <trkpt lat="-37.95935" lon="145.29482000000002">
    <ele>84.16000000000001</ele>
   </trkpt>
   <trkpt lat="-37.95944" lon="145.29476000000003">
    <ele>83.72</ele>
   </trkpt>
   <trkpt lat="-37.959680000000006" lon="145.29479">
    <ele>82.65</ele>
   </trkpt>
   <trkpt lat="-37.95991" lon="145.29468">
    <ele>81.45</ele>
   </trkpt>
   <trkpt lat="-37.96034" lon="145.29467000000002">
    <ele>80.14</ele>
   </trkpt>
   <trkpt lat="-37.960530000000006" lon="145.29459">
    <ele>79.63000000000001</ele>
   </trkpt>
   <trkpt lat="-37.96063" lon="145.29459">
    <ele>79.53999999999999</ele>
   </trkpt>
   <trkpt lat="-37.96081" lon="145.29449000000002">
    <ele>79.45</ele>
   </trkpt>
   <trkpt lat="-37.9609" lon="145.29451">
    <ele>79.45</ele>
   </trkpt>
   <trkpt lat="-37.96116" lon="145.29435">
    <ele>79.72000000000001</ele>
   </trkpt>
   <trkpt lat="-37.96134" lon="145.29433">
    <ele>80.28999999999999</ele>
   </trkpt>
   <trkpt lat="-37.96143" lon="145.29421000000002">
    <ele>81.19000000000001</ele>
   </trkpt>
   <trkpt lat="-37.961560000000006" lon="145.29425">
    <ele>81.19000000000001</ele>
   </trkpt>
   <trkpt lat="-37.961650000000006" lon="145.29424">
    <ele>81.97</ele>
   </trkpt>
   <trkpt lat="-37.9617" lon="145.29420000000002">
    <ele>81.97</ele>
   </trkpt>
   <trkpt lat="-37.96177" lon="145.29426">
    <ele>82.87</ele>
   </trkpt>
   <trkpt lat="-37.9619" lon="145.29425">
    <ele>82.87</ele>
   </trkpt>
   <trkpt lat="-37.96199" lon="145.29427">
    <ele>83.32000000000001</ele>
   </trkpt>
   <trkpt lat="-37.96222" lon="145.29424">
    <ele>83.73</ele>
   </trkpt>
   <trkpt lat="-37.96231" lon="145.29427">
    <ele>83.96000000000001</ele>
   </trkpt>
   <trkpt lat="-37.96255" lon="145.29426">
    <ele>84.44</ele>
   </trkpt>
   <trkpt lat="-37.96271" lon="145.29420000000002">
    <ele>84.69</ele>
   </trkpt>
   <trkpt lat="-37.96302" lon="145.29427">
    <ele>84.41000000000001</ele>
   </trkpt>
   <trkpt lat="-37.96311" lon="145.29422000000002">
    <ele>84.41000000000001</ele>
   </trkpt>
   <trkpt lat="-37.9632" lon="145.29421000000002">
    <ele>84.34</ele>
   </trkpt>
   <trkpt lat="-37.963420000000006" lon="145.29407">
    <ele>84.44</ele>
   </trkpt>
   <trkpt lat="-37.9634" lon="145.29409">
    <ele>84.44</ele>
   </trkpt>
   <trkpt lat="-37.96349" lon="145.29397">
    <ele>84.68</ele>
   </trkpt>
   <trkpt lat="-37.96367" lon="145.29392">
    <ele>84.71000000000001</ele>
   </trkpt>
   <trkpt lat="-37.963710000000006" lon="145.29382">
    <ele>84.68</ele>
   </trkpt>
   <trkpt lat="-37.9636" lon="145.29353">
    <ele>89.60000000000001</ele>
   </trkpt>
   <trkpt lat="-37.963550000000005" lon="145.2931">
    <ele>93.44000000000001</ele>
   </trkpt>
   <trkpt lat="-37.96325" lon="145.29205000000002">
    <ele>102.92000000000002</ele>
   </trkpt>
   <trkpt lat="-37.96338" lon="145.29167">
    <ele>103.18</ele>
   </trkpt>
   <trkpt lat="-37.96345" lon="145.29159">
    <ele>103.18</ele>
   </trkpt>
   <trkpt lat="-37.96354" lon="145.29154">
    <ele>103.16</ele>
   </trkpt>
   <trkpt lat="-37.963530000000006" lon="145.29154">
    <ele>103.16</ele>
   </trkpt>
   <trkpt lat="-37.96401" lon="145.29156">
    <ele>103.37</ele>
   </trkpt>
   <trkpt lat="-37.96452" lon="145.29167">
    <ele>103.44</ele>
   </trkpt>
   <trkpt lat="-37.96477" lon="145.29175">
    <ele>103.46000000000001</ele>
   </trkpt>
   <trkpt lat="-37.965390000000006" lon="145.29206000000002">
    <ele>103.31000000000002</ele>
   </trkpt>
   <trkpt lat="-37.96575" lon="145.29214000000002">
    <ele>103.12</ele>
   </trkpt>
   <trkpt lat="-37.9662" lon="145.29199">
    <ele>102.73</ele>
   </trkpt>
   <trkpt lat="-37.9664" lon="145.29189000000002">
    <ele>102.56000000000002</ele>
   </trkpt>
   <trkpt lat="-37.96663" lon="145.29184">
    <ele>102.5</ele>
   </trkpt>
   <trkpt lat="-37.96678" lon="145.29187000000002">
    <ele>102.5</ele>
   </trkpt>
   <trkpt lat="-37.96736500041851" lon="145.29217999753627">
    <ele>102.08</ele>
   </trkpt>
   <trkpt lat="-37.96795" lon="145.29249000000002">
    <ele>101.58</ele>
   </trkpt>
   <trkpt lat="-37.968050000000005" lon="145.29263">
    <ele>101.07000000000001</ele>
   </trkpt>
   <trkpt lat="-37.96833" lon="145.29277000000002">
    <ele>101.16000000000001</ele>
   </trkpt>
   <trkpt lat="-37.96862" lon="145.29282">
    <ele>101.20000000000002</ele>
   </trkpt>
   <trkpt lat="-37.96908999988591" lon="145.29286999966664">
    <ele>101.99000000000001</ele>
   </trkpt>
   <trkpt lat="-37.96956" lon="145.29292">
    <ele>103.39</ele>
   </trkpt>
   <trkpt lat="-37.97014" lon="145.29302">
    <ele>104.41</ele>
   </trkpt>
   <trkpt lat="-37.97021" lon="145.29341000000002">
    <ele>101.95000000000002</ele>
   </trkpt>
   <trkpt lat="-37.97016" lon="145.29384000000002">
    <ele>97.21000000000001</ele>
   </trkpt>
   <trkpt lat="-37.97025" lon="145.29414">
    <ele>92.9</ele>
   </trkpt>
   <trkpt lat="-37.97045" lon="145.29438000000002">
    <ele>91.03000000000002</ele>
   </trkpt>
   <trkpt lat="-37.97048" lon="145.29452">
    <ele>89.01</ele>
   </trkpt>
   <trkpt lat="-37.97041" lon="145.29485000000003">
    <ele>86.59</ele>
   </trkpt>
   <trkpt lat="-37.97043" lon="145.29497">
    <ele>85.0</ele>
   </trkpt>
   <trkpt lat="-37.97052" lon="145.29511000000002">
    <ele>83.73</ele>
   </trkpt>
   <trkpt lat="-37.97059" lon="145.29528000000002">
    <ele>82.92</ele>
   </trkpt>
   <trkpt lat="-37.97066" lon="145.29539000000003">
    <ele>82.87</ele>
   </trkpt>
   <trkpt lat="-37.970670000000005" lon="145.29565000000002">
    <ele>83.02000000000001</ele>
   </trkpt>
   <trkpt lat="-37.970778013837446" lon="145.29655399469328">
    <ele>82.92</ele>
   </trkpt>
   <trkpt lat="-37.970886020757" lon="145.29745799204662">
    <ele>82.82000000000001</ele>
   </trkpt>
   <trkpt lat="-37.97099402075861" lon="145.29836199205982">
    <ele>82.86</ele>
   </trkpt>
   <trkpt lat="-37.97110201384223" lon="145.29926599473285">
    <ele>82.75</ele>
   </trkpt>
   <trkpt lat="-37.971210000000006" lon="145.30017">
    <ele>82.49000000000001</ele>
   </trkpt>
   <trkpt lat="-37.97122" lon="145.30027">
    <ele>82.5</ele>
   </trkpt>
   <trkpt lat="-37.97111" lon="145.30072">
    <ele>82.35000000000001</ele>
   </trkpt>
   <trkpt lat="-37.97101" lon="145.30072">
    <ele>82.78</ele>
   </trkpt>
   <trkpt lat="-37.97068" lon="145.30082000000002">
    <ele>84.72</ele>
   </trkpt>
   <trkpt lat="-37.9701" lon="145.30076000000003">
    <ele>84.93</ele>
   </trkpt>
   <trkpt lat="-37.969930000000005" lon="145.30079">
    <ele>85.34000000000002</ele>
   </trkpt>
   <trkpt lat="-37.96976" lon="145.30076000000003">
    <ele>85.42</ele>
   </trkpt>
   <trkpt lat="-37.96951" lon="145.30084000000002">
    <ele>85.78</ele>
   </trkpt>
   <trkpt lat="-37.96907" lon="145.30108">
    <ele>87.33</ele>
   </trkpt>
   <trkpt lat="-37.96838333342891" lon="145.30120333564633">
    <ele>87.0</ele>
   </trkpt>
   <trkpt lat="-37.967696666729054" lon="145.30132666898558">
    <ele>85.53</ele>
   </trkpt>
   <trkpt lat="-37.96701" lon="145.30145000000002">
    <ele>84.28</ele>
   </trkpt>
   <trkpt lat="-37.967000000000006" lon="145.30151">
    <ele>84.28</ele>
   </trkpt>
   <trkpt lat="-37.966860000000004" lon="145.30152">
    <ele>84.2</ele>
   </trkpt>
   <trkpt lat="-37.96683" lon="145.30158">
    <ele>84.10000000000001</ele>
   </trkpt>
   <trkpt lat="-37.96672" lon="145.30165000000002">
    <ele>84.09</ele>
   </trkpt>
   <trkpt lat="-37.96663" lon="145.30166">
    <ele>84.14</ele>
   </trkpt>
   <trkpt lat="-37.96656" lon="145.30161">
    <ele>84.19</ele>
   </trkpt>
  </trkseg>
 </trk>
</gpx>
