<?xml version="1.0" encoding="UTF-8"?>
<gpx creator="StravaGPX" version="1.1" xmlns="http://www.topografix.com/GPX/1/1" xmlns:xsi="http://www.w3.org/2001/XMLSchema-instance" xsi:schemaLocation="http://www.topografix.com/GPX/1/1 http://www.topografix.com/GPX/1/1/gpx.xsd">
 <metadata>
  <name>DTR 16 April 20k Semi</name>
  <author>
   <name>john csorgo</name>
  </author>
  <copyright author="OpenStreetMap contributors">
   <year>2020</year>
   <license>https://www.openstreetmap.org/copyright</license>
  </copyright>
 </metadata>
 <trk>
  <name>DTR 16 April 20k Semi</name>
  <link href=""/>
  <type>running</type>
  <trkseg>
   <trkpt lat="-37.89078000000001" lon="145.31742">
    <ele>178.75000000000003</ele>
   </trkpt>
   <trkpt lat="-37.8909" lon="145.31737">
    <ele>175.94</ele>
   </trkpt>
   <trkpt lat="-37.89134" lon="145.31707">
    <ele>171.77</ele>
   </trkpt>
   <trkpt lat="-37.89143" lon="145.31695000000002">
    <ele>170.64000000000001</ele>
   </trkpt>
   <trkpt lat="-37.89166" lon="145.31673">
    <ele>163.75</ele>
   </trkpt>
   <trkpt lat="-37.89173" lon="145.31668000000002">
    <ele>163.75</ele>
   </trkpt>
   <trkpt lat="-37.89186" lon="145.31668000000002">
    <ele>163.17000000000002</ele>
   </trkpt>
   <trkpt lat="-37.89193" lon="145.31663">
    <ele>161.95000000000002</ele>
   </trkpt>
   <trkpt lat="-37.891960000000005" lon="145.31649000000002">
    <ele>161.03</ele>
   </trkpt>
   <trkpt lat="-37.89199" lon="145.31643000000003">
    <ele>161.03</ele>
   </trkpt>
   <trkpt lat="-37.892050000000005" lon="145.31642000000002">
    <ele>159.4</ele>
   </trkpt>
   <trkpt lat="-37.89204" lon="145.31646">
    <ele>159.4</ele>
   </trkpt>
   <trkpt lat="-37.89224" lon="145.31658000000002">
    <ele>158.35000000000002</ele>
   </trkpt>
   <trkpt lat="-37.89206" lon="145.31721000000002">
    <ele>160.22</ele>
   </trkpt>
   <trkpt lat="-37.89208" lon="145.31761">
    <ele>164.34</ele>
   </trkpt>
   <trkpt lat="-37.892120000000006" lon="145.31776000000002">
    <ele>164.48000000000002</ele>
   </trkpt>
   <trkpt lat="-37.892100000000006" lon="145.31782">
    <ele>164.48000000000002</ele>
   </trkpt>
   <trkpt lat="-37.8922500038205" lon="145.31876999808458">
    <ele>167.44</ele>
   </trkpt>
   <trkpt lat="-37.8924" lon="145.31972000000002">
    <ele>174.90000000000003</ele>
   </trkpt>
   <trkpt lat="-37.89244" lon="145.31987">
    <ele>175.27</ele>
   </trkpt>
   <trkpt lat="-37.892610000000005" lon="145.32025000000002">
    <ele>175.27</ele>
   </trkpt>
   <trkpt lat="-37.892680000000006" lon="145.32048">
    <ele>175.34000000000003</ele>
   </trkpt>
   <trkpt lat="-37.89278500240101" lon="145.32122999908592">
    <ele>180.27</ele>
   </trkpt>
   <trkpt lat="-37.89289" lon="145.32198000000002">
    <ele>185.46</ele>
   </trkpt>
   <trkpt lat="-37.89293" lon="145.32212">
    <ele>190.11</ele>
   </trkpt>
   <trkpt lat="-37.89319000108668" lon="145.32264999792136">
    <ele>196.18</ele>
   </trkpt>
   <trkpt lat="-37.89345" lon="145.32318">
    <ele>200.88</ele>
   </trkpt>
   <trkpt lat="-37.89383" lon="145.32387">
    <ele>209.57</ele>
   </trkpt>
   <trkpt lat="-37.89399" lon="145.32409">
    <ele>211.98000000000002</ele>
   </trkpt>
   <trkpt lat="-37.8943" lon="145.32437000000002">
    <ele>215.19000000000003</ele>
   </trkpt>
   <trkpt lat="-37.89448" lon="145.32449000000003">
    <ele>217.34</ele>
   </trkpt>
   <trkpt lat="-37.89477" lon="145.32456000000002">
    <ele>220.26000000000002</ele>
   </trkpt>
   <trkpt lat="-37.89517" lon="145.32458000000003">
    <ele>223.85000000000002</ele>
   </trkpt>
   <trkpt lat="-37.89571" lon="145.32449000000003">
    <ele>230.88000000000002</ele>
   </trkpt>
   <trkpt lat="-37.895970000000005" lon="145.32449000000003">
    <ele>234.56</ele>
   </trkpt>
   <trkpt lat="-37.89593" lon="145.32462">
    <ele>236.25</ele>
   </trkpt>
   <trkpt lat="-37.89587" lon="145.32473000000002">
    <ele>238.47</ele>
   </trkpt>
   <trkpt lat="-37.89531" lon="145.32536000000002">
    <ele>246.4</ele>
   </trkpt>
   <trkpt lat="-37.89511" lon="145.32549">
    <ele>248.18</ele>
   </trkpt>
   <trkpt lat="-37.89437" lon="145.32580000000002">
    <ele>256.88</ele>
   </trkpt>
   <trkpt lat="-37.89419" lon="145.32585">
    <ele>260.65000000000003</ele>
   </trkpt>
   <trkpt lat="-37.8937" lon="145.32590000000002">
    <ele>266.94</ele>
   </trkpt>
   <trkpt lat="-37.893330000000006" lon="145.32586">
    <ele>273.44</ele>
   </trkpt>
   <trkpt lat="-37.89332" lon="145.32590000000002">
    <ele>273.44</ele>
   </trkpt>
   <trkpt lat="-37.89332" lon="145.32591000000002">
    <ele>273.45000000000005</ele>
   </trkpt>
   <trkpt lat="-37.893710000000006" lon="145.32611">
    <ele>275.46000000000004</ele>
   </trkpt>
   <trkpt lat="-37.89399" lon="145.32631">
    <ele>277.62</ele>
   </trkpt>
   <trkpt lat="-37.89414" lon="145.32639">
    <ele>278.11</ele>
   </trkpt>
   <trkpt lat="-37.89428" lon="145.32644000000002">
    <ele>278.11</ele>
   </trkpt>
   <trkpt lat="-37.89506" lon="145.32659">
    <ele>284.32</ele>
   </trkpt>
   <trkpt lat="-37.895230000000005" lon="145.32664000000003">
    <ele>285.82</ele>
   </trkpt>
   <trkpt lat="-37.89533" lon="145.32666">
    <ele>287.06000000000006</ele>
   </trkpt>
   <trkpt lat="-37.89546" lon="145.32673">
    <ele>289.2</ele>
   </trkpt>
   <trkpt lat="-37.89587" lon="145.32703">
    <ele>297.07</ele>
   </trkpt>
   <trkpt lat="-37.896060000000006" lon="145.32719">
    <ele>299.65000000000003</ele>
   </trkpt>
   <trkpt lat="-37.89614" lon="145.3273">
    <ele>300.95000000000005</ele>
   </trkpt>
   <trkpt lat="-37.89571" lon="145.32757">
    <ele>309.43</ele>
   </trkpt>
   <trkpt lat="-37.89524" lon="145.32793">
    <ele>319.43000000000006</ele>
   </trkpt>
   <trkpt lat="-37.89452" lon="145.32842000000002">
    <ele>334.94</ele>
   </trkpt>
   <trkpt lat="-37.89446" lon="145.32844">
    <ele>336.86</ele>
   </trkpt>
   <trkpt lat="-37.8941" lon="145.32918">
    <ele>336.44</ele>
   </trkpt>
   <trkpt lat="-37.89399" lon="145.32937">
    <ele>335.11</ele>
   </trkpt>
   <trkpt lat="-37.89372" lon="145.33009">
    <ele>316.58000000000004</ele>
   </trkpt>
   <trkpt lat="-37.89384334034439" lon="145.33099999699297">
    <ele>293.66</ele>
   </trkpt>
   <trkpt lat="-37.893966673683465" lon="145.3319099970352">
    <ele>264.93</ele>
   </trkpt>
   <trkpt lat="-37.894090000000006" lon="145.33282">
    <ele>240.0</ele>
   </trkpt>
   <trkpt lat="-37.89417" lon="145.33352000000002">
    <ele>236.90000000000003</ele>
   </trkpt>
   <trkpt lat="-37.894200001507045" lon="145.33411499994784">
    <ele>239.33</ele>
   </trkpt>
   <trkpt lat="-37.89423" lon="145.33471">
    <ele>244.99</ele>
   </trkpt>
   <trkpt lat="-37.8945" lon="145.33495000000002">
    <ele>243.36</ele>
   </trkpt>
   <trkpt lat="-37.89459" lon="145.33519">
    <ele>243.49</ele>
   </trkpt>
   <trkpt lat="-37.89479" lon="145.33558000000002">
    <ele>248.02</ele>
   </trkpt>
   <trkpt lat="-37.89486" lon="145.33586000000003">
    <ele>249.78000000000003</ele>
   </trkpt>
   <trkpt lat="-37.895360000000004" lon="145.33549000000002">
    <ele>240.40000000000003</ele>
   </trkpt>
   <trkpt lat="-37.8956" lon="145.33610000000002">
    <ele>252.5</ele>
   </trkpt>
   <trkpt lat="-37.89571" lon="145.33689">
    <ele>270.65</ele>
   </trkpt>
   <trkpt lat="-37.89589" lon="145.33745000000002">
    <ele>284.25</ele>
   </trkpt>
   <trkpt lat="-37.89596" lon="145.33782000000002">
    <ele>292.08</ele>
   </trkpt>
   <trkpt lat="-37.896080000000005" lon="145.33836000000002">
    <ele>294.56000000000006</ele>
   </trkpt>
   <trkpt lat="-37.89674" lon="145.3383">
    <ele>293.34999999999997</ele>
   </trkpt>
   <trkpt lat="-37.897180000000006" lon="145.33828000000003">
    <ele>292.7</ele>
   </trkpt>
   <trkpt lat="-37.896480001896236" lon="145.33895500644897">
    <ele>287.75</ele>
   </trkpt>
   <trkpt lat="-37.89578" lon="145.33963">
    <ele>278.99</ele>
   </trkpt>
   <trkpt lat="-37.89660500001372" lon="145.3397149990456">
    <ele>269.37</ele>
   </trkpt>
   <trkpt lat="-37.89743" lon="145.33980000000003">
    <ele>260.31000000000006</ele>
   </trkpt>
   <trkpt lat="-37.897450000000006" lon="145.33982">
    <ele>260.31000000000006</ele>
   </trkpt>
   <trkpt lat="-37.89723" lon="145.33995000000002">
    <ele>257.57</ele>
   </trkpt>
   <trkpt lat="-37.89685" lon="145.34011">
    <ele>255.28</ele>
   </trkpt>
   <trkpt lat="-37.89661" lon="145.34029">
    <ele>253.95000000000002</ele>
   </trkpt>
   <trkpt lat="-37.89654" lon="145.34037">
    <ele>253.21000000000004</ele>
   </trkpt>
   <trkpt lat="-37.89654" lon="145.34052">
    <ele>252.36</ele>
   </trkpt>
   <trkpt lat="-37.89663" lon="145.34096000000002">
    <ele>249.05</ele>
   </trkpt>
   <trkpt lat="-37.896710000000006" lon="145.34113000000002">
    <ele>248.47000000000003</ele>
   </trkpt>
   <trkpt lat="-37.89678" lon="145.34120000000001">
    <ele>247.37</ele>
   </trkpt>
   <trkpt lat="-37.89725" lon="145.34118">
    <ele>244.72000000000003</ele>
   </trkpt>
   <trkpt lat="-37.89743250884421" lon="145.3420149937736">
    <ele>244.55</ele>
   </trkpt>
   <trkpt lat="-37.89761501179007" lon="145.34284999168793">
    <ele>245.91000000000003</ele>
   </trkpt>
   <trkpt lat="-37.89779750883754" lon="145.3436849937429">
    <ele>246.78000000000003</ele>
   </trkpt>
   <trkpt lat="-37.897980000000004" lon="145.34452000000002">
    <ele>253.03000000000003</ele>
   </trkpt>
   <trkpt lat="-37.89819000174" lon="145.34516999799956">
    <ele>251.85000000000002</ele>
   </trkpt>
   <trkpt lat="-37.8984" lon="145.34582">
    <ele>247.57</ele>
   </trkpt>
   <trkpt lat="-37.89842" lon="145.34604000000002">
    <ele>245.09000000000003</ele>
   </trkpt>
   <trkpt lat="-37.89837" lon="145.34629">
    <ele>242.86</ele>
   </trkpt>
   <trkpt lat="-37.8984" lon="145.34655">
    <ele>240.94</ele>
   </trkpt>
   <trkpt lat="-37.89851" lon="145.34677000000002">
    <ele>239.52</ele>
   </trkpt>
   <trkpt lat="-37.89864" lon="145.34682">
    <ele>239.75</ele>
   </trkpt>
   <trkpt lat="-37.89887" lon="145.34678000000002">
    <ele>241.23000000000002</ele>
   </trkpt>
   <trkpt lat="-37.89916" lon="145.34663">
    <ele>244.43</ele>
   </trkpt>
   <trkpt lat="-37.89931" lon="145.34660000000002">
    <ele>245.11</ele>
   </trkpt>
   <trkpt lat="-37.8994" lon="145.34662">
    <ele>246.61</ele>
   </trkpt>
   <trkpt lat="-37.89951000000001" lon="145.34672">
    <ele>247.58</ele>
   </trkpt>
   <trkpt lat="-37.89952" lon="145.34681">
    <ele>247.58</ele>
   </trkpt>
   <trkpt lat="-37.89941" lon="145.347">
    <ele>251.68</ele>
   </trkpt>
   <trkpt lat="-37.89981" lon="145.34717">
    <ele>254.87000000000003</ele>
   </trkpt>
   <trkpt lat="-37.90046" lon="145.34733">
    <ele>261.85</ele>
   </trkpt>
   <trkpt lat="-37.900510000000004" lon="145.34738000000002">
    <ele>264.97</ele>
   </trkpt>
   <trkpt lat="-37.90055" lon="145.34746">
    <ele>264.97</ele>
   </trkpt>
   <trkpt lat="-37.90055" lon="145.34745">
    <ele>264.97</ele>
   </trkpt>
   <trkpt lat="-37.90055" lon="145.34751">
    <ele>266.13000000000005</ele>
   </trkpt>
   <trkpt lat="-37.90025" lon="145.34795000000003">
    <ele>270.07000000000005</ele>
   </trkpt>
   <trkpt lat="-37.9001" lon="145.34813000000003">
    <ele>273.3</ele>
   </trkpt>
   <trkpt lat="-37.90001" lon="145.34827">
    <ele>275.47</ele>
   </trkpt>
   <trkpt lat="-37.90001" lon="145.34836">
    <ele>276.30000000000007</ele>
   </trkpt>
   <trkpt lat="-37.90005" lon="145.34845">
    <ele>278.88</ele>
   </trkpt>
   <trkpt lat="-37.90012" lon="145.34849">
    <ele>279.66</ele>
   </trkpt>
   <trkpt lat="-37.90061" lon="145.34858">
    <ele>286.90000000000003</ele>
   </trkpt>
   <trkpt lat="-37.90072" lon="145.34863">
    <ele>288.68000000000006</ele>
   </trkpt>
   <trkpt lat="-37.90079" lon="145.34868">
    <ele>291.8</ele>
   </trkpt>
   <trkpt lat="-37.90081" lon="145.34872000000001">
    <ele>291.8</ele>
   </trkpt>
   <trkpt lat="-37.90077" lon="145.34885">
    <ele>294.32</ele>
   </trkpt>
   <trkpt lat="-37.90066" lon="145.34903">
    <ele>294.91</ele>
   </trkpt>
   <trkpt lat="-37.900470000000006" lon="145.34926000000002">
    <ele>299.07</ele>
   </trkpt>
   <trkpt lat="-37.90034" lon="145.34947000000003">
    <ele>302.78000000000003</ele>
   </trkpt>
   <trkpt lat="-37.90032" lon="145.34961">
    <ele>304.58</ele>
   </trkpt>
   <trkpt lat="-37.90037" lon="145.34967">
    <ele>307.34</ele>
   </trkpt>
   <trkpt lat="-37.90041" lon="145.3497">
    <ele>307.34</ele>
   </trkpt>
   <trkpt lat="-37.90081" lon="145.34980000000002">
    <ele>315.59000000000003</ele>
   </trkpt>
   <trkpt lat="-37.901030000000006" lon="145.34980000000002">
    <ele>317.57</ele>
   </trkpt>
   <trkpt lat="-37.90108" lon="145.34983000000003">
    <ele>319.29</ele>
   </trkpt>
   <trkpt lat="-37.90113" lon="145.34993">
    <ele>320.74</ele>
   </trkpt>
   <trkpt lat="-37.90113" lon="145.35002">
    <ele>321.64000000000004</ele>
   </trkpt>
   <trkpt lat="-37.90104" lon="145.35017000000002">
    <ele>324.51</ele>
   </trkpt>
   <trkpt lat="-37.90072500073099" lon="145.35059000181786">
    <ele>330.20000000000005</ele>
   </trkpt>
   <trkpt lat="-37.90041" lon="145.35101">
    <ele>336.24</ele>
   </trkpt>
   <trkpt lat="-37.90039" lon="145.35109">
    <ele>336.24</ele>
   </trkpt>
   <trkpt lat="-37.900380000000006" lon="145.35124000000002">
    <ele>339.05</ele>
   </trkpt>
   <trkpt lat="-37.900450000000006" lon="145.35159000000002">
    <ele>341.1</ele>
   </trkpt>
   <trkpt lat="-37.899770000000004" lon="145.35151000000002">
    <ele>338.56</ele>
   </trkpt>
   <trkpt lat="-37.89913000019713" lon="145.35140499911168">
    <ele>334.20000000000005</ele>
   </trkpt>
   <trkpt lat="-37.89849" lon="145.3513">
    <ele>328.16</ele>
   </trkpt>
   <trkpt lat="-37.89804" lon="145.3512">
    <ele>323.04</ele>
   </trkpt>
   <trkpt lat="-37.8973349999817" lon="145.3509949979795">
    <ele>312.16</ele>
   </trkpt>
   <trkpt lat="-37.89663" lon="145.35079000000002">
    <ele>309.43</ele>
   </trkpt>
   <trkpt lat="-37.89622" lon="145.35065">
    <ele>309.19</ele>
   </trkpt>
   <trkpt lat="-37.89602" lon="145.35051">
    <ele>309.21000000000004</ele>
   </trkpt>
   <trkpt lat="-37.89589" lon="145.35032">
    <ele>309.38000000000005</ele>
   </trkpt>
   <trkpt lat="-37.89569" lon="145.34999000000002">
    <ele>308.78</ele>
   </trkpt>
   <trkpt lat="-37.89551" lon="145.35015">
    <ele>320.19</ele>
   </trkpt>
   <trkpt lat="-37.89531" lon="145.34975">
    <ele>319.53000000000003</ele>
   </trkpt>
   <trkpt lat="-37.89502" lon="145.34927000000002">
    <ele>321.28000000000003</ele>
   </trkpt>
   <trkpt lat="-37.89467000180488" lon="145.34860499671348">
    <ele>331.25000000000006</ele>
   </trkpt>
   <trkpt lat="-37.89432" lon="145.34794000000002">
    <ele>340.05</ele>
   </trkpt>
   <trkpt lat="-37.89419" lon="145.34763">
    <ele>344.31</ele>
   </trkpt>
   <trkpt lat="-37.89405" lon="145.34746">
    <ele>347.04</ele>
   </trkpt>
   <trkpt lat="-37.89392" lon="145.34734">
    <ele>348.12000000000006</ele>
   </trkpt>
   <trkpt lat="-37.89367" lon="145.34722000000002">
    <ele>349.58</ele>
   </trkpt>
   <trkpt lat="-37.89354" lon="145.3471">
    <ele>351.04</ele>
   </trkpt>
   <trkpt lat="-37.8934" lon="145.34701">
    <ele>351.04</ele>
   </trkpt>
   <trkpt lat="-37.89316" lon="145.34692">
    <ele>353.00000000000006</ele>
   </trkpt>
   <trkpt lat="-37.892770000000006" lon="145.34666">
    <ele>357.7</ele>
   </trkpt>
   <trkpt lat="-37.89235" lon="145.34657">
    <ele>364.54</ele>
   </trkpt>
   <trkpt lat="-37.89180500056502" lon="145.34696000294312">
    <ele>370.94000000000005</ele>
   </trkpt>
   <trkpt lat="-37.89126" lon="145.34735">
    <ele>377.81</ele>
   </trkpt>
   <trkpt lat="-37.890800000000006" lon="145.34763">
    <ele>384.18</ele>
   </trkpt>
   <trkpt lat="-37.89052" lon="145.34785000000002">
    <ele>387.52000000000004</ele>
   </trkpt>
   <trkpt lat="-37.89043" lon="145.34805">
    <ele>390.63000000000005</ele>
   </trkpt>
   <trkpt lat="-37.89052" lon="145.34830000000002">
    <ele>392.68</ele>
   </trkpt>
   <trkpt lat="-37.89054" lon="145.34848000000002">
    <ele>393.64000000000004</ele>
   </trkpt>
   <trkpt lat="-37.89054" lon="145.34882000000002">
    <ele>395.92</ele>
   </trkpt>
   <trkpt lat="-37.890620000000006" lon="145.34932">
    <ele>401.22</ele>
   </trkpt>
   <trkpt lat="-37.89067" lon="145.34957">
    <ele>404.05</ele>
   </trkpt>
   <trkpt lat="-37.89103" lon="145.35045000000002">
    <ele>411.30000000000007</ele>
   </trkpt>
   <trkpt lat="-37.89120000215578" lon="145.3511599984591">
    <ele>416.26</ele>
   </trkpt>
   <trkpt lat="-37.89137" lon="145.35187000000002">
    <ele>422.38000000000005</ele>
   </trkpt>
   <trkpt lat="-37.89139" lon="145.35214000000002">
    <ele>424.46000000000004</ele>
   </trkpt>
   <trkpt lat="-37.89137" lon="145.35227">
    <ele>424.46000000000004</ele>
   </trkpt>
   <trkpt lat="-37.89128" lon="145.35273">
    <ele>429.76000000000005</ele>
   </trkpt>
   <trkpt lat="-37.89119" lon="145.35283">
    <ele>429.76000000000005</ele>
   </trkpt>
   <trkpt lat="-37.89101" lon="145.35302000000001">
    <ele>432.2300000000001</ele>
   </trkpt>
   <trkpt lat="-37.8909" lon="145.35308">
    <ele>433.05</ele>
   </trkpt>
   <trkpt lat="-37.890730000000005" lon="145.35311000000002">
    <ele>434.49</ele>
   </trkpt>
   <trkpt lat="-37.89052" lon="145.3531">
    <ele>435.91</ele>
   </trkpt>
   <trkpt lat="-37.88985" lon="145.35299">
    <ele>440.68</ele>
   </trkpt>
   <trkpt lat="-37.88935" lon="145.35294000000002">
    <ele>445.27000000000004</ele>
   </trkpt>
   <trkpt lat="-37.88915" lon="145.35287000000002">
    <ele>447.13</ele>
   </trkpt>
   <trkpt lat="-37.88882" lon="145.35269000000002">
    <ele>450.97</ele>
   </trkpt>
   <trkpt lat="-37.88841" lon="145.35235">
    <ele>454.22</ele>
   </trkpt>
   <trkpt lat="-37.88812" lon="145.35205000000002">
    <ele>456.93000000000006</ele>
   </trkpt>
   <trkpt lat="-37.88783" lon="145.35185">
    <ele>459.20000000000005</ele>
   </trkpt>
   <trkpt lat="-37.88716" lon="145.35176">
    <ele>471.70000000000005</ele>
   </trkpt>
   <trkpt lat="-37.88669" lon="145.35166">
    <ele>482.22</ele>
   </trkpt>
   <trkpt lat="-37.886410000000005" lon="145.35162000000003">
    <ele>485.66</ele>
   </trkpt>
   <trkpt lat="-37.886070000000004" lon="145.35163">
    <ele>490.64</ele>
   </trkpt>
   <trkpt lat="-37.88615" lon="145.35176">
    <ele>488.25</ele>
   </trkpt>
   <trkpt lat="-37.88606" lon="145.35204000000002">
    <ele>492.17</ele>
   </trkpt>
   <trkpt lat="-37.88588" lon="145.35242000000002">
    <ele>495.99</ele>
   </trkpt>
   <trkpt lat="-37.88555" lon="145.35296000000002">
    <ele>499.36</ele>
   </trkpt>
   <trkpt lat="-37.88544" lon="145.35307">
    <ele>502.38000000000005</ele>
   </trkpt>
   <trkpt lat="-37.88508" lon="145.35324">
    <ele>503.7600000000001</ele>
   </trkpt>
   <trkpt lat="-37.88497" lon="145.35328">
    <ele>504.15</ele>
   </trkpt>
   <trkpt lat="-37.88434" lon="145.35368000000003">
    <ele>503.28000000000003</ele>
   </trkpt>
   <trkpt lat="-37.88423" lon="145.35381">
    <ele>502.46</ele>
   </trkpt>
   <trkpt lat="-37.88371" lon="145.35464000000002">
    <ele>493.36</ele>
   </trkpt>
   <trkpt lat="-37.88351" lon="145.35512">
    <ele>492.78000000000003</ele>
   </trkpt>
   <trkpt lat="-37.88351" lon="145.3553">
    <ele>492.82000000000005</ele>
   </trkpt>
   <trkpt lat="-37.88318" lon="145.3554">
    <ele>488.43</ele>
   </trkpt>
   <trkpt lat="-37.88302" lon="145.35574000000003">
    <ele>491.43</ele>
   </trkpt>
   <trkpt lat="-37.88288" lon="145.35593">
    <ele>492.22</ele>
   </trkpt>
   <trkpt lat="-37.88266" lon="145.35619">
    <ele>493.08</ele>
   </trkpt>
   <trkpt lat="-37.88244" lon="145.35639">
    <ele>493.22</ele>
   </trkpt>
   <trkpt lat="-37.88226" lon="145.35667">
    <ele>493.25</ele>
   </trkpt>
   <trkpt lat="-37.88212" lon="145.35702">
    <ele>494.47</ele>
   </trkpt>
   <trkpt lat="-37.88183" lon="145.35763">
    <ele>494.86</ele>
   </trkpt>
   <trkpt lat="-37.88138" lon="145.35829">
    <ele>491.44000000000005</ele>
   </trkpt>
   <trkpt lat="-37.88123" lon="145.35861">
    <ele>489.3500000000001</ele>
   </trkpt>
   <trkpt lat="-37.881190000000004" lon="145.35876000000002">
    <ele>489.01000000000005</ele>
   </trkpt>
   <trkpt lat="-37.88103" lon="145.35903000000002">
    <ele>492.44000000000005</ele>
   </trkpt>
   <trkpt lat="-37.88094" lon="145.35907">
    <ele>493.18000000000006</ele>
   </trkpt>
   <trkpt lat="-37.8808" lon="145.35903000000002">
    <ele>494.99</ele>
   </trkpt>
   <trkpt lat="-37.88051" lon="145.35909">
    <ele>482.56000000000006</ele>
   </trkpt>
   <trkpt lat="-37.88033" lon="145.3591">
    <ele>482.09000000000003</ele>
   </trkpt>
   <trkpt lat="-37.8802" lon="145.35908">
    <ele>481.36000000000007</ele>
   </trkpt>
   <trkpt lat="-37.88006" lon="145.35903000000002">
    <ele>480.59000000000003</ele>
   </trkpt>
   <trkpt lat="-37.87991" lon="145.35891">
    <ele>479.11</ele>
   </trkpt>
   <trkpt lat="-37.87975" lon="145.35876000000002">
    <ele>478.29</ele>
   </trkpt>
   <trkpt lat="-37.87919" lon="145.35846">
    <ele>477.92</ele>
   </trkpt>
   <trkpt lat="-37.87876" lon="145.35838">
    <ele>478.26</ele>
   </trkpt>
   <trkpt lat="-37.878600000000006" lon="145.35829">
    <ele>477.53000000000003</ele>
   </trkpt>
   <trkpt lat="-37.87818" lon="145.35801">
    <ele>473.69000000000005</ele>
   </trkpt>
   <trkpt lat="-37.87798" lon="145.35797000000002">
    <ele>473.69000000000005</ele>
   </trkpt>
   <trkpt lat="-37.8778" lon="145.35791">
    <ele>471.40000000000003</ele>
   </trkpt>
   <trkpt lat="-37.8776" lon="145.35774">
    <ele>469.65</ele>
   </trkpt>
   <trkpt lat="-37.87733" lon="145.35716000000002">
    <ele>465.28000000000003</ele>
   </trkpt>
   <trkpt lat="-37.877100000000006" lon="145.35656">
    <ele>460.93000000000006</ele>
   </trkpt>
   <trkpt lat="-37.87693" lon="145.35664">
    <ele>458.0</ele>
   </trkpt>
   <trkpt lat="-37.87684" lon="145.35664">
    <ele>471.62</ele>
   </trkpt>
   <trkpt lat="-37.87675" lon="145.35661000000002">
    <ele>472.19000000000005</ele>
   </trkpt>
   <trkpt lat="-37.87664" lon="145.35663000000002">
    <ele>472.19000000000005</ele>
   </trkpt>
   <trkpt lat="-37.8763" lon="145.35676">
    <ele>473.6</ele>
   </trkpt>
   <trkpt lat="-37.876160000000006" lon="145.35686">
    <ele>474.04</ele>
   </trkpt>
   <trkpt lat="-37.87597" lon="145.35711">
    <ele>473.44</ele>
   </trkpt>
   <trkpt lat="-37.87579" lon="145.35753000000003">
    <ele>469.61</ele>
   </trkpt>
   <trkpt lat="-37.87561" lon="145.35771000000003">
    <ele>466.72</ele>
   </trkpt>
   <trkpt lat="-37.87545" lon="145.35776">
    <ele>465.27</ele>
   </trkpt>
   <trkpt lat="-37.87489" lon="145.35784">
    <ele>462.73</ele>
   </trkpt>
   <trkpt lat="-37.8746" lon="145.35783">
    <ele>460.57000000000005</ele>
   </trkpt>
   <trkpt lat="-37.87433" lon="145.35779000000002">
    <ele>460.57000000000005</ele>
   </trkpt>
   <trkpt lat="-37.874" lon="145.35763">
    <ele>455.47</ele>
   </trkpt>
   <trkpt lat="-37.87375" lon="145.35745">
    <ele>453.25000000000006</ele>
   </trkpt>
   <trkpt lat="-37.87368" lon="145.35735000000003">
    <ele>451.86</ele>
   </trkpt>
   <trkpt lat="-37.87339" lon="145.35662000000002">
    <ele>449.03000000000003</ele>
   </trkpt>
   <trkpt lat="-37.87332" lon="145.35657">
    <ele>448.58000000000004</ele>
   </trkpt>
   <trkpt lat="-37.873310000000004" lon="145.35656">
    <ele>448.58000000000004</ele>
   </trkpt>
   <trkpt lat="-37.87326" lon="145.35669000000001">
    <ele>447.75</ele>
   </trkpt>
   <trkpt lat="-37.87335" lon="145.35702">
    <ele>446.26000000000005</ele>
   </trkpt>
   <trkpt lat="-37.87346" lon="145.35765">
    <ele>442.22</ele>
   </trkpt>
   <trkpt lat="-37.87357" lon="145.35787000000002">
    <ele>440.89000000000004</ele>
   </trkpt>
   <trkpt lat="-37.873630000000006" lon="145.35801">
    <ele>439.04</ele>
   </trkpt>
   <trkpt lat="-37.87373" lon="145.3582">
    <ele>436.47</ele>
   </trkpt>
   <trkpt lat="-37.87402" lon="145.35851000000002">
    <ele>432.61</ele>
   </trkpt>
   <trkpt lat="-37.87435" lon="145.35875000000001">
    <ele>430.7300000000001</ele>
   </trkpt>
   <trkpt lat="-37.87487" lon="145.35939000000002">
    <ele>421.58</ele>
   </trkpt>
   <trkpt lat="-37.87496" lon="145.35946">
    <ele>421.23</ele>
   </trkpt>
   <trkpt lat="-37.87505" lon="145.35948000000002">
    <ele>418.08</ele>
   </trkpt>
   <trkpt lat="-37.87512" lon="145.35974000000002">
    <ele>416.16</ele>
   </trkpt>
   <trkpt lat="-37.87509" lon="145.35984000000002">
    <ele>414.39000000000004</ele>
   </trkpt>
   <trkpt lat="-37.87505" lon="145.35992000000002">
    <ele>414.39000000000004</ele>
   </trkpt>
   <trkpt lat="-37.87469" lon="145.36031">
    <ele>407.29</ele>
   </trkpt>
   <trkpt lat="-37.87406" lon="145.36083000000002">
    <ele>396.71</ele>
   </trkpt>
   <trkpt lat="-37.87391" lon="145.36107">
    <ele>396.26000000000005</ele>
   </trkpt>
   <trkpt lat="-37.873720000000006" lon="145.36151">
    <ele>396.05</ele>
   </trkpt>
   <trkpt lat="-37.87377" lon="145.36196">
    <ele>387.65000000000003</ele>
   </trkpt>
   <trkpt lat="-37.87364" lon="145.36164000000002">
    <ele>411.91</ele>
   </trkpt>
   <trkpt lat="-37.87377" lon="145.36196">
    <ele>387.65000000000003</ele>
   </trkpt>
   <trkpt lat="-37.87377" lon="145.36198000000002">
    <ele>386.47</ele>
   </trkpt>
   <trkpt lat="-37.873670000000004" lon="145.36206">
    <ele>373.76000000000005</ele>
   </trkpt>
   <trkpt lat="-37.87335" lon="145.36167">
    <ele>375.85</ele>
   </trkpt>
   <trkpt lat="-37.87324" lon="145.36156000000003">
    <ele>377.33000000000004</ele>
   </trkpt>
   <trkpt lat="-37.873160000000006" lon="145.36152">
    <ele>377.33000000000004</ele>
   </trkpt>
   <trkpt lat="-37.87303" lon="145.3615">
    <ele>378.16</ele>
   </trkpt>
   <trkpt lat="-37.87288" lon="145.36151">
    <ele>378.79</ele>
   </trkpt>
   <trkpt lat="-37.87265" lon="145.36156000000003">
    <ele>379.99000000000007</ele>
   </trkpt>
   <trkpt lat="-37.87214" lon="145.36158">
    <ele>381.87000000000006</ele>
   </trkpt>
   <trkpt lat="-37.87149" lon="145.36167">
    <ele>383.69</ele>
   </trkpt>
   <trkpt lat="-37.87106" lon="145.36165000000003">
    <ele>384.6</ele>
   </trkpt>
   <trkpt lat="-37.87066" lon="145.36158">
    <ele>385.13</ele>
   </trkpt>
   <trkpt lat="-37.87044" lon="145.36151">
    <ele>385.43000000000006</ele>
   </trkpt>
   <trkpt lat="-37.8699" lon="145.36120000000003">
    <ele>386.95</ele>
   </trkpt>
   <trkpt lat="-37.86979" lon="145.36111000000002">
    <ele>387.11</ele>
   </trkpt>
   <trkpt lat="-37.86932" lon="145.36065000000002">
    <ele>388.0</ele>
   </trkpt>
   <trkpt lat="-37.86918" lon="145.36046000000002">
    <ele>388.18</ele>
   </trkpt>
   <trkpt lat="-37.86883" lon="145.36012000000002">
    <ele>390.02000000000004</ele>
   </trkpt>
   <trkpt lat="-37.868280000000006" lon="145.35977000000003">
    <ele>391.6</ele>
   </trkpt>
   <trkpt lat="-37.86795" lon="145.3596">
    <ele>427.3</ele>
   </trkpt>
   <trkpt lat="-37.86787" lon="145.35954">
    <ele>393.16</ele>
   </trkpt>
   <trkpt lat="-37.86795" lon="145.3596">
    <ele>392.72</ele>
   </trkpt>
   <trkpt lat="-37.86784000205602" lon="145.36029500095285">
    <ele>409.91</ele>
   </trkpt>
   <trkpt lat="-37.86773" lon="145.36099000000002">
    <ele>426.92</ele>
   </trkpt>
   <trkpt lat="-37.86768" lon="145.36118000000002">
    <ele>427.39000000000004</ele>
   </trkpt>
   <trkpt lat="-37.86764" lon="145.36126000000002">
    <ele>427.36</ele>
   </trkpt>
   <trkpt lat="-37.86762" lon="145.36127000000002">
    <ele>427.28000000000003</ele>
   </trkpt>
   <trkpt lat="-37.86759" lon="145.36119000000002">
    <ele>427.14</ele>
   </trkpt>
   <trkpt lat="-37.86755" lon="145.3607">
    <ele>425.76</ele>
   </trkpt>
   <trkpt lat="-37.86748" lon="145.3605">
    <ele>425.76</ele>
   </trkpt>
   <trkpt lat="-37.86741" lon="145.3604">
    <ele>425.04</ele>
   </trkpt>
   <trkpt lat="-37.86726" lon="145.36029000000002">
    <ele>425.04</ele>
   </trkpt>
   <trkpt lat="-37.86688" lon="145.36014">
    <ele>430.16</ele>
   </trkpt>
   <trkpt lat="-37.86642000015508" lon="145.35998999908318">
    <ele>434.39000000000004</ele>
   </trkpt>
   <trkpt lat="-37.86596" lon="145.35984000000002">
    <ele>439.9</ele>
   </trkpt>
   <trkpt lat="-37.8652" lon="145.35926">
    <ele>447.06</ele>
   </trkpt>
   <trkpt lat="-37.865030000000004" lon="145.35902000000002">
    <ele>449.0</ele>
   </trkpt>
   <trkpt lat="-37.86447500279168" lon="145.35821499401197">
    <ele>455.70000000000005</ele>
   </trkpt>
   <trkpt lat="-37.86392" lon="145.35741000000002">
    <ele>465.75000000000006</ele>
   </trkpt>
   <trkpt lat="-37.86379" lon="145.35684">
    <ele>473.32</ele>
   </trkpt>
   <trkpt lat="-37.86372" lon="145.35668">
    <ele>478.71000000000004</ele>
   </trkpt>
   <trkpt lat="-37.86361" lon="145.35657">
    <ele>478.71000000000004</ele>
   </trkpt>
   <trkpt lat="-37.86347000000001" lon="145.3565">
    <ele>482.00000000000006</ele>
   </trkpt>
   <trkpt lat="-37.86271" lon="145.35647">
    <ele>492.75</ele>
   </trkpt>
   <trkpt lat="-37.86221499996748" lon="145.35653000040878">
    <ele>495.3</ele>
   </trkpt>
   <trkpt lat="-37.861720000000005" lon="145.35659">
    <ele>495.42</ele>
   </trkpt>
   <trkpt lat="-37.86119" lon="145.35652000000002">
    <ele>493.31</ele>
   </trkpt>
   <trkpt lat="-37.86106" lon="145.35644000000002">
    <ele>493.31</ele>
   </trkpt>
   <trkpt lat="-37.860890000000005" lon="145.35628">
    <ele>492.37</ele>
   </trkpt>
   <trkpt lat="-37.86081" lon="145.35613">
    <ele>492.15000000000003</ele>
   </trkpt>
   <trkpt lat="-37.86079" lon="145.35600000000002">
    <ele>491.82000000000005</ele>
   </trkpt>
   <trkpt lat="-37.86079" lon="145.35580000000002">
    <ele>491.53000000000003</ele>
   </trkpt>
   <trkpt lat="-37.86086" lon="145.35562000000002">
    <ele>491.53000000000003</ele>
   </trkpt>
   <trkpt lat="-37.86108" lon="145.35531">
    <ele>489.68000000000006</ele>
   </trkpt>
   <trkpt lat="-37.86137" lon="145.35517000000002">
    <ele>487.77000000000004</ele>
   </trkpt>
   <trkpt lat="-37.86173000031294" lon="145.35481500195095">
    <ele>484.73</ele>
   </trkpt>
   <trkpt lat="-37.86209" lon="145.35446000000002">
    <ele>482.24000000000007</ele>
   </trkpt>
   <trkpt lat="-37.86229" lon="145.35422">
    <ele>481.33000000000004</ele>
   </trkpt>
   <trkpt lat="-37.86229" lon="145.35409">
    <ele>480.84000000000003</ele>
   </trkpt>
   <trkpt lat="-37.862860000000005" lon="145.35369">
    <ele>479.02000000000004</ele>
   </trkpt>
   <trkpt lat="-37.86265" lon="145.35319">
    <ele>476.99</ele>
   </trkpt>
   <trkpt lat="-37.86258" lon="145.35298">
    <ele>475.43</ele>
   </trkpt>
   <trkpt lat="-37.862570000000005" lon="145.35281">
    <ele>474.33000000000004</ele>
   </trkpt>
   <trkpt lat="-37.862610000000004" lon="145.35227">
    <ele>472.35</ele>
   </trkpt>
   <trkpt lat="-37.86265" lon="145.35228">
    <ele>472.35</ele>
   </trkpt>
   <trkpt lat="-37.86285" lon="145.35189000000003">
    <ele>474.52000000000004</ele>
   </trkpt>
   <trkpt lat="-37.86303" lon="145.35168000000002">
    <ele>476.71000000000004</ele>
   </trkpt>
   <trkpt lat="-37.863110000000006" lon="145.35169000000002">
    <ele>477.6</ele>
   </trkpt>
   <trkpt lat="-37.8633" lon="145.35153000000003">
    <ele>478.02000000000004</ele>
   </trkpt>
   <trkpt lat="-37.863420000000005" lon="145.35147">
    <ele>478.57000000000005</ele>
   </trkpt>
   <trkpt lat="-37.8635" lon="145.3513">
    <ele>480.21000000000004</ele>
   </trkpt>
   <trkpt lat="-37.86359" lon="145.35126000000002">
    <ele>481.50000000000006</ele>
   </trkpt>
   <trkpt lat="-37.86368" lon="145.35119">
    <ele>484.13000000000005</ele>
   </trkpt>
   <trkpt lat="-37.86379" lon="145.35118">
    <ele>487.38000000000005</ele>
   </trkpt>
   <trkpt lat="-37.864050000000006" lon="145.35102">
    <ele>494.51000000000005</ele>
   </trkpt>
   <trkpt lat="-37.8641" lon="145.35089000000002">
    <ele>496.07000000000005</ele>
   </trkpt>
   <trkpt lat="-37.8641" lon="145.35074">
    <ele>497.2300000000001</ele>
   </trkpt>
   <trkpt lat="-37.86417" lon="145.35060000000001">
    <ele>499.41</ele>
   </trkpt>
   <trkpt lat="-37.86448" lon="145.34977">
    <ele>510.56</ele>
   </trkpt>
   <trkpt lat="-37.864695001533185" lon="145.34917000172027">
    <ele>517.12</ele>
   </trkpt>
   <trkpt lat="-37.86491" lon="145.34857000000002">
    <ele>521.95</ele>
   </trkpt>
   <trkpt lat="-37.86497" lon="145.34822">
    <ele>523.61</ele>
   </trkpt>
   <trkpt lat="-37.86491" lon="145.34814">
    <ele>520.1800000000001</ele>
   </trkpt>
   <trkpt lat="-37.86484" lon="145.34797">
    <ele>519.36</ele>
   </trkpt>
   <trkpt lat="-37.864810000000006" lon="145.34757000000002">
    <ele>515.47</ele>
   </trkpt>
   <trkpt lat="-37.86482" lon="145.34718">
    <ele>512.8600000000001</ele>
   </trkpt>
   <trkpt lat="-37.86493" lon="145.34702000000001">
    <ele>508.7900000000001</ele>
   </trkpt>
   <trkpt lat="-37.86493" lon="145.34701">
    <ele>508.7900000000001</ele>
   </trkpt>
   <trkpt lat="-37.865370000000006" lon="145.34673">
    <ele>504.5900000000001</ele>
   </trkpt>
   <trkpt lat="-37.8659" lon="145.34657">
    <ele>499.86</ele>
   </trkpt>
   <trkpt lat="-37.866465000146654" lon="145.34643000105766">
    <ele>500.37000000000006</ele>
   </trkpt>
   <trkpt lat="-37.86703" lon="145.34629">
    <ele>504.21000000000004</ele>
   </trkpt>
   <trkpt lat="-37.86741" lon="145.34623000000002">
    <ele>505.53999999999996</ele>
   </trkpt>
   <trkpt lat="-37.86801333447165" lon="145.34586667260356">
    <ele>507.26000000000005</ele>
   </trkpt>
   <trkpt lat="-37.86861666782683" lon="145.34550333925716">
    <ele>506.38000000000005</ele>
   </trkpt>
   <trkpt lat="-37.869220000000006" lon="145.34514000000001">
    <ele>506.12</ele>
   </trkpt>
   <trkpt lat="-37.869690000159665" lon="145.34534999864846">
    <ele>510.68</ele>
   </trkpt>
   <trkpt lat="-37.870160000000006" lon="145.34556">
    <ele>514.6700000000001</ele>
   </trkpt>
   <trkpt lat="-37.87026" lon="145.34527">
    <ele>511.21999999999997</ele>
   </trkpt>
   <trkpt lat="-37.870700001078134" lon="145.344760003071">
    <ele>507.62000000000006</ele>
   </trkpt>
   <trkpt lat="-37.871140000000004" lon="145.34425000000002">
    <ele>507.6700000000001</ele>
   </trkpt>
   <trkpt lat="-37.87145000092009" lon="145.34383500148948">
    <ele>509.14000000000004</ele>
   </trkpt>
   <trkpt lat="-37.87176" lon="145.34342">
    <ele>512.38</ele>
   </trkpt>
   <trkpt lat="-37.872115001961774" lon="145.34274500318605">
    <ele>513.12</ele>
   </trkpt>
   <trkpt lat="-37.87247" lon="145.34207">
    <ele>507.89000000000004</ele>
   </trkpt>
   <trkpt lat="-37.87272" lon="145.34221000000002">
    <ele>506.86000000000007</ele>
   </trkpt>
   <trkpt lat="-37.87288" lon="145.34221000000002">
    <ele>506.24</ele>
   </trkpt>
   <trkpt lat="-37.87326" lon="145.34212000000002">
    <ele>503.06000000000006</ele>
   </trkpt>
   <trkpt lat="-37.8735" lon="145.34204000000003">
    <ele>500.72</ele>
   </trkpt>
   <trkpt lat="-37.87375" lon="145.34193000000002">
    <ele>497.84000000000003</ele>
   </trkpt>
   <trkpt lat="-37.874050000000004" lon="145.34185000000002">
    <ele>494.77000000000004</ele>
   </trkpt>
   <trkpt lat="-37.87406" lon="145.34185000000002">
    <ele>494.77000000000004</ele>
   </trkpt>
   <trkpt lat="-37.87375" lon="145.34154">
    <ele>491.06000000000006</ele>
   </trkpt>
   <trkpt lat="-37.87315" lon="145.34105000000002">
    <ele>486.35</ele>
   </trkpt>
   <trkpt lat="-37.87288" lon="145.3409">
    <ele>484.24000000000007</ele>
   </trkpt>
   <trkpt lat="-37.87272" lon="145.34083">
    <ele>484.24000000000007</ele>
   </trkpt>
   <trkpt lat="-37.87263" lon="145.34076000000002">
    <ele>482.31</ele>
   </trkpt>
   <trkpt lat="-37.87214" lon="145.34024000000002">
    <ele>477.58000000000004</ele>
   </trkpt>
   <trkpt lat="-37.87185" lon="145.33998000000003">
    <ele>474.95000000000005</ele>
   </trkpt>
   <trkpt lat="-37.871320000000004" lon="145.33969000000002">
    <ele>470.65</ele>
   </trkpt>
   <trkpt lat="-37.8712" lon="145.33964">
    <ele>469.70000000000005</ele>
   </trkpt>
   <trkpt lat="-37.87106" lon="145.33963">
    <ele>467.63000000000005</ele>
   </trkpt>
   <trkpt lat="-37.87082" lon="145.33948">
    <ele>466.25000000000006</ele>
   </trkpt>
   <trkpt lat="-37.87059" lon="145.33917000000002">
    <ele>463.0400000000001</ele>
   </trkpt>
   <trkpt lat="-37.87037" lon="145.33894">
    <ele>461.45000000000005</ele>
   </trkpt>
   <trkpt lat="-37.87026" lon="145.33888000000002">
    <ele>460.41</ele>
   </trkpt>
   <trkpt lat="-37.87035" lon="145.33879000000002">
    <ele>457.66</ele>
   </trkpt>
   <trkpt lat="-37.87046" lon="145.33875">
    <ele>455.15000000000003</ele>
   </trkpt>
   <trkpt lat="-37.87059" lon="145.33873">
    <ele>452.05000000000007</ele>
   </trkpt>
   <trkpt lat="-37.87075" lon="145.33874">
    <ele>449.98</ele>
   </trkpt>
   <trkpt lat="-37.87078" lon="145.33871000000002">
    <ele>449.98</ele>
   </trkpt>
   <trkpt lat="-37.87088" lon="145.33873">
    <ele>449.16</ele>
   </trkpt>
   <trkpt lat="-37.87115" lon="145.33883">
    <ele>448.07</ele>
   </trkpt>
   <trkpt lat="-37.87122" lon="145.33881000000002">
    <ele>447.67</ele>
   </trkpt>
   <trkpt lat="-37.87135" lon="145.33871000000002">
    <ele>446.50000000000006</ele>
   </trkpt>
   <trkpt lat="-37.87158" lon="145.33859">
    <ele>442.69</ele>
   </trkpt>
   <trkpt lat="-37.87207" lon="145.33862000000002">
    <ele>444.03000000000003</ele>
   </trkpt>
   <trkpt lat="-37.872420000000005" lon="145.33899000000002">
    <ele>456.39</ele>
   </trkpt>
   <trkpt lat="-37.872800000000005" lon="145.33907000000002">
    <ele>472.6</ele>
   </trkpt>
   <trkpt lat="-37.8729" lon="145.33880000000002">
    <ele>474.95000000000005</ele>
   </trkpt>
   <trkpt lat="-37.873310000000004" lon="145.3384">
    <ele>483.44000000000005</ele>
   </trkpt>
   <trkpt lat="-37.873610000000006" lon="145.33794">
    <ele>487.6</ele>
   </trkpt>
   <trkpt lat="-37.87416" lon="145.33771000000002">
    <ele>497.44000000000005</ele>
   </trkpt>
   <trkpt lat="-37.87395" lon="145.33692000000002">
    <ele>492.25</ele>
   </trkpt>
   <trkpt lat="-37.87391" lon="145.33668">
    <ele>487.74000000000007</ele>
   </trkpt>
   <trkpt lat="-37.87393" lon="145.33620000000002">
    <ele>484.69000000000005</ele>
   </trkpt>
   <trkpt lat="-37.87406" lon="145.33561">
    <ele>479.11</ele>
   </trkpt>
   <trkpt lat="-37.87414000145162" lon="145.33503000041983">
    <ele>474.28000000000003</ele>
   </trkpt>
   <trkpt lat="-37.87422" lon="145.33445">
    <ele>470.07000000000005</ele>
   </trkpt>
   <trkpt lat="-37.87442500199419" lon="145.33376500187345">
    <ele>465.24</ele>
   </trkpt>
   <trkpt lat="-37.87463" lon="145.33308000000002">
    <ele>458.52000000000004</ele>
   </trkpt>
   <trkpt lat="-37.87489" lon="145.33247">
    <ele>451.63</ele>
   </trkpt>
   <trkpt lat="-37.87534" lon="145.33156000000002">
    <ele>438.97</ele>
   </trkpt>
   <trkpt lat="-37.87543" lon="145.33131">
    <ele>436.9</ele>
   </trkpt>
   <trkpt lat="-37.87545" lon="145.33116">
    <ele>436.4</ele>
   </trkpt>
   <trkpt lat="-37.87545" lon="145.33118000000002">
    <ele>436.4</ele>
   </trkpt>
   <trkpt lat="-37.87543" lon="145.33104">
    <ele>436.11000000000007</ele>
   </trkpt>
   <trkpt lat="-37.875400000000006" lon="145.33097">
    <ele>452.75000000000006</ele>
   </trkpt>
   <trkpt lat="-37.875280000000004" lon="145.33094">
    <ele>434.39000000000004</ele>
   </trkpt>
   <trkpt lat="-37.875400000000006" lon="145.33097">
    <ele>435.83000000000004</ele>
   </trkpt>
   <trkpt lat="-37.87514" lon="145.33068">
    <ele>436.06000000000006</ele>
   </trkpt>
   <trkpt lat="-37.87491" lon="145.33029000000002">
    <ele>436.35</ele>
   </trkpt>
   <trkpt lat="-37.8748" lon="145.32998">
    <ele>436.29</ele>
   </trkpt>
   <trkpt lat="-37.87469" lon="145.32956000000001">
    <ele>438.62</ele>
   </trkpt>
   <trkpt lat="-37.87456" lon="145.32923000000002">
    <ele>439.63</ele>
   </trkpt>
   <trkpt lat="-37.87435" lon="145.32887000000002">
    <ele>443.57</ele>
   </trkpt>
   <trkpt lat="-37.87382" lon="145.32833000000002">
    <ele>449.86</ele>
   </trkpt>
   <trkpt lat="-37.87375" lon="145.3282">
    <ele>451.65000000000003</ele>
   </trkpt>
   <trkpt lat="-37.87368" lon="145.32803">
    <ele>454.38000000000005</ele>
   </trkpt>
   <trkpt lat="-37.87366" lon="145.32778000000002">
    <ele>459.14000000000004</ele>
   </trkpt>
   <trkpt lat="-37.87359" lon="145.32762000000002">
    <ele>462.75000000000006</ele>
   </trkpt>
   <trkpt lat="-37.87315500148315" lon="145.32701999640304">
    <ele>469.44</ele>
   </trkpt>
   <trkpt lat="-37.87272" lon="145.32642">
    <ele>477.6</ele>
   </trkpt>
   <trkpt lat="-37.87261" lon="145.32628000000003">
    <ele>479.28000000000003</ele>
   </trkpt>
   <trkpt lat="-37.87238" lon="145.32607000000002">
    <ele>481.06000000000006</ele>
   </trkpt>
   <trkpt lat="-37.87182" lon="145.3257">
    <ele>481.7</ele>
   </trkpt>
   <trkpt lat="-37.87171" lon="145.32548">
    <ele>482.33000000000004</ele>
   </trkpt>
   <trkpt lat="-37.871880000000004" lon="145.32536000000002">
    <ele>483.99</ele>
   </trkpt>
   <trkpt lat="-37.87187" lon="145.32514">
    <ele>483.37</ele>
   </trkpt>
   <trkpt lat="-37.87198" lon="145.32489">
    <ele>483.74000000000007</ele>
   </trkpt>
   <trkpt lat="-37.87245" lon="145.32441">
    <ele>483.96000000000004</ele>
   </trkpt>
   <trkpt lat="-37.87268" lon="145.32410000000002">
    <ele>481.50000000000006</ele>
   </trkpt>
   <trkpt lat="-37.87272" lon="145.32376000000002">
    <ele>476.74000000000007</ele>
   </trkpt>
   <trkpt lat="-37.87263" lon="145.32314000000002">
    <ele>472.96000000000004</ele>
   </trkpt>
   <trkpt lat="-37.87256" lon="145.32222000000002">
    <ele>478.02000000000004</ele>
   </trkpt>
   <trkpt lat="-37.87259" lon="145.32189000000002">
    <ele>483.57000000000005</ele>
   </trkpt>
   <trkpt lat="-37.87272" lon="145.32133000000002">
    <ele>494.05</ele>
   </trkpt>
   <trkpt lat="-37.87272" lon="145.32123">
    <ele>494.05</ele>
   </trkpt>
   <trkpt lat="-37.87261" lon="145.32053000000002">
    <ele>506.51</ele>
   </trkpt>
   <trkpt lat="-37.87268" lon="145.32001000000002">
    <ele>512.69</ele>
   </trkpt>
   <trkpt lat="-37.87272" lon="145.31971000000001">
    <ele>513.84</ele>
   </trkpt>
   <trkpt lat="-37.87275" lon="145.31964000000002">
    <ele>513.84</ele>
   </trkpt>
   <trkpt lat="-37.87303" lon="145.31965000000002">
    <ele>512.07</ele>
   </trkpt>
   <trkpt lat="-37.87328" lon="145.3197">
    <ele>510.50000000000006</ele>
   </trkpt>
   <trkpt lat="-37.87355" lon="145.31979">
    <ele>508.28000000000003</ele>
   </trkpt>
   <trkpt lat="-37.874" lon="145.32000000000002">
    <ele>503.51</ele>
   </trkpt>
   <trkpt lat="-37.87415" lon="145.32003">
    <ele>497.66</ele>
   </trkpt>
   <trkpt lat="-37.87442" lon="145.32003">
    <ele>497.66</ele>
   </trkpt>
   <trkpt lat="-37.87473" lon="145.32017000000002">
    <ele>493.2</ele>
   </trkpt>
   <trkpt lat="-37.87491" lon="145.3202">
    <ele>492.04</ele>
   </trkpt>
   <trkpt lat="-37.87492" lon="145.32036000000002">
    <ele>492.7</ele>
   </trkpt>
   <trkpt lat="-37.87491" lon="145.3202">
    <ele>491.84000000000003</ele>
   </trkpt>
   <trkpt lat="-37.87498" lon="145.32019000000003">
    <ele>491.61</ele>
   </trkpt>
   <trkpt lat="-37.87507" lon="145.32012">
    <ele>490.74000000000007</ele>
   </trkpt>
   <trkpt lat="-37.87536" lon="145.31973000000002">
    <ele>488.09000000000003</ele>
   </trkpt>
   <trkpt lat="-37.87547" lon="145.31965000000002">
    <ele>487.4100000000001</ele>
   </trkpt>
   <trkpt lat="-37.87583" lon="145.31924">
    <ele>483.36</ele>
   </trkpt>
   <trkpt lat="-37.87608" lon="145.31889">
    <ele>480.49</ele>
   </trkpt>
   <trkpt lat="-37.87641" lon="145.31827">
    <ele>474.44</ele>
   </trkpt>
   <trkpt lat="-37.87668" lon="145.31728">
    <ele>462.95000000000005</ele>
   </trkpt>
   <trkpt lat="-37.87682" lon="145.31683">
    <ele>457.75000000000006</ele>
   </trkpt>
   <trkpt lat="-37.87693" lon="145.31661000000003">
    <ele>454.46000000000004</ele>
   </trkpt>
   <trkpt lat="-37.87735" lon="145.31589000000002">
    <ele>444.87000000000006</ele>
   </trkpt>
   <trkpt lat="-37.87753" lon="145.31569000000002">
    <ele>443.91</ele>
   </trkpt>
   <trkpt lat="-37.87778" lon="145.31557">
    <ele>440.66</ele>
   </trkpt>
   <trkpt lat="-37.87791" lon="145.31546">
    <ele>439.6700000000001</ele>
   </trkpt>
   <trkpt lat="-37.87829" lon="145.31506000000002">
    <ele>434.14000000000004</ele>
   </trkpt>
   <trkpt lat="-37.878600000000006" lon="145.31485">
    <ele>429.04</ele>
   </trkpt>
   <trkpt lat="-37.87885" lon="145.31461000000002">
    <ele>427.11</ele>
   </trkpt>
   <trkpt lat="-37.87915" lon="145.31446000000003">
    <ele>424.52</ele>
   </trkpt>
   <trkpt lat="-37.87955" lon="145.31441">
    <ele>423.7</ele>
   </trkpt>
   <trkpt lat="-37.88002000037165" lon="145.31414500164897">
    <ele>422.49</ele>
   </trkpt>
   <trkpt lat="-37.88049" lon="145.31388">
    <ele>419.28000000000003</ele>
   </trkpt>
   <trkpt lat="-37.88082" lon="145.31362000000001">
    <ele>415.46000000000004</ele>
   </trkpt>
   <trkpt lat="-37.88118" lon="145.31343">
    <ele>411.49</ele>
   </trkpt>
   <trkpt lat="-37.88152" lon="145.31319000000002">
    <ele>407.41</ele>
   </trkpt>
   <trkpt lat="-37.88199" lon="145.31279">
    <ele>404.68</ele>
   </trkpt>
   <trkpt lat="-37.8825" lon="145.31224">
    <ele>406.15</ele>
   </trkpt>
   <trkpt lat="-37.88266" lon="145.31217">
    <ele>405.96000000000004</ele>
   </trkpt>
   <trkpt lat="-37.882740000000005" lon="145.31214">
    <ele>405.84000000000003</ele>
   </trkpt>
   <trkpt lat="-37.88308" lon="145.31215">
    <ele>402.4200000000001</ele>
   </trkpt>
   <trkpt lat="-37.8834" lon="145.31222000000002">
    <ele>397.22</ele>
   </trkpt>
   <trkpt lat="-37.88369" lon="145.31236">
    <ele>393.59000000000003</ele>
   </trkpt>
   <trkpt lat="-37.88414" lon="145.31267000000003">
    <ele>386.43000000000006</ele>
   </trkpt>
   <trkpt lat="-37.88429" lon="145.31272">
    <ele>383.47</ele>
   </trkpt>
   <trkpt lat="-37.88488" lon="145.3128">
    <ele>370.56000000000006</ele>
   </trkpt>
   <trkpt lat="-37.88501" lon="145.31279">
    <ele>366.61</ele>
   </trkpt>
   <trkpt lat="-37.88519" lon="145.31273000000002">
    <ele>363.83000000000004</ele>
   </trkpt>
   <trkpt lat="-37.885270000000006" lon="145.31266000000002">
    <ele>362.21000000000004</ele>
   </trkpt>
   <trkpt lat="-37.8853" lon="145.31255000000002">
    <ele>362.21000000000004</ele>
   </trkpt>
   <trkpt lat="-37.88541" lon="145.31207">
    <ele>352.90999999999997</ele>
   </trkpt>
   <trkpt lat="-37.88548" lon="145.31186000000002">
    <ele>346.96000000000004</ele>
   </trkpt>
   <trkpt lat="-37.88579500183977" lon="145.31120500274952">
    <ele>336.24</ele>
   </trkpt>
   <trkpt lat="-37.88611" lon="145.31055">
    <ele>326.82</ele>
   </trkpt>
   <trkpt lat="-37.8862" lon="145.31044">
    <ele>323.37000000000006</ele>
   </trkpt>
   <trkpt lat="-37.88629" lon="145.31038">
    <ele>323.37000000000006</ele>
   </trkpt>
   <trkpt lat="-37.8866" lon="145.3102">
    <ele>317.41</ele>
   </trkpt>
   <trkpt lat="-37.88674" lon="145.31014000000002">
    <ele>315.98</ele>
   </trkpt>
   <trkpt lat="-37.88673" lon="145.31015000000002">
    <ele>315.98</ele>
   </trkpt>
   <trkpt lat="-37.88687" lon="145.31014000000002">
    <ele>315.51</ele>
   </trkpt>
   <trkpt lat="-37.88696" lon="145.31015000000002">
    <ele>313.20000000000005</ele>
   </trkpt>
   <trkpt lat="-37.88705" lon="145.31019">
    <ele>313.20000000000005</ele>
   </trkpt>
   <trkpt lat="-37.887330000000006" lon="145.31040000000002">
    <ele>309.51</ele>
   </trkpt>
   <trkpt lat="-37.88779" lon="145.31063">
    <ele>301.24</ele>
   </trkpt>
   <trkpt lat="-37.88794" lon="145.31068000000002">
    <ele>293.43</ele>
   </trkpt>
   <trkpt lat="-37.888450000000006" lon="145.31074">
    <ele>282.67</ele>
   </trkpt>
   <trkpt lat="-37.88859" lon="145.31071">
    <ele>279.81</ele>
   </trkpt>
   <trkpt lat="-37.88868" lon="145.31060000000002">
    <ele>277.48</ele>
   </trkpt>
   <trkpt lat="-37.88893" lon="145.31018">
    <ele>270.06</ele>
   </trkpt>
   <trkpt lat="-37.88902" lon="145.31014000000002">
    <ele>270.06</ele>
   </trkpt>
   <trkpt lat="-37.88908" lon="145.31016000000002">
    <ele>266.71</ele>
   </trkpt>
   <trkpt lat="-37.889210000000006" lon="145.31025000000002">
    <ele>265.1</ele>
   </trkpt>
   <trkpt lat="-37.88931" lon="145.31038">
    <ele>263.6</ele>
   </trkpt>
   <trkpt lat="-37.88951" lon="145.31074">
    <ele>258.62</ele>
   </trkpt>
   <trkpt lat="-37.88958" lon="145.3109">
    <ele>253.96</ele>
   </trkpt>
   <trkpt lat="-37.88958" lon="145.31101">
    <ele>253.96</ele>
   </trkpt>
   <trkpt lat="-37.88955" lon="145.31122000000002">
    <ele>250.19000000000003</ele>
   </trkpt>
   <trkpt lat="-37.88958" lon="145.31130000000002">
    <ele>248.59000000000003</ele>
   </trkpt>
   <trkpt lat="-37.8896" lon="145.31134">
    <ele>248.59000000000003</ele>
   </trkpt>
   <trkpt lat="-37.889680000000006" lon="145.31134">
    <ele>246.05</ele>
   </trkpt>
   <trkpt lat="-37.88993" lon="145.31119">
    <ele>241.96</ele>
   </trkpt>
   <trkpt lat="-37.89002" lon="145.31111">
    <ele>240.78000000000003</ele>
   </trkpt>
   <trkpt lat="-37.89016" lon="145.31092">
    <ele>239.65000000000003</ele>
   </trkpt>
   <trkpt lat="-37.89025" lon="145.31066">
    <ele>237.0</ele>
   </trkpt>
   <trkpt lat="-37.89027" lon="145.31046">
    <ele>233.61</ele>
   </trkpt>
   <trkpt lat="-37.89025" lon="145.31002">
    <ele>228.32000000000002</ele>
   </trkpt>
   <trkpt lat="-37.89027" lon="145.30997000000002">
    <ele>227.51000000000002</ele>
   </trkpt>
   <trkpt lat="-37.890330000000006" lon="145.30995000000001">
    <ele>226.63000000000002</ele>
   </trkpt>
   <trkpt lat="-37.89038" lon="145.30998000000002">
    <ele>225.69000000000003</ele>
   </trkpt>
   <trkpt lat="-37.890930000000004" lon="145.31053">
    <ele>212.78000000000003</ele>
   </trkpt>
   <trkpt lat="-37.89092" lon="145.31051000000002">
    <ele>212.78000000000003</ele>
   </trkpt>
   <trkpt lat="-37.89119" lon="145.31122000000002">
    <ele>201.61</ele>
   </trkpt>
   <trkpt lat="-37.89121" lon="145.31161">
    <ele>198.73000000000002</ele>
   </trkpt>
   <trkpt lat="-37.891180000000006" lon="145.31198">
    <ele>196.34</ele>
   </trkpt>
   <trkpt lat="-37.89105" lon="145.31242">
    <ele>193.21</ele>
   </trkpt>
   <trkpt lat="-37.89101" lon="145.31248000000002">
    <ele>192.72</ele>
   </trkpt>
   <trkpt lat="-37.89072" lon="145.31278">
    <ele>192.17000000000002</ele>
   </trkpt>
   <trkpt lat="-37.890710000000006" lon="145.31282000000002">
    <ele>192.16000000000003</ele>
   </trkpt>
   <trkpt lat="-37.890710000000006" lon="145.31292000000002">
    <ele>192.10000000000002</ele>
   </trkpt>
   <trkpt lat="-37.89074" lon="145.31299">
    <ele>191.77</ele>
   </trkpt>
   <trkpt lat="-37.89092" lon="145.31309000000002">
    <ele>189.76000000000002</ele>
   </trkpt>
   <trkpt lat="-37.89132" lon="145.3134">
    <ele>185.56</ele>
   </trkpt>
   <trkpt lat="-37.8915" lon="145.31358">
    <ele>184.04</ele>
   </trkpt>
   <trkpt lat="-37.89159" lon="145.31376">
    <ele>182.08</ele>
   </trkpt>
   <trkpt lat="-37.89168" lon="145.31405">
    <ele>179.9</ele>
   </trkpt>
   <trkpt lat="-37.8917" lon="145.3142">
    <ele>179.9</ele>
   </trkpt>
   <trkpt lat="-37.89166" lon="145.31470000000002">
    <ele>177.9</ele>
   </trkpt>
   <trkpt lat="-37.89159" lon="145.3153">
    <ele>171.96</ele>
   </trkpt>
   <trkpt lat="-37.89148" lon="145.31548">
    <ele>173.19</ele>
   </trkpt>
   <trkpt lat="-37.89108" lon="145.31604000000002">
    <ele>181.28000000000003</ele>
   </trkpt>
   <trkpt lat="-37.89099" lon="145.31613000000002">
    <ele>181.28000000000003</ele>
   </trkpt>
   <trkpt lat="-37.89099" lon="145.31640000000002">
    <ele>180.82</ele>
   </trkpt>
   <trkpt lat="-37.89096" lon="145.31651000000002">
    <ele>180.82</ele>
   </trkpt>
  </trkseg>
 </trk>
</gpx>
