<?xml version="1.0" encoding="UTF-8"?>
<gpx creator="StravaGPX" version="1.1" xmlns="http://www.topografix.com/GPX/1/1" xmlns:xsi="http://www.w3.org/2001/XMLSchema-instance" xsi:schemaLocation="http://www.topografix.com/GPX/1/1 http://www.topografix.com/GPX/1/1/gpx.xsd">
 <metadata>
  <name>DTR SUnday 12 Feb</name>
  <author>
   <name>john csorgo</name>
  </author>
  <copyright author="OpenStreetMap contributors">
   <year>2020</year>
   <license>https://www.openstreetmap.org/copyright</license>
  </copyright>
 </metadata>
 <trk>
  <name>DTR SUnday 12 Feb</name>
  <link href=""/>
  <type>running</type>
  <trkseg>
   <trkpt lat="-37.86294" lon="145.35363">
    <ele>478.62000000000006</ele>
   </trkpt>
   <trkpt lat="-37.863690000000005" lon="145.3531">
    <ele>474.32</ele>
   </trkpt>
   <trkpt lat="-37.86336" lon="145.35333">
    <ele>477.71000000000004</ele>
   </trkpt>
   <trkpt lat="-37.863690000000005" lon="145.3531">
    <ele>478.03000000000003</ele>
   </trkpt>
   <trkpt lat="-37.863405001669506" lon="145.3524799976981">
    <ele>480.55</ele>
   </trkpt>
   <trkpt lat="-37.86312" lon="145.35186000000002">
    <ele>478.17</ele>
   </trkpt>
   <trkpt lat="-37.86309" lon="145.35176">
    <ele>477.96000000000004</ele>
   </trkpt>
   <trkpt lat="-37.863110000000006" lon="145.35169000000002">
    <ele>477.6</ele>
   </trkpt>
   <trkpt lat="-37.8633" lon="145.35153000000003">
    <ele>478.02000000000004</ele>
   </trkpt>
   <trkpt lat="-37.863420000000005" lon="145.35147">
    <ele>478.57000000000005</ele>
   </trkpt>
   <trkpt lat="-37.8635" lon="145.3513">
    <ele>479.7</ele>
   </trkpt>
   <trkpt lat="-37.86359" lon="145.35126000000002">
    <ele>481.50000000000006</ele>
   </trkpt>
   <trkpt lat="-37.86368" lon="145.35119">
    <ele>483.17</ele>
   </trkpt>
   <trkpt lat="-37.86379" lon="145.35118">
    <ele>485.17</ele>
   </trkpt>
   <trkpt lat="-37.864050000000006" lon="145.35102">
    <ele>494.51000000000005</ele>
   </trkpt>
   <trkpt lat="-37.8641" lon="145.35089000000002">
    <ele>496.07000000000005</ele>
   </trkpt>
   <trkpt lat="-37.8641" lon="145.35074">
    <ele>496.62000000000006</ele>
   </trkpt>
   <trkpt lat="-37.86417" lon="145.35060000000001">
    <ele>498.63</ele>
   </trkpt>
   <trkpt lat="-37.86448" lon="145.34977">
    <ele>510.56</ele>
   </trkpt>
   <trkpt lat="-37.864695001533185" lon="145.34917000172027">
    <ele>517.12</ele>
   </trkpt>
   <trkpt lat="-37.86491" lon="145.34857000000002">
    <ele>521.95</ele>
   </trkpt>
   <trkpt lat="-37.86496" lon="145.34829000000002">
    <ele>523.61</ele>
   </trkpt>
   <trkpt lat="-37.86497" lon="145.34822">
    <ele>523.61</ele>
   </trkpt>
   <trkpt lat="-37.86491" lon="145.34814">
    <ele>523.61</ele>
   </trkpt>
   <trkpt lat="-37.86484" lon="145.34797">
    <ele>519.36</ele>
   </trkpt>
   <trkpt lat="-37.864810000000006" lon="145.34757000000002">
    <ele>515.47</ele>
   </trkpt>
   <trkpt lat="-37.86482" lon="145.34718">
    <ele>510.6700000000001</ele>
   </trkpt>
   <trkpt lat="-37.86493" lon="145.34701">
    <ele>508.46000000000004</ele>
   </trkpt>
   <trkpt lat="-37.865370000000006" lon="145.34673">
    <ele>504.5900000000001</ele>
   </trkpt>
   <trkpt lat="-37.8659" lon="145.34657">
    <ele>499.86</ele>
   </trkpt>
   <trkpt lat="-37.86589" lon="145.34647">
    <ele>500.2000000000001</ele>
   </trkpt>
   <trkpt lat="-37.86598" lon="145.34626">
    <ele>500.4700000000001</ele>
   </trkpt>
   <trkpt lat="-37.866" lon="145.34601">
    <ele>499.6700000000001</ele>
   </trkpt>
   <trkpt lat="-37.86589" lon="145.34556">
    <ele>497.76000000000005</ele>
   </trkpt>
   <trkpt lat="-37.86594" lon="145.34547">
    <ele>496.7300000000001</ele>
   </trkpt>
   <trkpt lat="-37.865990000000004" lon="145.3454">
    <ele>496.08</ele>
   </trkpt>
   <trkpt lat="-37.865990000000004" lon="145.34539">
    <ele>496.00000000000006</ele>
   </trkpt>
   <trkpt lat="-37.86621" lon="145.34518">
    <ele>489.72</ele>
   </trkpt>
   <trkpt lat="-37.86697" lon="145.34459">
    <ele>495.97</ele>
   </trkpt>
   <trkpt lat="-37.86741" lon="145.34451">
    <ele>500.16</ele>
   </trkpt>
   <trkpt lat="-37.86792500001225" lon="145.3444400004904">
    <ele>504.0300000000001</ele>
   </trkpt>
   <trkpt lat="-37.86844" lon="145.34437">
    <ele>506.30000000000007</ele>
   </trkpt>
   <trkpt lat="-37.86862" lon="145.34431">
    <ele>506.7900000000001</ele>
   </trkpt>
   <trkpt lat="-37.86889" lon="145.34432">
    <ele>507.99000000000007</ele>
   </trkpt>
   <trkpt lat="-37.86907" lon="145.34435000000002">
    <ele>508.86000000000007</ele>
   </trkpt>
   <trkpt lat="-37.86956" lon="145.34455">
    <ele>515.24</ele>
   </trkpt>
   <trkpt lat="-37.86983" lon="145.34474">
    <ele>517.99</ele>
   </trkpt>
   <trkpt lat="-37.87024" lon="145.34483">
    <ele>513.2500000000001</ele>
   </trkpt>
   <trkpt lat="-37.87035" lon="145.34482">
    <ele>512.07</ele>
   </trkpt>
   <trkpt lat="-37.870630000000006" lon="145.34474">
    <ele>509.92</ele>
   </trkpt>
   <trkpt lat="-37.870830000000005" lon="145.34461000000002">
    <ele>507.76</ele>
   </trkpt>
   <trkpt lat="-37.871140000000004" lon="145.34425000000002">
    <ele>507.6700000000001</ele>
   </trkpt>
   <trkpt lat="-37.87145000092009" lon="145.34383500148948">
    <ele>509.14000000000004</ele>
   </trkpt>
   <trkpt lat="-37.87176" lon="145.34342">
    <ele>512.38</ele>
   </trkpt>
   <trkpt lat="-37.872115001961774" lon="145.34274500318605">
    <ele>512.96</ele>
   </trkpt>
   <trkpt lat="-37.87247" lon="145.34207">
    <ele>507.89000000000004</ele>
   </trkpt>
   <trkpt lat="-37.87272" lon="145.34221000000002">
    <ele>506.68</ele>
   </trkpt>
   <trkpt lat="-37.87288" lon="145.34221000000002">
    <ele>505.97</ele>
   </trkpt>
   <trkpt lat="-37.87326" lon="145.34212000000002">
    <ele>503.06000000000006</ele>
   </trkpt>
   <trkpt lat="-37.8735" lon="145.34204000000003">
    <ele>500.72</ele>
   </trkpt>
   <trkpt lat="-37.87375" lon="145.34193000000002">
    <ele>497.84000000000003</ele>
   </trkpt>
   <trkpt lat="-37.87406" lon="145.34185000000002">
    <ele>494.74</ele>
   </trkpt>
   <trkpt lat="-37.873960000000004" lon="145.34175000000002">
    <ele>493.76000000000005</ele>
   </trkpt>
   <trkpt lat="-37.8744" lon="145.34218">
    <ele>492.2900000000001</ele>
   </trkpt>
   <trkpt lat="-37.87498" lon="145.3428">
    <ele>492.2900000000001</ele>
   </trkpt>
   <trkpt lat="-37.87511000000001" lon="145.34298">
    <ele>492.2900000000001</ele>
   </trkpt>
   <trkpt lat="-37.87523" lon="145.34291000000002">
    <ele>492.2900000000001</ele>
   </trkpt>
   <trkpt lat="-37.87541" lon="145.34295">
    <ele>494.74</ele>
   </trkpt>
   <trkpt lat="-37.875510000000006" lon="145.34301000000002">
    <ele>494.74</ele>
   </trkpt>
   <trkpt lat="-37.87574" lon="145.34297">
    <ele>494.74</ele>
   </trkpt>
   <trkpt lat="-37.87585" lon="145.34284000000002">
    <ele>494.74</ele>
   </trkpt>
   <trkpt lat="-37.87599" lon="145.34278">
    <ele>494.74</ele>
   </trkpt>
   <trkpt lat="-37.8763" lon="145.34273000000002">
    <ele>494.74</ele>
   </trkpt>
   <trkpt lat="-37.87688" lon="145.3428">
    <ele>494.74</ele>
   </trkpt>
   <trkpt lat="-37.87722" lon="145.34272">
    <ele>495.2300000000001</ele>
   </trkpt>
   <trkpt lat="-37.87778" lon="145.34271">
    <ele>498.31</ele>
   </trkpt>
   <trkpt lat="-37.87791" lon="145.34269">
    <ele>498.89000000000004</ele>
   </trkpt>
   <trkpt lat="-37.87807" lon="145.34255000000002">
    <ele>500.09999999999997</ele>
   </trkpt>
   <trkpt lat="-37.87832" lon="145.34217">
    <ele>501.13000000000005</ele>
   </trkpt>
   <trkpt lat="-37.87847" lon="145.34209">
    <ele>504.3500000000001</ele>
   </trkpt>
   <trkpt lat="-37.87856" lon="145.34212000000002">
    <ele>504.3500000000001</ele>
   </trkpt>
   <trkpt lat="-37.8787" lon="145.34225">
    <ele>514.14</ele>
   </trkpt>
   <trkpt lat="-37.87874" lon="145.34236">
    <ele>514.14</ele>
   </trkpt>
   <trkpt lat="-37.878690000000006" lon="145.34248000000002">
    <ele>513.61</ele>
   </trkpt>
   <trkpt lat="-37.87865" lon="145.34264000000002">
    <ele>513.45</ele>
   </trkpt>
   <trkpt lat="-37.87865" lon="145.34273000000002">
    <ele>513.45</ele>
   </trkpt>
   <trkpt lat="-37.87877" lon="145.34292000000002">
    <ele>512.99</ele>
   </trkpt>
   <trkpt lat="-37.87892" lon="145.34343">
    <ele>511.34000000000003</ele>
   </trkpt>
   <trkpt lat="-37.879070000000006" lon="145.34405">
    <ele>512.24</ele>
   </trkpt>
   <trkpt lat="-37.87919" lon="145.34452000000002">
    <ele>512.22</ele>
   </trkpt>
   <trkpt lat="-37.87944" lon="145.34486">
    <ele>511.32</ele>
   </trkpt>
   <trkpt lat="-37.87973" lon="145.34534000000002">
    <ele>513.63</ele>
   </trkpt>
   <trkpt lat="-37.8802" lon="145.34602">
    <ele>503.0</ele>
   </trkpt>
   <trkpt lat="-37.88042" lon="145.34634">
    <ele>495.7900000000001</ele>
   </trkpt>
   <trkpt lat="-37.88067" lon="145.34663">
    <ele>498.78000000000003</ele>
   </trkpt>
   <trkpt lat="-37.880860000000006" lon="145.34682">
    <ele>502.41</ele>
   </trkpt>
   <trkpt lat="-37.88105" lon="145.34695000000002">
    <ele>503.78</ele>
   </trkpt>
   <trkpt lat="-37.88154" lon="145.34723000000002">
    <ele>506.27</ele>
   </trkpt>
   <trkpt lat="-37.88167" lon="145.34744">
    <ele>507.8</ele>
   </trkpt>
   <trkpt lat="-37.88201" lon="145.34819000000002">
    <ele>507.07</ele>
   </trkpt>
   <trkpt lat="-37.88226" lon="145.34839000000002">
    <ele>505.41</ele>
   </trkpt>
   <trkpt lat="-37.88255" lon="145.34856000000002">
    <ele>504.21999999999997</ele>
   </trkpt>
   <trkpt lat="-37.88302" lon="145.3487">
    <ele>501.87</ele>
   </trkpt>
   <trkpt lat="-37.88311" lon="145.34876">
    <ele>501.27</ele>
   </trkpt>
   <trkpt lat="-37.8836" lon="145.34926000000002">
    <ele>499.89000000000004</ele>
   </trkpt>
   <trkpt lat="-37.88405" lon="145.34945000000002">
    <ele>498.12000000000006</ele>
   </trkpt>
   <trkpt lat="-37.88436" lon="145.34969">
    <ele>495.58</ele>
   </trkpt>
   <trkpt lat="-37.88456" lon="145.35004">
    <ele>493.6</ele>
   </trkpt>
   <trkpt lat="-37.88461" lon="145.35017000000002">
    <ele>491.93</ele>
   </trkpt>
   <trkpt lat="-37.884640000000005" lon="145.35035000000002">
    <ele>491.37</ele>
   </trkpt>
   <trkpt lat="-37.88461" lon="145.35046">
    <ele>490.96000000000004</ele>
   </trkpt>
   <trkpt lat="-37.88461" lon="145.35066">
    <ele>490.55</ele>
   </trkpt>
   <trkpt lat="-37.884730000000005" lon="145.35098000000002">
    <ele>489.98</ele>
   </trkpt>
   <trkpt lat="-37.8853" lon="145.3514">
    <ele>490.24000000000007</ele>
   </trkpt>
   <trkpt lat="-37.88552" lon="145.35153000000003">
    <ele>490.14</ele>
   </trkpt>
   <trkpt lat="-37.886070000000004" lon="145.35163">
    <ele>488.89000000000004</ele>
   </trkpt>
   <trkpt lat="-37.886410000000005" lon="145.35162000000003">
    <ele>488.89000000000004</ele>
   </trkpt>
   <trkpt lat="-37.88669" lon="145.35166">
    <ele>488.55</ele>
   </trkpt>
   <trkpt lat="-37.88716" lon="145.35176">
    <ele>485.28000000000003</ele>
   </trkpt>
   <trkpt lat="-37.887330000000006" lon="145.35177000000002">
    <ele>485.24000000000007</ele>
   </trkpt>
   <trkpt lat="-37.88734" lon="145.35183">
    <ele>485.90000000000003</ele>
   </trkpt>
   <trkpt lat="-37.88729" lon="145.35195000000002">
    <ele>467.78000000000003</ele>
   </trkpt>
   <trkpt lat="-37.88727" lon="145.35218">
    <ele>467.9800000000001</ele>
   </trkpt>
   <trkpt lat="-37.88725" lon="145.35215000000002">
    <ele>467.9800000000001</ele>
   </trkpt>
   <trkpt lat="-37.88696" lon="145.35204000000002">
    <ele>476.29</ele>
   </trkpt>
   <trkpt lat="-37.88678" lon="145.35203">
    <ele>480.39000000000004</ele>
   </trkpt>
   <trkpt lat="-37.88662" lon="145.352">
    <ele>482.24000000000007</ele>
   </trkpt>
   <trkpt lat="-37.88626" lon="145.35184">
    <ele>486.83000000000004</ele>
   </trkpt>
   <trkpt lat="-37.88615" lon="145.35176">
    <ele>488.25</ele>
   </trkpt>
   <trkpt lat="-37.88606" lon="145.35204000000002">
    <ele>491.57000000000005</ele>
   </trkpt>
   <trkpt lat="-37.88588" lon="145.35242000000002">
    <ele>495.99</ele>
   </trkpt>
   <trkpt lat="-37.88555" lon="145.35296000000002">
    <ele>499.36</ele>
   </trkpt>
   <trkpt lat="-37.88544" lon="145.35307">
    <ele>502.38000000000005</ele>
   </trkpt>
   <trkpt lat="-37.88508" lon="145.35324">
    <ele>503.4200000000001</ele>
   </trkpt>
   <trkpt lat="-37.88497" lon="145.35328">
    <ele>503.7600000000001</ele>
   </trkpt>
   <trkpt lat="-37.88434" lon="145.35368000000003">
    <ele>503.62000000000006</ele>
   </trkpt>
   <trkpt lat="-37.88423" lon="145.35381">
    <ele>502.46</ele>
   </trkpt>
   <trkpt lat="-37.88371" lon="145.35464000000002">
    <ele>493.58</ele>
   </trkpt>
   <trkpt lat="-37.88351" lon="145.35512">
    <ele>492.78000000000003</ele>
   </trkpt>
   <trkpt lat="-37.88351" lon="145.3553">
    <ele>492.82000000000005</ele>
   </trkpt>
   <trkpt lat="-37.88318" lon="145.3554">
    <ele>488.43</ele>
   </trkpt>
   <trkpt lat="-37.88302" lon="145.35574000000003">
    <ele>490.47</ele>
   </trkpt>
   <trkpt lat="-37.88266" lon="145.35619">
    <ele>493.08</ele>
   </trkpt>
   <trkpt lat="-37.88244" lon="145.35639">
    <ele>493.22</ele>
   </trkpt>
   <trkpt lat="-37.88226" lon="145.35667">
    <ele>493.25</ele>
   </trkpt>
   <trkpt lat="-37.88212" lon="145.35702">
    <ele>494.47</ele>
   </trkpt>
   <trkpt lat="-37.88183" lon="145.35763">
    <ele>495.34000000000003</ele>
   </trkpt>
   <trkpt lat="-37.88138" lon="145.35829">
    <ele>491.44000000000005</ele>
   </trkpt>
   <trkpt lat="-37.88123" lon="145.35861">
    <ele>489.55</ele>
   </trkpt>
   <trkpt lat="-37.881190000000004" lon="145.35876000000002">
    <ele>489.01000000000005</ele>
   </trkpt>
   <trkpt lat="-37.8812" lon="145.35897">
    <ele>488.17</ele>
   </trkpt>
   <trkpt lat="-37.8811" lon="145.35928">
    <ele>485.89000000000004</ele>
   </trkpt>
   <trkpt lat="-37.88082" lon="145.35912000000002">
    <ele>483.35</ele>
   </trkpt>
   <trkpt lat="-37.880680000000005" lon="145.35916">
    <ele>482.02000000000004</ele>
   </trkpt>
   <trkpt lat="-37.88062" lon="145.35906">
    <ele>482.84000000000003</ele>
   </trkpt>
   <trkpt lat="-37.88033" lon="145.3591">
    <ele>482.09000000000003</ele>
   </trkpt>
   <trkpt lat="-37.8802" lon="145.35908">
    <ele>481.36000000000007</ele>
   </trkpt>
   <trkpt lat="-37.88006" lon="145.35903000000002">
    <ele>480.59000000000003</ele>
   </trkpt>
   <trkpt lat="-37.87991" lon="145.35891">
    <ele>479.11</ele>
   </trkpt>
   <trkpt lat="-37.87975" lon="145.35876000000002">
    <ele>478.29</ele>
   </trkpt>
   <trkpt lat="-37.87919" lon="145.35846">
    <ele>477.92</ele>
   </trkpt>
   <trkpt lat="-37.87876" lon="145.35838">
    <ele>478.26</ele>
   </trkpt>
   <trkpt lat="-37.878600000000006" lon="145.35829">
    <ele>477.53000000000003</ele>
   </trkpt>
   <trkpt lat="-37.87818" lon="145.35801">
    <ele>473.69000000000005</ele>
   </trkpt>
   <trkpt lat="-37.87798" lon="145.35797000000002">
    <ele>473.69000000000005</ele>
   </trkpt>
   <trkpt lat="-37.8778" lon="145.35791">
    <ele>471.40000000000003</ele>
   </trkpt>
   <trkpt lat="-37.8776" lon="145.35774">
    <ele>469.65</ele>
   </trkpt>
   <trkpt lat="-37.87733" lon="145.35716000000002">
    <ele>465.28000000000003</ele>
   </trkpt>
   <trkpt lat="-37.877100000000006" lon="145.35656">
    <ele>460.93000000000006</ele>
   </trkpt>
   <trkpt lat="-37.87693" lon="145.35664">
    <ele>458.0</ele>
   </trkpt>
   <trkpt lat="-37.87684" lon="145.35664">
    <ele>471.62</ele>
   </trkpt>
   <trkpt lat="-37.87675" lon="145.35661000000002">
    <ele>472.19000000000005</ele>
   </trkpt>
   <trkpt lat="-37.87664" lon="145.35663000000002">
    <ele>472.19000000000005</ele>
   </trkpt>
   <trkpt lat="-37.8763" lon="145.35676">
    <ele>473.6</ele>
   </trkpt>
   <trkpt lat="-37.876160000000006" lon="145.35686">
    <ele>474.04</ele>
   </trkpt>
   <trkpt lat="-37.87597" lon="145.35711">
    <ele>473.44</ele>
   </trkpt>
   <trkpt lat="-37.87579" lon="145.35753000000003">
    <ele>469.61</ele>
   </trkpt>
   <trkpt lat="-37.87561" lon="145.35771000000003">
    <ele>466.72</ele>
   </trkpt>
   <trkpt lat="-37.87545" lon="145.35776">
    <ele>465.27</ele>
   </trkpt>
   <trkpt lat="-37.87489" lon="145.35784">
    <ele>462.73</ele>
   </trkpt>
   <trkpt lat="-37.8746" lon="145.35783">
    <ele>460.57000000000005</ele>
   </trkpt>
   <trkpt lat="-37.87433" lon="145.35779000000002">
    <ele>460.57000000000005</ele>
   </trkpt>
   <trkpt lat="-37.874" lon="145.35763">
    <ele>455.47</ele>
   </trkpt>
   <trkpt lat="-37.87375" lon="145.35745">
    <ele>453.25000000000006</ele>
   </trkpt>
   <trkpt lat="-37.87368" lon="145.35735000000003">
    <ele>451.86</ele>
   </trkpt>
   <trkpt lat="-37.87339" lon="145.35662000000002">
    <ele>449.03000000000003</ele>
   </trkpt>
   <trkpt lat="-37.87332" lon="145.35657">
    <ele>448.58000000000004</ele>
   </trkpt>
   <trkpt lat="-37.8733" lon="145.35656">
    <ele>448.58000000000004</ele>
   </trkpt>
   <trkpt lat="-37.87326" lon="145.35669000000001">
    <ele>447.75</ele>
   </trkpt>
   <trkpt lat="-37.87335" lon="145.35702">
    <ele>446.26000000000005</ele>
   </trkpt>
   <trkpt lat="-37.87346" lon="145.35765">
    <ele>442.22</ele>
   </trkpt>
   <trkpt lat="-37.87357" lon="145.35787000000002">
    <ele>440.89000000000004</ele>
   </trkpt>
   <trkpt lat="-37.873630000000006" lon="145.35801">
    <ele>439.04</ele>
   </trkpt>
   <trkpt lat="-37.87373" lon="145.3582">
    <ele>436.47</ele>
   </trkpt>
   <trkpt lat="-37.87402" lon="145.35851000000002">
    <ele>432.61</ele>
   </trkpt>
   <trkpt lat="-37.87435" lon="145.35875000000001">
    <ele>430.7300000000001</ele>
   </trkpt>
   <trkpt lat="-37.87487" lon="145.35939000000002">
    <ele>421.58</ele>
   </trkpt>
   <trkpt lat="-37.87496" lon="145.35946">
    <ele>421.23</ele>
   </trkpt>
   <trkpt lat="-37.87505" lon="145.35948000000002">
    <ele>418.08</ele>
   </trkpt>
   <trkpt lat="-37.87512" lon="145.35974000000002">
    <ele>416.16</ele>
   </trkpt>
   <trkpt lat="-37.87509" lon="145.35984000000002">
    <ele>414.39000000000004</ele>
   </trkpt>
   <trkpt lat="-37.87505" lon="145.35992000000002">
    <ele>414.39000000000004</ele>
   </trkpt>
   <trkpt lat="-37.87469" lon="145.36031">
    <ele>407.29</ele>
   </trkpt>
   <trkpt lat="-37.87406" lon="145.36083000000002">
    <ele>396.71</ele>
   </trkpt>
   <trkpt lat="-37.87391" lon="145.36107">
    <ele>396.26000000000005</ele>
   </trkpt>
   <trkpt lat="-37.873720000000006" lon="145.36151">
    <ele>396.05</ele>
   </trkpt>
   <trkpt lat="-37.87377" lon="145.36206">
    <ele>374.13</ele>
   </trkpt>
   <trkpt lat="-37.873740000000005" lon="145.36213">
    <ele>374.13</ele>
   </trkpt>
   <trkpt lat="-37.87377" lon="145.36227000000002">
    <ele>375.21000000000004</ele>
   </trkpt>
   <trkpt lat="-37.874010000000006" lon="145.36278000000001">
    <ele>378.1</ele>
   </trkpt>
   <trkpt lat="-37.87409" lon="145.36301">
    <ele>380.05000000000007</ele>
   </trkpt>
   <trkpt lat="-37.87404" lon="145.36333000000002">
    <ele>382.61</ele>
   </trkpt>
   <trkpt lat="-37.874100000000006" lon="145.36338">
    <ele>383.15000000000003</ele>
   </trkpt>
   <trkpt lat="-37.87438" lon="145.36402">
    <ele>383.6</ele>
   </trkpt>
   <trkpt lat="-37.87438" lon="145.3642">
    <ele>384.29</ele>
   </trkpt>
   <trkpt lat="-37.87444" lon="145.36441000000002">
    <ele>385.46000000000004</ele>
   </trkpt>
   <trkpt lat="-37.87444" lon="145.36466000000001">
    <ele>386.19</ele>
   </trkpt>
   <trkpt lat="-37.87456" lon="145.36519">
    <ele>387.93000000000006</ele>
   </trkpt>
   <trkpt lat="-37.87467" lon="145.36552">
    <ele>386.57</ele>
   </trkpt>
   <trkpt lat="-37.87485" lon="145.36586">
    <ele>384.58000000000004</ele>
   </trkpt>
   <trkpt lat="-37.87485" lon="145.36601000000002">
    <ele>385.09000000000003</ele>
   </trkpt>
   <trkpt lat="-37.8748" lon="145.36626">
    <ele>386.89</ele>
   </trkpt>
   <trkpt lat="-37.87482" lon="145.36636000000001">
    <ele>386.88000000000005</ele>
   </trkpt>
   <trkpt lat="-37.87509" lon="145.36668">
    <ele>383.99000000000007</ele>
   </trkpt>
   <trkpt lat="-37.87523" lon="145.36692000000002">
    <ele>383.58000000000004</ele>
   </trkpt>
   <trkpt lat="-37.87559" lon="145.36734">
    <ele>381.41</ele>
   </trkpt>
   <trkpt lat="-37.8757" lon="145.3675">
    <ele>380.06</ele>
   </trkpt>
   <trkpt lat="-37.875690000000006" lon="145.36763000000002">
    <ele>378.87</ele>
   </trkpt>
   <trkpt lat="-37.87561" lon="145.36792">
    <ele>377.99000000000007</ele>
   </trkpt>
   <trkpt lat="-37.875510000000006" lon="145.36811">
    <ele>378.82000000000005</ele>
   </trkpt>
   <trkpt lat="-37.87545" lon="145.3683">
    <ele>379.01</ele>
   </trkpt>
   <trkpt lat="-37.87556" lon="145.36883">
    <ele>377.22</ele>
   </trkpt>
   <trkpt lat="-37.87554" lon="145.36915000000002">
    <ele>379.51</ele>
   </trkpt>
   <trkpt lat="-37.87538" lon="145.36979000000002">
    <ele>384.21999999999997</ele>
   </trkpt>
   <trkpt lat="-37.87545" lon="145.37030000000001">
    <ele>380.55000000000007</ele>
   </trkpt>
   <trkpt lat="-37.87552" lon="145.37054">
    <ele>377.89</ele>
   </trkpt>
   <trkpt lat="-37.87559" lon="145.37066000000002">
    <ele>377.00000000000006</ele>
   </trkpt>
   <trkpt lat="-37.87608" lon="145.37106">
    <ele>355.40000000000003</ele>
   </trkpt>
   <trkpt lat="-37.87614000000001" lon="145.37109">
    <ele>355.40000000000003</ele>
   </trkpt>
   <trkpt lat="-37.87635" lon="145.37115">
    <ele>341.84000000000003</ele>
   </trkpt>
   <trkpt lat="-37.8765" lon="145.37138000000002">
    <ele>332.54</ele>
   </trkpt>
   <trkpt lat="-37.87637" lon="145.37132000000003">
    <ele>333.13000000000005</ele>
   </trkpt>
   <trkpt lat="-37.87628" lon="145.37130000000002">
    <ele>333.59000000000003</ele>
   </trkpt>
   <trkpt lat="-37.87597" lon="145.37137">
    <ele>335.14000000000004</ele>
   </trkpt>
   <trkpt lat="-37.87579" lon="145.37137">
    <ele>338.25000000000006</ele>
   </trkpt>
   <trkpt lat="-37.875220000000006" lon="145.37127">
    <ele>341.68</ele>
   </trkpt>
   <trkpt lat="-37.875040000000006" lon="145.37126">
    <ele>343.31</ele>
   </trkpt>
   <trkpt lat="-37.874700000000004" lon="145.37130000000002">
    <ele>344.73</ele>
   </trkpt>
   <trkpt lat="-37.874660000000006" lon="145.3718">
    <ele>358.79</ele>
   </trkpt>
   <trkpt lat="-37.874495001515065" lon="145.37240000137075">
    <ele>381.70000000000005</ele>
   </trkpt>
   <trkpt lat="-37.87433" lon="145.37300000000002">
    <ele>396.90000000000003</ele>
   </trkpt>
   <trkpt lat="-37.87424" lon="145.37365">
    <ele>407.23</ele>
   </trkpt>
   <trkpt lat="-37.87405000200656" lon="145.37434000180457">
    <ele>418.50000000000006</ele>
   </trkpt>
   <trkpt lat="-37.87386" lon="145.37503">
    <ele>430.20000000000005</ele>
   </trkpt>
   <trkpt lat="-37.87373" lon="145.37591">
    <ele>443.58000000000004</ele>
   </trkpt>
   <trkpt lat="-37.87356000976839" lon="145.37678750607844">
    <ele>457.91</ele>
   </trkpt>
   <trkpt lat="-37.87339001302399" lon="145.3776650081072">
    <ele>471.28000000000003</ele>
   </trkpt>
   <trkpt lat="-37.873220009766854" lon="145.37854250608615">
    <ele>480.11</ele>
   </trkpt>
   <trkpt lat="-37.873050000000006" lon="145.37942">
    <ele>489.00000000000006</ele>
   </trkpt>
   <trkpt lat="-37.8729" lon="145.37994">
    <ele>493.34000000000003</ele>
   </trkpt>
   <trkpt lat="-37.87279" lon="145.38043000000002">
    <ele>491.44000000000005</ele>
   </trkpt>
   <trkpt lat="-37.872690000000006" lon="145.38075">
    <ele>489.3500000000001</ele>
   </trkpt>
   <trkpt lat="-37.87261" lon="145.38073">
    <ele>490.21000000000004</ele>
   </trkpt>
   <trkpt lat="-37.87221" lon="145.38052000000002">
    <ele>492.12000000000006</ele>
   </trkpt>
   <trkpt lat="-37.87172500002051" lon="145.38032499865992">
    <ele>493.22</ele>
   </trkpt>
   <trkpt lat="-37.87124" lon="145.38013">
    <ele>495.84000000000003</ele>
   </trkpt>
   <trkpt lat="-37.87077" lon="145.37989000000002">
    <ele>501.04</ele>
   </trkpt>
   <trkpt lat="-37.87059" lon="145.37978">
    <ele>503.99000000000007</ele>
   </trkpt>
   <trkpt lat="-37.87039" lon="145.37975">
    <ele>507.99000000000007</ele>
   </trkpt>
   <trkpt lat="-37.87024" lon="145.37967">
    <ele>511.01000000000005</ele>
   </trkpt>
   <trkpt lat="-37.87006" lon="145.37962000000002">
    <ele>515.03</ele>
   </trkpt>
   <trkpt lat="-37.86988" lon="145.37951">
    <ele>517.36</ele>
   </trkpt>
   <trkpt lat="-37.86914" lon="145.37900000000002">
    <ele>526.19</ele>
   </trkpt>
   <trkpt lat="-37.86849" lon="145.37853">
    <ele>531.9</ele>
   </trkpt>
   <trkpt lat="-37.86802" lon="145.37826">
    <ele>533.81</ele>
   </trkpt>
   <trkpt lat="-37.86764" lon="145.37802000000002">
    <ele>535.1100000000001</ele>
   </trkpt>
   <trkpt lat="-37.867360000000005" lon="145.3778">
    <ele>536.85</ele>
   </trkpt>
   <trkpt lat="-37.86731" lon="145.37782">
    <ele>536.2800000000001</ele>
   </trkpt>
   <trkpt lat="-37.86694" lon="145.37748000000002">
    <ele>541.91</ele>
   </trkpt>
   <trkpt lat="-37.86663" lon="145.37732000000003">
    <ele>547.3100000000001</ele>
   </trkpt>
   <trkpt lat="-37.86632" lon="145.37727">
    <ele>552.28</ele>
   </trkpt>
   <trkpt lat="-37.86558" lon="145.3771">
    <ele>562.36</ele>
   </trkpt>
   <trkpt lat="-37.86547" lon="145.3771">
    <ele>564.07</ele>
   </trkpt>
   <trkpt lat="-37.86527" lon="145.37714000000003">
    <ele>566.25</ele>
   </trkpt>
   <trkpt lat="-37.86513" lon="145.37712000000002">
    <ele>567.98</ele>
   </trkpt>
   <trkpt lat="-37.86504" lon="145.37697">
    <ele>568.74</ele>
   </trkpt>
   <trkpt lat="-37.865" lon="145.37696000000003">
    <ele>568.74</ele>
   </trkpt>
   <trkpt lat="-37.864369999934496" lon="145.37687999930438">
    <ele>572.37</ele>
   </trkpt>
   <trkpt lat="-37.86374" lon="145.3768">
    <ele>568.96</ele>
   </trkpt>
   <trkpt lat="-37.86352" lon="145.37678000000002">
    <ele>566.11</ele>
   </trkpt>
   <trkpt lat="-37.863350000000004" lon="145.3768">
    <ele>564.4200000000001</ele>
   </trkpt>
   <trkpt lat="-37.86325" lon="145.37676000000002">
    <ele>564.57</ele>
   </trkpt>
   <trkpt lat="-37.862679999972" lon="145.37668499941313">
    <ele>564.23</ele>
   </trkpt>
   <trkpt lat="-37.86211" lon="145.37661">
    <ele>561.98</ele>
   </trkpt>
   <trkpt lat="-37.86144" lon="145.37650000000002">
    <ele>558.28</ele>
   </trkpt>
   <trkpt lat="-37.86096499994964" lon="145.37640499937004">
    <ele>556.21</ele>
   </trkpt>
   <trkpt lat="-37.860490000000006" lon="145.37631000000002">
    <ele>556.5300000000001</ele>
   </trkpt>
   <trkpt lat="-37.86046000312499" lon="145.37717000041977">
    <ele>557.82</ele>
   </trkpt>
   <trkpt lat="-37.86043" lon="145.37803000000002">
    <ele>553.2</ele>
   </trkpt>
   <trkpt lat="-37.86032" lon="145.37913">
    <ele>536.85</ele>
   </trkpt>
   <trkpt lat="-37.86032000327456" lon="145.38001000005107">
    <ele>524.0</ele>
   </trkpt>
   <trkpt lat="-37.86032" lon="145.38089000000002">
    <ele>517.71</ele>
   </trkpt>
   <trkpt lat="-37.86028" lon="145.38117000000003">
    <ele>517.29</ele>
   </trkpt>
   <trkpt lat="-37.86021" lon="145.38127">
    <ele>517.35</ele>
   </trkpt>
   <trkpt lat="-37.86007" lon="145.38119">
    <ele>521.39</ele>
   </trkpt>
   <trkpt lat="-37.86003" lon="145.38133000000002">
    <ele>522.6</ele>
   </trkpt>
   <trkpt lat="-37.85998" lon="145.38154">
    <ele>523.25</ele>
   </trkpt>
   <trkpt lat="-37.85992" lon="145.38249000000002">
    <ele>524.1800000000001</ele>
   </trkpt>
   <trkpt lat="-37.85956" lon="145.38268000000002">
    <ele>515.8000000000001</ele>
   </trkpt>
   <trkpt lat="-37.85924" lon="145.38272">
    <ele>507.53999999999996</ele>
   </trkpt>
   <trkpt lat="-37.85918" lon="145.38267000000002">
    <ele>505.3500000000001</ele>
   </trkpt>
   <trkpt lat="-37.85902" lon="145.38242000000002">
    <ele>500.26000000000005</ele>
   </trkpt>
   <trkpt lat="-37.858630000000005" lon="145.38188000000002">
    <ele>486.00000000000006</ele>
   </trkpt>
   <trkpt lat="-37.8583" lon="145.38181">
    <ele>473.66</ele>
   </trkpt>
   <trkpt lat="-37.85806" lon="145.38181">
    <ele>464.4200000000001</ele>
   </trkpt>
   <trkpt lat="-37.85775" lon="145.38175">
    <ele>452.99000000000007</ele>
   </trkpt>
   <trkpt lat="-37.85763" lon="145.38181">
    <ele>449.55000000000007</ele>
   </trkpt>
   <trkpt lat="-37.85752" lon="145.38179000000002">
    <ele>447.97</ele>
   </trkpt>
   <trkpt lat="-37.857350000000004" lon="145.38168000000002">
    <ele>445.45</ele>
   </trkpt>
   <trkpt lat="-37.85736" lon="145.38161000000002">
    <ele>446.02000000000004</ele>
   </trkpt>
   <trkpt lat="-37.85732" lon="145.38121">
    <ele>450.18</ele>
   </trkpt>
   <trkpt lat="-37.85723" lon="145.38064">
    <ele>461.17</ele>
   </trkpt>
   <trkpt lat="-37.85721" lon="145.38042000000002">
    <ele>463.20000000000005</ele>
   </trkpt>
   <trkpt lat="-37.85725" lon="145.3802">
    <ele>468.88</ele>
   </trkpt>
   <trkpt lat="-37.85725" lon="145.3801">
    <ele>468.88</ele>
   </trkpt>
   <trkpt lat="-37.85718" lon="145.37988">
    <ele>476.46000000000004</ele>
   </trkpt>
   <trkpt lat="-37.85725" lon="145.37954000000002">
    <ele>481.94</ele>
   </trkpt>
   <trkpt lat="-37.85723" lon="145.37939">
    <ele>484.42</ele>
   </trkpt>
   <trkpt lat="-37.8571" lon="145.37916">
    <ele>486.6</ele>
   </trkpt>
   <trkpt lat="-37.85694" lon="145.37900000000002">
    <ele>488.32000000000005</ele>
   </trkpt>
   <trkpt lat="-37.8568" lon="145.37878">
    <ele>490.1</ele>
   </trkpt>
   <trkpt lat="-37.85656" lon="145.37885">
    <ele>488.30000000000007</ele>
   </trkpt>
   <trkpt lat="-37.85647" lon="145.37894">
    <ele>487.50000000000006</ele>
   </trkpt>
   <trkpt lat="-37.85642" lon="145.37909000000002">
    <ele>487.27000000000004</ele>
   </trkpt>
   <trkpt lat="-37.85642" lon="145.3796">
    <ele>483.58000000000004</ele>
   </trkpt>
   <trkpt lat="-37.85636" lon="145.37995">
    <ele>478.75000000000006</ele>
   </trkpt>
   <trkpt lat="-37.85609" lon="145.38024000000001">
    <ele>474.94</ele>
   </trkpt>
   <trkpt lat="-37.85575" lon="145.38047">
    <ele>471.40000000000003</ele>
   </trkpt>
   <trkpt lat="-37.855650000000004" lon="145.38063000000002">
    <ele>468.56</ele>
   </trkpt>
   <trkpt lat="-37.85526" lon="145.38054000000002">
    <ele>473.14000000000004</ele>
   </trkpt>
   <trkpt lat="-37.85454500060225" lon="145.38015999631006">
    <ele>484.35</ele>
   </trkpt>
   <trkpt lat="-37.85383" lon="145.37978">
    <ele>497.27000000000004</ele>
   </trkpt>
   <trkpt lat="-37.85349" lon="145.3795">
    <ele>508.30000000000007</ele>
   </trkpt>
   <trkpt lat="-37.85336" lon="145.37931">
    <ele>513.09</ele>
   </trkpt>
   <trkpt lat="-37.853080000000006" lon="145.37959">
    <ele>512.7900000000001</ele>
   </trkpt>
   <trkpt lat="-37.85293" lon="145.37962000000002">
    <ele>512.2500000000001</ele>
   </trkpt>
   <trkpt lat="-37.85282" lon="145.3796">
    <ele>511.61</ele>
   </trkpt>
   <trkpt lat="-37.85251" lon="145.37935000000002">
    <ele>509.09999999999997</ele>
   </trkpt>
   <trkpt lat="-37.85228" lon="145.37909000000002">
    <ele>506.90000000000003</ele>
   </trkpt>
   <trkpt lat="-37.85201" lon="145.37857000000002">
    <ele>505.70000000000005</ele>
   </trkpt>
   <trkpt lat="-37.85188" lon="145.37808">
    <ele>507.75</ele>
   </trkpt>
   <trkpt lat="-37.85172" lon="145.37773">
    <ele>510.50000000000006</ele>
   </trkpt>
   <trkpt lat="-37.85157" lon="145.3776">
    <ele>511.04</ele>
   </trkpt>
   <trkpt lat="-37.85121" lon="145.37741000000003">
    <ele>513.3100000000001</ele>
   </trkpt>
   <trkpt lat="-37.850860000000004" lon="145.37730000000002">
    <ele>512.08</ele>
   </trkpt>
   <trkpt lat="-37.85047" lon="145.37738000000002">
    <ele>509.29</ele>
   </trkpt>
   <trkpt lat="-37.85029" lon="145.3775">
    <ele>507.73</ele>
   </trkpt>
   <trkpt lat="-37.84964" lon="145.37782">
    <ele>500.5400000000001</ele>
   </trkpt>
   <trkpt lat="-37.84951" lon="145.37792000000002">
    <ele>497.38000000000005</ele>
   </trkpt>
   <trkpt lat="-37.8491" lon="145.37814">
    <ele>492.01000000000005</ele>
   </trkpt>
   <trkpt lat="-37.84848" lon="145.3784">
    <ele>486.30000000000007</ele>
   </trkpt>
   <trkpt lat="-37.84825" lon="145.37846000000002">
    <ele>485.26</ele>
   </trkpt>
   <trkpt lat="-37.84794" lon="145.37849">
    <ele>483.37</ele>
   </trkpt>
   <trkpt lat="-37.84774" lon="145.37846000000002">
    <ele>482.53000000000003</ele>
   </trkpt>
   <trkpt lat="-37.8476" lon="145.37832">
    <ele>482.55</ele>
   </trkpt>
   <trkpt lat="-37.84747" lon="145.37811000000002">
    <ele>482.89000000000004</ele>
   </trkpt>
   <trkpt lat="-37.84742" lon="145.3778">
    <ele>482.96000000000004</ele>
   </trkpt>
   <trkpt lat="-37.84729" lon="145.37757000000002">
    <ele>481.81</ele>
   </trkpt>
   <trkpt lat="-37.8468" lon="145.37722000000002">
    <ele>472.99</ele>
   </trkpt>
   <trkpt lat="-37.84666" lon="145.37718">
    <ele>471.49</ele>
   </trkpt>
   <trkpt lat="-37.84646" lon="145.37716">
    <ele>466.49</ele>
   </trkpt>
   <trkpt lat="-37.84633" lon="145.37718">
    <ele>465.02000000000004</ele>
   </trkpt>
   <trkpt lat="-37.8461" lon="145.37725">
    <ele>461.75000000000006</ele>
   </trkpt>
   <trkpt lat="-37.8459" lon="145.37727">
    <ele>458.11</ele>
   </trkpt>
   <trkpt lat="-37.84582" lon="145.37730000000002">
    <ele>455.48</ele>
   </trkpt>
   <trkpt lat="-37.84523" lon="145.37737">
    <ele>455.48</ele>
   </trkpt>
   <trkpt lat="-37.84492" lon="145.37729000000002">
    <ele>455.48</ele>
   </trkpt>
   <trkpt lat="-37.84431" lon="145.37730000000002">
    <ele>417.72</ele>
   </trkpt>
   <trkpt lat="-37.84384" lon="145.37723000000003">
    <ele>417.72</ele>
   </trkpt>
   <trkpt lat="-37.843610000000005" lon="145.37727">
    <ele>417.72</ele>
   </trkpt>
   <trkpt lat="-37.84346" lon="145.37734">
    <ele>417.72</ele>
   </trkpt>
   <trkpt lat="-37.84333" lon="145.37742">
    <ele>417.72</ele>
   </trkpt>
   <trkpt lat="-37.84326" lon="145.37756000000002">
    <ele>417.72</ele>
   </trkpt>
   <trkpt lat="-37.84324" lon="145.37767000000002">
    <ele>417.72</ele>
   </trkpt>
   <trkpt lat="-37.84326" lon="145.3778">
    <ele>417.72</ele>
   </trkpt>
   <trkpt lat="-37.84333" lon="145.37800000000001">
    <ele>417.72</ele>
   </trkpt>
   <trkpt lat="-37.84375" lon="145.37878">
    <ele>417.72</ele>
   </trkpt>
   <trkpt lat="-37.84411" lon="145.37913">
    <ele>362.37</ele>
   </trkpt>
   <trkpt lat="-37.84427" lon="145.37936000000002">
    <ele>362.37</ele>
   </trkpt>
   <trkpt lat="-37.8444" lon="145.37967">
    <ele>362.37</ele>
   </trkpt>
   <trkpt lat="-37.84451" lon="145.38000000000002">
    <ele>362.37</ele>
   </trkpt>
   <trkpt lat="-37.84451" lon="145.3802">
    <ele>362.37</ele>
   </trkpt>
   <trkpt lat="-37.84449" lon="145.38033000000001">
    <ele>362.37</ele>
   </trkpt>
   <trkpt lat="-37.844440000000006" lon="145.3804">
    <ele>362.37</ele>
   </trkpt>
   <trkpt lat="-37.84431" lon="145.38042000000002">
    <ele>362.37</ele>
   </trkpt>
   <trkpt lat="-37.84396" lon="145.38022">
    <ele>357.67</ele>
   </trkpt>
   <trkpt lat="-37.84315" lon="145.37983">
    <ele>345.52000000000004</ele>
   </trkpt>
   <trkpt lat="-37.84297" lon="145.37982000000002">
    <ele>342.17</ele>
   </trkpt>
   <trkpt lat="-37.84277" lon="145.37985">
    <ele>339.21</ele>
   </trkpt>
   <trkpt lat="-37.84257" lon="145.37998000000002">
    <ele>334.87</ele>
   </trkpt>
   <trkpt lat="-37.8425" lon="145.38008000000002">
    <ele>333.25000000000006</ele>
   </trkpt>
   <trkpt lat="-37.842380000000006" lon="145.38016000000002">
    <ele>330.23</ele>
   </trkpt>
   <trkpt lat="-37.84223" lon="145.38017000000002">
    <ele>327.81000000000006</ele>
   </trkpt>
   <trkpt lat="-37.84205" lon="145.38012">
    <ele>324.93000000000006</ele>
   </trkpt>
   <trkpt lat="-37.842130000000004" lon="145.3803">
    <ele>323.59000000000003</ele>
   </trkpt>
   <trkpt lat="-37.84205" lon="145.38012">
    <ele>333.33</ele>
   </trkpt>
   <trkpt lat="-37.84201" lon="145.38002">
    <ele>333.33</ele>
   </trkpt>
   <trkpt lat="-37.84185" lon="145.37971000000002">
    <ele>333.33</ele>
   </trkpt>
   <trkpt lat="-37.84154" lon="145.37922">
    <ele>333.33</ele>
   </trkpt>
   <trkpt lat="-37.84122" lon="145.37847000000002">
    <ele>324.93000000000006</ele>
   </trkpt>
   <trkpt lat="-37.84103" lon="145.37786">
    <ele>324.93000000000006</ele>
   </trkpt>
   <trkpt lat="-37.840990000000005" lon="145.37779">
    <ele>324.93000000000006</ele>
   </trkpt>
   <trkpt lat="-37.840970000000006" lon="145.37764">
    <ele>324.93000000000006</ele>
   </trkpt>
   <trkpt lat="-37.84089" lon="145.37754">
    <ele>324.93000000000006</ele>
   </trkpt>
   <trkpt lat="-37.84046" lon="145.37711000000002">
    <ele>325.38</ele>
   </trkpt>
   <trkpt lat="-37.84024" lon="145.37681">
    <ele>326.94</ele>
   </trkpt>
   <trkpt lat="-37.83999500117897" lon="145.37628499828548">
    <ele>328.93</ele>
   </trkpt>
   <trkpt lat="-37.83975" lon="145.37576">
    <ele>330.08000000000004</ele>
   </trkpt>
   <trkpt lat="-37.83950000241456" lon="145.3750049974551">
    <ele>333.15</ele>
   </trkpt>
   <trkpt lat="-37.83925" lon="145.37425000000002">
    <ele>338.91</ele>
   </trkpt>
   <trkpt lat="-37.83921" lon="145.37414">
    <ele>341.82</ele>
   </trkpt>
   <trkpt lat="-37.8391" lon="145.37399000000002">
    <ele>343.92</ele>
   </trkpt>
   <trkpt lat="-37.83883" lon="145.37376">
    <ele>350.62000000000006</ele>
   </trkpt>
   <trkpt lat="-37.83858" lon="145.37359">
    <ele>351.88</ele>
   </trkpt>
   <trkpt lat="-37.83847" lon="145.37354000000002">
    <ele>354.67</ele>
   </trkpt>
   <trkpt lat="-37.83822" lon="145.37348">
    <ele>357.27000000000004</ele>
   </trkpt>
   <trkpt lat="-37.83805" lon="145.37351">
    <ele>360.67</ele>
   </trkpt>
   <trkpt lat="-37.83793" lon="145.37357">
    <ele>360.67</ele>
   </trkpt>
   <trkpt lat="-37.83784" lon="145.37368">
    <ele>360.67</ele>
   </trkpt>
   <trkpt lat="-37.83764" lon="145.37427000000002">
    <ele>368.41</ele>
   </trkpt>
   <trkpt lat="-37.83746" lon="145.37449">
    <ele>372.55000000000007</ele>
   </trkpt>
   <trkpt lat="-37.83735" lon="145.37466">
    <ele>374.14000000000004</ele>
   </trkpt>
   <trkpt lat="-37.83719" lon="145.37407000000002">
    <ele>409.09</ele>
   </trkpt>
   <trkpt lat="-37.83719" lon="145.37388">
    <ele>409.52000000000004</ele>
   </trkpt>
   <trkpt lat="-37.83708" lon="145.37331">
    <ele>413.39000000000004</ele>
   </trkpt>
   <trkpt lat="-37.83699" lon="145.37235">
    <ele>422.66</ele>
   </trkpt>
   <trkpt lat="-37.837030000000006" lon="145.3719">
    <ele>426.13</ele>
   </trkpt>
   <trkpt lat="-37.83699" lon="145.37133">
    <ele>429.8</ele>
   </trkpt>
   <trkpt lat="-37.837030000000006" lon="145.37094000000002">
    <ele>431.09000000000003</ele>
   </trkpt>
   <trkpt lat="-37.83701000000001" lon="145.37063">
    <ele>433.58</ele>
   </trkpt>
   <trkpt lat="-37.83737" lon="145.37053">
    <ele>432.11</ele>
   </trkpt>
   <trkpt lat="-37.83769" lon="145.37040000000002">
    <ele>428.64</ele>
   </trkpt>
   <trkpt lat="-37.83798" lon="145.37023000000002">
    <ele>429.46</ele>
   </trkpt>
   <trkpt lat="-37.83849" lon="145.36997000000002">
    <ele>435.93</ele>
   </trkpt>
   <trkpt lat="-37.83869" lon="145.36991">
    <ele>438.95000000000005</ele>
   </trkpt>
   <trkpt lat="-37.83885" lon="145.3698">
    <ele>442.00000000000006</ele>
   </trkpt>
   <trkpt lat="-37.8391" lon="145.36968000000002">
    <ele>444.96000000000004</ele>
   </trkpt>
   <trkpt lat="-37.839560000000006" lon="145.36941000000002">
    <ele>450.74</ele>
   </trkpt>
   <trkpt lat="-37.83975" lon="145.36926000000003">
    <ele>454.39</ele>
   </trkpt>
   <trkpt lat="-37.839940000000006" lon="145.36906000000002">
    <ele>459.77</ele>
   </trkpt>
   <trkpt lat="-37.83999" lon="145.36903">
    <ele>460.25000000000006</ele>
   </trkpt>
   <trkpt lat="-37.84022" lon="145.36902">
    <ele>463.0</ele>
   </trkpt>
   <trkpt lat="-37.84057" lon="145.36894">
    <ele>467.33000000000004</ele>
   </trkpt>
   <trkpt lat="-37.84087" lon="145.36892">
    <ele>470.81000000000006</ele>
   </trkpt>
   <trkpt lat="-37.84093" lon="145.36841">
    <ele>472.47</ele>
   </trkpt>
   <trkpt lat="-37.84091" lon="145.36816000000002">
    <ele>473.02000000000004</ele>
   </trkpt>
   <trkpt lat="-37.84172" lon="145.36824000000001">
    <ele>481.80000000000007</ele>
   </trkpt>
   <trkpt lat="-37.84237" lon="145.3685">
    <ele>488.09000000000003</ele>
   </trkpt>
   <trkpt lat="-37.84297000172229" lon="145.36910999518895">
    <ele>499.21000000000004</ele>
   </trkpt>
   <trkpt lat="-37.84357" lon="145.36972">
    <ele>509.12</ele>
   </trkpt>
   <trkpt lat="-37.84378" lon="145.37019">
    <ele>513.45</ele>
   </trkpt>
   <trkpt lat="-37.84427" lon="145.37091">
    <ele>518.03</ele>
   </trkpt>
   <trkpt lat="-37.84447" lon="145.37102000000002">
    <ele>518.33</ele>
   </trkpt>
   <trkpt lat="-37.84498" lon="145.37117">
    <ele>518.73</ele>
   </trkpt>
   <trkpt lat="-37.84544000012397" lon="145.37127999933128">
    <ele>519.39</ele>
   </trkpt>
   <trkpt lat="-37.8459" lon="145.37139000000002">
    <ele>519.7900000000001</ele>
   </trkpt>
   <trkpt lat="-37.84641500027651" lon="145.37149999927993">
    <ele>520.5000000000001</ele>
   </trkpt>
   <trkpt lat="-37.84693" lon="145.37161">
    <ele>521.5500000000001</ele>
   </trkpt>
   <trkpt lat="-37.847593333434105" lon="145.37171333147586">
    <ele>523.61</ele>
   </trkpt>
   <trkpt lat="-37.848256666777914" lon="145.3718166648108">
    <ele>528.48</ele>
   </trkpt>
   <trkpt lat="-37.84892" lon="145.37192000000002">
    <ele>535.6700000000001</ele>
   </trkpt>
   <trkpt lat="-37.84904" lon="145.37187">
    <ele>536.8900000000001</ele>
   </trkpt>
   <trkpt lat="-37.84915" lon="145.37173">
    <ele>537.6899999999999</ele>
   </trkpt>
   <trkpt lat="-37.849430001263556" lon="145.37117500218451">
    <ele>538.42</ele>
   </trkpt>
   <trkpt lat="-37.84971" lon="145.37062">
    <ele>539.66</ele>
   </trkpt>
   <trkpt lat="-37.84984" lon="145.37028">
    <ele>541.0</ele>
   </trkpt>
   <trkpt lat="-37.85004" lon="145.37006000000002">
    <ele>543.52</ele>
   </trkpt>
   <trkpt lat="-37.85038" lon="145.37003">
    <ele>546.21</ele>
   </trkpt>
   <trkpt lat="-37.850640000000006" lon="145.36993">
    <ele>549.28</ele>
   </trkpt>
   <trkpt lat="-37.85083" lon="145.3698">
    <ele>551.15</ele>
   </trkpt>
   <trkpt lat="-37.85107" lon="145.36952000000002">
    <ele>556.11</ele>
   </trkpt>
   <trkpt lat="-37.85141500104047" lon="145.36905500200578">
    <ele>560.76</ele>
   </trkpt>
   <trkpt lat="-37.851760000000006" lon="145.36859">
    <ele>563.27</ele>
   </trkpt>
   <trkpt lat="-37.85208" lon="145.36833000000001">
    <ele>565.4100000000001</ele>
   </trkpt>
   <trkpt lat="-37.85228" lon="145.36824000000001">
    <ele>568.47</ele>
   </trkpt>
   <trkpt lat="-37.85264" lon="145.36819">
    <ele>572.79</ele>
   </trkpt>
   <trkpt lat="-37.85295" lon="145.36822">
    <ele>574.61</ele>
   </trkpt>
   <trkpt lat="-37.85314" lon="145.36833000000001">
    <ele>575.58</ele>
   </trkpt>
   <trkpt lat="-37.853660000000005" lon="145.36857">
    <ele>577.57</ele>
   </trkpt>
   <trkpt lat="-37.85409000000001" lon="145.36882">
    <ele>575.8100000000001</ele>
   </trkpt>
   <trkpt lat="-37.854400000000005" lon="145.3691">
    <ele>571.73</ele>
   </trkpt>
   <trkpt lat="-37.85441" lon="145.36911">
    <ele>571.73</ele>
   </trkpt>
   <trkpt lat="-37.85445" lon="145.36905000000002">
    <ele>571.73</ele>
   </trkpt>
   <trkpt lat="-37.854580000000006" lon="145.36896000000002">
    <ele>571.5600000000001</ele>
   </trkpt>
   <trkpt lat="-37.85499" lon="145.36845000000002">
    <ele>571.5100000000001</ele>
   </trkpt>
   <trkpt lat="-37.85519" lon="145.36803">
    <ele>572.21</ele>
   </trkpt>
   <trkpt lat="-37.85536500350699" lon="145.36712000213168">
    <ele>572.52</ele>
   </trkpt>
   <trkpt lat="-37.855540000000005" lon="145.36621000000002">
    <ele>571.8199999999999</ele>
   </trkpt>
   <trkpt lat="-37.85574000405838" lon="145.3652300026712">
    <ele>570.1400000000001</ele>
   </trkpt>
   <trkpt lat="-37.855940000000004" lon="145.36425">
    <ele>569.64</ele>
   </trkpt>
   <trkpt lat="-37.856" lon="145.36419">
    <ele>572.58</ele>
   </trkpt>
   <trkpt lat="-37.856030000000004" lon="145.36413000000002">
    <ele>572.58</ele>
   </trkpt>
   <trkpt lat="-37.85604" lon="145.36396000000002">
    <ele>572.73</ele>
   </trkpt>
   <trkpt lat="-37.85622" lon="145.36302">
    <ele>577.62</ele>
   </trkpt>
   <trkpt lat="-37.856280000000005" lon="145.36256">
    <ele>580.22</ele>
   </trkpt>
   <trkpt lat="-37.85645500221492" lon="145.36184000161498">
    <ele>586.92</ele>
   </trkpt>
   <trkpt lat="-37.85663" lon="145.36112">
    <ele>595.7800000000001</ele>
   </trkpt>
   <trkpt lat="-37.85667" lon="145.36065000000002">
    <ele>600.6600000000001</ele>
   </trkpt>
   <trkpt lat="-37.856880000000004" lon="145.35975000000002">
    <ele>598.5500000000001</ele>
   </trkpt>
   <trkpt lat="-37.857020000000006" lon="145.35925">
    <ele>591.6</ele>
   </trkpt>
   <trkpt lat="-37.85711500268657" lon="145.35845500090642">
    <ele>582.1</ele>
   </trkpt>
   <trkpt lat="-37.85721" lon="145.35766">
    <ele>575.2400000000001</ele>
   </trkpt>
   <trkpt lat="-37.85748" lon="145.35684">
    <ele>574.38</ele>
   </trkpt>
   <trkpt lat="-37.85752" lon="145.35645000000002">
    <ele>574.2400000000001</ele>
   </trkpt>
   <trkpt lat="-37.85743" lon="145.35592000000003">
    <ele>573.64</ele>
   </trkpt>
   <trkpt lat="-37.85748" lon="145.35586">
    <ele>573.6800000000001</ele>
   </trkpt>
   <trkpt lat="-37.85748" lon="145.35580000000002">
    <ele>573.6800000000001</ele>
   </trkpt>
   <trkpt lat="-37.85743" lon="145.35576">
    <ele>573.6800000000001</ele>
   </trkpt>
   <trkpt lat="-37.857380000000006" lon="145.35575">
    <ele>573.8700000000001</ele>
   </trkpt>
   <trkpt lat="-37.85718" lon="145.35543">
    <ele>568.21</ele>
   </trkpt>
   <trkpt lat="-37.85683" lon="145.35502000000002">
    <ele>559.49</ele>
   </trkpt>
   <trkpt lat="-37.85681" lon="145.35496">
    <ele>559.49</ele>
   </trkpt>
   <trkpt lat="-37.8568" lon="145.35479">
    <ele>555.36</ele>
   </trkpt>
   <trkpt lat="-37.85685" lon="145.35449">
    <ele>550.5000000000001</ele>
   </trkpt>
   <trkpt lat="-37.85703" lon="145.35401000000002">
    <ele>541.1600000000001</ele>
   </trkpt>
   <trkpt lat="-37.85703" lon="145.35389">
    <ele>533.1800000000001</ele>
   </trkpt>
   <trkpt lat="-37.85674" lon="145.35330000000002">
    <ele>524.58</ele>
   </trkpt>
   <trkpt lat="-37.856370000000005" lon="145.35273">
    <ele>510.21999999999997</ele>
   </trkpt>
   <trkpt lat="-37.85633" lon="145.35259000000002">
    <ele>508.45000000000005</ele>
   </trkpt>
   <trkpt lat="-37.85636" lon="145.35253">
    <ele>508.0</ele>
   </trkpt>
   <trkpt lat="-37.856460000000006" lon="145.35253">
    <ele>507.4200000000001</ele>
   </trkpt>
   <trkpt lat="-37.85636" lon="145.35252">
    <ele>507.05</ele>
   </trkpt>
   <trkpt lat="-37.85625" lon="145.35248">
    <ele>506.7900000000001</ele>
   </trkpt>
   <trkpt lat="-37.85636" lon="145.35252">
    <ele>507.37</ele>
   </trkpt>
   <trkpt lat="-37.85683" lon="145.35260000000002">
    <ele>505.34</ele>
   </trkpt>
   <trkpt lat="-37.85701" lon="145.35266000000001">
    <ele>503.53999999999996</ele>
   </trkpt>
   <trkpt lat="-37.85712" lon="145.35268000000002">
    <ele>502.01000000000005</ele>
   </trkpt>
   <trkpt lat="-37.85763499999471" lon="145.35270499982497">
    <ele>497.42</ele>
   </trkpt>
   <trkpt lat="-37.85815" lon="145.35273">
    <ele>489.97</ele>
   </trkpt>
   <trkpt lat="-37.85851" lon="145.35268000000002">
    <ele>485.2</ele>
   </trkpt>
   <trkpt lat="-37.8592" lon="145.35248">
    <ele>474.58000000000004</ele>
   </trkpt>
   <trkpt lat="-37.85945" lon="145.35244">
    <ele>471.68</ele>
   </trkpt>
   <trkpt lat="-37.8596" lon="145.35241000000002">
    <ele>469.78000000000003</ele>
   </trkpt>
   <trkpt lat="-37.85994" lon="145.35221">
    <ele>464.83</ele>
   </trkpt>
   <trkpt lat="-37.86023" lon="145.35196000000002">
    <ele>460.34000000000003</ele>
   </trkpt>
   <trkpt lat="-37.860490000000006" lon="145.35181">
    <ele>455.37000000000006</ele>
   </trkpt>
   <trkpt lat="-37.860960000000006" lon="145.35146">
    <ele>446.00000000000006</ele>
   </trkpt>
   <trkpt lat="-37.86104" lon="145.35133000000002">
    <ele>444.06</ele>
   </trkpt>
   <trkpt lat="-37.86144" lon="145.35096000000001">
    <ele>445.05000000000007</ele>
   </trkpt>
   <trkpt lat="-37.86157" lon="145.35075">
    <ele>445.86</ele>
   </trkpt>
   <trkpt lat="-37.86175" lon="145.35062000000002">
    <ele>445.31</ele>
   </trkpt>
   <trkpt lat="-37.86218" lon="145.35036000000002">
    <ele>442.99000000000007</ele>
   </trkpt>
   <trkpt lat="-37.86233" lon="145.35036000000002">
    <ele>443.53000000000003</ele>
   </trkpt>
   <trkpt lat="-37.862730000000006" lon="145.35069000000001">
    <ele>454.76000000000005</ele>
   </trkpt>
   <trkpt lat="-37.86258" lon="145.35084">
    <ele>458.35</ele>
   </trkpt>
   <trkpt lat="-37.86256" lon="145.35098000000002">
    <ele>458.35</ele>
   </trkpt>
   <trkpt lat="-37.8622" lon="145.3514">
    <ele>464.8</ele>
   </trkpt>
   <trkpt lat="-37.86218" lon="145.35177000000002">
    <ele>467.71</ele>
   </trkpt>
   <trkpt lat="-37.862190000000005" lon="145.3522">
    <ele>470.64000000000004</ele>
   </trkpt>
   <trkpt lat="-37.8624" lon="145.35274">
    <ele>473.55</ele>
   </trkpt>
   <trkpt lat="-37.862460000000006" lon="145.35279">
    <ele>473.99</ele>
   </trkpt>
   <trkpt lat="-37.862570000000005" lon="145.35281">
    <ele>474.33000000000004</ele>
   </trkpt>
   <trkpt lat="-37.86258" lon="145.35298">
    <ele>475.43</ele>
   </trkpt>
   <trkpt lat="-37.86265" lon="145.35319">
    <ele>476.99</ele>
   </trkpt>
   <trkpt lat="-37.862860000000005" lon="145.35369">
    <ele>479.02000000000004</ele>
   </trkpt>
   <trkpt lat="-37.862820000000006" lon="145.35372">
    <ele>479.15000000000003</ele>
   </trkpt>
  </trkseg>
 </trk>
</gpx>
