<?xml version="1.0" encoding="UTF-8"?>
<gpx creator="StravaGPX" version="1.1" xmlns="http://www.topografix.com/GPX/1/1" xmlns:xsi="http://www.w3.org/2001/XMLSchema-instance" xsi:schemaLocation="http://www.topografix.com/GPX/1/1 http://www.topografix.com/GPX/1/1/gpx.xsd">
 <metadata>
  <name>DTR Thursday </name>
  <author>
   <name>Natalie Gow</name>
  </author>
  <copyright author="OpenStreetMap contributors">
   <year>2020</year>
   <license>https://www.openstreetmap.org/copyright</license>
  </copyright>
 </metadata>
 <trk>
  <name>DTR Thursday </name>
  <link href=""/>
  <type>running</type>
  <trkseg>
   <trkpt lat="-37.887060000000005" lon="145.37044">
    <ele>360.56000000000006</ele>
   </trkpt>
   <trkpt lat="-37.88729" lon="145.37024000000002">
    <ele>359.28000000000003</ele>
   </trkpt>
   <trkpt lat="-37.88738" lon="145.37008">
    <ele>358.44000000000005</ele>
   </trkpt>
   <trkpt lat="-37.88749" lon="145.36999">
    <ele>355.58</ele>
   </trkpt>
   <trkpt lat="-37.88743" lon="145.36973">
    <ele>350.21000000000004</ele>
   </trkpt>
   <trkpt lat="-37.88732" lon="145.36981">
    <ele>349.22</ele>
   </trkpt>
   <trkpt lat="-37.88687" lon="145.3699">
    <ele>350.6</ele>
   </trkpt>
   <trkpt lat="-37.88633" lon="145.36996000000002">
    <ele>352.32</ele>
   </trkpt>
   <trkpt lat="-37.88608" lon="145.36991">
    <ele>354.92</ele>
   </trkpt>
   <trkpt lat="-37.885920000000006" lon="145.36982">
    <ele>356.64</ele>
   </trkpt>
   <trkpt lat="-37.88528" lon="145.36933000000002">
    <ele>362.7</ele>
   </trkpt>
   <trkpt lat="-37.88508" lon="145.36929">
    <ele>367.37</ele>
   </trkpt>
   <trkpt lat="-37.88495" lon="145.3693">
    <ele>367.46</ele>
   </trkpt>
   <trkpt lat="-37.88494" lon="145.36932000000002">
    <ele>367.46</ele>
   </trkpt>
   <trkpt lat="-37.884820000000005" lon="145.36932000000002">
    <ele>367.8</ele>
   </trkpt>
   <trkpt lat="-37.88487000000001" lon="145.36943000000002">
    <ele>367.92</ele>
   </trkpt>
   <trkpt lat="-37.88492" lon="145.36972">
    <ele>367.99</ele>
   </trkpt>
   <trkpt lat="-37.884930000000004" lon="145.37001">
    <ele>368.06000000000006</ele>
   </trkpt>
   <trkpt lat="-37.88503" lon="145.37036">
    <ele>370.09000000000003</ele>
   </trkpt>
   <trkpt lat="-37.885200000000005" lon="145.3708">
    <ele>370.50000000000006</ele>
   </trkpt>
   <trkpt lat="-37.88537" lon="145.37118">
    <ele>372.19</ele>
   </trkpt>
   <trkpt lat="-37.8853" lon="145.37123000000003">
    <ele>373.14000000000004</ele>
   </trkpt>
   <trkpt lat="-37.88571" lon="145.37196">
    <ele>375.77000000000004</ele>
   </trkpt>
   <trkpt lat="-37.88613" lon="145.37255000000002">
    <ele>380.13</ele>
   </trkpt>
   <trkpt lat="-37.88655500196061" lon="145.37320999637433">
    <ele>384.89</ele>
   </trkpt>
   <trkpt lat="-37.88698" lon="145.37387">
    <ele>390.18</ele>
   </trkpt>
   <trkpt lat="-37.88709" lon="145.37441">
    <ele>394.64000000000004</ele>
   </trkpt>
   <trkpt lat="-37.88718" lon="145.37521">
    <ele>397.77</ele>
   </trkpt>
   <trkpt lat="-37.88714" lon="145.37576">
    <ele>400.81000000000006</ele>
   </trkpt>
   <trkpt lat="-37.88696" lon="145.37626">
    <ele>402.65</ele>
   </trkpt>
   <trkpt lat="-37.88682" lon="145.37684000000002">
    <ele>404.56</ele>
   </trkpt>
   <trkpt lat="-37.88658" lon="145.37748000000002">
    <ele>404.46000000000004</ele>
   </trkpt>
   <trkpt lat="-37.88664" lon="145.3776">
    <ele>403.98</ele>
   </trkpt>
   <trkpt lat="-37.8866" lon="145.3778">
    <ele>403.82</ele>
   </trkpt>
   <trkpt lat="-37.886720000000004" lon="145.37794000000002">
    <ele>402.9800000000001</ele>
   </trkpt>
   <trkpt lat="-37.887240000000006" lon="145.3779">
    <ele>402.56</ele>
   </trkpt>
   <trkpt lat="-37.8877" lon="145.37814">
    <ele>406.15</ele>
   </trkpt>
   <trkpt lat="-37.887890000000006" lon="145.37830000000002">
    <ele>407.74000000000007</ele>
   </trkpt>
   <trkpt lat="-37.88812" lon="145.37844">
    <ele>409.11</ele>
   </trkpt>
   <trkpt lat="-37.88832" lon="145.3785">
    <ele>409.76</ele>
   </trkpt>
   <trkpt lat="-37.88861" lon="145.37863000000002">
    <ele>411.02000000000004</ele>
   </trkpt>
   <trkpt lat="-37.88917000045836" lon="145.3789299977599">
    <ele>417.37</ele>
   </trkpt>
   <trkpt lat="-37.88973" lon="145.37923">
    <ele>421.26</ele>
   </trkpt>
   <trkpt lat="-37.890150000000006" lon="145.3795">
    <ele>423.77000000000004</ele>
   </trkpt>
   <trkpt lat="-37.89045" lon="145.37973000000002">
    <ele>425.13</ele>
   </trkpt>
   <trkpt lat="-37.89085" lon="145.38015000000001">
    <ele>428.49</ele>
   </trkpt>
   <trkpt lat="-37.891290000000005" lon="145.38052000000002">
    <ele>427.47</ele>
   </trkpt>
   <trkpt lat="-37.89186" lon="145.38104">
    <ele>426.57000000000005</ele>
   </trkpt>
   <trkpt lat="-37.89206" lon="145.38125000000002">
    <ele>425.83000000000004</ele>
   </trkpt>
   <trkpt lat="-37.89233" lon="145.38163">
    <ele>426.12000000000006</ele>
   </trkpt>
   <trkpt lat="-37.89242" lon="145.38186000000002">
    <ele>425.81</ele>
   </trkpt>
   <trkpt lat="-37.89255" lon="145.38238">
    <ele>424.1</ele>
   </trkpt>
   <trkpt lat="-37.892520001865584" lon="145.38304500037967">
    <ele>422.61</ele>
   </trkpt>
   <trkpt lat="-37.89249" lon="145.38371">
    <ele>422.91</ele>
   </trkpt>
   <trkpt lat="-37.89251" lon="145.38418000000001">
    <ele>423.2</ele>
   </trkpt>
   <trkpt lat="-37.8926" lon="145.38464000000002">
    <ele>422.72</ele>
   </trkpt>
   <trkpt lat="-37.892830000000004" lon="145.38529">
    <ele>422.64</ele>
   </trkpt>
   <trkpt lat="-37.89309" lon="145.38577">
    <ele>422.36</ele>
   </trkpt>
   <trkpt lat="-37.89369000000001" lon="145.38629">
    <ele>423.04</ele>
   </trkpt>
   <trkpt lat="-37.89432" lon="145.38645000000002">
    <ele>421.84000000000003</ele>
   </trkpt>
   <trkpt lat="-37.89495" lon="145.38648">
    <ele>420.65000000000003</ele>
   </trkpt>
   <trkpt lat="-37.89535" lon="145.38631">
    <ele>418.08</ele>
   </trkpt>
   <trkpt lat="-37.89551" lon="145.38614">
    <ele>417.71000000000004</ele>
   </trkpt>
   <trkpt lat="-37.89593" lon="145.38579000000001">
    <ele>415.62000000000006</ele>
   </trkpt>
   <trkpt lat="-37.89609" lon="145.38563000000002">
    <ele>414.58000000000004</ele>
   </trkpt>
   <trkpt lat="-37.896530000000006" lon="145.38533">
    <ele>409.28000000000003</ele>
   </trkpt>
   <trkpt lat="-37.8969" lon="145.38498">
    <ele>404.32</ele>
   </trkpt>
   <trkpt lat="-37.89703" lon="145.38479">
    <ele>401.75000000000006</ele>
   </trkpt>
   <trkpt lat="-37.89719" lon="145.38446000000002">
    <ele>398.27</ele>
   </trkpt>
   <trkpt lat="-37.8973" lon="145.38409000000001">
    <ele>396.03000000000003</ele>
   </trkpt>
   <trkpt lat="-37.89742500207104" lon="145.3833950010252">
    <ele>393.58000000000004</ele>
   </trkpt>
   <trkpt lat="-37.89755" lon="145.3827">
    <ele>391.65000000000003</ele>
   </trkpt>
   <trkpt lat="-37.89759" lon="145.38217">
    <ele>390.89</ele>
   </trkpt>
   <trkpt lat="-37.89769000203622" lon="145.38148000078314">
    <ele>390.73</ele>
   </trkpt>
   <trkpt lat="-37.89779" lon="145.38079000000002">
    <ele>391.75000000000006</ele>
   </trkpt>
   <trkpt lat="-37.89784" lon="145.38036000000002">
    <ele>393.94</ele>
   </trkpt>
   <trkpt lat="-37.89788" lon="145.37979">
    <ele>395.63000000000005</ele>
   </trkpt>
   <trkpt lat="-37.897980000000004" lon="145.37919000000002">
    <ele>396.36</ele>
   </trkpt>
   <trkpt lat="-37.89822" lon="145.37928000000002">
    <ele>396.5</ele>
   </trkpt>
   <trkpt lat="-37.8984" lon="145.3794">
    <ele>396.0</ele>
   </trkpt>
   <trkpt lat="-37.899115000498796" lon="145.37975999647793">
    <ele>389.11</ele>
   </trkpt>
   <trkpt lat="-37.89983" lon="145.38012">
    <ele>380.36</ele>
   </trkpt>
   <trkpt lat="-37.90025" lon="145.38027000000002">
    <ele>378.22</ele>
   </trkpt>
   <trkpt lat="-37.90095" lon="145.38066">
    <ele>372.96</ele>
   </trkpt>
   <trkpt lat="-37.90166" lon="145.38102">
    <ele>369.1700000000001</ele>
   </trkpt>
   <trkpt lat="-37.9022" lon="145.38132000000002">
    <ele>368.12</ele>
   </trkpt>
   <trkpt lat="-37.90243" lon="145.38138">
    <ele>367.65000000000003</ele>
   </trkpt>
   <trkpt lat="-37.9026" lon="145.38141000000002">
    <ele>366.70000000000005</ele>
   </trkpt>
   <trkpt lat="-37.90278" lon="145.38134000000002">
    <ele>364.69</ele>
   </trkpt>
   <trkpt lat="-37.90285" lon="145.38128">
    <ele>363.2900000000001</ele>
   </trkpt>
   <trkpt lat="-37.90307" lon="145.38094">
    <ele>356.90000000000003</ele>
   </trkpt>
   <trkpt lat="-37.90325" lon="145.38043000000002">
    <ele>345.59</ele>
   </trkpt>
   <trkpt lat="-37.90339" lon="145.38022">
    <ele>342.86000000000007</ele>
   </trkpt>
   <trkpt lat="-37.90368" lon="145.37987">
    <ele>335.25000000000006</ele>
   </trkpt>
   <trkpt lat="-37.90404" lon="145.37937000000002">
    <ele>321.98</ele>
   </trkpt>
   <trkpt lat="-37.904320000859784" lon="145.3788850020797">
    <ele>312.17</ele>
   </trkpt>
   <trkpt lat="-37.9046" lon="145.3784">
    <ele>302.82000000000005</ele>
   </trkpt>
   <trkpt lat="-37.90475" lon="145.37804">
    <ele>293.32</ele>
   </trkpt>
   <trkpt lat="-37.904970000000006" lon="145.37744">
    <ele>281.36</ele>
   </trkpt>
   <trkpt lat="-37.90523000176999" lon="145.3768050020867">
    <ele>271.67</ele>
   </trkpt>
   <trkpt lat="-37.90549" lon="145.37617">
    <ele>268.58000000000004</ele>
   </trkpt>
   <trkpt lat="-37.905910000000006" lon="145.37546">
    <ele>264.99</ele>
   </trkpt>
   <trkpt lat="-37.90619000094203" lon="145.3750050016237">
    <ele>262.01</ele>
   </trkpt>
   <trkpt lat="-37.906470000000006" lon="145.37455">
    <ele>255.74</ele>
   </trkpt>
   <trkpt lat="-37.906470000000006" lon="145.37454000000002">
    <ele>255.66</ele>
   </trkpt>
   <trkpt lat="-37.9069" lon="145.37378">
    <ele>245.16000000000003</ele>
   </trkpt>
   <trkpt lat="-37.90699" lon="145.37323">
    <ele>238.73000000000002</ele>
   </trkpt>
   <trkpt lat="-37.90713" lon="145.37263000000002">
    <ele>229.17000000000002</ele>
   </trkpt>
   <trkpt lat="-37.90713" lon="145.37253">
    <ele>228.46</ele>
   </trkpt>
   <trkpt lat="-37.90701" lon="145.37227000000001">
    <ele>223.91000000000003</ele>
   </trkpt>
   <trkpt lat="-37.90672" lon="145.37188">
    <ele>219.67</ele>
   </trkpt>
   <trkpt lat="-37.90641" lon="145.37091">
    <ele>221.34</ele>
   </trkpt>
   <trkpt lat="-37.90628" lon="145.37043">
    <ele>224.59</ele>
   </trkpt>
   <trkpt lat="-37.9063" lon="145.37003">
    <ele>225.98000000000002</ele>
   </trkpt>
   <trkpt lat="-37.90634" lon="145.36982">
    <ele>226.03</ele>
   </trkpt>
   <trkpt lat="-37.9065" lon="145.36961000000002">
    <ele>225.98000000000002</ele>
   </trkpt>
   <trkpt lat="-37.9067" lon="145.36924000000002">
    <ele>226.61</ele>
   </trkpt>
   <trkpt lat="-37.90677" lon="145.36897000000002">
    <ele>226.81</ele>
   </trkpt>
   <trkpt lat="-37.90677" lon="145.36884">
    <ele>226.95000000000002</ele>
   </trkpt>
   <trkpt lat="-37.90668" lon="145.36825000000002">
    <ele>227.82000000000002</ele>
   </trkpt>
   <trkpt lat="-37.90675" lon="145.36773000000002">
    <ele>225.3</ele>
   </trkpt>
   <trkpt lat="-37.90663" lon="145.36713">
    <ele>223.93</ele>
   </trkpt>
   <trkpt lat="-37.90661" lon="145.36685">
    <ele>226.31</ele>
   </trkpt>
   <trkpt lat="-37.90657" lon="145.36668">
    <ele>228.15</ele>
   </trkpt>
   <trkpt lat="-37.90663" lon="145.36637000000002">
    <ele>238.73000000000002</ele>
   </trkpt>
   <trkpt lat="-37.90646" lon="145.36564">
    <ele>254.37000000000003</ele>
   </trkpt>
   <trkpt lat="-37.90623" lon="145.36459000000002">
    <ele>277.62</ele>
   </trkpt>
   <trkpt lat="-37.90614" lon="145.36395000000002">
    <ele>286.99</ele>
   </trkpt>
   <trkpt lat="-37.906060000000004" lon="145.36378000000002">
    <ele>290.56000000000006</ele>
   </trkpt>
   <trkpt lat="-37.905770000000004" lon="145.36347">
    <ele>292.48</ele>
   </trkpt>
   <trkpt lat="-37.90565" lon="145.3634">
    <ele>295.38000000000005</ele>
   </trkpt>
   <trkpt lat="-37.90545" lon="145.36334000000002">
    <ele>298.8</ele>
   </trkpt>
   <trkpt lat="-37.905350000000006" lon="145.36324000000002">
    <ele>298.8</ele>
   </trkpt>
   <trkpt lat="-37.90522" lon="145.36309">
    <ele>303.01</ele>
   </trkpt>
   <trkpt lat="-37.9046" lon="145.36269000000001">
    <ele>312.14000000000004</ele>
   </trkpt>
   <trkpt lat="-37.90442" lon="145.36266">
    <ele>313.94000000000005</ele>
   </trkpt>
   <trkpt lat="-37.90417" lon="145.36270000000002">
    <ele>315.44</ele>
   </trkpt>
   <trkpt lat="-37.90366" lon="145.36271000000002">
    <ele>319.68</ele>
   </trkpt>
   <trkpt lat="-37.90307" lon="145.36296000000002">
    <ele>324.02000000000004</ele>
   </trkpt>
   <trkpt lat="-37.90283" lon="145.36315000000002">
    <ele>326.67</ele>
   </trkpt>
   <trkpt lat="-37.90263" lon="145.36328">
    <ele>330.36</ele>
   </trkpt>
   <trkpt lat="-37.90216" lon="145.36339">
    <ele>336.83</ele>
   </trkpt>
   <trkpt lat="-37.90189" lon="145.36350000000002">
    <ele>339.34000000000003</ele>
   </trkpt>
   <trkpt lat="-37.901450000000004" lon="145.36382">
    <ele>344.2</ele>
   </trkpt>
   <trkpt lat="-37.90146" lon="145.36382">
    <ele>344.2</ele>
   </trkpt>
   <trkpt lat="-37.90124" lon="145.36343000000002">
    <ele>343.24000000000007</ele>
   </trkpt>
   <trkpt lat="-37.901050001985745" lon="145.36273999811638">
    <ele>338.22</ele>
   </trkpt>
   <trkpt lat="-37.90086" lon="145.36205">
    <ele>332.91</ele>
   </trkpt>
   <trkpt lat="-37.900830000000006" lon="145.36186">
    <ele>332.40000000000003</ele>
   </trkpt>
   <trkpt lat="-37.90077" lon="145.36145000000002">
    <ele>333.5</ele>
   </trkpt>
   <trkpt lat="-37.90059" lon="145.36069">
    <ele>338.46000000000004</ele>
   </trkpt>
   <trkpt lat="-37.90057" lon="145.36046000000002">
    <ele>338.27</ele>
   </trkpt>
   <trkpt lat="-37.9005" lon="145.36012000000002">
    <ele>335.16</ele>
   </trkpt>
   <trkpt lat="-37.9003" lon="145.35946">
    <ele>315.47</ele>
   </trkpt>
   <trkpt lat="-37.9001" lon="145.35860000000002">
    <ele>301.77000000000004</ele>
   </trkpt>
   <trkpt lat="-37.9001" lon="145.35835">
    <ele>297.98</ele>
   </trkpt>
   <trkpt lat="-37.900000000000006" lon="145.35778000000002">
    <ele>284.40000000000003</ele>
   </trkpt>
   <trkpt lat="-37.89992" lon="145.35763">
    <ele>275.47</ele>
   </trkpt>
   <trkpt lat="-37.89992" lon="145.35755">
    <ele>275.47</ele>
   </trkpt>
   <trkpt lat="-37.900000000000006" lon="145.35732000000002">
    <ele>269.2</ele>
   </trkpt>
   <trkpt lat="-37.900000000000006" lon="145.35713">
    <ele>265.0</ele>
   </trkpt>
   <trkpt lat="-37.89996" lon="145.35696000000002">
    <ele>255.18</ele>
   </trkpt>
   <trkpt lat="-37.89996" lon="145.35697000000002">
    <ele>255.18</ele>
   </trkpt>
   <trkpt lat="-37.89985" lon="145.35690000000002">
    <ele>254.85000000000002</ele>
   </trkpt>
   <trkpt lat="-37.89994" lon="145.35687000000001">
    <ele>259.47</ele>
   </trkpt>
   <trkpt lat="-37.90001" lon="145.35687000000001">
    <ele>261.08000000000004</ele>
   </trkpt>
   <trkpt lat="-37.9001" lon="145.35691">
    <ele>264.43</ele>
   </trkpt>
   <trkpt lat="-37.90014" lon="145.35665">
    <ele>264.70000000000005</ele>
   </trkpt>
   <trkpt lat="-37.89992" lon="145.35646">
    <ele>265.40000000000003</ele>
   </trkpt>
   <trkpt lat="-37.89972" lon="145.35618000000002">
    <ele>267.5</ele>
   </trkpt>
   <trkpt lat="-37.89959" lon="145.3562">
    <ele>268.57000000000005</ele>
   </trkpt>
   <trkpt lat="-37.89945" lon="145.35613">
    <ele>269.42</ele>
   </trkpt>
   <trkpt lat="-37.89934" lon="145.35599000000002">
    <ele>270.12</ele>
   </trkpt>
   <trkpt lat="-37.89927" lon="145.35586">
    <ele>270.74</ele>
   </trkpt>
   <trkpt lat="-37.89918" lon="145.35578">
    <ele>270.74</ele>
   </trkpt>
   <trkpt lat="-37.89873" lon="145.35563000000002">
    <ele>274.5</ele>
   </trkpt>
   <trkpt lat="-37.8984" lon="145.35568">
    <ele>276.83000000000004</ele>
   </trkpt>
   <trkpt lat="-37.89819" lon="145.35568">
    <ele>277.64</ele>
   </trkpt>
   <trkpt lat="-37.89804" lon="145.35571000000002">
    <ele>280.42</ele>
   </trkpt>
   <trkpt lat="-37.89755" lon="145.35618000000002">
    <ele>287.66</ele>
   </trkpt>
   <trkpt lat="-37.89728" lon="145.35647">
    <ele>292.59000000000003</ele>
   </trkpt>
   <trkpt lat="-37.89719" lon="145.35669000000001">
    <ele>294.40000000000003</ele>
   </trkpt>
   <trkpt lat="-37.8971" lon="145.35679000000002">
    <ele>296.73</ele>
   </trkpt>
   <trkpt lat="-37.89701" lon="145.35696000000002">
    <ele>298.55</ele>
   </trkpt>
   <trkpt lat="-37.89663" lon="145.35723000000002">
    <ele>302.11</ele>
   </trkpt>
   <trkpt lat="-37.89618" lon="145.35743000000002">
    <ele>306.85</ele>
   </trkpt>
   <trkpt lat="-37.89598" lon="145.35739">
    <ele>307.9</ele>
   </trkpt>
   <trkpt lat="-37.89558" lon="145.35742000000002">
    <ele>311.9</ele>
   </trkpt>
   <trkpt lat="-37.89531" lon="145.35732000000002">
    <ele>314.65000000000003</ele>
   </trkpt>
   <trkpt lat="-37.89488" lon="145.35739">
    <ele>320.23</ele>
   </trkpt>
   <trkpt lat="-37.89457" lon="145.35722">
    <ele>324.97</ele>
   </trkpt>
   <trkpt lat="-37.89408" lon="145.35721">
    <ele>335.83</ele>
   </trkpt>
   <trkpt lat="-37.89372" lon="145.35718">
    <ele>342.13000000000005</ele>
   </trkpt>
   <trkpt lat="-37.89329" lon="145.35727">
    <ele>347.24000000000007</ele>
   </trkpt>
   <trkpt lat="-37.89316" lon="145.35723000000002">
    <ele>348.86</ele>
   </trkpt>
   <trkpt lat="-37.89298" lon="145.35709">
    <ele>350.39000000000004</ele>
   </trkpt>
   <trkpt lat="-37.89287" lon="145.35705000000002">
    <ele>351.87</ele>
   </trkpt>
   <trkpt lat="-37.89273" lon="145.35704">
    <ele>355.03000000000003</ele>
   </trkpt>
   <trkpt lat="-37.89258" lon="145.35709">
    <ele>355.03000000000003</ele>
   </trkpt>
   <trkpt lat="-37.89246" lon="145.35709">
    <ele>357.45000000000005</ele>
   </trkpt>
   <trkpt lat="-37.89195" lon="145.35690000000002">
    <ele>366.42</ele>
   </trkpt>
   <trkpt lat="-37.89186" lon="145.35682">
    <ele>369.3</ele>
   </trkpt>
   <trkpt lat="-37.891740000000006" lon="145.35659">
    <ele>372.51</ele>
   </trkpt>
   <trkpt lat="-37.89103" lon="145.35597">
    <ele>386.35</ele>
   </trkpt>
   <trkpt lat="-37.89058" lon="145.35553000000002">
    <ele>393.16</ele>
   </trkpt>
   <trkpt lat="-37.89034" lon="145.35532">
    <ele>395.33</ele>
   </trkpt>
   <trkpt lat="-37.88991" lon="145.35511000000002">
    <ele>400.9800000000001</ele>
   </trkpt>
   <trkpt lat="-37.88971" lon="145.35509000000002">
    <ele>404.13000000000005</ele>
   </trkpt>
   <trkpt lat="-37.88922" lon="145.35487">
    <ele>413.39000000000004</ele>
   </trkpt>
   <trkpt lat="-37.88915" lon="145.35486">
    <ele>413.53</ele>
   </trkpt>
   <trkpt lat="-37.88893" lon="145.35489">
    <ele>414.37</ele>
   </trkpt>
   <trkpt lat="-37.88868" lon="145.35495">
    <ele>415.89000000000004</ele>
   </trkpt>
   <trkpt lat="-37.88861" lon="145.35492000000002">
    <ele>416.88</ele>
   </trkpt>
   <trkpt lat="-37.8885" lon="145.35511000000002">
    <ele>419.12000000000006</ele>
   </trkpt>
   <trkpt lat="-37.88842" lon="145.35510000000002">
    <ele>421.00000000000006</ele>
   </trkpt>
   <trkpt lat="-37.88828" lon="145.35498">
    <ele>434.48</ele>
   </trkpt>
   <trkpt lat="-37.88801" lon="145.35417">
    <ele>442.54</ele>
   </trkpt>
   <trkpt lat="-37.88794" lon="145.35376000000002">
    <ele>445.81</ele>
   </trkpt>
   <trkpt lat="-37.88783" lon="145.35355">
    <ele>447.12</ele>
   </trkpt>
   <trkpt lat="-37.88767" lon="145.35317">
    <ele>449.76000000000005</ele>
   </trkpt>
   <trkpt lat="-37.88758" lon="145.35283">
    <ele>451.82000000000005</ele>
   </trkpt>
   <trkpt lat="-37.88745" lon="145.35251000000002">
    <ele>456.81000000000006</ele>
   </trkpt>
   <trkpt lat="-37.88727" lon="145.35218">
    <ele>459.46000000000004</ele>
   </trkpt>
   <trkpt lat="-37.88729" lon="145.35195000000002">
    <ele>457.34000000000003</ele>
   </trkpt>
   <trkpt lat="-37.88734" lon="145.35183">
    <ele>457.87000000000006</ele>
   </trkpt>
   <trkpt lat="-37.887330000000006" lon="145.35177000000002">
    <ele>457.87000000000006</ele>
   </trkpt>
   <trkpt lat="-37.88734" lon="145.35183">
    <ele>457.87000000000006</ele>
   </trkpt>
   <trkpt lat="-37.88729" lon="145.35195000000002">
    <ele>457.34000000000003</ele>
   </trkpt>
   <trkpt lat="-37.88727" lon="145.35218">
    <ele>459.46000000000004</ele>
   </trkpt>
   <trkpt lat="-37.88725" lon="145.35215000000002">
    <ele>459.46000000000004</ele>
   </trkpt>
   <trkpt lat="-37.88696" lon="145.35204000000002">
    <ele>465.47</ele>
   </trkpt>
   <trkpt lat="-37.88678" lon="145.35203">
    <ele>467.24</ele>
   </trkpt>
   <trkpt lat="-37.88662" lon="145.352">
    <ele>468.25000000000006</ele>
   </trkpt>
   <trkpt lat="-37.88626" lon="145.35184">
    <ele>470.21</ele>
   </trkpt>
   <trkpt lat="-37.88615" lon="145.35176">
    <ele>470.40000000000003</ele>
   </trkpt>
   <trkpt lat="-37.886070000000004" lon="145.35163">
    <ele>471.39000000000004</ele>
   </trkpt>
   <trkpt lat="-37.88552" lon="145.35153000000003">
    <ele>474.35</ele>
   </trkpt>
   <trkpt lat="-37.8853" lon="145.3514">
    <ele>474.91</ele>
   </trkpt>
   <trkpt lat="-37.884730000000005" lon="145.35098000000002">
    <ele>473.12</ele>
   </trkpt>
   <trkpt lat="-37.88456" lon="145.35107000000002">
    <ele>471.89000000000004</ele>
   </trkpt>
   <trkpt lat="-37.88443" lon="145.35108000000002">
    <ele>471.25000000000006</ele>
   </trkpt>
   <trkpt lat="-37.88418" lon="145.35115000000002">
    <ele>470.37000000000006</ele>
   </trkpt>
   <trkpt lat="-37.88385" lon="145.3513">
    <ele>469.38</ele>
   </trkpt>
   <trkpt lat="-37.88369" lon="145.35151000000002">
    <ele>470.96000000000004</ele>
   </trkpt>
   <trkpt lat="-37.88353" lon="145.35180000000003">
    <ele>472.16</ele>
   </trkpt>
   <trkpt lat="-37.88342" lon="145.35195000000002">
    <ele>472.32</ele>
   </trkpt>
   <trkpt lat="-37.88311" lon="145.35219">
    <ele>472.74000000000007</ele>
   </trkpt>
   <trkpt lat="-37.883" lon="145.35234">
    <ele>473.18</ele>
   </trkpt>
   <trkpt lat="-37.88266" lon="145.3531">
    <ele>476.17</ele>
   </trkpt>
   <trkpt lat="-37.88266" lon="145.35319">
    <ele>476.17</ele>
   </trkpt>
   <trkpt lat="-37.88282" lon="145.35356000000002">
    <ele>479.18000000000006</ele>
   </trkpt>
   <trkpt lat="-37.88291" lon="145.35394000000002">
    <ele>480.6</ele>
   </trkpt>
   <trkpt lat="-37.88293" lon="145.35439000000002">
    <ele>481.69000000000005</ele>
   </trkpt>
   <trkpt lat="-37.88315" lon="145.35522">
    <ele>485.89000000000004</ele>
   </trkpt>
   <trkpt lat="-37.88318" lon="145.3554">
    <ele>487.00000000000006</ele>
   </trkpt>
   <trkpt lat="-37.883120000000005" lon="145.35553000000002">
    <ele>487.75</ele>
   </trkpt>
   <trkpt lat="-37.88313" lon="145.35552">
    <ele>487.7</ele>
   </trkpt>
   <trkpt lat="-37.883120000000005" lon="145.35553000000002">
    <ele>487.75</ele>
   </trkpt>
   <trkpt lat="-37.883120000000005" lon="145.35552">
    <ele>487.7</ele>
   </trkpt>
   <trkpt lat="-37.88318" lon="145.3554">
    <ele>487.00000000000006</ele>
   </trkpt>
   <trkpt lat="-37.88351" lon="145.3553">
    <ele>487.72</ele>
   </trkpt>
   <trkpt lat="-37.8838" lon="145.35575">
    <ele>488.58</ele>
   </trkpt>
   <trkpt lat="-37.88387" lon="145.35593">
    <ele>489.42</ele>
   </trkpt>
   <trkpt lat="-37.88391" lon="145.35613">
    <ele>490.71000000000004</ele>
   </trkpt>
   <trkpt lat="-37.88391" lon="145.35645000000002">
    <ele>493.04</ele>
   </trkpt>
   <trkpt lat="-37.88389" lon="145.35675">
    <ele>494.7300000000001</ele>
   </trkpt>
   <trkpt lat="-37.883790000000005" lon="145.35717000000002">
    <ele>496.1</ele>
   </trkpt>
   <trkpt lat="-37.8838" lon="145.35755">
    <ele>497.32000000000005</ele>
   </trkpt>
   <trkpt lat="-37.88382" lon="145.35777000000002">
    <ele>497.85</ele>
   </trkpt>
   <trkpt lat="-37.884" lon="145.35808">
    <ele>500.6</ele>
   </trkpt>
   <trkpt lat="-37.88405" lon="145.35840000000002">
    <ele>501.09999999999997</ele>
   </trkpt>
   <trkpt lat="-37.88405" lon="145.35839">
    <ele>501.09999999999997</ele>
   </trkpt>
   <trkpt lat="-37.88407" lon="145.35852">
    <ele>501.07</ele>
   </trkpt>
   <trkpt lat="-37.88441" lon="145.35840000000002">
    <ele>502.41</ele>
   </trkpt>
   <trkpt lat="-37.88456" lon="145.35838">
    <ele>503.0300000000001</ele>
   </trkpt>
   <trkpt lat="-37.88476" lon="145.35842000000002">
    <ele>503.74000000000007</ele>
   </trkpt>
   <trkpt lat="-37.88532" lon="145.35860000000002">
    <ele>506.29</ele>
   </trkpt>
   <trkpt lat="-37.885450000000006" lon="145.35868000000002">
    <ele>506.90000000000003</ele>
   </trkpt>
   <trkpt lat="-37.8858" lon="145.35913000000002">
    <ele>510.49</ele>
   </trkpt>
   <trkpt lat="-37.88591" lon="145.35922000000002">
    <ele>510.73</ele>
   </trkpt>
   <trkpt lat="-37.88595" lon="145.35933">
    <ele>510.92</ele>
   </trkpt>
   <trkpt lat="-37.88598" lon="145.35957000000002">
    <ele>510.99000000000007</ele>
   </trkpt>
   <trkpt lat="-37.88573" lon="145.36033">
    <ele>509.21000000000004</ele>
   </trkpt>
   <trkpt lat="-37.88568" lon="145.36059">
    <ele>507.45000000000005</ele>
   </trkpt>
   <trkpt lat="-37.88564" lon="145.36079">
    <ele>507.45000000000005</ele>
   </trkpt>
   <trkpt lat="-37.88537" lon="145.36136000000002">
    <ele>501.39</ele>
   </trkpt>
   <trkpt lat="-37.88514" lon="145.36202">
    <ele>498.64000000000004</ele>
   </trkpt>
   <trkpt lat="-37.88503" lon="145.36224">
    <ele>497.2900000000001</ele>
   </trkpt>
   <trkpt lat="-37.88499" lon="145.36228">
    <ele>497.2900000000001</ele>
   </trkpt>
   <trkpt lat="-37.88515" lon="145.36251000000001">
    <ele>495.33000000000004</ele>
   </trkpt>
   <trkpt lat="-37.88526" lon="145.36229">
    <ele>496.81</ele>
   </trkpt>
   <trkpt lat="-37.8853" lon="145.36199000000002">
    <ele>498.74</ele>
   </trkpt>
   <trkpt lat="-37.88526" lon="145.36229">
    <ele>496.81</ele>
   </trkpt>
   <trkpt lat="-37.88514" lon="145.36251000000001">
    <ele>495.28000000000003</ele>
   </trkpt>
   <trkpt lat="-37.8849" lon="145.36279000000002">
    <ele>490.22</ele>
   </trkpt>
   <trkpt lat="-37.88479" lon="145.36302">
    <ele>487.61</ele>
   </trkpt>
   <trkpt lat="-37.88474" lon="145.36315000000002">
    <ele>482.80000000000007</ele>
   </trkpt>
   <trkpt lat="-37.88472" lon="145.36334000000002">
    <ele>481.07000000000005</ele>
   </trkpt>
   <trkpt lat="-37.8847" lon="145.36339">
    <ele>480.33000000000004</ele>
   </trkpt>
   <trkpt lat="-37.88456" lon="145.3634">
    <ele>478.06</ele>
   </trkpt>
   <trkpt lat="-37.88449" lon="145.36339">
    <ele>477.43</ele>
   </trkpt>
   <trkpt lat="-37.88443" lon="145.36341000000002">
    <ele>475.75000000000006</ele>
   </trkpt>
   <trkpt lat="-37.884420000000006" lon="145.36347">
    <ele>474.72</ele>
   </trkpt>
   <trkpt lat="-37.88445" lon="145.36369000000002">
    <ele>471.46000000000004</ele>
   </trkpt>
   <trkpt lat="-37.88463" lon="145.36419">
    <ele>461.86</ele>
   </trkpt>
   <trkpt lat="-37.88476" lon="145.36443">
    <ele>458.07000000000005</ele>
   </trkpt>
   <trkpt lat="-37.88479" lon="145.36451000000002">
    <ele>456.20000000000005</ele>
   </trkpt>
   <trkpt lat="-37.88476" lon="145.36459000000002">
    <ele>455.19000000000005</ele>
   </trkpt>
   <trkpt lat="-37.88483" lon="145.36484000000002">
    <ele>450.37000000000006</ele>
   </trkpt>
   <trkpt lat="-37.88494" lon="145.36503000000002">
    <ele>448.8</ele>
   </trkpt>
   <trkpt lat="-37.88499" lon="145.36505000000002">
    <ele>448.65000000000003</ele>
   </trkpt>
   <trkpt lat="-37.88517" lon="145.36524">
    <ele>446.48</ele>
   </trkpt>
   <trkpt lat="-37.88519" lon="145.36531000000002">
    <ele>445.61000000000007</ele>
   </trkpt>
   <trkpt lat="-37.885360000000006" lon="145.36547000000002">
    <ele>440.79</ele>
   </trkpt>
   <trkpt lat="-37.88539" lon="145.36557000000002">
    <ele>439.86</ele>
   </trkpt>
   <trkpt lat="-37.88546" lon="145.36561">
    <ele>437.18</ele>
   </trkpt>
   <trkpt lat="-37.88548" lon="145.36567000000002">
    <ele>437.18</ele>
   </trkpt>
   <trkpt lat="-37.88548" lon="145.36577">
    <ele>435.1700000000001</ele>
   </trkpt>
   <trkpt lat="-37.88546" lon="145.36592000000002">
    <ele>431.69</ele>
   </trkpt>
   <trkpt lat="-37.885270000000006" lon="145.36607">
    <ele>427.76000000000005</ele>
   </trkpt>
   <trkpt lat="-37.884980000000006" lon="145.36612000000002">
    <ele>422.33000000000004</ele>
   </trkpt>
   <trkpt lat="-37.88474" lon="145.36611000000002">
    <ele>418.28000000000003</ele>
   </trkpt>
   <trkpt lat="-37.88463" lon="145.36617">
    <ele>416.22</ele>
   </trkpt>
   <trkpt lat="-37.88458" lon="145.36623">
    <ele>416.22</ele>
   </trkpt>
   <trkpt lat="-37.88461" lon="145.36635">
    <ele>411.46000000000004</ele>
   </trkpt>
   <trkpt lat="-37.88465" lon="145.36642">
    <ele>410.31</ele>
   </trkpt>
   <trkpt lat="-37.88465" lon="145.36651">
    <ele>405.86000000000007</ele>
   </trkpt>
   <trkpt lat="-37.8847" lon="145.36657000000002">
    <ele>405.86000000000007</ele>
   </trkpt>
   <trkpt lat="-37.8847" lon="145.36672000000002">
    <ele>403.51000000000005</ele>
   </trkpt>
   <trkpt lat="-37.88481" lon="145.36711000000003">
    <ele>394.11</ele>
   </trkpt>
   <trkpt lat="-37.8849" lon="145.36727000000002">
    <ele>390.99000000000007</ele>
   </trkpt>
   <trkpt lat="-37.88505" lon="145.36745000000002">
    <ele>387.15000000000003</ele>
   </trkpt>
   <trkpt lat="-37.88557" lon="145.36795">
    <ele>374.98</ele>
   </trkpt>
   <trkpt lat="-37.885830000000006" lon="145.36818000000002">
    <ele>363.82000000000005</ele>
   </trkpt>
   <trkpt lat="-37.88602" lon="145.36834000000002">
    <ele>360.7</ele>
   </trkpt>
   <trkpt lat="-37.886100000000006" lon="145.36837">
    <ele>358.73</ele>
   </trkpt>
   <trkpt lat="-37.88617" lon="145.3685">
    <ele>359.21000000000004</ele>
   </trkpt>
   <trkpt lat="-37.88642" lon="145.36872000000002">
    <ele>362.72</ele>
   </trkpt>
   <trkpt lat="-37.88667" lon="145.36906000000002">
    <ele>365.66</ele>
   </trkpt>
   <trkpt lat="-37.88736" lon="145.36978000000002">
    <ele>350.21000000000004</ele>
   </trkpt>
   <trkpt lat="-37.88743" lon="145.36973">
    <ele>350.21000000000004</ele>
   </trkpt>
   <trkpt lat="-37.88749" lon="145.36999">
    <ele>355.58</ele>
   </trkpt>
   <trkpt lat="-37.887370000000004" lon="145.37009">
    <ele>358.53000000000003</ele>
   </trkpt>
  </trkseg>
 </trk>
</gpx>
