<?xml version="1.0" encoding="UTF-8"?>
<gpx creator="StravaGPX" version="1.1" xmlns="http://www.topografix.com/GPX/1/1" xmlns:xsi="http://www.w3.org/2001/XMLSchema-instance" xsi:schemaLocation="http://www.topografix.com/GPX/1/1 http://www.topografix.com/GPX/1/1/gpx.xsd">
 <metadata>
  <name>Megasaw  😮 🤩</name>
  <author>
   <name>Natalie Gow</name>
  </author>
  <copyright author="OpenStreetMap contributors">
   <year>2020</year>
   <license>https://www.openstreetmap.org/copyright</license>
  </copyright>
 </metadata>
 <trk>
  <name>Megasaw  😮 🤩</name>
  <link href=""/>
  <type>trail_running</type>
  <trkseg>
   <trkpt lat="-37.852590000000006" lon="145.33086">
    <ele>216.37</ele>
   </trkpt>
   <trkpt lat="-37.85244" lon="145.33113">
    <ele>218.60000000000002</ele>
   </trkpt>
   <trkpt lat="-37.85215" lon="145.33154000000002">
    <ele>220.64000000000001</ele>
   </trkpt>
   <trkpt lat="-37.85188" lon="145.33175">
    <ele>221.99</ele>
   </trkpt>
   <trkpt lat="-37.85141" lon="145.33196">
    <ele>225.88000000000002</ele>
   </trkpt>
   <trkpt lat="-37.8513" lon="145.33203">
    <ele>226.48000000000002</ele>
   </trkpt>
   <trkpt lat="-37.850930000000005" lon="145.33236000000002">
    <ele>231.11</ele>
   </trkpt>
   <trkpt lat="-37.850860000000004" lon="145.33241">
    <ele>232.58</ele>
   </trkpt>
   <trkpt lat="-37.85085" lon="145.33266">
    <ele>242.09000000000003</ele>
   </trkpt>
   <trkpt lat="-37.85076" lon="145.33294">
    <ele>249.76</ele>
   </trkpt>
   <trkpt lat="-37.8508" lon="145.33325000000002">
    <ele>253.91000000000003</ele>
   </trkpt>
   <trkpt lat="-37.85078" lon="145.33346">
    <ele>256.06</ele>
   </trkpt>
   <trkpt lat="-37.85064500158185" lon="145.33407000107826">
    <ele>271.32</ele>
   </trkpt>
   <trkpt lat="-37.85051" lon="145.33468000000002">
    <ele>285.17</ele>
   </trkpt>
   <trkpt lat="-37.85051" lon="145.33530000000002">
    <ele>295.42</ele>
   </trkpt>
   <trkpt lat="-37.85063" lon="145.33599">
    <ele>308.35</ele>
   </trkpt>
   <trkpt lat="-37.85074" lon="145.33634">
    <ele>312.71000000000004</ele>
   </trkpt>
   <trkpt lat="-37.85103" lon="145.33685">
    <ele>317.37000000000006</ele>
   </trkpt>
   <trkpt lat="-37.851110000000006" lon="145.33723">
    <ele>322.55</ele>
   </trkpt>
   <trkpt lat="-37.85105" lon="145.33794">
    <ele>334.54</ele>
   </trkpt>
   <trkpt lat="-37.85112" lon="145.33867">
    <ele>344.65</ele>
   </trkpt>
   <trkpt lat="-37.85112" lon="145.33899000000002">
    <ele>347.85</ele>
   </trkpt>
   <trkpt lat="-37.85121" lon="145.33961000000002">
    <ele>354.93</ele>
   </trkpt>
   <trkpt lat="-37.8513" lon="145.34011">
    <ele>362.04</ele>
   </trkpt>
   <trkpt lat="-37.85132" lon="145.34087000000002">
    <ele>370.94000000000005</ele>
   </trkpt>
   <trkpt lat="-37.85143" lon="145.34191">
    <ele>381.3</ele>
   </trkpt>
   <trkpt lat="-37.85143" lon="145.34219000000002">
    <ele>383.82000000000005</ele>
   </trkpt>
   <trkpt lat="-37.8515" lon="145.34263">
    <ele>387.8</ele>
   </trkpt>
   <trkpt lat="-37.85155" lon="145.34304">
    <ele>397.36</ele>
   </trkpt>
   <trkpt lat="-37.85154" lon="145.34303">
    <ele>397.36</ele>
   </trkpt>
   <trkpt lat="-37.8519" lon="145.34376">
    <ele>413.97</ele>
   </trkpt>
   <trkpt lat="-37.8519" lon="145.34390000000002">
    <ele>413.28000000000003</ele>
   </trkpt>
   <trkpt lat="-37.85197" lon="145.34400000000002">
    <ele>415.40000000000003</ele>
   </trkpt>
   <trkpt lat="-37.85199" lon="145.34417000000002">
    <ele>420.02000000000004</ele>
   </trkpt>
   <trkpt lat="-37.85197" lon="145.34435000000002">
    <ele>424.37</ele>
   </trkpt>
   <trkpt lat="-37.85201" lon="145.34452000000002">
    <ele>428.48</ele>
   </trkpt>
   <trkpt lat="-37.85215" lon="145.34484">
    <ele>433.20000000000005</ele>
   </trkpt>
   <trkpt lat="-37.85222" lon="145.34492">
    <ele>434.72</ele>
   </trkpt>
   <trkpt lat="-37.85237" lon="145.34506000000002">
    <ele>437.07</ele>
   </trkpt>
   <trkpt lat="-37.85251" lon="145.34527">
    <ele>438.69</ele>
   </trkpt>
   <trkpt lat="-37.85282" lon="145.34555">
    <ele>439.87</ele>
   </trkpt>
   <trkpt lat="-37.85293" lon="145.34572">
    <ele>439.38000000000005</ele>
   </trkpt>
   <trkpt lat="-37.85295" lon="145.3459">
    <ele>438.66</ele>
   </trkpt>
   <trkpt lat="-37.85302" lon="145.34598000000003">
    <ele>437.88000000000005</ele>
   </trkpt>
   <trkpt lat="-37.853170000000006" lon="145.34639">
    <ele>435.71000000000004</ele>
   </trkpt>
   <trkpt lat="-37.85324" lon="145.34681">
    <ele>434.6</ele>
   </trkpt>
   <trkpt lat="-37.85347" lon="145.34726">
    <ele>433.52</ele>
   </trkpt>
   <trkpt lat="-37.85351" lon="145.34748000000002">
    <ele>433.54</ele>
   </trkpt>
   <trkpt lat="-37.85347" lon="145.34764">
    <ele>433.65000000000003</ele>
   </trkpt>
   <trkpt lat="-37.85349" lon="145.34832">
    <ele>439.70000000000005</ele>
   </trkpt>
   <trkpt lat="-37.85347" lon="145.34849">
    <ele>440.1</ele>
   </trkpt>
   <trkpt lat="-37.85349" lon="145.34869">
    <ele>446.13</ele>
   </trkpt>
   <trkpt lat="-37.85369" lon="145.34913">
    <ele>450.27000000000004</ele>
   </trkpt>
   <trkpt lat="-37.85378" lon="145.34931">
    <ele>451.83</ele>
   </trkpt>
   <trkpt lat="-37.85419" lon="145.34983000000003">
    <ele>459.73</ele>
   </trkpt>
   <trkpt lat="-37.85468" lon="145.35037">
    <ele>473.68000000000006</ele>
   </trkpt>
   <trkpt lat="-37.85507500138615" lon="145.35092499714384">
    <ele>482.84000000000003</ele>
   </trkpt>
   <trkpt lat="-37.855470000000004" lon="145.35148">
    <ele>493.24000000000007</ele>
   </trkpt>
   <trkpt lat="-37.85580500087528" lon="145.35193999788288">
    <ele>497.90000000000003</ele>
   </trkpt>
   <trkpt lat="-37.85614" lon="145.35240000000002">
    <ele>507.69000000000005</ele>
   </trkpt>
   <trkpt lat="-37.85622" lon="145.35247">
    <ele>508.61</ele>
   </trkpt>
   <trkpt lat="-37.85636" lon="145.35252">
    <ele>509.4000000000001</ele>
   </trkpt>
   <trkpt lat="-37.85683" lon="145.35260000000002">
    <ele>507.4000000000001</ele>
   </trkpt>
   <trkpt lat="-37.85701" lon="145.35266000000001">
    <ele>506.55000000000007</ele>
   </trkpt>
   <trkpt lat="-37.85712" lon="145.35268000000002">
    <ele>503.83</ele>
   </trkpt>
   <trkpt lat="-37.85763499999471" lon="145.35270499982497">
    <ele>498.88000000000005</ele>
   </trkpt>
   <trkpt lat="-37.85815" lon="145.35273">
    <ele>493.97</ele>
   </trkpt>
   <trkpt lat="-37.85851" lon="145.35268000000002">
    <ele>486.62000000000006</ele>
   </trkpt>
   <trkpt lat="-37.8592" lon="145.35248">
    <ele>478.63000000000005</ele>
   </trkpt>
   <trkpt lat="-37.85945" lon="145.35244">
    <ele>475.13000000000005</ele>
   </trkpt>
   <trkpt lat="-37.85938" lon="145.35266000000001">
    <ele>478.46000000000004</ele>
   </trkpt>
   <trkpt lat="-37.85929" lon="145.35279">
    <ele>487.28000000000003</ele>
   </trkpt>
   <trkpt lat="-37.85927" lon="145.35287000000002">
    <ele>490.58</ele>
   </trkpt>
   <trkpt lat="-37.85931" lon="145.35311000000002">
    <ele>496.20000000000005</ele>
   </trkpt>
   <trkpt lat="-37.85938" lon="145.35323000000002">
    <ele>499.41</ele>
   </trkpt>
   <trkpt lat="-37.85956" lon="145.35346">
    <ele>504.32</ele>
   </trkpt>
   <trkpt lat="-37.85981" lon="145.35401000000002">
    <ele>512.6500000000001</ele>
   </trkpt>
   <trkpt lat="-37.85969" lon="145.35411000000002">
    <ele>514.61</ele>
   </trkpt>
   <trkpt lat="-37.85942" lon="145.35421000000002">
    <ele>521.11</ele>
   </trkpt>
   <trkpt lat="-37.85915" lon="145.35439000000002">
    <ele>531.34</ele>
   </trkpt>
   <trkpt lat="-37.85889" lon="145.35466000000002">
    <ele>539.46</ele>
   </trkpt>
   <trkpt lat="-37.85877" lon="145.35487">
    <ele>545.7800000000001</ele>
   </trkpt>
   <trkpt lat="-37.85866" lon="145.35498">
    <ele>550.34</ele>
   </trkpt>
   <trkpt lat="-37.85846" lon="145.35508000000002">
    <ele>557.3299999999999</ele>
   </trkpt>
   <trkpt lat="-37.85826" lon="145.35524">
    <ele>560.6300000000001</ele>
   </trkpt>
   <trkpt lat="-37.85792" lon="145.35547000000003">
    <ele>569.52</ele>
   </trkpt>
   <trkpt lat="-37.85774" lon="145.3557">
    <ele>574.08</ele>
   </trkpt>
   <trkpt lat="-37.85765" lon="145.35573000000002">
    <ele>574.79</ele>
   </trkpt>
   <trkpt lat="-37.85756000000001" lon="145.35572000000002">
    <ele>575.1700000000001</ele>
   </trkpt>
   <trkpt lat="-37.85745" lon="145.35567">
    <ele>574.96</ele>
   </trkpt>
   <trkpt lat="-37.857330000000005" lon="145.35569">
    <ele>574.4100000000001</ele>
   </trkpt>
   <trkpt lat="-37.85718" lon="145.35543">
    <ele>571.09</ele>
   </trkpt>
   <trkpt lat="-37.85683" lon="145.35502000000002">
    <ele>559.79</ele>
   </trkpt>
   <trkpt lat="-37.85681" lon="145.35496">
    <ele>559.79</ele>
   </trkpt>
   <trkpt lat="-37.8568" lon="145.35479">
    <ele>557.2600000000001</ele>
   </trkpt>
   <trkpt lat="-37.85685" lon="145.35449">
    <ele>551.61</ele>
   </trkpt>
   <trkpt lat="-37.85703" lon="145.35401000000002">
    <ele>542.86</ele>
   </trkpt>
   <trkpt lat="-37.85703" lon="145.35389">
    <ele>540.46</ele>
   </trkpt>
   <trkpt lat="-37.85674" lon="145.35330000000002">
    <ele>527.52</ele>
   </trkpt>
   <trkpt lat="-37.856440000884106" lon="145.35284999821042">
    <ele>515.58</ele>
   </trkpt>
   <trkpt lat="-37.85614" lon="145.35240000000002">
    <ele>507.14000000000004</ele>
   </trkpt>
   <trkpt lat="-37.85580500091417" lon="145.35193999793628">
    <ele>497.90000000000003</ele>
   </trkpt>
   <trkpt lat="-37.855470000000004" lon="145.35148">
    <ele>493.24000000000007</ele>
   </trkpt>
   <trkpt lat="-37.85507500121872" lon="145.3509249969086">
    <ele>482.84000000000003</ele>
   </trkpt>
   <trkpt lat="-37.85468" lon="145.35037">
    <ele>473.68000000000006</ele>
   </trkpt>
   <trkpt lat="-37.85419" lon="145.34983000000003">
    <ele>459.73</ele>
   </trkpt>
   <trkpt lat="-37.85378" lon="145.34931">
    <ele>451.83</ele>
   </trkpt>
   <trkpt lat="-37.85349" lon="145.34869">
    <ele>446.13</ele>
   </trkpt>
   <trkpt lat="-37.85347" lon="145.34849">
    <ele>440.1</ele>
   </trkpt>
   <trkpt lat="-37.85349" lon="145.34832">
    <ele>439.70000000000005</ele>
   </trkpt>
   <trkpt lat="-37.85329" lon="145.34838000000002">
    <ele>436.88000000000005</ele>
   </trkpt>
   <trkpt lat="-37.85298" lon="145.34869">
    <ele>430.48</ele>
   </trkpt>
   <trkpt lat="-37.85284" lon="145.34871">
    <ele>428.09000000000003</ele>
   </trkpt>
   <trkpt lat="-37.85262" lon="145.34889">
    <ele>419.06000000000006</ele>
   </trkpt>
   <trkpt lat="-37.85246" lon="145.34893000000002">
    <ele>412.24000000000007</ele>
   </trkpt>
   <trkpt lat="-37.85195" lon="145.34931">
    <ele>393.99</ele>
   </trkpt>
   <trkpt lat="-37.85116" lon="145.34979">
    <ele>361.81</ele>
   </trkpt>
   <trkpt lat="-37.85105" lon="145.34977">
    <ele>354.09000000000003</ele>
   </trkpt>
   <trkpt lat="-37.851000000000006" lon="145.34969">
    <ele>354.09000000000003</ele>
   </trkpt>
   <trkpt lat="-37.85099" lon="145.34968">
    <ele>354.09000000000003</ele>
   </trkpt>
   <trkpt lat="-37.8508" lon="145.34936000000002">
    <ele>343.72</ele>
   </trkpt>
   <trkpt lat="-37.8506" lon="145.34881000000001">
    <ele>338.03000000000003</ele>
   </trkpt>
   <trkpt lat="-37.85033500134351" lon="145.34822999774286">
    <ele>330.67</ele>
   </trkpt>
   <trkpt lat="-37.85007" lon="145.34765000000002">
    <ele>322.43000000000006</ele>
   </trkpt>
   <trkpt lat="-37.84975" lon="145.34712000000002">
    <ele>314.14000000000004</ele>
   </trkpt>
   <trkpt lat="-37.84964" lon="145.34674">
    <ele>309.41</ele>
   </trkpt>
   <trkpt lat="-37.84937" lon="145.34567">
    <ele>301.99</ele>
   </trkpt>
   <trkpt lat="-37.8491" lon="145.34499000000002">
    <ele>291.34000000000003</ele>
   </trkpt>
   <trkpt lat="-37.84895" lon="145.34452000000002">
    <ele>284.18000000000006</ele>
   </trkpt>
   <trkpt lat="-37.848760000000006" lon="145.34363000000002">
    <ele>273.41</ele>
   </trkpt>
   <trkpt lat="-37.84875" lon="145.34361">
    <ele>273.41</ele>
   </trkpt>
   <trkpt lat="-37.84868" lon="145.34415">
    <ele>273.72</ele>
   </trkpt>
   <trkpt lat="-37.84861" lon="145.34492">
    <ele>275.39000000000004</ele>
   </trkpt>
   <trkpt lat="-37.848600001896216" lon="145.34559000020948">
    <ele>277.84000000000003</ele>
   </trkpt>
   <trkpt lat="-37.84859" lon="145.34626">
    <ele>281.72</ele>
   </trkpt>
   <trkpt lat="-37.84857" lon="145.34640000000002">
    <ele>283.71000000000004</ele>
   </trkpt>
   <trkpt lat="-37.84855" lon="145.34642000000002">
    <ele>283.71000000000004</ele>
   </trkpt>
   <trkpt lat="-37.84848" lon="145.34639">
    <ele>284.64</ele>
   </trkpt>
   <trkpt lat="-37.848200000000006" lon="145.3459">
    <ele>288.21000000000004</ele>
   </trkpt>
   <trkpt lat="-37.84798" lon="145.34563">
    <ele>290.34999999999997</ele>
   </trkpt>
   <trkpt lat="-37.84789" lon="145.34557">
    <ele>290.99</ele>
   </trkpt>
   <trkpt lat="-37.84781" lon="145.34555">
    <ele>291.6</ele>
   </trkpt>
   <trkpt lat="-37.84756" lon="145.34556">
    <ele>293.04</ele>
   </trkpt>
   <trkpt lat="-37.84745" lon="145.34555">
    <ele>293.29</ele>
   </trkpt>
   <trkpt lat="-37.84731" lon="145.34550000000002">
    <ele>293.44000000000005</ele>
   </trkpt>
   <trkpt lat="-37.84722" lon="145.34541000000002">
    <ele>293.37</ele>
   </trkpt>
   <trkpt lat="-37.847170000000006" lon="145.34528">
    <ele>293.26</ele>
   </trkpt>
   <trkpt lat="-37.84707" lon="145.34496000000001">
    <ele>292.72</ele>
   </trkpt>
   <trkpt lat="-37.84707" lon="145.34472000000002">
    <ele>292.69</ele>
   </trkpt>
   <trkpt lat="-37.8472" lon="145.34408000000002">
    <ele>295.91</ele>
   </trkpt>
   <trkpt lat="-37.84718" lon="145.34387">
    <ele>296.41</ele>
   </trkpt>
   <trkpt lat="-37.847170000000006" lon="145.34381000000002">
    <ele>297.33000000000004</ele>
   </trkpt>
   <trkpt lat="-37.84709" lon="145.34374000000003">
    <ele>297.58</ele>
   </trkpt>
   <trkpt lat="-37.84702" lon="145.34371000000002">
    <ele>297.86</ele>
   </trkpt>
   <trkpt lat="-37.84691" lon="145.34377">
    <ele>298.99</ele>
   </trkpt>
   <trkpt lat="-37.84666" lon="145.3442">
    <ele>303.8</ele>
   </trkpt>
   <trkpt lat="-37.84657" lon="145.34428">
    <ele>305.06</ele>
   </trkpt>
   <trkpt lat="-37.84642" lon="145.34432">
    <ele>308.53000000000003</ele>
   </trkpt>
   <trkpt lat="-37.84599" lon="145.34422">
    <ele>315.0</ele>
   </trkpt>
   <trkpt lat="-37.84579" lon="145.34413">
    <ele>320.18</ele>
   </trkpt>
   <trkpt lat="-37.84568" lon="145.34411">
    <ele>320.18</ele>
   </trkpt>
   <trkpt lat="-37.8457" lon="145.34397">
    <ele>321.49000000000007</ele>
   </trkpt>
   <trkpt lat="-37.8457" lon="145.34371000000002">
    <ele>325.35</ele>
   </trkpt>
   <trkpt lat="-37.84561" lon="145.34342">
    <ele>326.26000000000005</ele>
   </trkpt>
   <trkpt lat="-37.8455" lon="145.34315">
    <ele>327.8</ele>
   </trkpt>
   <trkpt lat="-37.84516" lon="145.34378">
    <ele>341.62</ele>
   </trkpt>
   <trkpt lat="-37.84505" lon="145.34416000000002">
    <ele>344.57000000000005</ele>
   </trkpt>
   <trkpt lat="-37.84496" lon="145.34426000000002">
    <ele>346.36</ele>
   </trkpt>
   <trkpt lat="-37.84478" lon="145.34428">
    <ele>350.58</ele>
   </trkpt>
   <trkpt lat="-37.84438" lon="145.34394">
    <ele>360.75</ele>
   </trkpt>
   <trkpt lat="-37.84371" lon="145.3436">
    <ele>387.88000000000005</ele>
   </trkpt>
   <trkpt lat="-37.84348" lon="145.34359">
    <ele>393.25000000000006</ele>
   </trkpt>
   <trkpt lat="-37.84304" lon="145.34381000000002">
    <ele>411.85</ele>
   </trkpt>
   <trkpt lat="-37.84288" lon="145.34407000000002">
    <ele>417.66</ele>
   </trkpt>
   <trkpt lat="-37.84281" lon="145.34412">
    <ele>422.32</ele>
   </trkpt>
   <trkpt lat="-37.8427" lon="145.34416000000002">
    <ele>425.76</ele>
   </trkpt>
   <trkpt lat="-37.84223" lon="145.34454000000002">
    <ele>450.0</ele>
   </trkpt>
   <trkpt lat="-37.842040000000004" lon="145.34463000000002">
    <ele>456.59000000000003</ele>
   </trkpt>
   <trkpt lat="-37.84183" lon="145.34441">
    <ele>456.93000000000006</ele>
   </trkpt>
   <trkpt lat="-37.84163" lon="145.34426000000002">
    <ele>458.28000000000003</ele>
   </trkpt>
   <trkpt lat="-37.84125" lon="145.34408000000002">
    <ele>461.12</ele>
   </trkpt>
   <trkpt lat="-37.84091" lon="145.34394">
    <ele>463.36</ele>
   </trkpt>
   <trkpt lat="-37.84057" lon="145.34386">
    <ele>465.93</ele>
   </trkpt>
   <trkpt lat="-37.84024" lon="145.34384">
    <ele>468.26000000000005</ele>
   </trkpt>
   <trkpt lat="-37.84028" lon="145.34392000000003">
    <ele>469.65</ele>
   </trkpt>
   <trkpt lat="-37.84051" lon="145.34409000000002">
    <ele>472.76</ele>
   </trkpt>
   <trkpt lat="-37.84091" lon="145.34454000000002">
    <ele>484.35</ele>
   </trkpt>
   <trkpt lat="-37.84109" lon="145.34479000000002">
    <ele>489.32000000000005</ele>
   </trkpt>
   <trkpt lat="-37.8412" lon="145.34501">
    <ele>491.62000000000006</ele>
   </trkpt>
   <trkpt lat="-37.84127" lon="145.34522">
    <ele>495.97</ele>
   </trkpt>
   <trkpt lat="-37.84127" lon="145.34528">
    <ele>495.97</ele>
   </trkpt>
   <trkpt lat="-37.84122" lon="145.34528">
    <ele>495.97</ele>
   </trkpt>
   <trkpt lat="-37.84082" lon="145.34512">
    <ele>503.92</ele>
   </trkpt>
   <trkpt lat="-37.84055" lon="145.34504">
    <ele>505.2000000000001</ele>
   </trkpt>
   <trkpt lat="-37.839850000000006" lon="145.34493">
    <ele>517.93</ele>
   </trkpt>
   <trkpt lat="-37.83979" lon="145.34494">
    <ele>517.93</ele>
   </trkpt>
   <trkpt lat="-37.83977" lon="145.34496000000001">
    <ele>520.87</ele>
   </trkpt>
   <trkpt lat="-37.83977" lon="145.34502">
    <ele>520.87</ele>
   </trkpt>
   <trkpt lat="-37.84004" lon="145.34539">
    <ele>530.39</ele>
   </trkpt>
   <trkpt lat="-37.84035" lon="145.34608">
    <ele>539.0200000000001</ele>
   </trkpt>
   <trkpt lat="-37.84035" lon="145.34613000000002">
    <ele>539.9900000000001</ele>
   </trkpt>
   <trkpt lat="-37.84035" lon="145.34612">
    <ele>539.9900000000001</ele>
   </trkpt>
   <trkpt lat="-37.84024" lon="145.34614000000002">
    <ele>541.54</ele>
   </trkpt>
   <trkpt lat="-37.84013" lon="145.34609">
    <ele>542.9200000000001</ele>
   </trkpt>
   <trkpt lat="-37.84004" lon="145.34607000000003">
    <ele>544.4300000000001</ele>
   </trkpt>
   <trkpt lat="-37.83979" lon="145.34606000000002">
    <ele>549.3100000000001</ele>
   </trkpt>
   <trkpt lat="-37.83961" lon="145.34607000000003">
    <ele>555.88</ele>
   </trkpt>
   <trkpt lat="-37.83912" lon="145.34615000000002">
    <ele>563.2900000000001</ele>
   </trkpt>
   <trkpt lat="-37.83896" lon="145.34608">
    <ele>565.3600000000001</ele>
   </trkpt>
   <trkpt lat="-37.83872" lon="145.34589000000003">
    <ele>564.83</ele>
   </trkpt>
   <trkpt lat="-37.83856" lon="145.34584">
    <ele>566.2</ele>
   </trkpt>
   <trkpt lat="-37.83843" lon="145.34587000000002">
    <ele>569.3100000000001</ele>
   </trkpt>
   <trkpt lat="-37.83834" lon="145.34596000000002">
    <ele>570.62</ele>
   </trkpt>
   <trkpt lat="-37.83813" lon="145.34605000000002">
    <ele>579.8199999999999</ele>
   </trkpt>
   <trkpt lat="-37.83791" lon="145.34608">
    <ele>586.3000000000001</ele>
   </trkpt>
   <trkpt lat="-37.83766" lon="145.34623000000002">
    <ele>592.04</ele>
   </trkpt>
   <trkpt lat="-37.83733" lon="145.34626">
    <ele>598.8800000000001</ele>
   </trkpt>
   <trkpt lat="-37.83726" lon="145.34629">
    <ele>599.89</ele>
   </trkpt>
   <trkpt lat="-37.836960000000005" lon="145.34657">
    <ele>608.3900000000001</ele>
   </trkpt>
   <trkpt lat="-37.8369" lon="145.34646">
    <ele>608.7300000000001</ele>
   </trkpt>
   <trkpt lat="-37.836870000000005" lon="145.34623000000002">
    <ele>603.58</ele>
   </trkpt>
   <trkpt lat="-37.83695" lon="145.34602">
    <ele>595.6700000000001</ele>
   </trkpt>
   <trkpt lat="-37.836940000000006" lon="145.3459">
    <ele>592.0200000000001</ele>
   </trkpt>
   <trkpt lat="-37.83702" lon="145.34584">
    <ele>591.28</ele>
   </trkpt>
   <trkpt lat="-37.83704" lon="145.34573">
    <ele>588.46</ele>
   </trkpt>
   <trkpt lat="-37.836780000000005" lon="145.34556">
    <ele>577.67</ele>
   </trkpt>
   <trkpt lat="-37.8367" lon="145.34549">
    <ele>572.0</ele>
   </trkpt>
   <trkpt lat="-37.83662" lon="145.34544000000002">
    <ele>569.9200000000001</ele>
   </trkpt>
   <trkpt lat="-37.83672" lon="145.34524000000002">
    <ele>563.2900000000001</ele>
   </trkpt>
   <trkpt lat="-37.836670000000005" lon="145.34514000000001">
    <ele>560.0200000000001</ele>
   </trkpt>
   <trkpt lat="-37.836650000000006" lon="145.34503">
    <ele>556.6000000000001</ele>
   </trkpt>
   <trkpt lat="-37.83668" lon="145.34492">
    <ele>554.49</ele>
   </trkpt>
   <trkpt lat="-37.83673" lon="145.34482">
    <ele>548.62</ele>
   </trkpt>
   <trkpt lat="-37.836920000000006" lon="145.34472000000002">
    <ele>547.85</ele>
   </trkpt>
   <trkpt lat="-37.83691" lon="145.3446">
    <ele>536.9900000000001</ele>
   </trkpt>
   <trkpt lat="-37.83686" lon="145.3445">
    <ele>536.9900000000001</ele>
   </trkpt>
   <trkpt lat="-37.836780000000005" lon="145.34444000000002">
    <ele>533.3100000000001</ele>
   </trkpt>
   <trkpt lat="-37.836690000000004" lon="145.34442">
    <ele>528.6</ele>
   </trkpt>
   <trkpt lat="-37.83668" lon="145.3443">
    <ele>521.84</ele>
   </trkpt>
   <trkpt lat="-37.83677" lon="145.34427000000002">
    <ele>520.87</ele>
   </trkpt>
   <trkpt lat="-37.836670000000005" lon="145.34422">
    <ele>517.44</ele>
   </trkpt>
   <trkpt lat="-37.836580000000005" lon="145.3442">
    <ele>515.19</ele>
   </trkpt>
   <trkpt lat="-37.83663000000001" lon="145.34409000000002">
    <ele>509.57000000000005</ele>
   </trkpt>
   <trkpt lat="-37.836470000000006" lon="145.34396">
    <ele>502.4200000000001</ele>
   </trkpt>
   <trkpt lat="-37.836400000000005" lon="145.34388">
    <ele>497.87</ele>
   </trkpt>
   <trkpt lat="-37.83621" lon="145.34382000000002">
    <ele>495.15000000000003</ele>
   </trkpt>
   <trkpt lat="-37.836130000000004" lon="145.34374000000003">
    <ele>491.50000000000006</ele>
   </trkpt>
   <trkpt lat="-37.83605" lon="145.3437">
    <ele>488.56000000000006</ele>
   </trkpt>
   <trkpt lat="-37.83599" lon="145.3436">
    <ele>484.17</ele>
   </trkpt>
   <trkpt lat="-37.835980000000006" lon="145.34348">
    <ele>479.22</ele>
   </trkpt>
   <trkpt lat="-37.83588" lon="145.34347000000002">
    <ele>476.86000000000007</ele>
   </trkpt>
   <trkpt lat="-37.83578" lon="145.34348">
    <ele>474.76</ele>
   </trkpt>
   <trkpt lat="-37.83567" lon="145.34329000000002">
    <ele>465.8</ele>
   </trkpt>
   <trkpt lat="-37.83567" lon="145.34317000000001">
    <ele>458.97</ele>
   </trkpt>
   <trkpt lat="-37.835710000000006" lon="145.34307">
    <ele>454.87000000000006</ele>
   </trkpt>
   <trkpt lat="-37.83569" lon="145.34284000000002">
    <ele>441.35</ele>
   </trkpt>
   <trkpt lat="-37.835660000000004" lon="145.34273000000002">
    <ele>437.63</ele>
   </trkpt>
   <trkpt lat="-37.8357" lon="145.34262">
    <ele>433.01000000000005</ele>
   </trkpt>
   <trkpt lat="-37.83567" lon="145.3425">
    <ele>427.54</ele>
   </trkpt>
   <trkpt lat="-37.83579" lon="145.34231000000003">
    <ele>422.96000000000004</ele>
   </trkpt>
   <trkpt lat="-37.836040000000004" lon="145.34209">
    <ele>420.91</ele>
   </trkpt>
   <trkpt lat="-37.836110000000005" lon="145.34199">
    <ele>419.26</ele>
   </trkpt>
   <trkpt lat="-37.836290000000005" lon="145.34184000000002">
    <ele>419.16</ele>
   </trkpt>
   <trkpt lat="-37.83634" lon="145.34159000000002">
    <ele>414.27000000000004</ele>
   </trkpt>
   <trkpt lat="-37.836380000000005" lon="145.34147000000002">
    <ele>411.61</ele>
   </trkpt>
   <trkpt lat="-37.83654000000001" lon="145.34130000000002">
    <ele>410.51000000000005</ele>
   </trkpt>
   <trkpt lat="-37.83652" lon="145.34118">
    <ele>409.0</ele>
   </trkpt>
   <trkpt lat="-37.836490000000005" lon="145.34107">
    <ele>406.15</ele>
   </trkpt>
   <trkpt lat="-37.83646" lon="145.34084000000001">
    <ele>401.27</ele>
   </trkpt>
   <trkpt lat="-37.83641" lon="145.34073">
    <ele>396.82</ele>
   </trkpt>
   <trkpt lat="-37.836310000000005" lon="145.34067000000002">
    <ele>393.17</ele>
   </trkpt>
   <trkpt lat="-37.836220000000004" lon="145.34068000000002">
    <ele>389.58000000000004</ele>
   </trkpt>
   <trkpt lat="-37.836200000000005" lon="145.34055">
    <ele>386.61</ele>
   </trkpt>
   <trkpt lat="-37.83625" lon="145.34043">
    <ele>385.21000000000004</ele>
   </trkpt>
   <trkpt lat="-37.83632" lon="145.34036">
    <ele>386.68</ele>
   </trkpt>
   <trkpt lat="-37.83637" lon="145.34026">
    <ele>386.73</ele>
   </trkpt>
   <trkpt lat="-37.83637" lon="145.3399">
    <ele>380.23</ele>
   </trkpt>
   <trkpt lat="-37.836310000000005" lon="145.33952000000002">
    <ele>370.06000000000006</ele>
   </trkpt>
   <trkpt lat="-37.836380000000005" lon="145.33929">
    <ele>366.85</ele>
   </trkpt>
   <trkpt lat="-37.83628" lon="145.33924000000002">
    <ele>364.38000000000005</ele>
   </trkpt>
   <trkpt lat="-37.836090000000006" lon="145.33935000000002">
    <ele>361.24</ele>
   </trkpt>
   <trkpt lat="-37.836000000000006" lon="145.33937">
    <ele>359.71000000000004</ele>
   </trkpt>
   <trkpt lat="-37.835950000000004" lon="145.33927">
    <ele>356.68000000000006</ele>
   </trkpt>
   <trkpt lat="-37.83585" lon="145.33922">
    <ele>353.51000000000005</ele>
   </trkpt>
   <trkpt lat="-37.83576" lon="145.33921">
    <ele>351.45000000000005</ele>
   </trkpt>
   <trkpt lat="-37.835660000000004" lon="145.33916000000002">
    <ele>347.1</ele>
   </trkpt>
   <trkpt lat="-37.83561" lon="145.33905000000001">
    <ele>343.45000000000005</ele>
   </trkpt>
   <trkpt lat="-37.83559" lon="145.33892">
    <ele>341.38</ele>
   </trkpt>
   <trkpt lat="-37.835510000000006" lon="145.33884">
    <ele>337.32</ele>
   </trkpt>
   <trkpt lat="-37.83541" lon="145.33887000000001">
    <ele>335.83</ele>
   </trkpt>
   <trkpt lat="-37.83531" lon="145.33892">
    <ele>334.82</ele>
   </trkpt>
   <trkpt lat="-37.83522" lon="145.33894">
    <ele>333.26</ele>
   </trkpt>
   <trkpt lat="-37.83513000000001" lon="145.33889000000002">
    <ele>328.1</ele>
   </trkpt>
   <trkpt lat="-37.83503" lon="145.33888000000002">
    <ele>323.81000000000006</ele>
   </trkpt>
   <trkpt lat="-37.83494" lon="145.33885">
    <ele>319.0</ele>
   </trkpt>
   <trkpt lat="-37.834920000000004" lon="145.33874">
    <ele>317.14000000000004</ele>
   </trkpt>
   <trkpt lat="-37.834880000000005" lon="145.33863000000002">
    <ele>313.62</ele>
   </trkpt>
   <trkpt lat="-37.83489" lon="145.33851">
    <ele>311.5</ele>
   </trkpt>
   <trkpt lat="-37.834970000000006" lon="145.33828000000003">
    <ele>309.21000000000004</ele>
   </trkpt>
   <trkpt lat="-37.83493" lon="145.33805">
    <ele>302.16</ele>
   </trkpt>
   <trkpt lat="-37.83484" lon="145.33784">
    <ele>293.89000000000004</ele>
   </trkpt>
   <trkpt lat="-37.834830000000004" lon="145.33771000000002">
    <ele>289.56000000000006</ele>
   </trkpt>
   <trkpt lat="-37.834900000000005" lon="145.33762000000002">
    <ele>287.42</ele>
   </trkpt>
   <trkpt lat="-37.83491" lon="145.3375">
    <ele>282.33000000000004</ele>
   </trkpt>
   <trkpt lat="-37.834860000000006" lon="145.3374">
    <ele>277.64</ele>
   </trkpt>
   <trkpt lat="-37.834790000000005" lon="145.33732">
    <ele>276.07000000000005</ele>
   </trkpt>
   <trkpt lat="-37.834770000000006" lon="145.33720000000002">
    <ele>273.29</ele>
   </trkpt>
   <trkpt lat="-37.8348" lon="145.33709000000002">
    <ele>270.99</ele>
   </trkpt>
   <trkpt lat="-37.834810000000004" lon="145.33685">
    <ele>267.15</ele>
   </trkpt>
   <trkpt lat="-37.834720000000004" lon="145.33679">
    <ele>265.69000000000005</ele>
   </trkpt>
   <trkpt lat="-37.83465" lon="145.33671">
    <ele>263.15</ele>
   </trkpt>
   <trkpt lat="-37.834680000000006" lon="145.33647000000002">
    <ele>257.0</ele>
   </trkpt>
   <trkpt lat="-37.834630000000004" lon="145.33635">
    <ele>253.17</ele>
   </trkpt>
   <trkpt lat="-37.834610000000005" lon="145.33623">
    <ele>249.99</ele>
   </trkpt>
   <trkpt lat="-37.834680000000006" lon="145.33615">
    <ele>248.52</ele>
   </trkpt>
   <trkpt lat="-37.834610000000005" lon="145.33605">
    <ele>246.36</ele>
   </trkpt>
   <trkpt lat="-37.83456" lon="145.33595000000003">
    <ele>243.83</ele>
   </trkpt>
   <trkpt lat="-37.83466000000001" lon="145.33575000000002">
    <ele>241.62000000000003</ele>
   </trkpt>
   <trkpt lat="-37.83473" lon="145.33567000000002">
    <ele>240.21</ele>
   </trkpt>
   <trkpt lat="-37.83476" lon="145.33555">
    <ele>239.05</ele>
   </trkpt>
   <trkpt lat="-37.834970000000006" lon="145.33547000000002">
    <ele>239.26000000000002</ele>
   </trkpt>
   <trkpt lat="-37.83498" lon="145.33540000000002">
    <ele>238.05</ele>
   </trkpt>
   <trkpt lat="-37.83502" lon="145.33532000000002">
    <ele>238.05</ele>
   </trkpt>
   <trkpt lat="-37.83516" lon="145.33518">
    <ele>238.77</ele>
   </trkpt>
   <trkpt lat="-37.835370000000005" lon="145.33488">
    <ele>239.24</ele>
   </trkpt>
   <trkpt lat="-37.835190000000004" lon="145.33453">
    <ele>236.12000000000003</ele>
   </trkpt>
   <trkpt lat="-37.83509" lon="145.33440000000002">
    <ele>234.55</ele>
   </trkpt>
   <trkpt lat="-37.835" lon="145.33423000000002">
    <ele>232.29000000000002</ele>
   </trkpt>
   <trkpt lat="-37.83484" lon="145.33418">
    <ele>230.08</ele>
   </trkpt>
   <trkpt lat="-37.83455" lon="145.33398000000003">
    <ele>226.3</ele>
   </trkpt>
   <trkpt lat="-37.83419" lon="145.33354">
    <ele>221.29000000000002</ele>
   </trkpt>
   <trkpt lat="-37.8339" lon="145.33331">
    <ele>215.43</ele>
   </trkpt>
   <trkpt lat="-37.83328" lon="145.33304">
    <ele>207.28000000000003</ele>
   </trkpt>
   <trkpt lat="-37.83321" lon="145.33290000000002">
    <ele>205.95000000000002</ele>
   </trkpt>
   <trkpt lat="-37.833200000000005" lon="145.33290000000002">
    <ele>205.95000000000002</ele>
   </trkpt>
   <trkpt lat="-37.833000000000006" lon="145.33302">
    <ele>201.82000000000002</ele>
   </trkpt>
   <trkpt lat="-37.83228500056166" lon="145.3333400030435">
    <ele>195.65</ele>
   </trkpt>
   <trkpt lat="-37.831570000000006" lon="145.33366">
    <ele>195.24</ele>
   </trkpt>
   <trkpt lat="-37.831653341019376" lon="145.33461333120118">
    <ele>203.40000000000003</ele>
   </trkpt>
   <trkpt lat="-37.831736674354595" lon="145.335566664556">
    <ele>213.1</ele>
   </trkpt>
   <trkpt lat="-37.83182" lon="145.33652">
    <ele>222.86</ele>
   </trkpt>
   <trkpt lat="-37.831830000000004" lon="145.33692000000002">
    <ele>226.63000000000002</ele>
   </trkpt>
   <trkpt lat="-37.83189" lon="145.33772000000002">
    <ele>240.65000000000003</ele>
   </trkpt>
   <trkpt lat="-37.83191" lon="145.33862000000002">
    <ele>255.78</ele>
   </trkpt>
   <trkpt lat="-37.831990000000005" lon="145.33924000000002">
    <ele>264.28000000000003</ele>
   </trkpt>
   <trkpt lat="-37.83211" lon="145.33979000000002">
    <ele>277.85</ele>
   </trkpt>
   <trkpt lat="-37.83212" lon="145.34007000000003">
    <ele>282.18000000000006</ele>
   </trkpt>
   <trkpt lat="-37.832240000000006" lon="145.34091">
    <ele>298.37</ele>
   </trkpt>
   <trkpt lat="-37.83225" lon="145.34114000000002">
    <ele>306.15000000000003</ele>
   </trkpt>
   <trkpt lat="-37.83238" lon="145.34191">
    <ele>333.89</ele>
   </trkpt>
   <trkpt lat="-37.83243" lon="145.34215">
    <ele>337.31000000000006</ele>
   </trkpt>
   <trkpt lat="-37.83245" lon="145.34245">
    <ele>348.42</ele>
   </trkpt>
   <trkpt lat="-37.83249" lon="145.34262">
    <ele>352.42</ele>
   </trkpt>
   <trkpt lat="-37.83249" lon="145.34288">
    <ele>365.22</ele>
   </trkpt>
   <trkpt lat="-37.83261" lon="145.34326000000001">
    <ele>378.34</ele>
   </trkpt>
   <trkpt lat="-37.83258" lon="145.34358">
    <ele>389.61</ele>
   </trkpt>
   <trkpt lat="-37.83261" lon="145.34380000000002">
    <ele>395.0</ele>
   </trkpt>
   <trkpt lat="-37.83267" lon="145.34406">
    <ele>406.11</ele>
   </trkpt>
   <trkpt lat="-37.83276" lon="145.34487000000001">
    <ele>441.89000000000004</ele>
   </trkpt>
   <trkpt lat="-37.83278" lon="145.34532000000002">
    <ele>458.63000000000005</ele>
   </trkpt>
   <trkpt lat="-37.83283" lon="145.34573">
    <ele>473.85</ele>
   </trkpt>
   <trkpt lat="-37.83283" lon="145.34615000000002">
    <ele>494.3</ele>
   </trkpt>
   <trkpt lat="-37.83294" lon="145.34682">
    <ele>527.6700000000001</ele>
   </trkpt>
   <trkpt lat="-37.83294" lon="145.347">
    <ele>530.35</ele>
   </trkpt>
   <trkpt lat="-37.833000000000006" lon="145.34723000000002">
    <ele>545.82</ele>
   </trkpt>
   <trkpt lat="-37.833110000000005" lon="145.34797">
    <ele>576.95</ele>
   </trkpt>
   <trkpt lat="-37.833270000000006" lon="145.34803000000002">
    <ele>584.34</ele>
   </trkpt>
   <trkpt lat="-37.83346" lon="145.34808">
    <ele>594.65</ele>
   </trkpt>
   <trkpt lat="-37.83339" lon="145.34822">
    <ele>594.72</ele>
   </trkpt>
   <trkpt lat="-37.83328" lon="145.3487">
    <ele>594.58</ele>
   </trkpt>
   <trkpt lat="-37.83321" lon="145.34907">
    <ele>591.8000000000001</ele>
   </trkpt>
   <trkpt lat="-37.83312" lon="145.34921">
    <ele>590.3000000000001</ele>
   </trkpt>
   <trkpt lat="-37.83325" lon="145.34977">
    <ele>589.7900000000001</ele>
   </trkpt>
   <trkpt lat="-37.83334" lon="145.35008000000002">
    <ele>588.58</ele>
   </trkpt>
   <trkpt lat="-37.83361" lon="145.35041">
    <ele>585.8000000000001</ele>
   </trkpt>
   <trkpt lat="-37.83334" lon="145.35008000000002">
    <ele>588.58</ele>
   </trkpt>
   <trkpt lat="-37.83325" lon="145.34977">
    <ele>589.7900000000001</ele>
   </trkpt>
   <trkpt lat="-37.83312" lon="145.34921">
    <ele>590.61</ele>
   </trkpt>
   <trkpt lat="-37.83303" lon="145.34931">
    <ele>588.0000000000001</ele>
   </trkpt>
   <trkpt lat="-37.83296" lon="145.34934">
    <ele>588.0000000000001</ele>
   </trkpt>
   <trkpt lat="-37.83285" lon="145.34933">
    <ele>585.31</ele>
   </trkpt>
   <trkpt lat="-37.83281" lon="145.34934">
    <ele>585.31</ele>
   </trkpt>
   <trkpt lat="-37.832620000000006" lon="145.34914">
    <ele>576.33</ele>
   </trkpt>
   <trkpt lat="-37.83245" lon="145.34872000000001">
    <ele>568.0500000000001</ele>
   </trkpt>
   <trkpt lat="-37.83229" lon="145.34810000000002">
    <ele>543.83</ele>
   </trkpt>
   <trkpt lat="-37.8322000021528" lon="145.34738499906126">
    <ele>523.17</ele>
   </trkpt>
   <trkpt lat="-37.83211" lon="145.34667000000002">
    <ele>500.43</ele>
   </trkpt>
   <trkpt lat="-37.83193" lon="145.3462">
    <ele>461.29</ele>
   </trkpt>
   <trkpt lat="-37.83187" lon="145.34579000000002">
    <ele>447.05000000000007</ele>
   </trkpt>
   <trkpt lat="-37.8318" lon="145.34557">
    <ele>434.83000000000004</ele>
   </trkpt>
   <trkpt lat="-37.83182" lon="145.34544000000002">
    <ele>430.36</ele>
   </trkpt>
   <trkpt lat="-37.8318" lon="145.34508000000002">
    <ele>416.26</ele>
   </trkpt>
   <trkpt lat="-37.83223" lon="145.34437">
    <ele>404.01000000000005</ele>
   </trkpt>
   <trkpt lat="-37.83225" lon="145.34394">
    <ele>394.56</ele>
   </trkpt>
   <trkpt lat="-37.83243" lon="145.34364000000002">
    <ele>386.95</ele>
   </trkpt>
   <trkpt lat="-37.8324" lon="145.34352">
    <ele>384.37000000000006</ele>
   </trkpt>
   <trkpt lat="-37.832240000000006" lon="145.34348">
    <ele>375.57</ele>
   </trkpt>
   <trkpt lat="-37.83202" lon="145.34352">
    <ele>372.87</ele>
   </trkpt>
   <trkpt lat="-37.83175" lon="145.34362000000002">
    <ele>364.53000000000003</ele>
   </trkpt>
   <trkpt lat="-37.83151" lon="145.34382000000002">
    <ele>357.27000000000004</ele>
   </trkpt>
   <trkpt lat="-37.83144" lon="145.34383000000003">
    <ele>356.33000000000004</ele>
   </trkpt>
   <trkpt lat="-37.83142" lon="145.34377">
    <ele>355.45000000000005</ele>
   </trkpt>
   <trkpt lat="-37.8316" lon="145.34351">
    <ele>352.0</ele>
   </trkpt>
   <trkpt lat="-37.83162" lon="145.34344000000002">
    <ele>350.64</ele>
   </trkpt>
   <trkpt lat="-37.83169" lon="145.34243">
    <ele>337.24</ele>
   </trkpt>
   <trkpt lat="-37.83164" lon="145.34225">
    <ele>331.14000000000004</ele>
   </trkpt>
   <trkpt lat="-37.83153" lon="145.3424">
    <ele>331.15</ele>
   </trkpt>
   <trkpt lat="-37.83144" lon="145.34259">
    <ele>331.68</ele>
   </trkpt>
   <trkpt lat="-37.83124" lon="145.34334">
    <ele>332.54</ele>
   </trkpt>
   <trkpt lat="-37.83113" lon="145.34359">
    <ele>333.51000000000005</ele>
   </trkpt>
   <trkpt lat="-37.83095" lon="145.34385">
    <ele>333.88</ele>
   </trkpt>
   <trkpt lat="-37.83034" lon="145.34411">
    <ele>335.97</ele>
   </trkpt>
   <trkpt lat="-37.829930000000004" lon="145.34408000000002">
    <ele>330.18</ele>
   </trkpt>
   <trkpt lat="-37.829620000000006" lon="145.34424">
    <ele>326.41</ele>
   </trkpt>
   <trkpt lat="-37.82929" lon="145.34414">
    <ele>323.20000000000005</ele>
   </trkpt>
   <trkpt lat="-37.82912" lon="145.34417000000002">
    <ele>324.57</ele>
   </trkpt>
   <trkpt lat="-37.82891" lon="145.3443">
    <ele>329.46000000000004</ele>
   </trkpt>
   <trkpt lat="-37.82862" lon="145.34468">
    <ele>339.69000000000005</ele>
   </trkpt>
   <trkpt lat="-37.82844" lon="145.34486">
    <ele>341.38</ele>
   </trkpt>
   <trkpt lat="-37.82797" lon="145.34504">
    <ele>339.66</ele>
   </trkpt>
   <trkpt lat="-37.82755" lon="145.34513">
    <ele>341.31</ele>
   </trkpt>
   <trkpt lat="-37.826800000000006" lon="145.34566">
    <ele>352.44</ele>
   </trkpt>
   <trkpt lat="-37.82656" lon="145.34569000000002">
    <ele>357.50000000000006</ele>
   </trkpt>
   <trkpt lat="-37.82627" lon="145.34583">
    <ele>364.47</ele>
   </trkpt>
   <trkpt lat="-37.82569" lon="145.34635">
    <ele>370.9</ele>
   </trkpt>
   <trkpt lat="-37.82531" lon="145.34704000000002">
    <ele>385.78000000000003</ele>
   </trkpt>
   <trkpt lat="-37.82506" lon="145.34728">
    <ele>396.67</ele>
   </trkpt>
   <trkpt lat="-37.824555002667815" lon="145.3480750054461">
    <ele>416.46999999999997</ele>
   </trkpt>
   <trkpt lat="-37.82405" lon="145.34887">
    <ele>424.3500000000001</ele>
   </trkpt>
   <trkpt lat="-37.823875002051466" lon="145.34956000148267">
    <ele>431.78000000000003</ele>
   </trkpt>
   <trkpt lat="-37.8237" lon="145.35025000000002">
    <ele>444.20000000000005</ele>
   </trkpt>
   <trkpt lat="-37.82343" lon="145.35046">
    <ele>445.14000000000004</ele>
   </trkpt>
   <trkpt lat="-37.823" lon="145.35069000000001">
    <ele>448.25</ele>
   </trkpt>
   <trkpt lat="-37.822590000000005" lon="145.35107000000002">
    <ele>449.45</ele>
   </trkpt>
   <trkpt lat="-37.82276" lon="145.35129">
    <ele>453.48</ele>
   </trkpt>
   <trkpt lat="-37.822860000000006" lon="145.35153000000003">
    <ele>464.36</ele>
   </trkpt>
   <trkpt lat="-37.822950000000006" lon="145.35162000000003">
    <ele>469.49</ele>
   </trkpt>
   <trkpt lat="-37.82305" lon="145.35166">
    <ele>473.11</ele>
   </trkpt>
   <trkpt lat="-37.82323" lon="145.35186000000002">
    <ele>482.25</ele>
   </trkpt>
   <trkpt lat="-37.82336" lon="145.3521">
    <ele>494.02</ele>
   </trkpt>
   <trkpt lat="-37.82352" lon="145.35215000000002">
    <ele>494.02</ele>
   </trkpt>
   <trkpt lat="-37.82363" lon="145.35215000000002">
    <ele>501.97</ele>
   </trkpt>
   <trkpt lat="-37.82372" lon="145.35218">
    <ele>505.33000000000004</ele>
   </trkpt>
   <trkpt lat="-37.82383" lon="145.35227">
    <ele>508.94000000000005</ele>
   </trkpt>
   <trkpt lat="-37.82399" lon="145.35247">
    <ele>518.4700000000001</ele>
   </trkpt>
   <trkpt lat="-37.82439" lon="145.35239">
    <ele>534.84</ele>
   </trkpt>
   <trkpt lat="-37.82455" lon="145.35246">
    <ele>544.34</ele>
   </trkpt>
   <trkpt lat="-37.82475" lon="145.35263">
    <ele>554.21</ele>
   </trkpt>
   <trkpt lat="-37.82547" lon="145.35287000000002">
    <ele>585.98</ele>
   </trkpt>
   <trkpt lat="-37.825520000000004" lon="145.35319">
    <ele>586.4100000000001</ele>
   </trkpt>
   <trkpt lat="-37.8256" lon="145.35319">
    <ele>588.6300000000001</ele>
   </trkpt>
   <trkpt lat="-37.82564" lon="145.35313000000002">
    <ele>589.98</ele>
   </trkpt>
   <trkpt lat="-37.8258" lon="145.35314000000002">
    <ele>594.77</ele>
   </trkpt>
   <trkpt lat="-37.82589" lon="145.35312000000002">
    <ele>594.77</ele>
   </trkpt>
   <trkpt lat="-37.82602" lon="145.35317">
    <ele>606.92</ele>
   </trkpt>
   <trkpt lat="-37.82618" lon="145.35318">
    <ele>611.9100000000001</ele>
   </trkpt>
   <trkpt lat="-37.82643" lon="145.35314000000002">
    <ele>620.73</ele>
   </trkpt>
   <trkpt lat="-37.826440000000005" lon="145.35314000000002">
    <ele>620.73</ele>
   </trkpt>
   <trkpt lat="-37.826570000000004" lon="145.35304000000002">
    <ele>621.8</ele>
   </trkpt>
   <trkpt lat="-37.82672" lon="145.35288">
    <ele>620.48</ele>
   </trkpt>
   <trkpt lat="-37.826820000000005" lon="145.35289">
    <ele>622.2200000000001</ele>
   </trkpt>
   <trkpt lat="-37.826840000000004" lon="145.35301">
    <ele>623.46</ele>
   </trkpt>
   <trkpt lat="-37.8269" lon="145.35293000000001">
    <ele>623.6</ele>
   </trkpt>
   <trkpt lat="-37.82708" lon="145.35289">
    <ele>625.58</ele>
   </trkpt>
   <trkpt lat="-37.827000000000005" lon="145.35284000000001">
    <ele>623.02</ele>
   </trkpt>
   <trkpt lat="-37.82692" lon="145.35291">
    <ele>623.94</ele>
   </trkpt>
   <trkpt lat="-37.82686" lon="145.35301">
    <ele>624.0300000000001</ele>
   </trkpt>
   <trkpt lat="-37.82686" lon="145.35289">
    <ele>622.58</ele>
   </trkpt>
   <trkpt lat="-37.82672" lon="145.35282">
    <ele>619.97</ele>
   </trkpt>
   <trkpt lat="-37.826710000000006" lon="145.35296000000002">
    <ele>623.39</ele>
   </trkpt>
   <trkpt lat="-37.826620000000005" lon="145.3529">
    <ele>622.84</ele>
   </trkpt>
   <trkpt lat="-37.82661" lon="145.35296000000002">
    <ele>622.77</ele>
   </trkpt>
   <trkpt lat="-37.826440000000005" lon="145.35302000000001">
    <ele>622.46</ele>
   </trkpt>
   <trkpt lat="-37.826440000000005" lon="145.35314000000002">
    <ele>620.86</ele>
   </trkpt>
   <trkpt lat="-37.82618" lon="145.35318">
    <ele>611.9100000000001</ele>
   </trkpt>
   <trkpt lat="-37.82602" lon="145.35317">
    <ele>606.92</ele>
   </trkpt>
   <trkpt lat="-37.82589" lon="145.35312000000002">
    <ele>594.77</ele>
   </trkpt>
   <trkpt lat="-37.8258" lon="145.35314000000002">
    <ele>594.77</ele>
   </trkpt>
   <trkpt lat="-37.82564" lon="145.35313000000002">
    <ele>589.98</ele>
   </trkpt>
   <trkpt lat="-37.8256" lon="145.35319">
    <ele>588.6300000000001</ele>
   </trkpt>
   <trkpt lat="-37.825520000000004" lon="145.35319">
    <ele>586.4100000000001</ele>
   </trkpt>
   <trkpt lat="-37.82547" lon="145.35287000000002">
    <ele>585.98</ele>
   </trkpt>
   <trkpt lat="-37.82475" lon="145.35263">
    <ele>554.21</ele>
   </trkpt>
   <trkpt lat="-37.82455" lon="145.35246">
    <ele>544.34</ele>
   </trkpt>
   <trkpt lat="-37.82439" lon="145.35239">
    <ele>538.54</ele>
   </trkpt>
   <trkpt lat="-37.82399" lon="145.35247">
    <ele>518.4700000000001</ele>
   </trkpt>
   <trkpt lat="-37.82383" lon="145.35227">
    <ele>508.94000000000005</ele>
   </trkpt>
   <trkpt lat="-37.82372" lon="145.35218">
    <ele>505.33000000000004</ele>
   </trkpt>
   <trkpt lat="-37.82363" lon="145.35215000000002">
    <ele>501.97</ele>
   </trkpt>
   <trkpt lat="-37.82352" lon="145.35215000000002">
    <ele>494.02</ele>
   </trkpt>
   <trkpt lat="-37.82336" lon="145.3521">
    <ele>494.02</ele>
   </trkpt>
   <trkpt lat="-37.82323" lon="145.35186000000002">
    <ele>482.25</ele>
   </trkpt>
   <trkpt lat="-37.82305" lon="145.35166">
    <ele>473.11</ele>
   </trkpt>
   <trkpt lat="-37.822950000000006" lon="145.35162000000003">
    <ele>469.49</ele>
   </trkpt>
   <trkpt lat="-37.822860000000006" lon="145.35153000000003">
    <ele>464.36</ele>
   </trkpt>
   <trkpt lat="-37.82276" lon="145.35129">
    <ele>453.48</ele>
   </trkpt>
   <trkpt lat="-37.822590000000005" lon="145.35107000000002">
    <ele>449.47</ele>
   </trkpt>
   <trkpt lat="-37.823" lon="145.35069000000001">
    <ele>448.13</ele>
   </trkpt>
   <trkpt lat="-37.82343" lon="145.35046">
    <ele>445.14000000000004</ele>
   </trkpt>
   <trkpt lat="-37.8237" lon="145.35025000000002">
    <ele>443.6</ele>
   </trkpt>
   <trkpt lat="-37.823875001973626" lon="145.34956000178963">
    <ele>431.78000000000003</ele>
   </trkpt>
   <trkpt lat="-37.82405" lon="145.34887">
    <ele>424.3500000000001</ele>
   </trkpt>
   <trkpt lat="-37.82455500267554" lon="145.348075005434">
    <ele>416.46999999999997</ele>
   </trkpt>
   <trkpt lat="-37.82506" lon="145.34728">
    <ele>391.38</ele>
   </trkpt>
   <trkpt lat="-37.82531" lon="145.34704000000002">
    <ele>385.78000000000003</ele>
   </trkpt>
   <trkpt lat="-37.82569" lon="145.34635">
    <ele>370.52</ele>
   </trkpt>
   <trkpt lat="-37.82627" lon="145.34583">
    <ele>364.47</ele>
   </trkpt>
   <trkpt lat="-37.82656" lon="145.34569000000002">
    <ele>357.50000000000006</ele>
   </trkpt>
   <trkpt lat="-37.826800000000006" lon="145.34566">
    <ele>352.44</ele>
   </trkpt>
   <trkpt lat="-37.82755" lon="145.34513">
    <ele>341.31</ele>
   </trkpt>
   <trkpt lat="-37.82797" lon="145.34504">
    <ele>339.78000000000003</ele>
   </trkpt>
   <trkpt lat="-37.82844" lon="145.34486">
    <ele>341.18</ele>
   </trkpt>
   <trkpt lat="-37.82862" lon="145.34468">
    <ele>339.06</ele>
   </trkpt>
   <trkpt lat="-37.82891" lon="145.3443">
    <ele>329.46000000000004</ele>
   </trkpt>
   <trkpt lat="-37.82912" lon="145.34417000000002">
    <ele>324.57</ele>
   </trkpt>
   <trkpt lat="-37.82929" lon="145.34414">
    <ele>323.20000000000005</ele>
   </trkpt>
   <trkpt lat="-37.829620000000006" lon="145.34424">
    <ele>327.01</ele>
   </trkpt>
   <trkpt lat="-37.829930000000004" lon="145.34408000000002">
    <ele>330.18</ele>
   </trkpt>
   <trkpt lat="-37.83034" lon="145.34411">
    <ele>335.97</ele>
   </trkpt>
   <trkpt lat="-37.83095" lon="145.34385">
    <ele>333.88</ele>
   </trkpt>
   <trkpt lat="-37.83113" lon="145.34359">
    <ele>333.51000000000005</ele>
   </trkpt>
   <trkpt lat="-37.83124" lon="145.34334">
    <ele>332.56</ele>
   </trkpt>
   <trkpt lat="-37.83144" lon="145.34259">
    <ele>331.68</ele>
   </trkpt>
   <trkpt lat="-37.83153" lon="145.3424">
    <ele>331.07000000000005</ele>
   </trkpt>
   <trkpt lat="-37.83164" lon="145.34225">
    <ele>331.14000000000004</ele>
   </trkpt>
   <trkpt lat="-37.83169" lon="145.34243">
    <ele>337.24</ele>
   </trkpt>
   <trkpt lat="-37.83162" lon="145.34344000000002">
    <ele>352.0</ele>
   </trkpt>
   <trkpt lat="-37.8316" lon="145.34351">
    <ele>352.0</ele>
   </trkpt>
   <trkpt lat="-37.83142" lon="145.34377">
    <ele>355.45000000000005</ele>
   </trkpt>
   <trkpt lat="-37.83144" lon="145.34383000000003">
    <ele>356.33000000000004</ele>
   </trkpt>
   <trkpt lat="-37.83151" lon="145.34382000000002">
    <ele>357.27000000000004</ele>
   </trkpt>
   <trkpt lat="-37.83175" lon="145.34362000000002">
    <ele>364.53000000000003</ele>
   </trkpt>
   <trkpt lat="-37.83202" lon="145.34352">
    <ele>372.87</ele>
   </trkpt>
   <trkpt lat="-37.832240000000006" lon="145.34348">
    <ele>375.57</ele>
   </trkpt>
   <trkpt lat="-37.8324" lon="145.34352">
    <ele>384.37000000000006</ele>
   </trkpt>
   <trkpt lat="-37.83243" lon="145.34364000000002">
    <ele>388.06</ele>
   </trkpt>
   <trkpt lat="-37.83225" lon="145.34394">
    <ele>394.56</ele>
   </trkpt>
   <trkpt lat="-37.83223" lon="145.34437">
    <ele>404.71</ele>
   </trkpt>
   <trkpt lat="-37.8318" lon="145.34508000000002">
    <ele>418.12000000000006</ele>
   </trkpt>
   <trkpt lat="-37.83182" lon="145.34544000000002">
    <ele>430.36</ele>
   </trkpt>
   <trkpt lat="-37.8318" lon="145.34557">
    <ele>434.83000000000004</ele>
   </trkpt>
   <trkpt lat="-37.83187" lon="145.34579000000002">
    <ele>447.05000000000007</ele>
   </trkpt>
   <trkpt lat="-37.83193" lon="145.3462">
    <ele>461.29</ele>
   </trkpt>
   <trkpt lat="-37.83211" lon="145.34667000000002">
    <ele>500.43</ele>
   </trkpt>
   <trkpt lat="-37.83220000216956" lon="145.34738499919436">
    <ele>523.17</ele>
   </trkpt>
   <trkpt lat="-37.83229" lon="145.34810000000002">
    <ele>543.83</ele>
   </trkpt>
   <trkpt lat="-37.83245" lon="145.34872000000001">
    <ele>568.0500000000001</ele>
   </trkpt>
   <trkpt lat="-37.832620000000006" lon="145.34914">
    <ele>576.33</ele>
   </trkpt>
   <trkpt lat="-37.83281" lon="145.34934">
    <ele>585.31</ele>
   </trkpt>
   <trkpt lat="-37.83285" lon="145.34933">
    <ele>585.31</ele>
   </trkpt>
   <trkpt lat="-37.83296" lon="145.34934">
    <ele>588.0000000000001</ele>
   </trkpt>
   <trkpt lat="-37.83303" lon="145.34931">
    <ele>588.0000000000001</ele>
   </trkpt>
   <trkpt lat="-37.83312" lon="145.34921">
    <ele>590.61</ele>
   </trkpt>
   <trkpt lat="-37.833220000000004" lon="145.34906">
    <ele>591.9100000000001</ele>
   </trkpt>
   <trkpt lat="-37.83321" lon="145.34907">
    <ele>591.9100000000001</ele>
   </trkpt>
   <trkpt lat="-37.83328" lon="145.3487">
    <ele>594.58</ele>
   </trkpt>
   <trkpt lat="-37.83339" lon="145.34822">
    <ele>594.72</ele>
   </trkpt>
   <trkpt lat="-37.83346" lon="145.34808">
    <ele>594.65</ele>
   </trkpt>
   <trkpt lat="-37.833270000000006" lon="145.34803000000002">
    <ele>584.34</ele>
   </trkpt>
   <trkpt lat="-37.833110000000005" lon="145.34797">
    <ele>576.95</ele>
   </trkpt>
   <trkpt lat="-37.833000000000006" lon="145.34723000000002">
    <ele>545.82</ele>
   </trkpt>
   <trkpt lat="-37.83294" lon="145.347">
    <ele>530.35</ele>
   </trkpt>
   <trkpt lat="-37.83294" lon="145.34682">
    <ele>527.6700000000001</ele>
   </trkpt>
   <trkpt lat="-37.83283" lon="145.34615000000002">
    <ele>494.3</ele>
   </trkpt>
   <trkpt lat="-37.83283" lon="145.34573">
    <ele>473.85</ele>
   </trkpt>
   <trkpt lat="-37.83278" lon="145.34532000000002">
    <ele>458.63000000000005</ele>
   </trkpt>
   <trkpt lat="-37.83276" lon="145.34487000000001">
    <ele>441.89000000000004</ele>
   </trkpt>
   <trkpt lat="-37.83267" lon="145.34406">
    <ele>406.11</ele>
   </trkpt>
   <trkpt lat="-37.83261" lon="145.34380000000002">
    <ele>395.0</ele>
   </trkpt>
   <trkpt lat="-37.83258" lon="145.34358">
    <ele>388.09000000000003</ele>
   </trkpt>
   <trkpt lat="-37.83261" lon="145.34326000000001">
    <ele>378.34</ele>
   </trkpt>
   <trkpt lat="-37.83249" lon="145.34288">
    <ele>358.72</ele>
   </trkpt>
   <trkpt lat="-37.83249" lon="145.34262">
    <ele>352.42</ele>
   </trkpt>
   <trkpt lat="-37.83245" lon="145.34245">
    <ele>342.77000000000004</ele>
   </trkpt>
   <trkpt lat="-37.83243" lon="145.34215">
    <ele>333.89</ele>
   </trkpt>
   <trkpt lat="-37.83238" lon="145.34191">
    <ele>324.17</ele>
   </trkpt>
   <trkpt lat="-37.83225" lon="145.34114000000002">
    <ele>306.15000000000003</ele>
   </trkpt>
   <trkpt lat="-37.832240000000006" lon="145.34091">
    <ele>298.37</ele>
   </trkpt>
   <trkpt lat="-37.83212" lon="145.34007000000003">
    <ele>282.18000000000006</ele>
   </trkpt>
   <trkpt lat="-37.83211" lon="145.33979000000002">
    <ele>276.88</ele>
   </trkpt>
   <trkpt lat="-37.831990000000005" lon="145.33924000000002">
    <ele>264.28000000000003</ele>
   </trkpt>
   <trkpt lat="-37.83191" lon="145.33862000000002">
    <ele>255.78</ele>
   </trkpt>
   <trkpt lat="-37.83189" lon="145.33772000000002">
    <ele>237.54000000000002</ele>
   </trkpt>
   <trkpt lat="-37.831830000000004" lon="145.33692000000002">
    <ele>226.63000000000002</ele>
   </trkpt>
   <trkpt lat="-37.83182" lon="145.33652">
    <ele>222.86</ele>
   </trkpt>
   <trkpt lat="-37.831736674348974" lon="145.33556666449172">
    <ele>213.1</ele>
   </trkpt>
   <trkpt lat="-37.831653341013755" lon="145.33461333113692">
    <ele>203.40000000000003</ele>
   </trkpt>
   <trkpt lat="-37.831570000000006" lon="145.33366">
    <ele>195.24</ele>
   </trkpt>
   <trkpt lat="-37.83228500030415" lon="145.33334000315872">
    <ele>195.79000000000002</ele>
   </trkpt>
   <trkpt lat="-37.833000000000006" lon="145.33302">
    <ele>205.31</ele>
   </trkpt>
   <trkpt lat="-37.833200000000005" lon="145.33290000000002">
    <ele>205.90000000000003</ele>
   </trkpt>
   <trkpt lat="-37.83328" lon="145.33304">
    <ele>208.49</ele>
   </trkpt>
   <trkpt lat="-37.8339" lon="145.33331">
    <ele>217.78000000000003</ele>
   </trkpt>
   <trkpt lat="-37.83419" lon="145.33354">
    <ele>221.29000000000002</ele>
   </trkpt>
   <trkpt lat="-37.83455" lon="145.33398000000003">
    <ele>226.3</ele>
   </trkpt>
   <trkpt lat="-37.83484" lon="145.33418">
    <ele>230.08</ele>
   </trkpt>
   <trkpt lat="-37.835" lon="145.33423000000002">
    <ele>232.29000000000002</ele>
   </trkpt>
   <trkpt lat="-37.83509" lon="145.33440000000002">
    <ele>234.55</ele>
   </trkpt>
   <trkpt lat="-37.835190000000004" lon="145.33453">
    <ele>236.12000000000003</ele>
   </trkpt>
   <trkpt lat="-37.835370000000005" lon="145.33488">
    <ele>239.24</ele>
   </trkpt>
   <trkpt lat="-37.83516" lon="145.33518">
    <ele>238.77</ele>
   </trkpt>
   <trkpt lat="-37.83502" lon="145.33532000000002">
    <ele>238.05</ele>
   </trkpt>
   <trkpt lat="-37.834970000000006" lon="145.33543">
    <ele>238.05</ele>
   </trkpt>
   <trkpt lat="-37.834970000000006" lon="145.33545">
    <ele>238.05</ele>
   </trkpt>
   <trkpt lat="-37.834790000000005" lon="145.33546">
    <ele>237.58</ele>
   </trkpt>
   <trkpt lat="-37.834720000000004" lon="145.33555">
    <ele>238.6</ele>
   </trkpt>
   <trkpt lat="-37.83471" lon="145.33567000000002">
    <ele>240.21</ele>
   </trkpt>
   <trkpt lat="-37.834590000000006" lon="145.33585000000002">
    <ele>242.76000000000002</ele>
   </trkpt>
   <trkpt lat="-37.83455" lon="145.33596">
    <ele>243.83</ele>
   </trkpt>
   <trkpt lat="-37.834610000000005" lon="145.33607">
    <ele>246.36</ele>
   </trkpt>
   <trkpt lat="-37.83464" lon="145.33618">
    <ele>249.05</ele>
   </trkpt>
   <trkpt lat="-37.83458" lon="145.33627">
    <ele>250.72</ele>
   </trkpt>
   <trkpt lat="-37.834590000000006" lon="145.33639000000002">
    <ele>254.15000000000003</ele>
   </trkpt>
   <trkpt lat="-37.83464" lon="145.33649">
    <ele>257.0</ele>
   </trkpt>
   <trkpt lat="-37.834610000000005" lon="145.33672">
    <ele>263.84000000000003</ele>
   </trkpt>
   <trkpt lat="-37.834680000000006" lon="145.33681">
    <ele>266.46000000000004</ele>
   </trkpt>
   <trkpt lat="-37.83476" lon="145.33686">
    <ele>267.3</ele>
   </trkpt>
   <trkpt lat="-37.83475" lon="145.33698">
    <ele>269.57000000000005</ele>
   </trkpt>
   <trkpt lat="-37.83478" lon="145.33709000000002">
    <ele>270.99</ele>
   </trkpt>
   <trkpt lat="-37.83475" lon="145.33721">
    <ele>273.58000000000004</ele>
   </trkpt>
   <trkpt lat="-37.83475" lon="145.33732">
    <ele>276.14</ele>
   </trkpt>
   <trkpt lat="-37.834810000000004" lon="145.3374">
    <ele>278.81</ele>
   </trkpt>
   <trkpt lat="-37.83478" lon="145.33775">
    <ele>290.66</ele>
   </trkpt>
   <trkpt lat="-37.834790000000005" lon="145.33787">
    <ele>293.72</ele>
   </trkpt>
   <trkpt lat="-37.83489" lon="145.33807000000002">
    <ele>301.91</ele>
   </trkpt>
   <trkpt lat="-37.83491" lon="145.3383">
    <ele>309.59000000000003</ele>
   </trkpt>
   <trkpt lat="-37.83487" lon="145.33841">
    <ele>309.05000000000007</ele>
   </trkpt>
   <trkpt lat="-37.834860000000006" lon="145.33864">
    <ele>312.25</ele>
   </trkpt>
   <trkpt lat="-37.834900000000005" lon="145.33875">
    <ele>315.88000000000005</ele>
   </trkpt>
   <trkpt lat="-37.834900000000005" lon="145.33887000000001">
    <ele>318.56</ele>
   </trkpt>
   <trkpt lat="-37.834990000000005" lon="145.33891">
    <ele>324.0</ele>
   </trkpt>
   <trkpt lat="-37.83527" lon="145.33898000000002">
    <ele>334.87</ele>
   </trkpt>
   <trkpt lat="-37.83543" lon="145.33887000000001">
    <ele>336.61</ele>
   </trkpt>
   <trkpt lat="-37.835530000000006" lon="145.33887000000001">
    <ele>338.96000000000004</ele>
   </trkpt>
   <trkpt lat="-37.83560000000001" lon="145.33895">
    <ele>342.19000000000005</ele>
   </trkpt>
   <trkpt lat="-37.83559" lon="145.33908000000002">
    <ele>343.98</ele>
   </trkpt>
   <trkpt lat="-37.835640000000005" lon="145.33918">
    <ele>345.94</ele>
   </trkpt>
   <trkpt lat="-37.83572" lon="145.33924000000002">
    <ele>348.93</ele>
   </trkpt>
   <trkpt lat="-37.835820000000005" lon="145.33924000000002">
    <ele>352.53000000000003</ele>
   </trkpt>
   <trkpt lat="-37.835910000000005" lon="145.33928">
    <ele>355.85</ele>
   </trkpt>
   <trkpt lat="-37.83597" lon="145.33937">
    <ele>355.85</ele>
   </trkpt>
   <trkpt lat="-37.83608" lon="145.33939">
    <ele>362.01000000000005</ele>
   </trkpt>
   <trkpt lat="-37.836270000000006" lon="145.33928">
    <ele>362.66</ele>
   </trkpt>
   <trkpt lat="-37.83632" lon="145.33938">
    <ele>367.14</ele>
   </trkpt>
   <trkpt lat="-37.83628" lon="145.33949">
    <ele>368.18</ele>
   </trkpt>
   <trkpt lat="-37.83634" lon="145.33984">
    <ele>377.14000000000004</ele>
   </trkpt>
   <trkpt lat="-37.83634" lon="145.3402">
    <ele>385.40000000000003</ele>
   </trkpt>
   <trkpt lat="-37.836310000000005" lon="145.34032000000002">
    <ele>385.78000000000003</ele>
   </trkpt>
   <trkpt lat="-37.83623" lon="145.34038">
    <ele>384.62</ele>
   </trkpt>
   <trkpt lat="-37.836180000000006" lon="145.34061">
    <ele>386.27000000000004</ele>
   </trkpt>
   <trkpt lat="-37.83625" lon="145.34069000000002">
    <ele>390.89</ele>
   </trkpt>
   <trkpt lat="-37.83634" lon="145.34071">
    <ele>395.13000000000005</ele>
   </trkpt>
   <trkpt lat="-37.836400000000005" lon="145.34081">
    <ele>399.25000000000006</ele>
   </trkpt>
   <trkpt lat="-37.83641" lon="145.34093000000001">
    <ele>402.21</ele>
   </trkpt>
   <trkpt lat="-37.8365" lon="145.34127">
    <ele>409.68000000000006</ele>
   </trkpt>
   <trkpt lat="-37.836360000000006" lon="145.34143">
    <ele>409.99</ele>
   </trkpt>
   <trkpt lat="-37.836310000000005" lon="145.34153">
    <ele>412.30000000000007</ele>
   </trkpt>
   <trkpt lat="-37.836290000000005" lon="145.34165000000002">
    <ele>415.16</ele>
   </trkpt>
   <trkpt lat="-37.836290000000005" lon="145.34177000000003">
    <ele>417.14</ele>
   </trkpt>
   <trkpt lat="-37.83621" lon="145.34186000000003">
    <ele>417.23</ele>
   </trkpt>
   <trkpt lat="-37.83612" lon="145.34192000000002">
    <ele>416.57000000000005</ele>
   </trkpt>
   <trkpt lat="-37.83607000000001" lon="145.34201000000002">
    <ele>420.04</ele>
   </trkpt>
   <trkpt lat="-37.83599" lon="145.34209">
    <ele>420.04</ele>
   </trkpt>
   <trkpt lat="-37.835820000000005" lon="145.34221000000002">
    <ele>418.53000000000003</ele>
   </trkpt>
   <trkpt lat="-37.83569" lon="145.34236">
    <ele>423.05</ele>
   </trkpt>
   <trkpt lat="-37.83563" lon="145.34247000000002">
    <ele>427.34000000000003</ele>
   </trkpt>
   <trkpt lat="-37.83563" lon="145.34281000000001">
    <ele>440.35</ele>
   </trkpt>
   <trkpt lat="-37.835660000000004" lon="145.34293000000002">
    <ele>444.78</ele>
   </trkpt>
   <trkpt lat="-37.835710000000006" lon="145.34304">
    <ele>452.39</ele>
   </trkpt>
   <trkpt lat="-37.83565" lon="145.34313">
    <ele>455.98</ele>
   </trkpt>
   <trkpt lat="-37.83563" lon="145.34325">
    <ele>462.87000000000006</ele>
   </trkpt>
   <trkpt lat="-37.835660000000004" lon="145.34336000000002">
    <ele>467.88</ele>
   </trkpt>
   <trkpt lat="-37.83572" lon="145.34345000000002">
    <ele>473.69000000000005</ele>
   </trkpt>
   <trkpt lat="-37.835910000000005" lon="145.34347000000002">
    <ele>477.65000000000003</ele>
   </trkpt>
   <trkpt lat="-37.83596" lon="145.34357">
    <ele>481.95000000000005</ele>
   </trkpt>
   <trkpt lat="-37.83597" lon="145.34369">
    <ele>487.05</ele>
   </trkpt>
   <trkpt lat="-37.83605" lon="145.34375">
    <ele>491.72</ele>
   </trkpt>
   <trkpt lat="-37.83614" lon="145.34378">
    <ele>493.00000000000006</ele>
   </trkpt>
   <trkpt lat="-37.836220000000004" lon="145.34384">
    <ele>496.62000000000006</ele>
   </trkpt>
   <trkpt lat="-37.836310000000005" lon="145.34386">
    <ele>497.2900000000001</ele>
   </trkpt>
   <trkpt lat="-37.836400000000005" lon="145.34391000000002">
    <ele>499.50000000000006</ele>
   </trkpt>
   <trkpt lat="-37.83655" lon="145.34406">
    <ele>508.75</ele>
   </trkpt>
   <trkpt lat="-37.83655" lon="145.34418000000002">
    <ele>512.5600000000001</ele>
   </trkpt>
   <trkpt lat="-37.83663000000001" lon="145.34423">
    <ele>518.1</ele>
   </trkpt>
   <trkpt lat="-37.83673" lon="145.34423">
    <ele>520.3100000000001</ele>
   </trkpt>
   <trkpt lat="-37.836650000000006" lon="145.34429">
    <ele>521.0799999999999</ele>
   </trkpt>
   <trkpt lat="-37.83661" lon="145.34439">
    <ele>524.7700000000001</ele>
   </trkpt>
   <trkpt lat="-37.8367" lon="145.34445000000002">
    <ele>530.91</ele>
   </trkpt>
   <trkpt lat="-37.83679" lon="145.34449">
    <ele>535.5600000000001</ele>
   </trkpt>
   <trkpt lat="-37.83691" lon="145.34466">
    <ele>546.07</ele>
   </trkpt>
   <trkpt lat="-37.836740000000006" lon="145.34476">
    <ele>547.0400000000001</ele>
   </trkpt>
   <trkpt lat="-37.836670000000005" lon="145.34484">
    <ele>550.44</ele>
   </trkpt>
   <trkpt lat="-37.83663000000001" lon="145.34494">
    <ele>553.4499999999999</ele>
   </trkpt>
   <trkpt lat="-37.83663000000001" lon="145.34505000000001">
    <ele>557.09</ele>
   </trkpt>
   <trkpt lat="-37.836690000000004" lon="145.34527">
    <ele>564.4200000000001</ele>
   </trkpt>
   <trkpt lat="-37.83661" lon="145.34532000000002">
    <ele>565.46</ele>
   </trkpt>
   <trkpt lat="-37.836580000000005" lon="145.34544000000002">
    <ele>569.7</ele>
   </trkpt>
   <trkpt lat="-37.836670000000005" lon="145.34549">
    <ele>572.0</ele>
   </trkpt>
   <trkpt lat="-37.83682" lon="145.34562000000003">
    <ele>580.33</ele>
   </trkpt>
   <trkpt lat="-37.83699" lon="145.34572">
    <ele>589.28</ele>
   </trkpt>
   <trkpt lat="-37.83693" lon="145.34580000000003">
    <ele>589.28</ele>
   </trkpt>
   <trkpt lat="-37.836890000000004" lon="145.34591">
    <ele>593.31</ele>
   </trkpt>
   <trkpt lat="-37.83691" lon="145.34603">
    <ele>597.28</ele>
   </trkpt>
   <trkpt lat="-37.836890000000004" lon="145.34614000000002">
    <ele>600.14</ele>
   </trkpt>
   <trkpt lat="-37.836830000000006" lon="145.34623000000002">
    <ele>603.96</ele>
   </trkpt>
   <trkpt lat="-37.836870000000005" lon="145.34646">
    <ele>609.01</ele>
   </trkpt>
   <trkpt lat="-37.836940000000006" lon="145.34658000000002">
    <ele>609.71</ele>
   </trkpt>
   <trkpt lat="-37.83726" lon="145.34629">
    <ele>599.89</ele>
   </trkpt>
   <trkpt lat="-37.83733" lon="145.34626">
    <ele>598.8800000000001</ele>
   </trkpt>
   <trkpt lat="-37.83766" lon="145.34623000000002">
    <ele>592.04</ele>
   </trkpt>
   <trkpt lat="-37.83791" lon="145.34608">
    <ele>584.0000000000001</ele>
   </trkpt>
   <trkpt lat="-37.83813" lon="145.34605000000002">
    <ele>579.8199999999999</ele>
   </trkpt>
   <trkpt lat="-37.83834" lon="145.34596000000002">
    <ele>570.62</ele>
   </trkpt>
   <trkpt lat="-37.83843" lon="145.34587000000002">
    <ele>569.3100000000001</ele>
   </trkpt>
   <trkpt lat="-37.83856" lon="145.34584">
    <ele>566.2</ele>
   </trkpt>
   <trkpt lat="-37.83872" lon="145.34589000000003">
    <ele>564.74</ele>
   </trkpt>
   <trkpt lat="-37.83896" lon="145.34608">
    <ele>565.3600000000001</ele>
   </trkpt>
   <trkpt lat="-37.83912" lon="145.34615000000002">
    <ele>563.2900000000001</ele>
   </trkpt>
   <trkpt lat="-37.83961" lon="145.34607000000003">
    <ele>555.88</ele>
   </trkpt>
   <trkpt lat="-37.83979" lon="145.34606000000002">
    <ele>549.3100000000001</ele>
   </trkpt>
   <trkpt lat="-37.84004" lon="145.34607000000003">
    <ele>544.4300000000001</ele>
   </trkpt>
   <trkpt lat="-37.84013" lon="145.34609">
    <ele>542.9200000000001</ele>
   </trkpt>
   <trkpt lat="-37.84024" lon="145.34614000000002">
    <ele>541.54</ele>
   </trkpt>
   <trkpt lat="-37.84035" lon="145.34613000000002">
    <ele>539.85</ele>
   </trkpt>
   <trkpt lat="-37.84035" lon="145.34611">
    <ele>539.85</ele>
   </trkpt>
   <trkpt lat="-37.84035" lon="145.34613000000002">
    <ele>539.85</ele>
   </trkpt>
   <trkpt lat="-37.84035" lon="145.34608">
    <ele>539.0200000000001</ele>
   </trkpt>
   <trkpt lat="-37.84004" lon="145.34539">
    <ele>530.39</ele>
   </trkpt>
   <trkpt lat="-37.83977" lon="145.34502">
    <ele>520.87</ele>
   </trkpt>
   <trkpt lat="-37.83977" lon="145.34496000000001">
    <ele>517.93</ele>
   </trkpt>
   <trkpt lat="-37.83979" lon="145.34494">
    <ele>517.93</ele>
   </trkpt>
   <trkpt lat="-37.839850000000006" lon="145.34493">
    <ele>517.93</ele>
   </trkpt>
   <trkpt lat="-37.84055" lon="145.34504">
    <ele>505.2000000000001</ele>
   </trkpt>
   <trkpt lat="-37.84082" lon="145.34512">
    <ele>503.92</ele>
   </trkpt>
   <trkpt lat="-37.84122" lon="145.34528">
    <ele>495.97</ele>
   </trkpt>
   <trkpt lat="-37.84127" lon="145.34528">
    <ele>495.97</ele>
   </trkpt>
   <trkpt lat="-37.84127" lon="145.34522">
    <ele>494.47</ele>
   </trkpt>
   <trkpt lat="-37.8412" lon="145.34501">
    <ele>491.62000000000006</ele>
   </trkpt>
   <trkpt lat="-37.84109" lon="145.34479000000002">
    <ele>489.32000000000005</ele>
   </trkpt>
   <trkpt lat="-37.84091" lon="145.34454000000002">
    <ele>483.41</ele>
   </trkpt>
   <trkpt lat="-37.84051" lon="145.34409000000002">
    <ele>472.76</ele>
   </trkpt>
   <trkpt lat="-37.84028" lon="145.34392000000003">
    <ele>469.65</ele>
   </trkpt>
   <trkpt lat="-37.84024" lon="145.34384">
    <ele>468.26000000000005</ele>
   </trkpt>
   <trkpt lat="-37.84057" lon="145.34386">
    <ele>465.93</ele>
   </trkpt>
   <trkpt lat="-37.84091" lon="145.34394">
    <ele>463.36</ele>
   </trkpt>
   <trkpt lat="-37.84125" lon="145.34408000000002">
    <ele>461.12</ele>
   </trkpt>
   <trkpt lat="-37.84163" lon="145.34426000000002">
    <ele>458.28000000000003</ele>
   </trkpt>
   <trkpt lat="-37.84183" lon="145.34441">
    <ele>456.93000000000006</ele>
   </trkpt>
   <trkpt lat="-37.842040000000004" lon="145.34463000000002">
    <ele>456.59000000000003</ele>
   </trkpt>
   <trkpt lat="-37.84223" lon="145.34454000000002">
    <ele>450.0</ele>
   </trkpt>
   <trkpt lat="-37.8427" lon="145.34416000000002">
    <ele>425.76</ele>
   </trkpt>
   <trkpt lat="-37.84281" lon="145.34412">
    <ele>420.7</ele>
   </trkpt>
   <trkpt lat="-37.84288" lon="145.34407000000002">
    <ele>417.66</ele>
   </trkpt>
   <trkpt lat="-37.84304" lon="145.34381000000002">
    <ele>408.7</ele>
   </trkpt>
   <trkpt lat="-37.84348" lon="145.34359">
    <ele>393.25000000000006</ele>
   </trkpt>
   <trkpt lat="-37.84371" lon="145.3436">
    <ele>387.88000000000005</ele>
   </trkpt>
   <trkpt lat="-37.84438" lon="145.34394">
    <ele>360.75</ele>
   </trkpt>
   <trkpt lat="-37.84478" lon="145.34428">
    <ele>350.58</ele>
   </trkpt>
   <trkpt lat="-37.84496" lon="145.34426000000002">
    <ele>346.36</ele>
   </trkpt>
   <trkpt lat="-37.84505" lon="145.34416000000002">
    <ele>344.57000000000005</ele>
   </trkpt>
   <trkpt lat="-37.84516" lon="145.34378">
    <ele>341.62</ele>
   </trkpt>
   <trkpt lat="-37.8455" lon="145.34315">
    <ele>327.8</ele>
   </trkpt>
   <trkpt lat="-37.84561" lon="145.34342">
    <ele>326.26000000000005</ele>
   </trkpt>
   <trkpt lat="-37.8457" lon="145.34371000000002">
    <ele>325.35</ele>
   </trkpt>
   <trkpt lat="-37.8457" lon="145.34397">
    <ele>321.49000000000007</ele>
   </trkpt>
   <trkpt lat="-37.84568" lon="145.34411">
    <ele>320.18</ele>
   </trkpt>
   <trkpt lat="-37.84579" lon="145.34413">
    <ele>316.44</ele>
   </trkpt>
   <trkpt lat="-37.84599" lon="145.34422">
    <ele>315.0</ele>
   </trkpt>
   <trkpt lat="-37.84642" lon="145.34432">
    <ele>308.53000000000003</ele>
   </trkpt>
   <trkpt lat="-37.84657" lon="145.34428">
    <ele>305.06</ele>
   </trkpt>
   <trkpt lat="-37.84666" lon="145.3442">
    <ele>303.8</ele>
   </trkpt>
   <trkpt lat="-37.84691" lon="145.34377">
    <ele>298.99</ele>
   </trkpt>
   <trkpt lat="-37.84702" lon="145.34371000000002">
    <ele>297.86</ele>
   </trkpt>
   <trkpt lat="-37.84709" lon="145.34374000000003">
    <ele>297.33000000000004</ele>
   </trkpt>
   <trkpt lat="-37.847170000000006" lon="145.34381000000002">
    <ele>297.33000000000004</ele>
   </trkpt>
   <trkpt lat="-37.84718" lon="145.34387">
    <ele>296.41</ele>
   </trkpt>
   <trkpt lat="-37.8472" lon="145.34408000000002">
    <ele>295.91</ele>
   </trkpt>
   <trkpt lat="-37.84707" lon="145.34472000000002">
    <ele>292.69</ele>
   </trkpt>
   <trkpt lat="-37.84707" lon="145.34496000000001">
    <ele>292.72</ele>
   </trkpt>
   <trkpt lat="-37.847170000000006" lon="145.34528">
    <ele>293.26</ele>
   </trkpt>
   <trkpt lat="-37.84722" lon="145.34541000000002">
    <ele>293.43</ele>
   </trkpt>
   <trkpt lat="-37.84731" lon="145.34550000000002">
    <ele>293.44000000000005</ele>
   </trkpt>
   <trkpt lat="-37.84745" lon="145.34555">
    <ele>293.29</ele>
   </trkpt>
   <trkpt lat="-37.84756" lon="145.34556">
    <ele>292.87</ele>
   </trkpt>
   <trkpt lat="-37.84781" lon="145.34555">
    <ele>291.6</ele>
   </trkpt>
   <trkpt lat="-37.84789" lon="145.34557">
    <ele>290.99</ele>
   </trkpt>
   <trkpt lat="-37.84798" lon="145.34563">
    <ele>290.34999999999997</ele>
   </trkpt>
   <trkpt lat="-37.848200000000006" lon="145.3459">
    <ele>288.21000000000004</ele>
   </trkpt>
   <trkpt lat="-37.84848" lon="145.34639">
    <ele>284.64</ele>
   </trkpt>
   <trkpt lat="-37.84852" lon="145.34641000000002">
    <ele>284.04</ele>
   </trkpt>
   <trkpt lat="-37.84854" lon="145.34642000000002">
    <ele>284.04</ele>
   </trkpt>
   <trkpt lat="-37.84857" lon="145.34639">
    <ele>284.04</ele>
   </trkpt>
   <trkpt lat="-37.84859" lon="145.34626">
    <ele>281.72</ele>
   </trkpt>
   <trkpt lat="-37.848600001899754" lon="145.34558999997228">
    <ele>277.84000000000003</ele>
   </trkpt>
   <trkpt lat="-37.84861" lon="145.34492">
    <ele>275.39000000000004</ele>
   </trkpt>
   <trkpt lat="-37.84868" lon="145.34415">
    <ele>273.72</ele>
   </trkpt>
   <trkpt lat="-37.84875" lon="145.34365000000003">
    <ele>273.35</ele>
   </trkpt>
   <trkpt lat="-37.84875" lon="145.34361">
    <ele>273.31</ele>
   </trkpt>
   <trkpt lat="-37.84895" lon="145.34452000000002">
    <ele>284.18000000000006</ele>
   </trkpt>
   <trkpt lat="-37.8491" lon="145.34499000000002">
    <ele>291.34000000000003</ele>
   </trkpt>
   <trkpt lat="-37.84937" lon="145.34567">
    <ele>301.35</ele>
   </trkpt>
   <trkpt lat="-37.84964" lon="145.34674">
    <ele>309.41</ele>
   </trkpt>
   <trkpt lat="-37.84975" lon="145.34712000000002">
    <ele>313.07</ele>
   </trkpt>
   <trkpt lat="-37.85007" lon="145.34765000000002">
    <ele>320.21999999999997</ele>
   </trkpt>
   <trkpt lat="-37.85033500150118" lon="145.34822999808796">
    <ele>330.67</ele>
   </trkpt>
   <trkpt lat="-37.8506" lon="145.34881000000001">
    <ele>337.48</ele>
   </trkpt>
   <trkpt lat="-37.8508" lon="145.34936000000002">
    <ele>343.72</ele>
   </trkpt>
   <trkpt lat="-37.850970000000004" lon="145.34966">
    <ele>353.37</ele>
   </trkpt>
   <trkpt lat="-37.85098" lon="145.34967">
    <ele>353.37</ele>
   </trkpt>
   <trkpt lat="-37.85105" lon="145.34977">
    <ele>353.37</ele>
   </trkpt>
   <trkpt lat="-37.85116" lon="145.34979">
    <ele>361.81</ele>
   </trkpt>
   <trkpt lat="-37.85195" lon="145.34931">
    <ele>393.99</ele>
   </trkpt>
   <trkpt lat="-37.85246" lon="145.34893000000002">
    <ele>412.24000000000007</ele>
   </trkpt>
   <trkpt lat="-37.85262" lon="145.34889">
    <ele>419.06000000000006</ele>
   </trkpt>
   <trkpt lat="-37.85284" lon="145.34871">
    <ele>428.09000000000003</ele>
   </trkpt>
   <trkpt lat="-37.85298" lon="145.34869">
    <ele>429.33000000000004</ele>
   </trkpt>
   <trkpt lat="-37.85329" lon="145.34838000000002">
    <ele>436.88000000000005</ele>
   </trkpt>
   <trkpt lat="-37.853480000000005" lon="145.34833">
    <ele>439.46000000000004</ele>
   </trkpt>
   <trkpt lat="-37.85349" lon="145.34832">
    <ele>439.46000000000004</ele>
   </trkpt>
   <trkpt lat="-37.85347" lon="145.34849">
    <ele>440.1</ele>
   </trkpt>
   <trkpt lat="-37.85349" lon="145.34869">
    <ele>446.13</ele>
   </trkpt>
   <trkpt lat="-37.85378" lon="145.34931">
    <ele>451.83</ele>
   </trkpt>
   <trkpt lat="-37.85419" lon="145.34983000000003">
    <ele>459.73</ele>
   </trkpt>
   <trkpt lat="-37.85468" lon="145.35037">
    <ele>473.68000000000006</ele>
   </trkpt>
   <trkpt lat="-37.85507500138615" lon="145.35092499714384">
    <ele>482.84000000000003</ele>
   </trkpt>
   <trkpt lat="-37.855470000000004" lon="145.35148">
    <ele>493.24000000000007</ele>
   </trkpt>
   <trkpt lat="-37.85580500087528" lon="145.35193999788288">
    <ele>497.90000000000003</ele>
   </trkpt>
   <trkpt lat="-37.85614" lon="145.35240000000002">
    <ele>507.14000000000004</ele>
   </trkpt>
   <trkpt lat="-37.85644000082839" lon="145.35284999812686">
    <ele>515.58</ele>
   </trkpt>
   <trkpt lat="-37.85674" lon="145.35330000000002">
    <ele>527.52</ele>
   </trkpt>
   <trkpt lat="-37.85703" lon="145.35389">
    <ele>540.46</ele>
   </trkpt>
   <trkpt lat="-37.85703" lon="145.35401000000002">
    <ele>542.86</ele>
   </trkpt>
   <trkpt lat="-37.85685" lon="145.35449">
    <ele>551.61</ele>
   </trkpt>
   <trkpt lat="-37.8568" lon="145.35479">
    <ele>557.2600000000001</ele>
   </trkpt>
   <trkpt lat="-37.85681" lon="145.35496">
    <ele>559.79</ele>
   </trkpt>
   <trkpt lat="-37.85683" lon="145.35502000000002">
    <ele>559.79</ele>
   </trkpt>
   <trkpt lat="-37.85718" lon="145.35543">
    <ele>571.09</ele>
   </trkpt>
   <trkpt lat="-37.857330000000005" lon="145.35569">
    <ele>574.4100000000001</ele>
   </trkpt>
   <trkpt lat="-37.85745" lon="145.35567">
    <ele>574.96</ele>
   </trkpt>
   <trkpt lat="-37.85756000000001" lon="145.35572000000002">
    <ele>575.1700000000001</ele>
   </trkpt>
   <trkpt lat="-37.85765" lon="145.35573000000002">
    <ele>574.79</ele>
   </trkpt>
   <trkpt lat="-37.85775" lon="145.35569">
    <ele>574.0500000000001</ele>
   </trkpt>
   <trkpt lat="-37.85792" lon="145.35547000000003">
    <ele>571.1700000000001</ele>
   </trkpt>
   <trkpt lat="-37.85826" lon="145.35524">
    <ele>560.6300000000001</ele>
   </trkpt>
   <trkpt lat="-37.85846" lon="145.35508000000002">
    <ele>557.3299999999999</ele>
   </trkpt>
   <trkpt lat="-37.85866" lon="145.35498">
    <ele>550.34</ele>
   </trkpt>
   <trkpt lat="-37.85877" lon="145.35487">
    <ele>545.7800000000001</ele>
   </trkpt>
   <trkpt lat="-37.85889" lon="145.35466000000002">
    <ele>542.07</ele>
   </trkpt>
   <trkpt lat="-37.85915" lon="145.35439000000002">
    <ele>531.34</ele>
   </trkpt>
   <trkpt lat="-37.85942" lon="145.35421000000002">
    <ele>521.11</ele>
   </trkpt>
   <trkpt lat="-37.85969" lon="145.35411000000002">
    <ele>515.47</ele>
   </trkpt>
   <trkpt lat="-37.85981" lon="145.35401000000002">
    <ele>512.6500000000001</ele>
   </trkpt>
   <trkpt lat="-37.85956" lon="145.35346">
    <ele>504.32</ele>
   </trkpt>
   <trkpt lat="-37.85938" lon="145.35323000000002">
    <ele>499.41</ele>
   </trkpt>
   <trkpt lat="-37.85931" lon="145.35311000000002">
    <ele>497.38000000000005</ele>
   </trkpt>
   <trkpt lat="-37.85927" lon="145.35287000000002">
    <ele>490.58</ele>
   </trkpt>
   <trkpt lat="-37.85929" lon="145.35279">
    <ele>487.28000000000003</ele>
   </trkpt>
   <trkpt lat="-37.85938" lon="145.35266000000001">
    <ele>487.28000000000003</ele>
   </trkpt>
   <trkpt lat="-37.85945" lon="145.35245">
    <ele>475.32</ele>
   </trkpt>
   <trkpt lat="-37.85945" lon="145.35244">
    <ele>475.12</ele>
   </trkpt>
   <trkpt lat="-37.8592" lon="145.35248">
    <ele>478.63000000000005</ele>
   </trkpt>
   <trkpt lat="-37.85851" lon="145.35268000000002">
    <ele>490.03000000000003</ele>
   </trkpt>
   <trkpt lat="-37.85815" lon="145.35273">
    <ele>493.97</ele>
   </trkpt>
   <trkpt lat="-37.857635000010575" lon="145.35270499982573">
    <ele>498.88000000000005</ele>
   </trkpt>
   <trkpt lat="-37.85712" lon="145.35268000000002">
    <ele>503.83</ele>
   </trkpt>
   <trkpt lat="-37.85701" lon="145.35266000000001">
    <ele>506.55000000000007</ele>
   </trkpt>
   <trkpt lat="-37.85683" lon="145.35260000000002">
    <ele>507.4000000000001</ele>
   </trkpt>
   <trkpt lat="-37.85636" lon="145.35252">
    <ele>509.4000000000001</ele>
   </trkpt>
   <trkpt lat="-37.85622" lon="145.35247">
    <ele>508.19</ele>
   </trkpt>
   <trkpt lat="-37.85614" lon="145.35240000000002">
    <ele>507.14000000000004</ele>
   </trkpt>
   <trkpt lat="-37.85580500091417" lon="145.35193999793628">
    <ele>497.90000000000003</ele>
   </trkpt>
   <trkpt lat="-37.855470000000004" lon="145.35148">
    <ele>493.24000000000007</ele>
   </trkpt>
   <trkpt lat="-37.85507500121872" lon="145.3509249969086">
    <ele>482.84000000000003</ele>
   </trkpt>
   <trkpt lat="-37.85468" lon="145.35037">
    <ele>473.68000000000006</ele>
   </trkpt>
   <trkpt lat="-37.85419" lon="145.34983000000003">
    <ele>459.73</ele>
   </trkpt>
   <trkpt lat="-37.85378" lon="145.34931">
    <ele>451.83</ele>
   </trkpt>
   <trkpt lat="-37.85369" lon="145.34913">
    <ele>450.27000000000004</ele>
   </trkpt>
   <trkpt lat="-37.85349" lon="145.34869">
    <ele>446.13</ele>
   </trkpt>
   <trkpt lat="-37.85347" lon="145.34849">
    <ele>440.1</ele>
   </trkpt>
   <trkpt lat="-37.85349" lon="145.34832">
    <ele>439.70000000000005</ele>
   </trkpt>
   <trkpt lat="-37.85347" lon="145.34764">
    <ele>433.65000000000003</ele>
   </trkpt>
   <trkpt lat="-37.85351" lon="145.34748000000002">
    <ele>433.54</ele>
   </trkpt>
   <trkpt lat="-37.85347" lon="145.34726">
    <ele>433.56000000000006</ele>
   </trkpt>
   <trkpt lat="-37.85324" lon="145.34681">
    <ele>434.6</ele>
   </trkpt>
   <trkpt lat="-37.853170000000006" lon="145.34639">
    <ele>435.71000000000004</ele>
   </trkpt>
   <trkpt lat="-37.85302" lon="145.34598000000003">
    <ele>437.88000000000005</ele>
   </trkpt>
   <trkpt lat="-37.85295" lon="145.3459">
    <ele>438.66</ele>
   </trkpt>
   <trkpt lat="-37.85293" lon="145.34572">
    <ele>439.38000000000005</ele>
   </trkpt>
   <trkpt lat="-37.85282" lon="145.34555">
    <ele>439.87</ele>
   </trkpt>
   <trkpt lat="-37.85251" lon="145.34527">
    <ele>438.69</ele>
   </trkpt>
   <trkpt lat="-37.85237" lon="145.34506000000002">
    <ele>436.56000000000006</ele>
   </trkpt>
   <trkpt lat="-37.85222" lon="145.34492">
    <ele>433.98</ele>
   </trkpt>
   <trkpt lat="-37.85215" lon="145.34484">
    <ele>432.35</ele>
   </trkpt>
   <trkpt lat="-37.85201" lon="145.34452000000002">
    <ele>424.37</ele>
   </trkpt>
   <trkpt lat="-37.85197" lon="145.34435000000002">
    <ele>424.37</ele>
   </trkpt>
   <trkpt lat="-37.85199" lon="145.34417000000002">
    <ele>420.02000000000004</ele>
   </trkpt>
   <trkpt lat="-37.85197" lon="145.34400000000002">
    <ele>415.40000000000003</ele>
   </trkpt>
   <trkpt lat="-37.8519" lon="145.34390000000002">
    <ele>413.28000000000003</ele>
   </trkpt>
   <trkpt lat="-37.8519" lon="145.34376">
    <ele>413.97</ele>
   </trkpt>
   <trkpt lat="-37.85154" lon="145.34303">
    <ele>397.33</ele>
   </trkpt>
   <trkpt lat="-37.85155" lon="145.34304">
    <ele>397.33</ele>
   </trkpt>
   <trkpt lat="-37.8515" lon="145.34263">
    <ele>387.8</ele>
   </trkpt>
   <trkpt lat="-37.85143" lon="145.34219000000002">
    <ele>383.82000000000005</ele>
   </trkpt>
   <trkpt lat="-37.85143" lon="145.34191">
    <ele>380.14000000000004</ele>
   </trkpt>
   <trkpt lat="-37.85132" lon="145.34087000000002">
    <ele>370.94000000000005</ele>
   </trkpt>
   <trkpt lat="-37.8513" lon="145.34011">
    <ele>362.04</ele>
   </trkpt>
   <trkpt lat="-37.85121" lon="145.33961000000002">
    <ele>354.93</ele>
   </trkpt>
   <trkpt lat="-37.85112" lon="145.33899000000002">
    <ele>347.85</ele>
   </trkpt>
   <trkpt lat="-37.85112" lon="145.33867">
    <ele>344.65</ele>
   </trkpt>
   <trkpt lat="-37.85105" lon="145.33794">
    <ele>334.54</ele>
   </trkpt>
   <trkpt lat="-37.851110000000006" lon="145.33723">
    <ele>322.55</ele>
   </trkpt>
   <trkpt lat="-37.85103" lon="145.33685">
    <ele>317.37000000000006</ele>
   </trkpt>
   <trkpt lat="-37.85074" lon="145.33634">
    <ele>312.71000000000004</ele>
   </trkpt>
   <trkpt lat="-37.85063" lon="145.33599">
    <ele>308.35</ele>
   </trkpt>
   <trkpt lat="-37.85051" lon="145.33530000000002">
    <ele>295.42</ele>
   </trkpt>
   <trkpt lat="-37.85051" lon="145.33468000000002">
    <ele>285.17</ele>
   </trkpt>
   <trkpt lat="-37.850645001564736" lon="145.33407000115557">
    <ele>271.32</ele>
   </trkpt>
   <trkpt lat="-37.85078" lon="145.33346">
    <ele>256.06</ele>
   </trkpt>
   <trkpt lat="-37.8508" lon="145.33325000000002">
    <ele>253.91000000000003</ele>
   </trkpt>
   <trkpt lat="-37.85076" lon="145.33294">
    <ele>245.21</ele>
   </trkpt>
   <trkpt lat="-37.85085" lon="145.33266">
    <ele>242.09000000000003</ele>
   </trkpt>
   <trkpt lat="-37.850860000000004" lon="145.33241">
    <ele>232.58</ele>
   </trkpt>
   <trkpt lat="-37.850930000000005" lon="145.33236000000002">
    <ele>231.11</ele>
   </trkpt>
   <trkpt lat="-37.8513" lon="145.33203">
    <ele>225.88000000000002</ele>
   </trkpt>
   <trkpt lat="-37.85141" lon="145.33196">
    <ele>225.88000000000002</ele>
   </trkpt>
   <trkpt lat="-37.85188" lon="145.33175">
    <ele>221.99</ele>
   </trkpt>
   <trkpt lat="-37.85215" lon="145.33154000000002">
    <ele>220.64000000000001</ele>
   </trkpt>
   <trkpt lat="-37.85244" lon="145.33113">
    <ele>218.60000000000002</ele>
   </trkpt>
   <trkpt lat="-37.85269" lon="145.33069">
    <ele>215.18</ele>
   </trkpt>
   <trkpt lat="-37.85278" lon="145.33046000000002">
    <ele>214.21</ele>
   </trkpt>
  </trkseg>
 </trk>
</gpx>
