<?xml version="1.0" encoding="UTF-8"?>
<gpx creator="StravaGPX" version="1.1" xmlns="http://www.topografix.com/GPX/1/1" xmlns:xsi="http://www.w3.org/2001/XMLSchema-instance" xsi:schemaLocation="http://www.topografix.com/GPX/1/1 http://www.topografix.com/GPX/1/1/gpx.xsd">
 <metadata>
  <name>Logan Park Track-West Boundary Track-Casuarina track</name>
  <author>
   <name>Natalie Gow</name>
  </author>
  <copyright author="OpenStreetMap contributors">
   <year>2020</year>
   <license>https://www.openstreetmap.org/copyright</license>
  </copyright>
 </metadata>
 <trk>
  <name>Logan Park Track-West Boundary Track-Casuarina track</name>
  <link href=""/>
  <type>running</type>
  <trkseg>
   <trkpt lat="-37.965770000000006" lon="145.30289000000002">
    <ele>91.28000000000002</ele>
   </trkpt>
   <trkpt lat="-37.96569" lon="145.30293">
    <ele>91.6</ele>
   </trkpt>
   <trkpt lat="-37.96566" lon="145.30316000000002">
    <ele>91.88</ele>
   </trkpt>
   <trkpt lat="-37.96569" lon="145.30328">
    <ele>91.9</ele>
   </trkpt>
   <trkpt lat="-37.96564" lon="145.30343000000002">
    <ele>91.76</ele>
   </trkpt>
   <trkpt lat="-37.96557" lon="145.30356">
    <ele>91.51</ele>
   </trkpt>
   <trkpt lat="-37.96549" lon="145.30367">
    <ele>90.73</ele>
   </trkpt>
   <trkpt lat="-37.96537" lon="145.30372">
    <ele>90.37</ele>
   </trkpt>
   <trkpt lat="-37.965250000000005" lon="145.30386000000001">
    <ele>89.18</ele>
   </trkpt>
   <trkpt lat="-37.96522" lon="145.30385">
    <ele>89.18</ele>
   </trkpt>
   <trkpt lat="-37.96486" lon="145.30398000000002">
    <ele>87.95</ele>
   </trkpt>
   <trkpt lat="-37.96406" lon="145.30444">
    <ele>83.87</ele>
   </trkpt>
   <trkpt lat="-37.96337000140595" lon="145.30486000794608">
    <ele>82.10000000000001</ele>
   </trkpt>
   <trkpt lat="-37.9626800013187" lon="145.30528000799904">
    <ele>80.80000000000001</ele>
   </trkpt>
   <trkpt lat="-37.96199" lon="145.3057">
    <ele>80.48</ele>
   </trkpt>
   <trkpt lat="-37.96164" lon="145.30586000000002">
    <ele>80.60000000000001</ele>
   </trkpt>
   <trkpt lat="-37.96089000036123" lon="145.306022504973">
    <ele>82.10000000000001</ele>
   </trkpt>
   <trkpt lat="-37.960140000498946" lon="145.30618500662678">
    <ele>85.45000000000002</ele>
   </trkpt>
   <trkpt lat="-37.95939000041313" lon="145.30634750496156">
    <ele>86.46000000000001</ele>
   </trkpt>
   <trkpt lat="-37.95864" lon="145.30651">
    <ele>87.49000000000001</ele>
   </trkpt>
   <trkpt lat="-37.957864000676665" lon="145.3067100084524">
    <ele>86.44</ele>
   </trkpt>
   <trkpt lat="-37.95708800101475" lon="145.30691001267843">
    <ele>86.36</ele>
   </trkpt>
   <trkpt lat="-37.956312001014254" lon="145.30711001267838">
    <ele>86.73</ele>
   </trkpt>
   <trkpt lat="-37.95553600067519" lon="145.30731000845236">
    <ele>87.72</ele>
   </trkpt>
   <trkpt lat="-37.95476" lon="145.30751">
    <ele>88.97</ele>
   </trkpt>
   <trkpt lat="-37.95410000023479" lon="145.30769000159066">
    <ele>89.97000000000001</ele>
   </trkpt>
   <trkpt lat="-37.95344" lon="145.30787">
    <ele>90.83000000000001</ele>
   </trkpt>
   <trkpt lat="-37.95315" lon="145.30789000000001">
    <ele>90.92</ele>
   </trkpt>
   <trkpt lat="-37.952740000000006" lon="145.30795">
    <ele>91.06</ele>
   </trkpt>
   <trkpt lat="-37.95191000009693" lon="145.30812500198408">
    <ele>91.53000000000002</ele>
   </trkpt>
   <trkpt lat="-37.951080000000005" lon="145.3083">
    <ele>93.24</ele>
   </trkpt>
   <trkpt lat="-37.950955010217164" lon="145.30740249535194">
    <ele>93.53</ele>
   </trkpt>
   <trkpt lat="-37.950830013616645" lon="145.30650499375793">
    <ele>94.19000000000001</ele>
   </trkpt>
   <trkpt lat="-37.95070501019848" lon="145.30560749521808">
    <ele>97.14</ele>
   </trkpt>
   <trkpt lat="-37.95058" lon="145.30471">
    <ele>104.31000000000002</ele>
   </trkpt>
   <trkpt lat="-37.950520000000004" lon="145.30421">
    <ele>106.56</ele>
   </trkpt>
   <trkpt lat="-37.95006" lon="145.30426">
    <ele>106.34</ele>
   </trkpt>
   <trkpt lat="-37.94957" lon="145.30428">
    <ele>106.27</ele>
   </trkpt>
   <trkpt lat="-37.9491" lon="145.30434000000002">
    <ele>107.73</ele>
   </trkpt>
   <trkpt lat="-37.94858" lon="145.30436">
    <ele>112.42</ele>
   </trkpt>
   <trkpt lat="-37.948420000000006" lon="145.30435">
    <ele>113.73</ele>
   </trkpt>
   <trkpt lat="-37.9482" lon="145.30423000000002">
    <ele>114.84</ele>
   </trkpt>
   <trkpt lat="-37.94787" lon="145.30425000000002">
    <ele>117.24000000000001</ele>
   </trkpt>
   <trkpt lat="-37.94762" lon="145.30422000000002">
    <ele>119.15</ele>
   </trkpt>
   <trkpt lat="-37.94733" lon="145.30425000000002">
    <ele>120.15</ele>
   </trkpt>
   <trkpt lat="-37.94708" lon="145.30431000000002">
    <ele>122.07000000000001</ele>
   </trkpt>
   <trkpt lat="-37.94668" lon="145.30431000000002">
    <ele>124.42000000000002</ele>
   </trkpt>
   <trkpt lat="-37.94641" lon="145.30435">
    <ele>127.17</ele>
   </trkpt>
   <trkpt lat="-37.94601" lon="145.30429">
    <ele>131.34</ele>
   </trkpt>
   <trkpt lat="-37.945750000000004" lon="145.30422000000002">
    <ele>133.17000000000002</ele>
   </trkpt>
   <trkpt lat="-37.94532" lon="145.30434000000002">
    <ele>138.96</ele>
   </trkpt>
   <trkpt lat="-37.94514" lon="145.30432000000002">
    <ele>140.51000000000002</ele>
   </trkpt>
   <trkpt lat="-37.94491" lon="145.3042">
    <ele>142.26000000000002</ele>
   </trkpt>
   <trkpt lat="-37.9446" lon="145.30406000000002">
    <ele>143.23000000000002</ele>
   </trkpt>
   <trkpt lat="-37.94438" lon="145.30407000000002">
    <ele>143.57</ele>
   </trkpt>
   <trkpt lat="-37.94397" lon="145.30416000000002">
    <ele>144.81000000000003</ele>
   </trkpt>
   <trkpt lat="-37.94337" lon="145.30448">
    <ele>147.44000000000003</ele>
   </trkpt>
   <trkpt lat="-37.94308" lon="145.30457">
    <ele>148.43</ele>
   </trkpt>
   <trkpt lat="-37.94279" lon="145.30461000000003">
    <ele>150.21</ele>
   </trkpt>
   <trkpt lat="-37.94254" lon="145.30455">
    <ele>151.72000000000003</ele>
   </trkpt>
   <trkpt lat="-37.94234" lon="145.30448">
    <ele>152.99</ele>
   </trkpt>
   <trkpt lat="-37.94223" lon="145.30447">
    <ele>153.33</ele>
   </trkpt>
   <trkpt lat="-37.94221" lon="145.30445">
    <ele>153.36</ele>
   </trkpt>
   <trkpt lat="-37.94196" lon="145.30441000000002">
    <ele>152.85000000000002</ele>
   </trkpt>
   <trkpt lat="-37.94149999996322" lon="145.30437499977776">
    <ele>149.79</ele>
   </trkpt>
   <trkpt lat="-37.94104" lon="145.30434000000002">
    <ele>145.56000000000003</ele>
   </trkpt>
   <trkpt lat="-37.94046000032212" lon="145.3040499976945">
    <ele>139.12</ele>
   </trkpt>
   <trkpt lat="-37.93988" lon="145.30376">
    <ele>133.38</ele>
   </trkpt>
   <trkpt lat="-37.93967" lon="145.30374">
    <ele>132.16</ele>
   </trkpt>
   <trkpt lat="-37.93921500000595" lon="145.30382000049897">
    <ele>131.20000000000002</ele>
   </trkpt>
   <trkpt lat="-37.93876" lon="145.3039">
    <ele>130.70000000000002</ele>
   </trkpt>
   <trkpt lat="-37.93789" lon="145.30407000000002">
    <ele>131.70000000000002</ele>
   </trkpt>
   <trkpt lat="-37.93702750030925" lon="145.3042325057254">
    <ele>134.61</ele>
   </trkpt>
   <trkpt lat="-37.936165000395" lon="145.30439500763697">
    <ele>135.5</ele>
   </trkpt>
   <trkpt lat="-37.935302500257286" lon="145.30455750573498">
    <ele>137.54000000000002</ele>
   </trkpt>
   <trkpt lat="-37.93444" lon="145.30472">
    <ele>143.57</ele>
   </trkpt>
   <trkpt lat="-37.93424" lon="145.30473">
    <ele>144.22</ele>
   </trkpt>
   <trkpt lat="-37.93381" lon="145.30392">
    <ele>149.2</ele>
   </trkpt>
   <trkpt lat="-37.93361" lon="145.30371000000002">
    <ele>149.79</ele>
   </trkpt>
   <trkpt lat="-37.93399" lon="145.30345">
    <ele>148.53000000000003</ele>
   </trkpt>
   <trkpt lat="-37.93426" lon="145.30341">
    <ele>146.62</ele>
   </trkpt>
   <trkpt lat="-37.93432" lon="145.30338">
    <ele>146.54</ele>
   </trkpt>
   <trkpt lat="-37.93459" lon="145.30298000000002">
    <ele>147.06000000000003</ele>
   </trkpt>
   <trkpt lat="-37.93477" lon="145.30285">
    <ele>147.37</ele>
   </trkpt>
   <trkpt lat="-37.935100000000006" lon="145.30271000000002">
    <ele>147.78000000000003</ele>
   </trkpt>
   <trkpt lat="-37.93538" lon="145.30245000000002">
    <ele>148.44000000000003</ele>
   </trkpt>
   <trkpt lat="-37.93567" lon="145.30216000000001">
    <ele>148.83</ele>
   </trkpt>
   <trkpt lat="-37.935750000000006" lon="145.30207000000001">
    <ele>149.1</ele>
   </trkpt>
   <trkpt lat="-37.9358" lon="145.30191000000002">
    <ele>149.89000000000001</ele>
   </trkpt>
   <trkpt lat="-37.93578" lon="145.30175">
    <ele>150.73</ele>
   </trkpt>
   <trkpt lat="-37.93551" lon="145.30099">
    <ele>154.02</ele>
   </trkpt>
   <trkpt lat="-37.93528500212655" lon="145.30028999802283">
    <ele>150.44000000000003</ele>
   </trkpt>
   <trkpt lat="-37.93506" lon="145.29959000000002">
    <ele>146.13</ele>
   </trkpt>
   <trkpt lat="-37.93491" lon="145.29882">
    <ele>140.94</ele>
   </trkpt>
   <trkpt lat="-37.934830001324656" lon="145.2982549992009">
    <ele>135.75</ele>
   </trkpt>
   <trkpt lat="-37.93475" lon="145.29769000000002">
    <ele>132.4</ele>
   </trkpt>
   <trkpt lat="-37.93468" lon="145.2975">
    <ele>131.31</ele>
   </trkpt>
   <trkpt lat="-37.934380000767554" lon="145.29703499787388">
    <ele>129.64000000000001</ele>
   </trkpt>
   <trkpt lat="-37.93408" lon="145.29657">
    <ele>127.42</ele>
   </trkpt>
   <trkpt lat="-37.93401" lon="145.29639">
    <ele>126.5</ele>
   </trkpt>
   <trkpt lat="-37.9338900034069" lon="145.29549499866988">
    <ele>122.2</ele>
   </trkpt>
   <trkpt lat="-37.93377" lon="145.2946">
    <ele>120.07000000000001</ele>
   </trkpt>
   <trkpt lat="-37.9337" lon="145.29389">
    <ele>125.05000000000003</ele>
   </trkpt>
   <trkpt lat="-37.93372" lon="145.29349000000002">
    <ele>127.77000000000002</ele>
   </trkpt>
   <trkpt lat="-37.93372" lon="145.29348000000002">
    <ele>127.77000000000002</ele>
   </trkpt>
   <trkpt lat="-37.933780000000006" lon="145.29323000000002">
    <ele>129.43</ele>
   </trkpt>
   <trkpt lat="-37.93392500132473" lon="145.2926800009151">
    <ele>133.88</ele>
   </trkpt>
   <trkpt lat="-37.934070000000006" lon="145.29213000000001">
    <ele>138.58</ele>
   </trkpt>
   <trkpt lat="-37.93415" lon="145.29173">
    <ele>146.57</ele>
   </trkpt>
   <trkpt lat="-37.93419" lon="145.29159">
    <ele>148.03000000000003</ele>
   </trkpt>
   <trkpt lat="-37.93453" lon="145.29151000000002">
    <ele>148.76</ele>
   </trkpt>
   <trkpt lat="-37.93529000007865" lon="145.2913500016605">
    <ele>147.77</ele>
   </trkpt>
   <trkpt lat="-37.93605" lon="145.29119">
    <ele>148.61</ele>
   </trkpt>
   <trkpt lat="-37.936930000000004" lon="145.29104">
    <ele>153.28</ele>
   </trkpt>
   <trkpt lat="-37.936960000000006" lon="145.29095">
    <ele>153.96</ele>
   </trkpt>
   <trkpt lat="-37.9369" lon="145.29082000000002">
    <ele>156.03</ele>
   </trkpt>
   <trkpt lat="-37.93681" lon="145.29074">
    <ele>157.84</ele>
   </trkpt>
   <trkpt lat="-37.93641" lon="145.29048">
    <ele>161.41000000000003</ele>
   </trkpt>
   <trkpt lat="-37.93605" lon="145.29049">
    <ele>162.5</ele>
   </trkpt>
   <trkpt lat="-37.93567" lon="145.29039">
    <ele>164.75</ele>
   </trkpt>
   <trkpt lat="-37.93486" lon="145.29044000000002">
    <ele>169.04000000000002</ele>
   </trkpt>
   <trkpt lat="-37.93459" lon="145.29041">
    <ele>171.67000000000002</ele>
   </trkpt>
   <trkpt lat="-37.93439" lon="145.29031">
    <ele>174.45000000000002</ele>
   </trkpt>
   <trkpt lat="-37.93406" lon="145.28995">
    <ele>176.27</ele>
   </trkpt>
   <trkpt lat="-37.93341" lon="145.28949">
    <ele>178.53000000000003</ele>
   </trkpt>
   <trkpt lat="-37.93303" lon="145.28908">
    <ele>177.22</ele>
   </trkpt>
   <trkpt lat="-37.93291" lon="145.28882000000002">
    <ele>177.48000000000002</ele>
   </trkpt>
   <trkpt lat="-37.93283" lon="145.28853">
    <ele>179.12</ele>
   </trkpt>
   <trkpt lat="-37.932750000000006" lon="145.28813000000002">
    <ele>183.03000000000003</ele>
   </trkpt>
   <trkpt lat="-37.93268500139578" lon="145.28755999968064">
    <ele>193.4</ele>
   </trkpt>
   <trkpt lat="-37.93262" lon="145.28699">
    <ele>204.53</ele>
   </trkpt>
   <trkpt lat="-37.93271" lon="145.28654">
    <ele>212.44000000000003</ele>
   </trkpt>
   <trkpt lat="-37.93209" lon="145.28591">
    <ele>212.38</ele>
   </trkpt>
   <trkpt lat="-37.93133" lon="145.28531">
    <ele>209.34000000000003</ele>
   </trkpt>
   <trkpt lat="-37.93097" lon="145.28494">
    <ele>208.40000000000003</ele>
   </trkpt>
   <trkpt lat="-37.930890000000005" lon="145.28480000000002">
    <ele>208.69</ele>
   </trkpt>
   <trkpt lat="-37.93088" lon="145.28479000000002">
    <ele>208.69</ele>
   </trkpt>
   <trkpt lat="-37.9309" lon="145.28470000000002">
    <ele>208.62000000000003</ele>
   </trkpt>
   <trkpt lat="-37.93097" lon="145.28461000000001">
    <ele>208.08</ele>
   </trkpt>
   <trkpt lat="-37.93115" lon="145.28451">
    <ele>206.78</ele>
   </trkpt>
   <trkpt lat="-37.93128" lon="145.28435000000002">
    <ele>205.21</ele>
   </trkpt>
   <trkpt lat="-37.93137" lon="145.28421">
    <ele>204.64000000000001</ele>
   </trkpt>
   <trkpt lat="-37.93148" lon="145.28392000000002">
    <ele>203.12</ele>
   </trkpt>
   <trkpt lat="-37.93159" lon="145.28331">
    <ele>200.76000000000002</ele>
   </trkpt>
   <trkpt lat="-37.93155" lon="145.28241">
    <ele>197.42000000000002</ele>
   </trkpt>
   <trkpt lat="-37.93164" lon="145.28197">
    <ele>195.3</ele>
   </trkpt>
   <trkpt lat="-37.93168" lon="145.28187">
    <ele>194.89000000000001</ele>
   </trkpt>
   <trkpt lat="-37.93211" lon="145.28165">
    <ele>192.82000000000002</ele>
   </trkpt>
   <trkpt lat="-37.93224" lon="145.28161">
    <ele>192.4</ele>
   </trkpt>
   <trkpt lat="-37.93256" lon="145.28175000000002">
    <ele>192.68</ele>
   </trkpt>
   <trkpt lat="-37.93262" lon="145.28173">
    <ele>193.09</ele>
   </trkpt>
   <trkpt lat="-37.93278" lon="145.28145">
    <ele>198.0</ele>
   </trkpt>
   <trkpt lat="-37.93291" lon="145.28111">
    <ele>201.96000000000004</ele>
   </trkpt>
   <trkpt lat="-37.93294" lon="145.28092">
    <ele>203.31</ele>
   </trkpt>
   <trkpt lat="-37.93294" lon="145.28047">
    <ele>204.46</ele>
   </trkpt>
   <trkpt lat="-37.93286000202276" lon="145.2797799993204">
    <ele>201.10000000000002</ele>
   </trkpt>
   <trkpt lat="-37.93278" lon="145.27909000000002">
    <ele>198.68</ele>
   </trkpt>
   <trkpt lat="-37.932770000000005" lon="145.27876">
    <ele>198.57000000000002</ele>
   </trkpt>
   <trkpt lat="-37.9328" lon="145.27848">
    <ele>199.79000000000002</ele>
   </trkpt>
   <trkpt lat="-37.9328" lon="145.27847">
    <ele>199.79000000000002</ele>
   </trkpt>
   <trkpt lat="-37.93294" lon="145.2782">
    <ele>199.3</ele>
   </trkpt>
   <trkpt lat="-37.933130000000006" lon="145.27801000000002">
    <ele>199.49000000000004</ele>
   </trkpt>
   <trkpt lat="-37.93345" lon="145.27775000000003">
    <ele>202.41</ele>
   </trkpt>
   <trkpt lat="-37.93385" lon="145.27721000000003">
    <ele>208.71</ele>
   </trkpt>
   <trkpt lat="-37.934310001131315" lon="145.27671000304903">
    <ele>203.78</ele>
   </trkpt>
   <trkpt lat="-37.93477" lon="145.27621000000002">
    <ele>193.33</ele>
   </trkpt>
   <trkpt lat="-37.93509" lon="145.27604000000002">
    <ele>194.95000000000002</ele>
   </trkpt>
   <trkpt lat="-37.9358" lon="145.2759">
    <ele>204.77</ele>
   </trkpt>
   <trkpt lat="-37.93623" lon="145.27556">
    <ele>208.27</ele>
   </trkpt>
   <trkpt lat="-37.93661" lon="145.27485000000001">
    <ele>201.22</ele>
   </trkpt>
   <trkpt lat="-37.93676" lon="145.27404">
    <ele>192.96</ele>
   </trkpt>
   <trkpt lat="-37.93681" lon="145.27393">
    <ele>192.37</ele>
   </trkpt>
   <trkpt lat="-37.9373" lon="145.27387000000002">
    <ele>184.39000000000001</ele>
   </trkpt>
   <trkpt lat="-37.93775" lon="145.27389000000002">
    <ele>178.4</ele>
   </trkpt>
   <trkpt lat="-37.9385350000933" lon="145.27382500068802">
    <ele>170.95000000000002</ele>
   </trkpt>
   <trkpt lat="-37.93932" lon="145.27376">
    <ele>168.62</ele>
   </trkpt>
   <trkpt lat="-37.93976" lon="145.27377">
    <ele>169.61</ele>
   </trkpt>
   <trkpt lat="-37.93995" lon="145.27381000000003">
    <ele>169.99</ele>
   </trkpt>
   <trkpt lat="-37.940110000000004" lon="145.27383">
    <ele>170.59</ele>
   </trkpt>
   <trkpt lat="-37.9401" lon="145.27382">
    <ele>170.59</ele>
   </trkpt>
   <trkpt lat="-37.94075" lon="145.27405000000002">
    <ele>173.0</ele>
   </trkpt>
   <trkpt lat="-37.94093" lon="145.27418">
    <ele>172.76000000000002</ele>
   </trkpt>
   <trkpt lat="-37.94106" lon="145.27431">
    <ele>172.53</ele>
   </trkpt>
   <trkpt lat="-37.94142000081293" lon="145.27474999783692">
    <ele>170.75</ele>
   </trkpt>
   <trkpt lat="-37.94178" lon="145.27519">
    <ele>169.43000000000004</ele>
   </trkpt>
   <trkpt lat="-37.94191" lon="145.27538">
    <ele>169.21000000000004</ele>
   </trkpt>
   <trkpt lat="-37.94216" lon="145.27594000000002">
    <ele>169.35</ele>
   </trkpt>
   <trkpt lat="-37.942260000000005" lon="145.27609">
    <ele>169.44</ele>
   </trkpt>
   <trkpt lat="-37.94289500141663" lon="145.2766349954277">
    <ele>168.96000000000004</ele>
   </trkpt>
   <trkpt lat="-37.94353" lon="145.27718000000002">
    <ele>168.43</ele>
   </trkpt>
   <trkpt lat="-37.94393" lon="145.27756000000002">
    <ele>168.15</ele>
   </trkpt>
   <trkpt lat="-37.94447" lon="145.27812">
    <ele>168.17000000000002</ele>
   </trkpt>
   <trkpt lat="-37.945080000000004" lon="145.27868">
    <ele>167.85000000000002</ele>
   </trkpt>
   <trkpt lat="-37.94552" lon="145.27894">
    <ele>161.97</ele>
   </trkpt>
   <trkpt lat="-37.94565" lon="145.27898000000002">
    <ele>159.77</ele>
   </trkpt>
   <trkpt lat="-37.94612" lon="145.27903">
    <ele>155.95</ele>
   </trkpt>
   <trkpt lat="-37.94626" lon="145.27908000000002">
    <ele>154.65</ele>
   </trkpt>
   <trkpt lat="-37.94639" lon="145.27917000000002">
    <ele>153.26</ele>
   </trkpt>
   <trkpt lat="-37.94652" lon="145.27921">
    <ele>152.63000000000002</ele>
   </trkpt>
   <trkpt lat="-37.94691" lon="145.27938">
    <ele>151.22000000000003</ele>
   </trkpt>
   <trkpt lat="-37.94717" lon="145.27966">
    <ele>150.00000000000003</ele>
   </trkpt>
   <trkpt lat="-37.947300000000006" lon="145.27975">
    <ele>148.62</ele>
   </trkpt>
   <trkpt lat="-37.94758" lon="145.27988000000002">
    <ele>146.83</ele>
   </trkpt>
   <trkpt lat="-37.9482" lon="145.28028">
    <ele>141.47</ele>
   </trkpt>
   <trkpt lat="-37.94874" lon="145.28051000000002">
    <ele>136.92000000000002</ele>
   </trkpt>
   <trkpt lat="-37.94914" lon="145.28057">
    <ele>134.15</ele>
   </trkpt>
   <trkpt lat="-37.949510000000004" lon="145.28094000000002">
    <ele>131.92000000000002</ele>
   </trkpt>
   <trkpt lat="-37.94964" lon="145.28104000000002">
    <ele>131.68</ele>
   </trkpt>
   <trkpt lat="-37.95012000114423" lon="145.28157499642984">
    <ele>132.28</ele>
   </trkpt>
   <trkpt lat="-37.9506" lon="145.28211000000002">
    <ele>133.64000000000001</ele>
   </trkpt>
   <trkpt lat="-37.95082" lon="145.28217">
    <ele>132.32000000000002</ele>
   </trkpt>
   <trkpt lat="-37.9512" lon="145.28219">
    <ele>129.04999999999998</ele>
   </trkpt>
   <trkpt lat="-37.95156" lon="145.28220000000002">
    <ele>126.36</ele>
   </trkpt>
   <trkpt lat="-37.95205500005226" lon="145.28223999973414">
    <ele>125.25</ele>
   </trkpt>
   <trkpt lat="-37.95255" lon="145.28228000000001">
    <ele>128.04000000000002</ele>
   </trkpt>
   <trkpt lat="-37.953300000000006" lon="145.28231000000002">
    <ele>134.53</ele>
   </trkpt>
   <trkpt lat="-37.9534" lon="145.28233">
    <ele>134.53</ele>
   </trkpt>
   <trkpt lat="-37.953540000000004" lon="145.28244">
    <ele>135.86</ele>
   </trkpt>
   <trkpt lat="-37.95362" lon="145.28256000000002">
    <ele>136.91</ele>
   </trkpt>
   <trkpt lat="-37.953700000000005" lon="145.28285000000002">
    <ele>137.6</ele>
   </trkpt>
   <trkpt lat="-37.95382" lon="145.28323">
    <ele>137.84</ele>
   </trkpt>
   <trkpt lat="-37.95391" lon="145.28341">
    <ele>137.96</ele>
   </trkpt>
   <trkpt lat="-37.95407" lon="145.28364000000002">
    <ele>138.45000000000002</ele>
   </trkpt>
   <trkpt lat="-37.95411" lon="145.28363000000002">
    <ele>138.45000000000002</ele>
   </trkpt>
   <trkpt lat="-37.95436" lon="145.28363000000002">
    <ele>141.01000000000002</ele>
   </trkpt>
   <trkpt lat="-37.9544" lon="145.28367">
    <ele>141.23000000000002</ele>
   </trkpt>
   <trkpt lat="-37.954570000000004" lon="145.28364000000002">
    <ele>141.52</ele>
   </trkpt>
   <trkpt lat="-37.9547" lon="145.28359">
    <ele>141.49</ele>
   </trkpt>
   <trkpt lat="-37.95474" lon="145.28369">
    <ele>141.19</ele>
   </trkpt>
   <trkpt lat="-37.95512" lon="145.28372000000002">
    <ele>139.64000000000001</ele>
   </trkpt>
   <trkpt lat="-37.95528" lon="145.28482000000002">
    <ele>133.70000000000002</ele>
   </trkpt>
   <trkpt lat="-37.95588333884174" lon="145.2856266534156">
    <ele>127.35000000000002</ele>
   </trkpt>
   <trkpt lat="-37.95648667217583" lon="145.28643332008306">
    <ele>121.86000000000001</ele>
   </trkpt>
   <trkpt lat="-37.95709" lon="145.28724000000003">
    <ele>120.58</ele>
   </trkpt>
   <trkpt lat="-37.95724000631024" lon="145.28810332981536">
    <ele>121.27000000000001</ele>
   </trkpt>
   <trkpt lat="-37.9573900063117" lon="145.28896666315703">
    <ele>121.16</ele>
   </trkpt>
   <trkpt lat="-37.95754" lon="145.28983000000002">
    <ele>124.75000000000001</ele>
   </trkpt>
   <trkpt lat="-37.95759" lon="145.28991000000002">
    <ele>124.75000000000001</ele>
   </trkpt>
   <trkpt lat="-37.957600000000006" lon="145.28992000000002">
    <ele>124.75000000000001</ele>
   </trkpt>
   <trkpt lat="-37.957910000000005" lon="145.28991000000002">
    <ele>125.49000000000001</ele>
   </trkpt>
   <trkpt lat="-37.958180000000006" lon="145.28988">
    <ele>124.08000000000001</ele>
   </trkpt>
   <trkpt lat="-37.95825" lon="145.28978">
    <ele>123.19000000000001</ele>
   </trkpt>
   <trkpt lat="-37.95834" lon="145.28924">
    <ele>121.13000000000001</ele>
   </trkpt>
   <trkpt lat="-37.95841" lon="145.28904">
    <ele>120.10000000000001</ele>
   </trkpt>
   <trkpt lat="-37.95917" lon="145.28865000000002">
    <ele>114.78</ele>
   </trkpt>
   <trkpt lat="-37.95946" lon="145.28867000000002">
    <ele>114.13000000000001</ele>
   </trkpt>
   <trkpt lat="-37.95976" lon="145.28878">
    <ele>114.80000000000001</ele>
   </trkpt>
   <trkpt lat="-37.95993" lon="145.28882000000002">
    <ele>115.60000000000001</ele>
   </trkpt>
   <trkpt lat="-37.96051499996788" lon="145.28873500068622">
    <ele>119.59000000000002</ele>
   </trkpt>
   <trkpt lat="-37.9611" lon="145.28865000000002">
    <ele>123.85000000000001</ele>
   </trkpt>
   <trkpt lat="-37.96186" lon="145.28882000000002">
    <ele>127.36</ele>
   </trkpt>
   <trkpt lat="-37.96237500013094" lon="145.28896499899494">
    <ele>128.20000000000002</ele>
   </trkpt>
   <trkpt lat="-37.96289" lon="145.28911000000002">
    <ele>127.60000000000002</ele>
   </trkpt>
   <trkpt lat="-37.96341499992468" lon="145.2891299998541">
    <ele>127.08</ele>
   </trkpt>
   <trkpt lat="-37.96394" lon="145.28915">
    <ele>127.32000000000001</ele>
   </trkpt>
   <trkpt lat="-37.964440000212974" lon="145.28928499911743">
    <ele>128.75</ele>
   </trkpt>
   <trkpt lat="-37.964940000000006" lon="145.28942">
    <ele>128.93</ele>
   </trkpt>
   <trkpt lat="-37.9654350001873" lon="145.2895449991879">
    <ele>128.21</ele>
   </trkpt>
   <trkpt lat="-37.96593" lon="145.28967">
    <ele>125.42</ele>
   </trkpt>
   <trkpt lat="-37.966435000238484" lon="145.2897749993177">
    <ele>122.2</ele>
   </trkpt>
   <trkpt lat="-37.96694" lon="145.28988">
    <ele>118.76</ele>
   </trkpt>
   <trkpt lat="-37.96735000043745" lon="145.29014999857716">
    <ele>117.59000000000002</ele>
   </trkpt>
   <trkpt lat="-37.967760000000006" lon="145.29042">
    <ele>118.77000000000001</ele>
   </trkpt>
   <trkpt lat="-37.96801" lon="145.29068">
    <ele>120.3</ele>
   </trkpt>
   <trkpt lat="-37.96835" lon="145.29062000000002">
    <ele>122.01</ele>
   </trkpt>
   <trkpt lat="-37.96898" lon="145.29061000000002">
    <ele>125.35000000000001</ele>
   </trkpt>
   <trkpt lat="-37.96972" lon="145.29066">
    <ele>129.38000000000002</ele>
   </trkpt>
   <trkpt lat="-37.96978" lon="145.29076">
    <ele>129.21</ele>
   </trkpt>
   <trkpt lat="-37.96983" lon="145.29104">
    <ele>127.12</ele>
   </trkpt>
   <trkpt lat="-37.96992" lon="145.29116000000002">
    <ele>126.44</ele>
   </trkpt>
   <trkpt lat="-37.97044" lon="145.29171000000002">
    <ele>121.88000000000001</ele>
   </trkpt>
   <trkpt lat="-37.970850000000006" lon="145.29211">
    <ele>118.61</ele>
   </trkpt>
   <trkpt lat="-37.97124" lon="145.29258000000002">
    <ele>113.63000000000001</ele>
   </trkpt>
   <trkpt lat="-37.9716" lon="145.29296000000002">
    <ele>107.98</ele>
   </trkpt>
   <trkpt lat="-37.971610000000005" lon="145.29313000000002">
    <ele>106.58000000000001</ele>
   </trkpt>
   <trkpt lat="-37.971630000000005" lon="145.29315000000003">
    <ele>106.58000000000001</ele>
   </trkpt>
   <trkpt lat="-37.97146" lon="145.2932">
    <ele>106.35000000000001</ele>
   </trkpt>
   <trkpt lat="-37.97124" lon="145.29319">
    <ele>106.4</ele>
   </trkpt>
   <trkpt lat="-37.97068999997458" lon="145.29310499935457">
    <ele>106.37</ele>
   </trkpt>
   <trkpt lat="-37.97014" lon="145.29302">
    <ele>104.50000000000001</ele>
   </trkpt>
   <trkpt lat="-37.96956" lon="145.29292">
    <ele>103.51</ele>
   </trkpt>
   <trkpt lat="-37.96909000013526" lon="145.29286999969318">
    <ele>101.59000000000002</ele>
   </trkpt>
   <trkpt lat="-37.96862" lon="145.29282">
    <ele>100.64</ele>
   </trkpt>
   <trkpt lat="-37.96833" lon="145.29277000000002">
    <ele>100.61</ele>
   </trkpt>
   <trkpt lat="-37.96799" lon="145.29261000000002">
    <ele>99.92</ele>
   </trkpt>
   <trkpt lat="-37.967240000000004" lon="145.29257">
    <ele>95.66000000000001</ele>
   </trkpt>
   <trkpt lat="-37.96678" lon="145.29243000000002">
    <ele>95.07</ele>
   </trkpt>
   <trkpt lat="-37.96632499997448" lon="145.2924099998749">
    <ele>96.96000000000001</ele>
   </trkpt>
   <trkpt lat="-37.96587" lon="145.29239">
    <ele>98.03</ele>
   </trkpt>
   <trkpt lat="-37.965520000000005" lon="145.29234000000002">
    <ele>98.0</ele>
   </trkpt>
   <trkpt lat="-37.96524" lon="145.29227">
    <ele>96.83000000000001</ele>
   </trkpt>
   <trkpt lat="-37.96513" lon="145.2923">
    <ele>96.10000000000001</ele>
   </trkpt>
   <trkpt lat="-37.96504" lon="145.29240000000001">
    <ele>94.51</ele>
   </trkpt>
   <trkpt lat="-37.96499" lon="145.29250000000002">
    <ele>93.29</ele>
   </trkpt>
   <trkpt lat="-37.96495" lon="145.29287000000002">
    <ele>88.89000000000001</ele>
   </trkpt>
   <trkpt lat="-37.96486" lon="145.29309">
    <ele>86.0</ele>
   </trkpt>
   <trkpt lat="-37.96472" lon="145.29327">
    <ele>84.23000000000002</ele>
   </trkpt>
   <trkpt lat="-37.96452" lon="145.29335">
    <ele>83.13000000000001</ele>
   </trkpt>
   <trkpt lat="-37.963876666787115" lon="145.29348000228248">
    <ele>85.18</ele>
   </trkpt>
   <trkpt lat="-37.96323333343119" lon="145.29361000228698">
    <ele>90.23</ele>
   </trkpt>
   <trkpt lat="-37.962590000000006" lon="145.29374">
    <ele>89.50000000000001</ele>
   </trkpt>
   <trkpt lat="-37.96184" lon="145.29391">
    <ele>85.28</ele>
   </trkpt>
   <trkpt lat="-37.96138999984287" lon="145.2939800004566">
    <ele>82.16000000000001</ele>
   </trkpt>
   <trkpt lat="-37.96094" lon="145.29405">
    <ele>81.28</ele>
   </trkpt>
   <trkpt lat="-37.96067" lon="145.29412000000002">
    <ele>81.09</ele>
   </trkpt>
   <trkpt lat="-37.95984" lon="145.29425">
    <ele>84.31</ele>
   </trkpt>
   <trkpt lat="-37.95936999993237" lon="145.29436000073176">
    <ele>87.13000000000001</ele>
   </trkpt>
   <trkpt lat="-37.9589" lon="145.29447000000002">
    <ele>88.56000000000002</ele>
   </trkpt>
   <trkpt lat="-37.95848" lon="145.29452">
    <ele>88.97</ele>
   </trkpt>
   <trkpt lat="-37.95784000009537" lon="145.29465000112796">
    <ele>87.03000000000002</ele>
   </trkpt>
   <trkpt lat="-37.9572" lon="145.29478">
    <ele>84.05000000000001</ele>
   </trkpt>
   <trkpt lat="-37.956680000000006" lon="145.29495">
    <ele>81.39</ele>
   </trkpt>
   <trkpt lat="-37.95655" lon="145.29494000000003">
    <ele>81.08000000000001</ele>
   </trkpt>
   <trkpt lat="-37.95631" lon="145.29485000000003">
    <ele>80.99000000000001</ele>
   </trkpt>
   <trkpt lat="-37.95602" lon="145.29481">
    <ele>80.28</ele>
   </trkpt>
   <trkpt lat="-37.95544500031248" lon="145.2946149985249">
    <ele>80.14</ele>
   </trkpt>
   <trkpt lat="-37.95487" lon="145.29442">
    <ele>78.74000000000001</ele>
   </trkpt>
   <trkpt lat="-37.95465" lon="145.29437000000001">
    <ele>78.44000000000001</ele>
   </trkpt>
   <trkpt lat="-37.95443" lon="145.29440000000002">
    <ele>78.39</ele>
   </trkpt>
   <trkpt lat="-37.9542" lon="145.29457000000002">
    <ele>78.42999999999999</ele>
   </trkpt>
   <trkpt lat="-37.95349" lon="145.29524">
    <ele>78.98</ele>
   </trkpt>
   <trkpt lat="-37.95315" lon="145.29545000000002">
    <ele>79.12</ele>
   </trkpt>
   <trkpt lat="-37.95302" lon="145.29558">
    <ele>79.2</ele>
   </trkpt>
   <trkpt lat="-37.952890000000004" lon="145.29562">
    <ele>79.2</ele>
   </trkpt>
   <trkpt lat="-37.9529500019386" lon="145.2962999992376">
    <ele>78.5</ele>
   </trkpt>
   <trkpt lat="-37.953010000000006" lon="145.29698000000002">
    <ele>79.06</ele>
   </trkpt>
   <trkpt lat="-37.95308" lon="145.29725000000002">
    <ele>79.52000000000001</ele>
   </trkpt>
   <trkpt lat="-37.95322" lon="145.29736000000003">
    <ele>79.97000000000001</ele>
   </trkpt>
   <trkpt lat="-37.95390333424416" lon="145.29768999385507">
    <ele>83.42</ele>
   </trkpt>
   <trkpt lat="-37.9545866675666" lon="145.29801999384972">
    <ele>84.25</ele>
   </trkpt>
   <trkpt lat="-37.955270000000006" lon="145.29835">
    <ele>81.89</ele>
   </trkpt>
   <trkpt lat="-37.95546" lon="145.29849000000002">
    <ele>81.34</ele>
   </trkpt>
   <trkpt lat="-37.955560000000006" lon="145.29870000000003">
    <ele>81.27000000000001</ele>
   </trkpt>
   <trkpt lat="-37.95566" lon="145.2991">
    <ele>81.73</ele>
   </trkpt>
   <trkpt lat="-37.95577" lon="145.29940000000002">
    <ele>81.76</ele>
   </trkpt>
   <trkpt lat="-37.95591" lon="145.29954">
    <ele>81.43</ele>
   </trkpt>
   <trkpt lat="-37.95622" lon="145.30007">
    <ele>81.80000000000001</ele>
   </trkpt>
   <trkpt lat="-37.95633" lon="145.30017">
    <ele>81.94000000000001</ele>
   </trkpt>
   <trkpt lat="-37.9566" lon="145.30016">
    <ele>81.92</ele>
   </trkpt>
   <trkpt lat="-37.95736000004381" lon="145.30004000124438">
    <ele>81.23</ele>
   </trkpt>
   <trkpt lat="-37.95812" lon="145.29992000000001">
    <ele>81.26</ele>
   </trkpt>
   <trkpt lat="-37.95866" lon="145.2999">
    <ele>81.02000000000001</ele>
   </trkpt>
   <trkpt lat="-37.95917000008676" lon="145.29994499969442">
    <ele>81.12</ele>
   </trkpt>
   <trkpt lat="-37.959680000000006" lon="145.29999">
    <ele>81.01</ele>
   </trkpt>
   <trkpt lat="-37.960060000000006" lon="145.30006">
    <ele>80.98</ele>
   </trkpt>
   <trkpt lat="-37.9602" lon="145.30012000000002">
    <ele>80.98</ele>
   </trkpt>
   <trkpt lat="-37.96034" lon="145.30014">
    <ele>81.06</ele>
   </trkpt>
   <trkpt lat="-37.96072" lon="145.30031000000002">
    <ele>81.24000000000001</ele>
   </trkpt>
   <trkpt lat="-37.961240000000004" lon="145.30086">
    <ele>81.71000000000001</ele>
   </trkpt>
   <trkpt lat="-37.96123" lon="145.30085000000003">
    <ele>81.71000000000001</ele>
   </trkpt>
   <trkpt lat="-37.96137" lon="145.30105">
    <ele>81.7</ele>
   </trkpt>
   <trkpt lat="-37.9615" lon="145.30119000000002">
    <ele>81.43</ele>
   </trkpt>
   <trkpt lat="-37.961560000000006" lon="145.30133">
    <ele>81.49000000000001</ele>
   </trkpt>
   <trkpt lat="-37.96152" lon="145.30215">
    <ele>81.44000000000001</ele>
   </trkpt>
   <trkpt lat="-37.9615" lon="145.30222">
    <ele>81.34</ele>
   </trkpt>
   <trkpt lat="-37.96143" lon="145.3023">
    <ele>81.34</ele>
   </trkpt>
   <trkpt lat="-37.96087000087611" lon="145.3027650035782">
    <ele>81.60000000000001</ele>
   </trkpt>
   <trkpt lat="-37.96031" lon="145.30323">
    <ele>81.12</ele>
   </trkpt>
   <trkpt lat="-37.96069334002969" lon="145.3041199906894">
    <ele>80.22</ele>
   </trkpt>
   <trkpt lat="-37.961076673354725" lon="145.30500999066993">
    <ele>80.28</ele>
   </trkpt>
   <trkpt lat="-37.96146" lon="145.3059">
    <ele>80.76</ele>
   </trkpt>
   <trkpt lat="-37.96164" lon="145.30586000000002">
    <ele>80.53999999999999</ele>
   </trkpt>
   <trkpt lat="-37.96199" lon="145.3057">
    <ele>80.48</ele>
   </trkpt>
   <trkpt lat="-37.96268000158039" lon="145.3052800078398">
    <ele>80.97</ele>
   </trkpt>
   <trkpt lat="-37.963370001667634" lon="145.30486000778677">
    <ele>82.10000000000001</ele>
   </trkpt>
   <trkpt lat="-37.96406" lon="145.30444">
    <ele>83.87</ele>
   </trkpt>
   <trkpt lat="-37.96486" lon="145.30398000000002">
    <ele>87.95</ele>
   </trkpt>
   <trkpt lat="-37.96522" lon="145.30385">
    <ele>89.77</ele>
   </trkpt>
   <trkpt lat="-37.965250000000005" lon="145.30386000000001">
    <ele>89.77</ele>
   </trkpt>
   <trkpt lat="-37.965590000000006" lon="145.30386000000001">
    <ele>91.43</ele>
   </trkpt>
   <trkpt lat="-37.96562" lon="145.30374">
    <ele>91.85</ele>
   </trkpt>
   <trkpt lat="-37.96578" lon="145.30367">
    <ele>92.06</ele>
   </trkpt>
   <trkpt lat="-37.9658" lon="145.3035">
    <ele>92.36000000000001</ele>
   </trkpt>
   <trkpt lat="-37.96589" lon="145.30343000000002">
    <ele>92.55000000000001</ele>
   </trkpt>
   <trkpt lat="-37.965880000000006" lon="145.30339">
    <ele>92.62</ele>
   </trkpt>
   <trkpt lat="-37.966" lon="145.30331">
    <ele>92.62</ele>
   </trkpt>
   <trkpt lat="-37.96598" lon="145.30315000000002">
    <ele>92.23</ele>
   </trkpt>
   <trkpt lat="-37.966060000000006" lon="145.30307000000002">
    <ele>92.23</ele>
   </trkpt>
   <trkpt lat="-37.96604" lon="145.30281000000002">
    <ele>91.51</ele>
   </trkpt>
   <trkpt lat="-37.96607" lon="145.30235000000002">
    <ele>89.31</ele>
   </trkpt>
   <trkpt lat="-37.96605" lon="145.30226000000002">
    <ele>88.91</ele>
   </trkpt>
   <trkpt lat="-37.96611" lon="145.30216000000001">
    <ele>88.76</ele>
   </trkpt>
   <trkpt lat="-37.96616" lon="145.30216000000001">
    <ele>88.76</ele>
   </trkpt>
   <trkpt lat="-37.9662" lon="145.30221">
    <ele>88.76</ele>
   </trkpt>
   <trkpt lat="-37.96613" lon="145.3016">
    <ele>84.72</ele>
   </trkpt>
   <trkpt lat="-37.96613" lon="145.30134">
    <ele>82.79</ele>
   </trkpt>
   <trkpt lat="-37.96645" lon="145.30146000000002">
    <ele>83.35000000000001</ele>
   </trkpt>
   <trkpt lat="-37.966530000000006" lon="145.30145000000002">
    <ele>83.16000000000001</ele>
   </trkpt>
   <trkpt lat="-37.966530000000006" lon="145.30158">
    <ele>83.16000000000001</ele>
   </trkpt>
   <trkpt lat="-37.96663" lon="145.30166">
    <ele>82.92</ele>
   </trkpt>
   <trkpt lat="-37.96672" lon="145.30165000000002">
    <ele>82.79</ele>
   </trkpt>
   <trkpt lat="-37.96683" lon="145.30158">
    <ele>82.73</ele>
   </trkpt>
   <trkpt lat="-37.966860000000004" lon="145.30152">
    <ele>82.71000000000001</ele>
   </trkpt>
   <trkpt lat="-37.967000000000006" lon="145.30151">
    <ele>82.74000000000001</ele>
   </trkpt>
   <trkpt lat="-37.96701" lon="145.30145000000002">
    <ele>82.74000000000001</ele>
   </trkpt>
   <trkpt lat="-37.967696666828616" lon="145.30132666896768">
    <ele>84.22</ele>
   </trkpt>
   <trkpt lat="-37.968383333528486" lon="145.30120333562843">
    <ele>85.84000000000002</ele>
   </trkpt>
   <trkpt lat="-37.96907" lon="145.30108">
    <ele>86.12</ele>
   </trkpt>
   <trkpt lat="-37.96951" lon="145.30084000000002">
    <ele>84.56</ele>
   </trkpt>
   <trkpt lat="-37.96976" lon="145.30076000000003">
    <ele>84.2</ele>
   </trkpt>
   <trkpt lat="-37.969930000000005" lon="145.30079">
    <ele>83.88000000000001</ele>
   </trkpt>
   <trkpt lat="-37.9701" lon="145.30076000000003">
    <ele>83.58</ele>
   </trkpt>
   <trkpt lat="-37.970490000000005" lon="145.30081">
    <ele>83.62000000000002</ele>
   </trkpt>
   <trkpt lat="-37.97068" lon="145.30082000000002">
    <ele>82.92</ele>
   </trkpt>
   <trkpt lat="-37.97097" lon="145.30073000000002">
    <ele>81.2</ele>
   </trkpt>
   <trkpt lat="-37.97111" lon="145.30072">
    <ele>80.95</ele>
   </trkpt>
   <trkpt lat="-37.97122" lon="145.30027">
    <ele>80.88000000000001</ele>
   </trkpt>
   <trkpt lat="-37.971210000000006" lon="145.30017">
    <ele>80.93</ele>
   </trkpt>
   <trkpt lat="-37.97110201383442" lon="145.2992659946674">
    <ele>80.96000000000001</ele>
   </trkpt>
   <trkpt lat="-37.97099402075079" lon="145.2983619919944">
    <ele>81.14999999999999</ele>
   </trkpt>
   <trkpt lat="-37.97088602074917" lon="145.29745799198116">
    <ele>81.18</ele>
   </trkpt>
   <trkpt lat="-37.97077801382963" lon="145.29655399462783">
    <ele>81.41000000000001</ele>
   </trkpt>
   <trkpt lat="-37.970670000000005" lon="145.29565000000002">
    <ele>81.63000000000001</ele>
   </trkpt>
   <trkpt lat="-37.97066" lon="145.29539000000003">
    <ele>81.54</ele>
   </trkpt>
   <trkpt lat="-37.97059" lon="145.29528000000002">
    <ele>81.56</ele>
   </trkpt>
   <trkpt lat="-37.97077" lon="145.29543">
    <ele>80.33000000000001</ele>
   </trkpt>
   <trkpt lat="-37.970870000000005" lon="145.29577">
    <ele>78.42999999999999</ele>
   </trkpt>
   <trkpt lat="-37.97104" lon="145.29607000000001">
    <ele>73.95</ele>
   </trkpt>
   <trkpt lat="-37.97108" lon="145.29631">
    <ele>72.43</ele>
   </trkpt>
   <trkpt lat="-37.97108" lon="145.29648">
    <ele>71.45</ele>
   </trkpt>
   <trkpt lat="-37.9711900073741" lon="145.29741333053533">
    <ele>70.04</ele>
   </trkpt>
   <trkpt lat="-37.971300007374005" lon="145.29834666386773">
    <ele>70.02</ele>
   </trkpt>
   <trkpt lat="-37.971410000000006" lon="145.29928">
    <ele>70.92000000000002</ele>
   </trkpt>
   <trkpt lat="-37.97142" lon="145.29934">
    <ele>70.92000000000002</ele>
   </trkpt>
   <trkpt lat="-37.97153" lon="145.29939000000002">
    <ele>71.78000000000002</ele>
   </trkpt>
   <trkpt lat="-37.97178" lon="145.29942">
    <ele>72.34</ele>
   </trkpt>
   <trkpt lat="-37.97178" lon="145.29995000000002">
    <ele>75.53</ele>
   </trkpt>
   <trkpt lat="-37.97171" lon="145.30024">
    <ele>78.67</ele>
   </trkpt>
   <trkpt lat="-37.97164" lon="145.30034">
    <ele>79.87</ele>
   </trkpt>
   <trkpt lat="-37.97153" lon="145.30037000000002">
    <ele>80.7</ele>
   </trkpt>
   <trkpt lat="-37.97135" lon="145.30031000000002">
    <ele>80.87</ele>
   </trkpt>
   <trkpt lat="-37.971210000000006" lon="145.30017">
    <ele>80.93</ele>
   </trkpt>
   <trkpt lat="-37.97122" lon="145.30027">
    <ele>80.88000000000001</ele>
   </trkpt>
   <trkpt lat="-37.97111" lon="145.30072">
    <ele>80.95</ele>
   </trkpt>
   <trkpt lat="-37.97097" lon="145.30073000000002">
    <ele>81.2</ele>
   </trkpt>
   <trkpt lat="-37.97068" lon="145.30082000000002">
    <ele>82.92</ele>
   </trkpt>
   <trkpt lat="-37.970490000000005" lon="145.30081">
    <ele>83.62000000000002</ele>
   </trkpt>
   <trkpt lat="-37.9701" lon="145.30076000000003">
    <ele>83.67</ele>
   </trkpt>
   <trkpt lat="-37.969930000000005" lon="145.30079">
    <ele>83.88000000000001</ele>
   </trkpt>
   <trkpt lat="-37.96976" lon="145.30076000000003">
    <ele>84.2</ele>
   </trkpt>
   <trkpt lat="-37.96951" lon="145.30084000000002">
    <ele>84.56</ele>
   </trkpt>
   <trkpt lat="-37.96907" lon="145.30108">
    <ele>86.21000000000001</ele>
   </trkpt>
   <trkpt lat="-37.96838333342891" lon="145.30120333564633">
    <ele>85.58</ele>
   </trkpt>
   <trkpt lat="-37.967696666729054" lon="145.30132666898558">
    <ele>84.01</ele>
   </trkpt>
   <trkpt lat="-37.96701" lon="145.30145000000002">
    <ele>82.74000000000001</ele>
   </trkpt>
   <trkpt lat="-37.967000000000006" lon="145.30151">
    <ele>82.74000000000001</ele>
   </trkpt>
   <trkpt lat="-37.966860000000004" lon="145.30152">
    <ele>82.71000000000001</ele>
   </trkpt>
   <trkpt lat="-37.96683" lon="145.30158">
    <ele>82.73</ele>
   </trkpt>
   <trkpt lat="-37.96672" lon="145.30165000000002">
    <ele>82.79</ele>
   </trkpt>
   <trkpt lat="-37.96663" lon="145.30166">
    <ele>82.92</ele>
   </trkpt>
   <trkpt lat="-37.966530000000006" lon="145.30158">
    <ele>83.16000000000001</ele>
   </trkpt>
   <trkpt lat="-37.966530000000006" lon="145.30145000000002">
    <ele>83.35000000000001</ele>
   </trkpt>
   <trkpt lat="-37.96645" lon="145.30146000000002">
    <ele>83.35000000000001</ele>
   </trkpt>
   <trkpt lat="-37.96613" lon="145.30134">
    <ele>82.79</ele>
   </trkpt>
   <trkpt lat="-37.96613" lon="145.3016">
    <ele>84.72</ele>
   </trkpt>
   <trkpt lat="-37.96618" lon="145.30203">
    <ele>87.51</ele>
   </trkpt>
  </trkseg>
 </trk>
</gpx>
