<?xml version="1.0" encoding="UTF-8"?>
<gpx creator="StravaGPX" version="1.1" xmlns="http://www.topografix.com/GPX/1/1" xmlns:xsi="http://www.w3.org/2001/XMLSchema-instance" xsi:schemaLocation="http://www.topografix.com/GPX/1/1 http://www.topografix.com/GPX/1/1/gpx.xsd">
 <metadata>
  <name>Morning Trail Run</name>
  <author>
   <name>Natalie Gow</name>
  </author>
  <copyright author="OpenStreetMap contributors">
   <year>2020</year>
   <license>https://www.openstreetmap.org/copyright</license>
  </copyright>
 </metadata>
 <trk>
  <name>Morning Trail Run</name>
  <link href=""/>
  <type>trail_running</type>
  <trkseg>
   <trkpt lat="-37.890820000000005" lon="145.31716">
    <ele>180.6</ele>
   </trkpt>
   <trkpt lat="-37.89074" lon="145.31705000000002">
    <ele>181.31000000000003</ele>
   </trkpt>
   <trkpt lat="-37.890730000000005" lon="145.31686000000002">
    <ele>182.54</ele>
   </trkpt>
   <trkpt lat="-37.8909" lon="145.31665">
    <ele>182.16000000000003</ele>
   </trkpt>
   <trkpt lat="-37.89099" lon="145.31640000000002">
    <ele>182.44000000000003</ele>
   </trkpt>
   <trkpt lat="-37.89099" lon="145.31613000000002">
    <ele>182.65</ele>
   </trkpt>
   <trkpt lat="-37.89108" lon="145.31604000000002">
    <ele>181.66000000000003</ele>
   </trkpt>
   <trkpt lat="-37.89148" lon="145.31548">
    <ele>175.26000000000002</ele>
   </trkpt>
   <trkpt lat="-37.89159" lon="145.3153">
    <ele>174.1</ele>
   </trkpt>
   <trkpt lat="-37.89166" lon="145.31470000000002">
    <ele>178.64000000000001</ele>
   </trkpt>
   <trkpt lat="-37.8917" lon="145.3142">
    <ele>182.06000000000003</ele>
   </trkpt>
   <trkpt lat="-37.89168" lon="145.31405">
    <ele>182.83</ele>
   </trkpt>
   <trkpt lat="-37.89159" lon="145.31376">
    <ele>183.56000000000003</ele>
   </trkpt>
   <trkpt lat="-37.8915" lon="145.31358">
    <ele>186.00000000000003</ele>
   </trkpt>
   <trkpt lat="-37.89132" lon="145.3134">
    <ele>187.51000000000002</ele>
   </trkpt>
   <trkpt lat="-37.89092" lon="145.31309000000002">
    <ele>193.05</ele>
   </trkpt>
   <trkpt lat="-37.89074" lon="145.31299">
    <ele>194.04000000000002</ele>
   </trkpt>
   <trkpt lat="-37.890710000000006" lon="145.31292000000002">
    <ele>194.37</ele>
   </trkpt>
   <trkpt lat="-37.890710000000006" lon="145.31282000000002">
    <ele>194.48000000000002</ele>
   </trkpt>
   <trkpt lat="-37.89072" lon="145.31278">
    <ele>194.48000000000002</ele>
   </trkpt>
   <trkpt lat="-37.89101" lon="145.31248000000002">
    <ele>195.11</ele>
   </trkpt>
   <trkpt lat="-37.89105" lon="145.31242">
    <ele>195.86</ele>
   </trkpt>
   <trkpt lat="-37.891180000000006" lon="145.31198">
    <ele>198.11</ele>
   </trkpt>
   <trkpt lat="-37.89121" lon="145.31161">
    <ele>201.31</ele>
   </trkpt>
   <trkpt lat="-37.89119" lon="145.31122000000002">
    <ele>206.98000000000002</ele>
   </trkpt>
   <trkpt lat="-37.89092" lon="145.31052000000003">
    <ele>215.94000000000003</ele>
   </trkpt>
   <trkpt lat="-37.890370000000004" lon="145.30997000000002">
    <ele>227.39000000000001</ele>
   </trkpt>
   <trkpt lat="-37.89038" lon="145.30997000000002">
    <ele>227.39000000000001</ele>
   </trkpt>
   <trkpt lat="-37.890330000000006" lon="145.30995000000001">
    <ele>228.4</ele>
   </trkpt>
   <trkpt lat="-37.89027" lon="145.30997000000002">
    <ele>229.26000000000002</ele>
   </trkpt>
   <trkpt lat="-37.89025" lon="145.31002">
    <ele>230.08</ele>
   </trkpt>
   <trkpt lat="-37.89027" lon="145.31046">
    <ele>236.08</ele>
   </trkpt>
   <trkpt lat="-37.89025" lon="145.31066">
    <ele>236.08</ele>
   </trkpt>
   <trkpt lat="-37.89016" lon="145.31092">
    <ele>239.57000000000002</ele>
   </trkpt>
   <trkpt lat="-37.89002" lon="145.31111">
    <ele>242.32</ele>
   </trkpt>
   <trkpt lat="-37.88993" lon="145.31119">
    <ele>244.05</ele>
   </trkpt>
   <trkpt lat="-37.889660000000006" lon="145.31134">
    <ele>249.11</ele>
   </trkpt>
   <trkpt lat="-37.88967" lon="145.31134">
    <ele>249.11</ele>
   </trkpt>
   <trkpt lat="-37.8896" lon="145.31134">
    <ele>249.11</ele>
   </trkpt>
   <trkpt lat="-37.88958" lon="145.31130000000002">
    <ele>249.11</ele>
   </trkpt>
   <trkpt lat="-37.88955" lon="145.31122000000002">
    <ele>253.48999999999998</ele>
   </trkpt>
   <trkpt lat="-37.88958" lon="145.31101">
    <ele>253.48999999999998</ele>
   </trkpt>
   <trkpt lat="-37.88958" lon="145.3109">
    <ele>253.48999999999998</ele>
   </trkpt>
   <trkpt lat="-37.88951" lon="145.31074">
    <ele>260.45</ele>
   </trkpt>
   <trkpt lat="-37.88931" lon="145.31038">
    <ele>265.48</ele>
   </trkpt>
   <trkpt lat="-37.889210000000006" lon="145.31025000000002">
    <ele>266.97</ele>
   </trkpt>
   <trkpt lat="-37.889070000000004" lon="145.31015000000002">
    <ele>269.69000000000005</ele>
   </trkpt>
   <trkpt lat="-37.88908" lon="145.31015000000002">
    <ele>269.69000000000005</ele>
   </trkpt>
   <trkpt lat="-37.88902" lon="145.31014000000002">
    <ele>271.84000000000003</ele>
   </trkpt>
   <trkpt lat="-37.88893" lon="145.31018">
    <ele>271.84000000000003</ele>
   </trkpt>
   <trkpt lat="-37.88868" lon="145.31060000000002">
    <ele>279.43</ele>
   </trkpt>
   <trkpt lat="-37.88859" lon="145.31071">
    <ele>281.77000000000004</ele>
   </trkpt>
   <trkpt lat="-37.888450000000006" lon="145.31074">
    <ele>284.52000000000004</ele>
   </trkpt>
   <trkpt lat="-37.88794" lon="145.31068000000002">
    <ele>300.1</ele>
   </trkpt>
   <trkpt lat="-37.88779" lon="145.31063">
    <ele>300.1</ele>
   </trkpt>
   <trkpt lat="-37.887330000000006" lon="145.31040000000002">
    <ele>311.8</ele>
   </trkpt>
   <trkpt lat="-37.88705" lon="145.31019">
    <ele>315.67</ele>
   </trkpt>
   <trkpt lat="-37.88696" lon="145.31015000000002">
    <ele>316.56</ele>
   </trkpt>
   <trkpt lat="-37.88705" lon="145.31019">
    <ele>315.67</ele>
   </trkpt>
   <trkpt lat="-37.887330000000006" lon="145.31040000000002">
    <ele>311.8</ele>
   </trkpt>
   <trkpt lat="-37.887840000000004" lon="145.31064">
    <ele>299.46</ele>
   </trkpt>
   <trkpt lat="-37.887330000000006" lon="145.31040000000002">
    <ele>311.8</ele>
   </trkpt>
   <trkpt lat="-37.88705" lon="145.31019">
    <ele>315.67</ele>
   </trkpt>
   <trkpt lat="-37.88696" lon="145.31015000000002">
    <ele>316.48</ele>
   </trkpt>
   <trkpt lat="-37.88687" lon="145.31014000000002">
    <ele>318.0</ele>
   </trkpt>
   <trkpt lat="-37.88673" lon="145.31015000000002">
    <ele>318.84000000000003</ele>
   </trkpt>
   <trkpt lat="-37.8866" lon="145.3102">
    <ele>319.97</ele>
   </trkpt>
   <trkpt lat="-37.886610000000005" lon="145.31019">
    <ele>319.97</ele>
   </trkpt>
   <trkpt lat="-37.88629" lon="145.31038">
    <ele>324.82000000000005</ele>
   </trkpt>
   <trkpt lat="-37.8862" lon="145.31044">
    <ele>329.97</ele>
   </trkpt>
   <trkpt lat="-37.88611" lon="145.31055">
    <ele>329.97</ele>
   </trkpt>
   <trkpt lat="-37.88579500178934" lon="145.31120500285434">
    <ele>340.47</ele>
   </trkpt>
   <trkpt lat="-37.88548" lon="145.31186000000002">
    <ele>351.52000000000004</ele>
   </trkpt>
   <trkpt lat="-37.88541" lon="145.31207">
    <ele>355.64</ele>
   </trkpt>
   <trkpt lat="-37.8853" lon="145.31255000000002">
    <ele>362.85</ele>
   </trkpt>
   <trkpt lat="-37.885270000000006" lon="145.31266000000002">
    <ele>366.08</ele>
   </trkpt>
   <trkpt lat="-37.88519" lon="145.31273000000002">
    <ele>367.81</ele>
   </trkpt>
   <trkpt lat="-37.88501" lon="145.31279">
    <ele>372.72</ele>
   </trkpt>
   <trkpt lat="-37.88488" lon="145.3128">
    <ele>374.63</ele>
   </trkpt>
   <trkpt lat="-37.884640000000005" lon="145.31277">
    <ele>378.82000000000005</ele>
   </trkpt>
   <trkpt lat="-37.88461" lon="145.31262">
    <ele>378.06</ele>
   </trkpt>
   <trkpt lat="-37.88436000109947" lon="145.3121049982058">
    <ele>374.66</ele>
   </trkpt>
   <trkpt lat="-37.88411" lon="145.31159000000002">
    <ele>369.1700000000001</ele>
   </trkpt>
   <trkpt lat="-37.884" lon="145.31125">
    <ele>366.6</ele>
   </trkpt>
   <trkpt lat="-37.88394" lon="145.31089">
    <ele>363.92</ele>
   </trkpt>
   <trkpt lat="-37.88391" lon="145.31067000000002">
    <ele>362.12000000000006</ele>
   </trkpt>
   <trkpt lat="-37.88398" lon="145.30967">
    <ele>353.87</ele>
   </trkpt>
   <trkpt lat="-37.88398" lon="145.3095">
    <ele>352.55</ele>
   </trkpt>
   <trkpt lat="-37.883950000000006" lon="145.30926000000002">
    <ele>350.87</ele>
   </trkpt>
   <trkpt lat="-37.883860000000006" lon="145.30907000000002">
    <ele>349.7</ele>
   </trkpt>
   <trkpt lat="-37.88353" lon="145.3086">
    <ele>345.2</ele>
   </trkpt>
   <trkpt lat="-37.88333" lon="145.30835000000002">
    <ele>343.43</ele>
   </trkpt>
   <trkpt lat="-37.88313" lon="145.30817000000002">
    <ele>342.07000000000005</ele>
   </trkpt>
   <trkpt lat="-37.88277" lon="145.30790000000002">
    <ele>337.53000000000003</ele>
   </trkpt>
   <trkpt lat="-37.882780000000004" lon="145.30791000000002">
    <ele>337.53000000000003</ele>
   </trkpt>
   <trkpt lat="-37.882670000000005" lon="145.30786">
    <ele>336.54</ele>
   </trkpt>
   <trkpt lat="-37.88208" lon="145.30768">
    <ele>331.49</ele>
   </trkpt>
   <trkpt lat="-37.881800000000005" lon="145.30764000000002">
    <ele>329.70000000000005</ele>
   </trkpt>
   <trkpt lat="-37.88152" lon="145.30794">
    <ele>326.89</ele>
   </trkpt>
   <trkpt lat="-37.88145" lon="145.30807000000001">
    <ele>325.90000000000003</ele>
   </trkpt>
   <trkpt lat="-37.88127" lon="145.30875">
    <ele>321.58000000000004</ele>
   </trkpt>
   <trkpt lat="-37.8812" lon="145.30912">
    <ele>320.13</ele>
   </trkpt>
   <trkpt lat="-37.88114" lon="145.30981">
    <ele>311.68</ele>
   </trkpt>
   <trkpt lat="-37.881040000000006" lon="145.31008">
    <ele>310.78</ele>
   </trkpt>
   <trkpt lat="-37.88096" lon="145.31011">
    <ele>310.55000000000007</ele>
   </trkpt>
   <trkpt lat="-37.880970000000005" lon="145.31011">
    <ele>310.55000000000007</ele>
   </trkpt>
   <trkpt lat="-37.88089" lon="145.31011">
    <ele>310.36</ele>
   </trkpt>
   <trkpt lat="-37.88082" lon="145.31005000000002">
    <ele>309.97</ele>
   </trkpt>
   <trkpt lat="-37.88035" lon="145.30939">
    <ele>299.63</ele>
   </trkpt>
   <trkpt lat="-37.87979" lon="145.30893">
    <ele>288.46000000000004</ele>
   </trkpt>
   <trkpt lat="-37.87921" lon="145.30859">
    <ele>282.18000000000006</ele>
   </trkpt>
   <trkpt lat="-37.87863" lon="145.30831">
    <ele>272.25000000000006</ele>
   </trkpt>
   <trkpt lat="-37.87816" lon="145.30803">
    <ele>263.96000000000004</ele>
   </trkpt>
   <trkpt lat="-37.87787" lon="145.30791000000002">
    <ele>261.83</ele>
   </trkpt>
   <trkpt lat="-37.87744" lon="145.30784">
    <ele>256.76000000000005</ele>
   </trkpt>
   <trkpt lat="-37.87729" lon="145.30784">
    <ele>255.36</ele>
   </trkpt>
   <trkpt lat="-37.877300000000005" lon="145.30784">
    <ele>255.36</ele>
   </trkpt>
   <trkpt lat="-37.87686" lon="145.30793">
    <ele>250.70000000000002</ele>
   </trkpt>
   <trkpt lat="-37.876470000000005" lon="145.30795">
    <ele>247.8</ele>
   </trkpt>
   <trkpt lat="-37.87664" lon="145.30818000000002">
    <ele>252.79000000000002</ele>
   </trkpt>
   <trkpt lat="-37.87675" lon="145.30823">
    <ele>255.62</ele>
   </trkpt>
   <trkpt lat="-37.87711" lon="145.30854000000002">
    <ele>266.82</ele>
   </trkpt>
   <trkpt lat="-37.87749" lon="145.30934000000002">
    <ele>290.04</ele>
   </trkpt>
   <trkpt lat="-37.8778" lon="145.30980000000002">
    <ele>307.82000000000005</ele>
   </trkpt>
   <trkpt lat="-37.87796" lon="145.30995000000001">
    <ele>310.8</ele>
   </trkpt>
   <trkpt lat="-37.87814" lon="145.31003">
    <ele>324.81000000000006</ele>
   </trkpt>
   <trkpt lat="-37.87847" lon="145.31033000000002">
    <ele>324.81000000000006</ele>
   </trkpt>
   <trkpt lat="-37.878600000000006" lon="145.31039">
    <ele>344.48</ele>
   </trkpt>
   <trkpt lat="-37.87885" lon="145.31058000000002">
    <ele>349.25</ele>
   </trkpt>
   <trkpt lat="-37.87903" lon="145.3108">
    <ele>359.14</ele>
   </trkpt>
   <trkpt lat="-37.8791" lon="145.31098">
    <ele>362.53000000000003</ele>
   </trkpt>
   <trkpt lat="-37.87912" lon="145.31145">
    <ele>378.12</ele>
   </trkpt>
   <trkpt lat="-37.87926" lon="145.31189">
    <ele>388.76000000000005</ele>
   </trkpt>
   <trkpt lat="-37.8793" lon="145.31218">
    <ele>396.64000000000004</ele>
   </trkpt>
   <trkpt lat="-37.87937" lon="145.31237000000002">
    <ele>399.25000000000006</ele>
   </trkpt>
   <trkpt lat="-37.87948" lon="145.31256000000002">
    <ele>407.55</ele>
   </trkpt>
   <trkpt lat="-37.87961" lon="145.3129">
    <ele>413.86000000000007</ele>
   </trkpt>
   <trkpt lat="-37.87975" lon="145.31343">
    <ele>423.03000000000003</ele>
   </trkpt>
   <trkpt lat="-37.87982" lon="145.31362000000001">
    <ele>424.50000000000006</ele>
   </trkpt>
   <trkpt lat="-37.87988" lon="145.31388">
    <ele>426.52</ele>
   </trkpt>
   <trkpt lat="-37.87997" lon="145.31387">
    <ele>426.41</ele>
   </trkpt>
   <trkpt lat="-37.88013" lon="145.31401000000002">
    <ele>425.92</ele>
   </trkpt>
   <trkpt lat="-37.880120000000005" lon="145.31408000000002">
    <ele>424.7</ele>
   </trkpt>
   <trkpt lat="-37.87955" lon="145.31441">
    <ele>427.08</ele>
   </trkpt>
   <trkpt lat="-37.87924" lon="145.31446000000003">
    <ele>427.93</ele>
   </trkpt>
   <trkpt lat="-37.87915" lon="145.31446000000003">
    <ele>428.06000000000006</ele>
   </trkpt>
   <trkpt lat="-37.87939" lon="145.31436000000002">
    <ele>427.36</ele>
   </trkpt>
   <trkpt lat="-37.87946" lon="145.31428000000002">
    <ele>427.36</ele>
   </trkpt>
   <trkpt lat="-37.87948" lon="145.31417000000002">
    <ele>427.27000000000004</ele>
   </trkpt>
   <trkpt lat="-37.87953" lon="145.31416000000002">
    <ele>427.13</ele>
   </trkpt>
   <trkpt lat="-37.87975" lon="145.31393">
    <ele>426.7900000000001</ele>
   </trkpt>
   <trkpt lat="-37.87997" lon="145.31387">
    <ele>426.33000000000004</ele>
   </trkpt>
   <trkpt lat="-37.88013" lon="145.31401000000002">
    <ele>425.92</ele>
   </trkpt>
   <trkpt lat="-37.880120000000005" lon="145.31408000000002">
    <ele>424.7</ele>
   </trkpt>
   <trkpt lat="-37.87955" lon="145.31441">
    <ele>427.08</ele>
   </trkpt>
   <trkpt lat="-37.87924" lon="145.31446000000003">
    <ele>427.93</ele>
   </trkpt>
   <trkpt lat="-37.87915" lon="145.31446000000003">
    <ele>428.06000000000006</ele>
   </trkpt>
   <trkpt lat="-37.87939" lon="145.31436000000002">
    <ele>427.36</ele>
   </trkpt>
   <trkpt lat="-37.87946" lon="145.31428000000002">
    <ele>427.36</ele>
   </trkpt>
   <trkpt lat="-37.87948" lon="145.31417000000002">
    <ele>427.27000000000004</ele>
   </trkpt>
   <trkpt lat="-37.87953" lon="145.31416000000002">
    <ele>427.13</ele>
   </trkpt>
   <trkpt lat="-37.87975" lon="145.31393">
    <ele>430.62000000000006</ele>
   </trkpt>
   <trkpt lat="-37.87979" lon="145.31391000000002">
    <ele>430.62000000000006</ele>
   </trkpt>
   <trkpt lat="-37.87953" lon="145.31416000000002">
    <ele>427.27000000000004</ele>
   </trkpt>
   <trkpt lat="-37.87941" lon="145.31419000000002">
    <ele>427.27000000000004</ele>
   </trkpt>
   <trkpt lat="-37.87928" lon="145.31419000000002">
    <ele>425.55</ele>
   </trkpt>
   <trkpt lat="-37.87882999993238" lon="145.31413999968586">
    <ele>422.1</ele>
   </trkpt>
   <trkpt lat="-37.87838" lon="145.31409000000002">
    <ele>415.06000000000006</ele>
   </trkpt>
   <trkpt lat="-37.87796" lon="145.31396">
    <ele>411.11</ele>
   </trkpt>
   <trkpt lat="-37.87753" lon="145.31387">
    <ele>406.79</ele>
   </trkpt>
   <trkpt lat="-37.87729" lon="145.31387">
    <ele>403.83000000000004</ele>
   </trkpt>
   <trkpt lat="-37.876990000000006" lon="145.31384">
    <ele>399.5</ele>
   </trkpt>
   <trkpt lat="-37.87635" lon="145.31387">
    <ele>391.85</ele>
   </trkpt>
   <trkpt lat="-37.87585" lon="145.31401000000002">
    <ele>386.29</ele>
   </trkpt>
   <trkpt lat="-37.8757" lon="145.31402">
    <ele>386.29</ele>
   </trkpt>
   <trkpt lat="-37.87532" lon="145.31391000000002">
    <ele>381.90000000000003</ele>
   </trkpt>
   <trkpt lat="-37.87489" lon="145.31387">
    <ele>378.74</ele>
   </trkpt>
   <trkpt lat="-37.87447" lon="145.31404">
    <ele>374.46</ele>
   </trkpt>
   <trkpt lat="-37.8742" lon="145.31409000000002">
    <ele>372.86</ele>
   </trkpt>
   <trkpt lat="-37.87366" lon="145.31386">
    <ele>371.14000000000004</ele>
   </trkpt>
   <trkpt lat="-37.87344" lon="145.31381000000002">
    <ele>370.73</ele>
   </trkpt>
   <trkpt lat="-37.872890000000005" lon="145.31377">
    <ele>368.79</ele>
   </trkpt>
   <trkpt lat="-37.872600000000006" lon="145.31367">
    <ele>364.75</ele>
   </trkpt>
   <trkpt lat="-37.87241" lon="145.3135">
    <ele>361.86</ele>
   </trkpt>
   <trkpt lat="-37.87229" lon="145.31326">
    <ele>361.39000000000004</ele>
   </trkpt>
   <trkpt lat="-37.87227" lon="145.31307">
    <ele>357.84000000000003</ele>
   </trkpt>
   <trkpt lat="-37.87229" lon="145.31288">
    <ele>356.72</ele>
   </trkpt>
   <trkpt lat="-37.87254" lon="145.31233">
    <ele>350.38</ele>
   </trkpt>
   <trkpt lat="-37.87259" lon="145.31212000000002">
    <ele>349.40000000000003</ele>
   </trkpt>
   <trkpt lat="-37.87254" lon="145.31198">
    <ele>349.16</ele>
   </trkpt>
   <trkpt lat="-37.87245" lon="145.31188">
    <ele>350.17</ele>
   </trkpt>
   <trkpt lat="-37.87236" lon="145.31185000000002">
    <ele>351.44</ele>
   </trkpt>
   <trkpt lat="-37.87227" lon="145.31188">
    <ele>353.56000000000006</ele>
   </trkpt>
   <trkpt lat="-37.87228" lon="145.31187">
    <ele>353.56000000000006</ele>
   </trkpt>
   <trkpt lat="-37.87201" lon="145.31204000000002">
    <ele>361.86</ele>
   </trkpt>
   <trkpt lat="-37.87182" lon="145.31231000000002">
    <ele>370.35</ele>
   </trkpt>
   <trkpt lat="-37.87174" lon="145.31253">
    <ele>376.67</ele>
   </trkpt>
   <trkpt lat="-37.87165" lon="145.31262">
    <ele>381.70000000000005</ele>
   </trkpt>
   <trkpt lat="-37.87133" lon="145.3128">
    <ele>388.33</ele>
   </trkpt>
   <trkpt lat="-37.87127" lon="145.31286">
    <ele>390.20000000000005</ele>
   </trkpt>
   <trkpt lat="-37.87091000185914" lon="145.31352500326963">
    <ele>393.76000000000005</ele>
   </trkpt>
   <trkpt lat="-37.87055" lon="145.31419000000002">
    <ele>388.44</ele>
   </trkpt>
   <trkpt lat="-37.87064" lon="145.31427000000002">
    <ele>393.23</ele>
   </trkpt>
   <trkpt lat="-37.87073" lon="145.31441">
    <ele>390.48</ele>
   </trkpt>
   <trkpt lat="-37.87064" lon="145.31427000000002">
    <ele>389.84000000000003</ele>
   </trkpt>
   <trkpt lat="-37.87055" lon="145.31419000000002">
    <ele>388.44</ele>
   </trkpt>
   <trkpt lat="-37.87093" lon="145.31347000000002">
    <ele>403.37</ele>
   </trkpt>
   <trkpt lat="-37.87055" lon="145.31419000000002">
    <ele>388.44</ele>
   </trkpt>
   <trkpt lat="-37.87064" lon="145.31427000000002">
    <ele>389.84000000000003</ele>
   </trkpt>
   <trkpt lat="-37.871" lon="145.31480000000002">
    <ele>396.74</ele>
   </trkpt>
   <trkpt lat="-37.871190000000006" lon="145.31547">
    <ele>404.12</ele>
   </trkpt>
   <trkpt lat="-37.871" lon="145.31558">
    <ele>402.38</ele>
   </trkpt>
   <trkpt lat="-37.87059" lon="145.31573">
    <ele>397.40000000000003</ele>
   </trkpt>
   <trkpt lat="-37.87041" lon="145.31596000000002">
    <ele>396.11</ele>
   </trkpt>
   <trkpt lat="-37.87006" lon="145.31660000000002">
    <ele>397.23</ele>
   </trkpt>
   <trkpt lat="-37.869780000000006" lon="145.31726">
    <ele>407.78000000000003</ele>
   </trkpt>
   <trkpt lat="-37.86954" lon="145.31789">
    <ele>412.47</ele>
   </trkpt>
   <trkpt lat="-37.869440000000004" lon="145.31847000000002">
    <ele>415.81</ele>
   </trkpt>
   <trkpt lat="-37.869440000000004" lon="145.31848000000002">
    <ele>415.81</ele>
   </trkpt>
   <trkpt lat="-37.86947" lon="145.31873000000002">
    <ele>417.86</ele>
   </trkpt>
   <trkpt lat="-37.86965" lon="145.31935000000001">
    <ele>422.43</ele>
   </trkpt>
   <trkpt lat="-37.86974" lon="145.3196">
    <ele>424.49</ele>
   </trkpt>
   <trkpt lat="-37.86992" lon="145.31986">
    <ele>430.63</ele>
   </trkpt>
   <trkpt lat="-37.87001" lon="145.32003">
    <ele>432.97</ele>
   </trkpt>
   <trkpt lat="-37.87012" lon="145.32062000000002">
    <ele>438.64000000000004</ele>
   </trkpt>
   <trkpt lat="-37.870250000000006" lon="145.32106000000002">
    <ele>445.37000000000006</ele>
   </trkpt>
   <trkpt lat="-37.87046" lon="145.3213">
    <ele>449.44000000000005</ele>
   </trkpt>
   <trkpt lat="-37.87086" lon="145.32168000000001">
    <ele>452.88000000000005</ele>
   </trkpt>
   <trkpt lat="-37.87127" lon="145.32199">
    <ele>455.67</ele>
   </trkpt>
   <trkpt lat="-37.87169" lon="145.32248">
    <ele>459.36</ele>
   </trkpt>
   <trkpt lat="-37.87178" lon="145.32255">
    <ele>460.85</ele>
   </trkpt>
   <trkpt lat="-37.871840000000006" lon="145.32255">
    <ele>461.69000000000005</ele>
   </trkpt>
   <trkpt lat="-37.87191" lon="145.32233000000002">
    <ele>466.39000000000004</ele>
   </trkpt>
   <trkpt lat="-37.87203" lon="145.32209">
    <ele>472.81000000000006</ele>
   </trkpt>
   <trkpt lat="-37.87207" lon="145.32187000000002">
    <ele>476.84000000000003</ele>
   </trkpt>
   <trkpt lat="-37.872" lon="145.32135000000002">
    <ele>485.16</ele>
   </trkpt>
   <trkpt lat="-37.872" lon="145.32119">
    <ele>487.12000000000006</ele>
   </trkpt>
   <trkpt lat="-37.87203" lon="145.32099000000002">
    <ele>490.34000000000003</ele>
   </trkpt>
   <trkpt lat="-37.87223" lon="145.32034000000002">
    <ele>508.31</ele>
   </trkpt>
   <trkpt lat="-37.87232" lon="145.31989000000002">
    <ele>513.0600000000001</ele>
   </trkpt>
   <trkpt lat="-37.87241" lon="145.31979">
    <ele>514.94</ele>
   </trkpt>
   <trkpt lat="-37.872420000000005" lon="145.31975">
    <ele>514.8900000000001</ele>
   </trkpt>
   <trkpt lat="-37.87241" lon="145.31979">
    <ele>514.4000000000001</ele>
   </trkpt>
   <trkpt lat="-37.87232" lon="145.31989000000002">
    <ele>513.0600000000001</ele>
   </trkpt>
   <trkpt lat="-37.872220000000006" lon="145.32037000000003">
    <ele>504.5900000000001</ele>
   </trkpt>
   <trkpt lat="-37.87232" lon="145.31989000000002">
    <ele>513.7700000000001</ele>
   </trkpt>
   <trkpt lat="-37.87241" lon="145.31979">
    <ele>515.4000000000001</ele>
   </trkpt>
   <trkpt lat="-37.87243" lon="145.31963000000002">
    <ele>515.66</ele>
   </trkpt>
   <trkpt lat="-37.87243" lon="145.31962000000001">
    <ele>515.66</ele>
   </trkpt>
   <trkpt lat="-37.87303" lon="145.31965000000002">
    <ele>514.17</ele>
   </trkpt>
   <trkpt lat="-37.87328" lon="145.3197">
    <ele>513.4300000000001</ele>
   </trkpt>
   <trkpt lat="-37.87355" lon="145.31979">
    <ele>509.89000000000004</ele>
   </trkpt>
   <trkpt lat="-37.874" lon="145.32000000000002">
    <ele>505.02000000000004</ele>
   </trkpt>
   <trkpt lat="-37.87415" lon="145.32003">
    <ele>502.46</ele>
   </trkpt>
   <trkpt lat="-37.87442" lon="145.32003">
    <ele>499.95000000000005</ele>
   </trkpt>
   <trkpt lat="-37.87473" lon="145.32017000000002">
    <ele>495.88000000000005</ele>
   </trkpt>
   <trkpt lat="-37.874880000000005" lon="145.3202">
    <ele>494.65000000000003</ele>
   </trkpt>
   <trkpt lat="-37.87498" lon="145.32019000000003">
    <ele>494.08</ele>
   </trkpt>
   <trkpt lat="-37.87521" lon="145.32021">
    <ele>494.08</ele>
   </trkpt>
   <trkpt lat="-37.87541" lon="145.32018000000002">
    <ele>488.28000000000003</ele>
   </trkpt>
   <trkpt lat="-37.87565" lon="145.32011">
    <ele>485.95000000000005</ele>
   </trkpt>
   <trkpt lat="-37.875710000000005" lon="145.32012">
    <ele>484.52000000000004</ele>
   </trkpt>
   <trkpt lat="-37.87585" lon="145.32021">
    <ele>480.84000000000003</ele>
   </trkpt>
   <trkpt lat="-37.87599" lon="145.32032">
    <ele>476.78000000000003</ele>
   </trkpt>
   <trkpt lat="-37.876090000000005" lon="145.32037000000003">
    <ele>474.96000000000004</ele>
   </trkpt>
   <trkpt lat="-37.87619" lon="145.32080000000002">
    <ele>475.53000000000003</ele>
   </trkpt>
   <trkpt lat="-37.87632" lon="145.32108000000002">
    <ele>478.22</ele>
   </trkpt>
   <trkpt lat="-37.87684" lon="145.32166">
    <ele>480.57000000000005</ele>
   </trkpt>
   <trkpt lat="-37.87738" lon="145.32242000000002">
    <ele>482.67</ele>
   </trkpt>
   <trkpt lat="-37.87742" lon="145.32267000000002">
    <ele>485.13000000000005</ele>
   </trkpt>
   <trkpt lat="-37.8772" lon="145.32261000000003">
    <ele>485.13000000000005</ele>
   </trkpt>
   <trkpt lat="-37.87675" lon="145.32254">
    <ele>491.95000000000005</ele>
   </trkpt>
   <trkpt lat="-37.87655" lon="145.32247">
    <ele>493.24000000000007</ele>
   </trkpt>
   <trkpt lat="-37.87675" lon="145.32254">
    <ele>491.95000000000005</ele>
   </trkpt>
   <trkpt lat="-37.877" lon="145.32270000000003">
    <ele>493.16</ele>
   </trkpt>
   <trkpt lat="-37.87783" lon="145.32313000000002">
    <ele>497.90000000000003</ele>
   </trkpt>
   <trkpt lat="-37.8782" lon="145.32342">
    <ele>497.45000000000005</ele>
   </trkpt>
   <trkpt lat="-37.8787" lon="145.32406">
    <ele>497.91</ele>
   </trkpt>
   <trkpt lat="-37.87892" lon="145.32431000000003">
    <ele>499.34000000000003</ele>
   </trkpt>
   <trkpt lat="-37.87932" lon="145.32488">
    <ele>498.02</ele>
   </trkpt>
   <trkpt lat="-37.87993" lon="145.32551">
    <ele>492.74000000000007</ele>
   </trkpt>
   <trkpt lat="-37.88067" lon="145.32611">
    <ele>485.13000000000005</ele>
   </trkpt>
   <trkpt lat="-37.88132" lon="145.32653000000002">
    <ele>478.53000000000003</ele>
   </trkpt>
   <trkpt lat="-37.88172" lon="145.32688000000002">
    <ele>473.51000000000005</ele>
   </trkpt>
   <trkpt lat="-37.88181" lon="145.32698000000002">
    <ele>472.73</ele>
   </trkpt>
   <trkpt lat="-37.88201" lon="145.32736">
    <ele>471.20000000000005</ele>
   </trkpt>
   <trkpt lat="-37.88223" lon="145.32806000000002">
    <ele>464.81000000000006</ele>
   </trkpt>
   <trkpt lat="-37.88241" lon="145.32832000000002">
    <ele>460.87000000000006</ele>
   </trkpt>
   <trkpt lat="-37.88264" lon="145.32853">
    <ele>454.95</ele>
   </trkpt>
   <trkpt lat="-37.882630000000006" lon="145.32852000000003">
    <ele>454.95</ele>
   </trkpt>
   <trkpt lat="-37.88284" lon="145.32863">
    <ele>449.27000000000004</ele>
   </trkpt>
   <trkpt lat="-37.88311" lon="145.32864">
    <ele>445.1</ele>
   </trkpt>
   <trkpt lat="-37.88342" lon="145.32859000000002">
    <ele>440.26000000000005</ele>
   </trkpt>
   <trkpt lat="-37.88378" lon="145.32857">
    <ele>434.6700000000001</ele>
   </trkpt>
   <trkpt lat="-37.88407" lon="145.32862">
    <ele>429.67</ele>
   </trkpt>
   <trkpt lat="-37.88447" lon="145.32879">
    <ele>423.26</ele>
   </trkpt>
   <trkpt lat="-37.88499" lon="145.32899">
    <ele>411.48</ele>
   </trkpt>
   <trkpt lat="-37.885540000000006" lon="145.32899">
    <ele>401.58000000000004</ele>
   </trkpt>
   <trkpt lat="-37.88584" lon="145.32891">
    <ele>395.31000000000006</ele>
   </trkpt>
   <trkpt lat="-37.88604" lon="145.32873">
    <ele>388.36</ele>
   </trkpt>
   <trkpt lat="-37.88624" lon="145.32841000000002">
    <ele>381.84000000000003</ele>
   </trkpt>
   <trkpt lat="-37.886390000000006" lon="145.32833000000002">
    <ele>380.46000000000004</ele>
   </trkpt>
   <trkpt lat="-37.88638" lon="145.32787000000002">
    <ele>376.9</ele>
   </trkpt>
   <trkpt lat="-37.88638" lon="145.32786000000002">
    <ele>376.9</ele>
   </trkpt>
   <trkpt lat="-37.88633" lon="145.32777000000002">
    <ele>376.85</ele>
   </trkpt>
   <trkpt lat="-37.88624" lon="145.32741000000001">
    <ele>375.69</ele>
   </trkpt>
   <trkpt lat="-37.886190000000006" lon="145.32696">
    <ele>375.51</ele>
   </trkpt>
   <trkpt lat="-37.88608" lon="145.32707000000002">
    <ele>373.9</ele>
   </trkpt>
   <trkpt lat="-37.8857" lon="145.3273">
    <ele>370.20000000000005</ele>
   </trkpt>
   <trkpt lat="-37.88559" lon="145.32723000000001">
    <ele>368.44000000000005</ele>
   </trkpt>
   <trkpt lat="-37.88555" lon="145.32716000000002">
    <ele>367.45000000000005</ele>
   </trkpt>
   <trkpt lat="-37.88546" lon="145.32689000000002">
    <ele>364.56000000000006</ele>
   </trkpt>
   <trkpt lat="-37.88539" lon="145.32682">
    <ele>364.00000000000006</ele>
   </trkpt>
   <trkpt lat="-37.88532" lon="145.32677">
    <ele>362.96</ele>
   </trkpt>
   <trkpt lat="-37.88517" lon="145.32679000000002">
    <ele>360.47</ele>
   </trkpt>
   <trkpt lat="-37.8851" lon="145.32674">
    <ele>360.47</ele>
   </trkpt>
   <trkpt lat="-37.88503" lon="145.32657">
    <ele>358.32</ele>
   </trkpt>
   <trkpt lat="-37.88501" lon="145.32641">
    <ele>356.55</ele>
   </trkpt>
   <trkpt lat="-37.88481" lon="145.32615">
    <ele>353.14</ele>
   </trkpt>
   <trkpt lat="-37.88472" lon="145.32611">
    <ele>353.14</ele>
   </trkpt>
   <trkpt lat="-37.8847" lon="145.32606">
    <ele>351.89000000000004</ele>
   </trkpt>
   <trkpt lat="-37.88467" lon="145.32594">
    <ele>350.99</ele>
   </trkpt>
   <trkpt lat="-37.88472" lon="145.32581000000002">
    <ele>349.93</ele>
   </trkpt>
   <trkpt lat="-37.88483" lon="145.32566">
    <ele>347.89000000000004</ele>
   </trkpt>
   <trkpt lat="-37.8849" lon="145.32534">
    <ele>344.0</ele>
   </trkpt>
   <trkpt lat="-37.88494" lon="145.32504">
    <ele>339.11</ele>
   </trkpt>
   <trkpt lat="-37.88494" lon="145.32475000000002">
    <ele>335.91</ele>
   </trkpt>
   <trkpt lat="-37.8849" lon="145.32459">
    <ele>333.27</ele>
   </trkpt>
   <trkpt lat="-37.88481" lon="145.32436">
    <ele>331.42</ele>
   </trkpt>
   <trkpt lat="-37.88481" lon="145.32417">
    <ele>328.36</ele>
   </trkpt>
   <trkpt lat="-37.88483" lon="145.32404000000002">
    <ele>327.35</ele>
   </trkpt>
   <trkpt lat="-37.88481" lon="145.32355">
    <ele>315.52000000000004</ele>
   </trkpt>
   <trkpt lat="-37.8849" lon="145.32336">
    <ele>312.69</ele>
   </trkpt>
   <trkpt lat="-37.88488" lon="145.32315">
    <ele>311.11000000000007</ele>
   </trkpt>
   <trkpt lat="-37.88479" lon="145.32282">
    <ele>306.91</ele>
   </trkpt>
   <trkpt lat="-37.88456" lon="145.32247">
    <ele>301.38000000000005</ele>
   </trkpt>
   <trkpt lat="-37.88447" lon="145.32227">
    <ele>299.41</ele>
   </trkpt>
   <trkpt lat="-37.88443" lon="145.32186000000002">
    <ele>295.62000000000006</ele>
   </trkpt>
   <trkpt lat="-37.88432" lon="145.32141000000001">
    <ele>290.05</ele>
   </trkpt>
   <trkpt lat="-37.88423" lon="145.32127">
    <ele>286.6</ele>
   </trkpt>
   <trkpt lat="-37.88416" lon="145.3211">
    <ele>286.6</ele>
   </trkpt>
   <trkpt lat="-37.88416" lon="145.32099000000002">
    <ele>286.6</ele>
   </trkpt>
   <trkpt lat="-37.88425" lon="145.32069">
    <ele>281.86</ele>
   </trkpt>
   <trkpt lat="-37.88429" lon="145.32048">
    <ele>279.2</ele>
   </trkpt>
   <trkpt lat="-37.88425" lon="145.3202">
    <ele>276.46000000000004</ele>
   </trkpt>
   <trkpt lat="-37.88416" lon="145.31998000000002">
    <ele>274.79</ele>
   </trkpt>
   <trkpt lat="-37.88416" lon="145.31972000000002">
    <ele>272.85</ele>
   </trkpt>
   <trkpt lat="-37.88409" lon="145.31915">
    <ele>266.35</ele>
   </trkpt>
   <trkpt lat="-37.884" lon="145.31884000000002">
    <ele>263.93</ele>
   </trkpt>
   <trkpt lat="-37.88378" lon="145.31852">
    <ele>261.47</ele>
   </trkpt>
   <trkpt lat="-37.88373" lon="145.31836">
    <ele>259.53000000000003</ele>
   </trkpt>
   <trkpt lat="-37.88396" lon="145.31833">
    <ele>256.03000000000003</ele>
   </trkpt>
   <trkpt lat="-37.88429" lon="145.31839000000002">
    <ele>252.06</ele>
   </trkpt>
   <trkpt lat="-37.88477" lon="145.31835">
    <ele>245.46</ele>
   </trkpt>
   <trkpt lat="-37.88528" lon="145.31820000000002">
    <ele>234.43000000000004</ele>
   </trkpt>
   <trkpt lat="-37.88555" lon="145.31807">
    <ele>231.59</ele>
   </trkpt>
   <trkpt lat="-37.88611" lon="145.31784000000002">
    <ele>227.54000000000002</ele>
   </trkpt>
   <trkpt lat="-37.88669" lon="145.31744">
    <ele>227.86</ele>
   </trkpt>
   <trkpt lat="-37.886880000000005" lon="145.31755">
    <ele>224.95000000000002</ele>
   </trkpt>
   <trkpt lat="-37.88712" lon="145.31764">
    <ele>220.88000000000002</ele>
   </trkpt>
   <trkpt lat="-37.88725" lon="145.31765000000001">
    <ele>220.88000000000002</ele>
   </trkpt>
   <trkpt lat="-37.887460000000004" lon="145.31762">
    <ele>215.49</ele>
   </trkpt>
   <trkpt lat="-37.887460000000004" lon="145.31768000000002">
    <ele>215.44000000000003</ele>
   </trkpt>
   <trkpt lat="-37.88754" lon="145.31786000000002">
    <ele>215.44000000000003</ele>
   </trkpt>
   <trkpt lat="-37.88756" lon="145.31803000000002">
    <ele>215.28000000000003</ele>
   </trkpt>
   <trkpt lat="-37.88754" lon="145.31815">
    <ele>215.32</ele>
   </trkpt>
   <trkpt lat="-37.88749" lon="145.31828000000002">
    <ele>215.92000000000002</ele>
   </trkpt>
   <trkpt lat="-37.8875" lon="145.31827">
    <ele>215.92000000000002</ele>
   </trkpt>
   <trkpt lat="-37.88743" lon="145.31833">
    <ele>216.59</ele>
   </trkpt>
   <trkpt lat="-37.88738" lon="145.31834">
    <ele>217.74</ele>
   </trkpt>
   <trkpt lat="-37.88729" lon="145.31833">
    <ele>218.28000000000003</ele>
   </trkpt>
   <trkpt lat="-37.88687" lon="145.31819000000002">
    <ele>223.89000000000001</ele>
   </trkpt>
   <trkpt lat="-37.88642" lon="145.31822000000003">
    <ele>226.81</ele>
   </trkpt>
   <trkpt lat="-37.88613" lon="145.318">
    <ele>225.70000000000002</ele>
   </trkpt>
   <trkpt lat="-37.88608" lon="145.31801000000002">
    <ele>225.86</ele>
   </trkpt>
   <trkpt lat="-37.88588" lon="145.31813000000002">
    <ele>227.0</ele>
   </trkpt>
   <trkpt lat="-37.88579" lon="145.31807">
    <ele>228.09</ele>
   </trkpt>
   <trkpt lat="-37.885810000000006" lon="145.31796">
    <ele>228.74</ele>
   </trkpt>
   <trkpt lat="-37.88528" lon="145.31820000000002">
    <ele>249.83</ele>
   </trkpt>
   <trkpt lat="-37.885810000000006" lon="145.31796">
    <ele>228.74</ele>
   </trkpt>
   <trkpt lat="-37.88579" lon="145.31807">
    <ele>228.09</ele>
   </trkpt>
   <trkpt lat="-37.88588" lon="145.31813000000002">
    <ele>227.0</ele>
   </trkpt>
   <trkpt lat="-37.88608" lon="145.31801000000002">
    <ele>225.86</ele>
   </trkpt>
   <trkpt lat="-37.88613" lon="145.318">
    <ele>225.60000000000002</ele>
   </trkpt>
   <trkpt lat="-37.88642" lon="145.31822000000003">
    <ele>226.81</ele>
   </trkpt>
   <trkpt lat="-37.8868" lon="145.31819000000002">
    <ele>224.87</ele>
   </trkpt>
   <trkpt lat="-37.886860000000006" lon="145.31803000000002">
    <ele>222.11</ele>
   </trkpt>
   <trkpt lat="-37.88702" lon="145.31796">
    <ele>217.89000000000001</ele>
   </trkpt>
   <trkpt lat="-37.88714" lon="145.31777000000002">
    <ele>218.79000000000002</ele>
   </trkpt>
   <trkpt lat="-37.88712" lon="145.31764">
    <ele>220.88000000000002</ele>
   </trkpt>
   <trkpt lat="-37.88725" lon="145.31765000000001">
    <ele>220.88000000000002</ele>
   </trkpt>
   <trkpt lat="-37.88761" lon="145.31761">
    <ele>213.77</ele>
   </trkpt>
   <trkpt lat="-37.88783" lon="145.31755">
    <ele>211.33</ele>
   </trkpt>
   <trkpt lat="-37.88799" lon="145.31761">
    <ele>210.37000000000003</ele>
   </trkpt>
   <trkpt lat="-37.88817" lon="145.31758000000002">
    <ele>209.1</ele>
   </trkpt>
   <trkpt lat="-37.88839" lon="145.31764">
    <ele>206.23000000000002</ele>
   </trkpt>
   <trkpt lat="-37.88846" lon="145.31753">
    <ele>204.94</ele>
   </trkpt>
   <trkpt lat="-37.88866" lon="145.31772">
    <ele>201.43000000000004</ele>
   </trkpt>
   <trkpt lat="-37.88929" lon="145.31777000000002">
    <ele>195.70000000000002</ele>
   </trkpt>
   <trkpt lat="-37.889410000000005" lon="145.31771">
    <ele>194.23000000000002</ele>
   </trkpt>
   <trkpt lat="-37.88962" lon="145.31768000000002">
    <ele>191.57000000000002</ele>
   </trkpt>
   <trkpt lat="-37.88973" lon="145.31761">
    <ele>190.74</ele>
   </trkpt>
   <trkpt lat="-37.88978" lon="145.31753">
    <ele>189.99</ele>
   </trkpt>
   <trkpt lat="-37.890280000000004" lon="145.31739000000002">
    <ele>185.37</ele>
   </trkpt>
   <trkpt lat="-37.89043" lon="145.31745">
    <ele>184.17000000000002</ele>
   </trkpt>
   <trkpt lat="-37.89049" lon="145.31752">
    <ele>183.44000000000003</ele>
   </trkpt>
   <trkpt lat="-37.89058" lon="145.31752">
    <ele>182.82</ele>
   </trkpt>
   <trkpt lat="-37.89059" lon="145.31752">
    <ele>182.82</ele>
   </trkpt>
   <trkpt lat="-37.89067" lon="145.31745">
    <ele>181.15</ele>
   </trkpt>
   <trkpt lat="-37.89074" lon="145.31744">
    <ele>181.15</ele>
   </trkpt>
   <trkpt lat="-37.89097" lon="145.31731000000002">
    <ele>174.41</ele>
   </trkpt>
   <trkpt lat="-37.89076" lon="145.31697">
    <ele>181.92000000000002</ele>
   </trkpt>
   <trkpt lat="-37.89074" lon="145.31697">
    <ele>181.92000000000002</ele>
   </trkpt>
   <trkpt lat="-37.890730000000005" lon="145.31686000000002">
    <ele>182.54</ele>
   </trkpt>
   <trkpt lat="-37.8909" lon="145.31665">
    <ele>182.16000000000003</ele>
   </trkpt>
   <trkpt lat="-37.89099" lon="145.31640000000002">
    <ele>182.44000000000003</ele>
   </trkpt>
   <trkpt lat="-37.89099" lon="145.31616000000002">
    <ele>186.39000000000001</ele>
   </trkpt>
   <trkpt lat="-37.89099" lon="145.31640000000002">
    <ele>182.44000000000003</ele>
   </trkpt>
   <trkpt lat="-37.8909" lon="145.31665">
    <ele>182.16000000000003</ele>
   </trkpt>
   <trkpt lat="-37.890730000000005" lon="145.31686000000002">
    <ele>182.54</ele>
   </trkpt>
   <trkpt lat="-37.89074" lon="145.31705000000002">
    <ele>181.31000000000003</ele>
   </trkpt>
   <trkpt lat="-37.890820000000005" lon="145.31716">
    <ele>180.6</ele>
   </trkpt>
  </trkseg>
 </trk>
</gpx>
