<?xml version="1.0" encoding="UTF-8"?>
<gpx creator="StravaGPX" version="1.1" xmlns="http://www.topografix.com/GPX/1/1" xmlns:xsi="http://www.w3.org/2001/XMLSchema-instance" xsi:schemaLocation="http://www.topografix.com/GPX/1/1 http://www.topografix.com/GPX/1/1/gpx.xsd">
 <metadata>
  <name>Logan Park Track-Valley View Track-West Boundary Track</name>
  <author>
   <name>Natalie Gow</name>
  </author>
  <copyright author="OpenStreetMap contributors">
   <year>2020</year>
   <license>https://www.openstreetmap.org/copyright</license>
  </copyright>
 </metadata>
 <trk>
  <name>Logan Park Track-Valley View Track-West Boundary Track</name>
  <link href=""/>
  <type>trail_running</type>
  <trkseg>
   <trkpt lat="-37.965860000000006" lon="145.3032">
    <ele>92.95</ele>
   </trkpt>
   <trkpt lat="-37.96589" lon="145.30343000000002">
    <ele>92.84</ele>
   </trkpt>
   <trkpt lat="-37.9658" lon="145.3035">
    <ele>92.65</ele>
   </trkpt>
   <trkpt lat="-37.96578" lon="145.30367">
    <ele>92.50000000000001</ele>
   </trkpt>
   <trkpt lat="-37.96562" lon="145.30374">
    <ele>91.91</ele>
   </trkpt>
   <trkpt lat="-37.965590000000006" lon="145.30386000000001">
    <ele>91.75000000000001</ele>
   </trkpt>
   <trkpt lat="-37.965250000000005" lon="145.30386000000001">
    <ele>89.99</ele>
   </trkpt>
   <trkpt lat="-37.96522" lon="145.30385">
    <ele>89.99</ele>
   </trkpt>
   <trkpt lat="-37.96486" lon="145.30398000000002">
    <ele>88.15</ele>
   </trkpt>
   <trkpt lat="-37.96406" lon="145.30444">
    <ele>84.03</ele>
   </trkpt>
   <trkpt lat="-37.96337000140595" lon="145.30486000794608">
    <ele>82.34</ele>
   </trkpt>
   <trkpt lat="-37.9626800013187" lon="145.30528000799904">
    <ele>81.26</ele>
   </trkpt>
   <trkpt lat="-37.96199" lon="145.3057">
    <ele>80.80000000000001</ele>
   </trkpt>
   <trkpt lat="-37.96164" lon="145.30586000000002">
    <ele>80.88000000000001</ele>
   </trkpt>
   <trkpt lat="-37.96089000036123" lon="145.306022504973">
    <ele>82.93</ele>
   </trkpt>
   <trkpt lat="-37.960140000498946" lon="145.30618500662678">
    <ele>85.67</ele>
   </trkpt>
   <trkpt lat="-37.95939000041313" lon="145.30634750496156">
    <ele>86.83</ele>
   </trkpt>
   <trkpt lat="-37.95864" lon="145.30651">
    <ele>87.8</ele>
   </trkpt>
   <trkpt lat="-37.957864000676665" lon="145.3067100084524">
    <ele>86.82000000000001</ele>
   </trkpt>
   <trkpt lat="-37.95708800101475" lon="145.30691001267843">
    <ele>86.74000000000001</ele>
   </trkpt>
   <trkpt lat="-37.956312001014254" lon="145.30711001267838">
    <ele>87.05</ele>
   </trkpt>
   <trkpt lat="-37.95553600067519" lon="145.30731000845236">
    <ele>88.07000000000001</ele>
   </trkpt>
   <trkpt lat="-37.95476" lon="145.30751">
    <ele>89.39000000000001</ele>
   </trkpt>
   <trkpt lat="-37.95410000023479" lon="145.30769000159066">
    <ele>90.39000000000001</ele>
   </trkpt>
   <trkpt lat="-37.95344" lon="145.30787">
    <ele>90.86000000000001</ele>
   </trkpt>
   <trkpt lat="-37.95315" lon="145.30789000000001">
    <ele>91.21000000000001</ele>
   </trkpt>
   <trkpt lat="-37.952740000000006" lon="145.30795">
    <ele>91.23</ele>
   </trkpt>
   <trkpt lat="-37.95191000009693" lon="145.30812500198408">
    <ele>91.79</ele>
   </trkpt>
   <trkpt lat="-37.951080000000005" lon="145.3083">
    <ele>93.61000000000001</ele>
   </trkpt>
   <trkpt lat="-37.950955010217164" lon="145.30740249535194">
    <ele>93.81</ele>
   </trkpt>
   <trkpt lat="-37.950830013616645" lon="145.30650499375793">
    <ele>94.26</ele>
   </trkpt>
   <trkpt lat="-37.95070501019848" lon="145.30560749521808">
    <ele>99.73</ele>
   </trkpt>
   <trkpt lat="-37.95058" lon="145.30471">
    <ele>104.54</ele>
   </trkpt>
   <trkpt lat="-37.950520000000004" lon="145.30421">
    <ele>106.92000000000002</ele>
   </trkpt>
   <trkpt lat="-37.95006" lon="145.30426">
    <ele>106.38</ele>
   </trkpt>
   <trkpt lat="-37.94957" lon="145.30428">
    <ele>106.31000000000002</ele>
   </trkpt>
   <trkpt lat="-37.9491" lon="145.30434000000002">
    <ele>107.75000000000001</ele>
   </trkpt>
   <trkpt lat="-37.94858" lon="145.30436">
    <ele>113.0</ele>
   </trkpt>
   <trkpt lat="-37.948420000000006" lon="145.30435">
    <ele>113.86</ele>
   </trkpt>
   <trkpt lat="-37.9482" lon="145.30423000000002">
    <ele>115.26000000000002</ele>
   </trkpt>
   <trkpt lat="-37.94787" lon="145.30425000000002">
    <ele>117.64</ele>
   </trkpt>
   <trkpt lat="-37.94762" lon="145.30422000000002">
    <ele>119.28000000000002</ele>
   </trkpt>
   <trkpt lat="-37.94733" lon="145.30425000000002">
    <ele>120.29</ele>
   </trkpt>
   <trkpt lat="-37.94708" lon="145.30431000000002">
    <ele>122.54</ele>
   </trkpt>
   <trkpt lat="-37.94668" lon="145.30431000000002">
    <ele>124.71000000000001</ele>
   </trkpt>
   <trkpt lat="-37.94641" lon="145.30435">
    <ele>127.41000000000003</ele>
   </trkpt>
   <trkpt lat="-37.94601" lon="145.30429">
    <ele>130.58</ele>
   </trkpt>
   <trkpt lat="-37.945750000000004" lon="145.30422000000002">
    <ele>133.38</ele>
   </trkpt>
   <trkpt lat="-37.94532" lon="145.30434000000002">
    <ele>139.20000000000002</ele>
   </trkpt>
   <trkpt lat="-37.94514" lon="145.30432000000002">
    <ele>141.16</ele>
   </trkpt>
   <trkpt lat="-37.94491" lon="145.3042">
    <ele>142.59000000000003</ele>
   </trkpt>
   <trkpt lat="-37.9446" lon="145.30406000000002">
    <ele>143.47</ele>
   </trkpt>
   <trkpt lat="-37.94438" lon="145.30407000000002">
    <ele>143.81000000000003</ele>
   </trkpt>
   <trkpt lat="-37.94397" lon="145.30416000000002">
    <ele>145.32</ele>
   </trkpt>
   <trkpt lat="-37.94337" lon="145.30448">
    <ele>148.14000000000001</ele>
   </trkpt>
   <trkpt lat="-37.94308" lon="145.30457">
    <ele>148.50000000000003</ele>
   </trkpt>
   <trkpt lat="-37.94279" lon="145.30461000000003">
    <ele>150.62</ele>
   </trkpt>
   <trkpt lat="-37.94254" lon="145.30455">
    <ele>152.01</ele>
   </trkpt>
   <trkpt lat="-37.94234" lon="145.30448">
    <ele>153.12</ele>
   </trkpt>
   <trkpt lat="-37.94223" lon="145.30447">
    <ele>153.69000000000003</ele>
   </trkpt>
   <trkpt lat="-37.94221" lon="145.30445">
    <ele>153.73</ele>
   </trkpt>
   <trkpt lat="-37.94196" lon="145.30441000000002">
    <ele>153.02</ele>
   </trkpt>
   <trkpt lat="-37.94149999996322" lon="145.30437499977776">
    <ele>150.41000000000003</ele>
   </trkpt>
   <trkpt lat="-37.94104" lon="145.30434000000002">
    <ele>146.39000000000001</ele>
   </trkpt>
   <trkpt lat="-37.94046000032212" lon="145.3040499976945">
    <ele>139.78</ele>
   </trkpt>
   <trkpt lat="-37.93988" lon="145.30376">
    <ele>134.20000000000002</ele>
   </trkpt>
   <trkpt lat="-37.93967" lon="145.30374">
    <ele>132.91</ele>
   </trkpt>
   <trkpt lat="-37.93921500000595" lon="145.30382000049897">
    <ele>131.81</ele>
   </trkpt>
   <trkpt lat="-37.93876" lon="145.3039">
    <ele>131.34</ele>
   </trkpt>
   <trkpt lat="-37.93789" lon="145.30407000000002">
    <ele>132.15</ele>
   </trkpt>
   <trkpt lat="-37.93702750030925" lon="145.3042325057254">
    <ele>134.84</ele>
   </trkpt>
   <trkpt lat="-37.936165000395" lon="145.30439500763697">
    <ele>135.99</ele>
   </trkpt>
   <trkpt lat="-37.935302500257286" lon="145.30455750573498">
    <ele>137.79000000000002</ele>
   </trkpt>
   <trkpt lat="-37.93444" lon="145.30472">
    <ele>143.5</ele>
   </trkpt>
   <trkpt lat="-37.93424" lon="145.30473">
    <ele>144.43</ele>
   </trkpt>
   <trkpt lat="-37.93381" lon="145.30392">
    <ele>149.46</ele>
   </trkpt>
   <trkpt lat="-37.93361" lon="145.30371000000002">
    <ele>150.12</ele>
   </trkpt>
   <trkpt lat="-37.93399" lon="145.30345">
    <ele>148.73</ele>
   </trkpt>
   <trkpt lat="-37.93426" lon="145.30341">
    <ele>147.00000000000003</ele>
   </trkpt>
   <trkpt lat="-37.93432" lon="145.30338">
    <ele>147.00000000000003</ele>
   </trkpt>
   <trkpt lat="-37.93459" lon="145.30298000000002">
    <ele>147.36</ele>
   </trkpt>
   <trkpt lat="-37.93477" lon="145.30285">
    <ele>147.61</ele>
   </trkpt>
   <trkpt lat="-37.935100000000006" lon="145.30271000000002">
    <ele>148.17000000000002</ele>
   </trkpt>
   <trkpt lat="-37.93538" lon="145.30245000000002">
    <ele>148.71</ele>
   </trkpt>
   <trkpt lat="-37.93567" lon="145.30216000000001">
    <ele>149.06000000000003</ele>
   </trkpt>
   <trkpt lat="-37.935750000000006" lon="145.30207000000001">
    <ele>149.34</ele>
   </trkpt>
   <trkpt lat="-37.9358" lon="145.30191000000002">
    <ele>150.16000000000003</ele>
   </trkpt>
   <trkpt lat="-37.93578" lon="145.30175">
    <ele>151.00000000000003</ele>
   </trkpt>
   <trkpt lat="-37.93551" lon="145.30099">
    <ele>154.37</ele>
   </trkpt>
   <trkpt lat="-37.93528500212655" lon="145.30028999802283">
    <ele>150.71</ele>
   </trkpt>
   <trkpt lat="-37.93506" lon="145.29959000000002">
    <ele>146.68</ele>
   </trkpt>
   <trkpt lat="-37.93491" lon="145.29882">
    <ele>141.19</ele>
   </trkpt>
   <trkpt lat="-37.934830001324656" lon="145.2982549992009">
    <ele>135.85</ele>
   </trkpt>
   <trkpt lat="-37.93475" lon="145.29769000000002">
    <ele>132.43</ele>
   </trkpt>
   <trkpt lat="-37.93468" lon="145.2975">
    <ele>131.37</ele>
   </trkpt>
   <trkpt lat="-37.934380000767554" lon="145.29703499787388">
    <ele>128.99</ele>
   </trkpt>
   <trkpt lat="-37.93408" lon="145.29657">
    <ele>127.51</ele>
   </trkpt>
   <trkpt lat="-37.93401" lon="145.29639">
    <ele>126.53</ele>
   </trkpt>
   <trkpt lat="-37.9338900034069" lon="145.29549499866988">
    <ele>121.57000000000001</ele>
   </trkpt>
   <trkpt lat="-37.93377" lon="145.2946">
    <ele>120.26</ele>
   </trkpt>
   <trkpt lat="-37.9337" lon="145.29389">
    <ele>125.14</ele>
   </trkpt>
   <trkpt lat="-37.93372" lon="145.29349000000002">
    <ele>127.88000000000002</ele>
   </trkpt>
   <trkpt lat="-37.93372" lon="145.29348000000002">
    <ele>127.88000000000002</ele>
   </trkpt>
   <trkpt lat="-37.933780000000006" lon="145.29323000000002">
    <ele>129.54000000000002</ele>
   </trkpt>
   <trkpt lat="-37.93392500132473" lon="145.2926800009151">
    <ele>133.48000000000002</ele>
   </trkpt>
   <trkpt lat="-37.934070000000006" lon="145.29213000000001">
    <ele>138.63</ele>
   </trkpt>
   <trkpt lat="-37.93415" lon="145.29173">
    <ele>146.73</ele>
   </trkpt>
   <trkpt lat="-37.93419" lon="145.29159">
    <ele>148.21</ele>
   </trkpt>
   <trkpt lat="-37.93453" lon="145.29151000000002">
    <ele>148.72000000000003</ele>
   </trkpt>
   <trkpt lat="-37.93529000007865" lon="145.2913500016605">
    <ele>147.88</ele>
   </trkpt>
   <trkpt lat="-37.93605" lon="145.29119">
    <ele>148.92000000000002</ele>
   </trkpt>
   <trkpt lat="-37.936930000000004" lon="145.29104">
    <ele>153.42</ele>
   </trkpt>
   <trkpt lat="-37.936960000000006" lon="145.29095">
    <ele>154.19000000000003</ele>
   </trkpt>
   <trkpt lat="-37.9369" lon="145.29082000000002">
    <ele>156.28</ele>
   </trkpt>
   <trkpt lat="-37.93681" lon="145.29074">
    <ele>158.04000000000002</ele>
   </trkpt>
   <trkpt lat="-37.93641" lon="145.29048">
    <ele>161.70000000000002</ele>
   </trkpt>
   <trkpt lat="-37.93605" lon="145.29049">
    <ele>162.85000000000002</ele>
   </trkpt>
   <trkpt lat="-37.93567" lon="145.29039">
    <ele>164.72</ele>
   </trkpt>
   <trkpt lat="-37.93486" lon="145.29044000000002">
    <ele>169.91</ele>
   </trkpt>
   <trkpt lat="-37.93459" lon="145.29041">
    <ele>171.03</ele>
   </trkpt>
   <trkpt lat="-37.93439" lon="145.29031">
    <ele>174.17000000000002</ele>
   </trkpt>
   <trkpt lat="-37.93406" lon="145.28995">
    <ele>176.45000000000002</ele>
   </trkpt>
   <trkpt lat="-37.93341" lon="145.28949">
    <ele>178.79</ele>
   </trkpt>
   <trkpt lat="-37.93303" lon="145.28908">
    <ele>177.94</ele>
   </trkpt>
   <trkpt lat="-37.93291" lon="145.28882000000002">
    <ele>178.19</ele>
   </trkpt>
   <trkpt lat="-37.93283" lon="145.28853">
    <ele>179.67000000000002</ele>
   </trkpt>
   <trkpt lat="-37.932750000000006" lon="145.28813000000002">
    <ele>183.57</ele>
   </trkpt>
   <trkpt lat="-37.93268500139578" lon="145.28755999968064">
    <ele>192.53</ele>
   </trkpt>
   <trkpt lat="-37.93262" lon="145.28699">
    <ele>204.29000000000002</ele>
   </trkpt>
   <trkpt lat="-37.93271" lon="145.28654">
    <ele>212.08</ele>
   </trkpt>
   <trkpt lat="-37.93209" lon="145.28591">
    <ele>212.81000000000003</ele>
   </trkpt>
   <trkpt lat="-37.93133" lon="145.28531">
    <ele>209.29</ele>
   </trkpt>
   <trkpt lat="-37.93097" lon="145.28494">
    <ele>208.57</ele>
   </trkpt>
   <trkpt lat="-37.930890000000005" lon="145.28480000000002">
    <ele>208.88</ele>
   </trkpt>
   <trkpt lat="-37.93088" lon="145.28479000000002">
    <ele>208.88</ele>
   </trkpt>
   <trkpt lat="-37.9309" lon="145.28470000000002">
    <ele>208.69</ele>
   </trkpt>
   <trkpt lat="-37.93097" lon="145.28461000000001">
    <ele>208.32</ele>
   </trkpt>
   <trkpt lat="-37.93115" lon="145.28451">
    <ele>207.77</ele>
   </trkpt>
   <trkpt lat="-37.93128" lon="145.28435000000002">
    <ele>205.88</ele>
   </trkpt>
   <trkpt lat="-37.93137" lon="145.28421">
    <ele>204.99</ele>
   </trkpt>
   <trkpt lat="-37.93148" lon="145.28392000000002">
    <ele>203.46000000000004</ele>
   </trkpt>
   <trkpt lat="-37.93159" lon="145.28331">
    <ele>200.81</ele>
   </trkpt>
   <trkpt lat="-37.93155" lon="145.28241">
    <ele>197.79000000000002</ele>
   </trkpt>
   <trkpt lat="-37.93164" lon="145.28197">
    <ele>195.52</ele>
   </trkpt>
   <trkpt lat="-37.93168" lon="145.28187">
    <ele>195.06</ele>
   </trkpt>
   <trkpt lat="-37.93211" lon="145.28165">
    <ele>193.14000000000001</ele>
   </trkpt>
   <trkpt lat="-37.93224" lon="145.28161">
    <ele>192.70000000000002</ele>
   </trkpt>
   <trkpt lat="-37.93256" lon="145.28175000000002">
    <ele>193.10000000000002</ele>
   </trkpt>
   <trkpt lat="-37.93262" lon="145.28173">
    <ele>193.54000000000002</ele>
   </trkpt>
   <trkpt lat="-37.93278" lon="145.28145">
    <ele>197.77000000000004</ele>
   </trkpt>
   <trkpt lat="-37.93291" lon="145.28111">
    <ele>202.34</ele>
   </trkpt>
   <trkpt lat="-37.93294" lon="145.28092">
    <ele>203.52</ele>
   </trkpt>
   <trkpt lat="-37.93294" lon="145.28047">
    <ele>204.56</ele>
   </trkpt>
   <trkpt lat="-37.93286000202276" lon="145.2797799993204">
    <ele>201.37</ele>
   </trkpt>
   <trkpt lat="-37.93278" lon="145.27909000000002">
    <ele>198.99000000000004</ele>
   </trkpt>
   <trkpt lat="-37.932770000000005" lon="145.27876">
    <ele>198.88000000000002</ele>
   </trkpt>
   <trkpt lat="-37.9328" lon="145.27848">
    <ele>199.78</ele>
   </trkpt>
   <trkpt lat="-37.9328" lon="145.27847">
    <ele>199.78</ele>
   </trkpt>
   <trkpt lat="-37.93294" lon="145.2782">
    <ele>199.20000000000002</ele>
   </trkpt>
   <trkpt lat="-37.933130000000006" lon="145.27801000000002">
    <ele>199.56</ele>
   </trkpt>
   <trkpt lat="-37.93345" lon="145.27775000000003">
    <ele>202.25</ele>
   </trkpt>
   <trkpt lat="-37.93385" lon="145.27721000000003">
    <ele>208.85</ele>
   </trkpt>
   <trkpt lat="-37.934310001131315" lon="145.27671000304903">
    <ele>203.48000000000002</ele>
   </trkpt>
   <trkpt lat="-37.93477" lon="145.27621000000002">
    <ele>193.29000000000002</ele>
   </trkpt>
   <trkpt lat="-37.93509" lon="145.27604000000002">
    <ele>195.41000000000003</ele>
   </trkpt>
   <trkpt lat="-37.9358" lon="145.2759">
    <ele>205.63</ele>
   </trkpt>
   <trkpt lat="-37.93623" lon="145.27556">
    <ele>208.45000000000002</ele>
   </trkpt>
   <trkpt lat="-37.93661" lon="145.27485000000001">
    <ele>201.0</ele>
   </trkpt>
   <trkpt lat="-37.93676" lon="145.27404">
    <ele>193.77</ele>
   </trkpt>
   <trkpt lat="-37.93681" lon="145.27393">
    <ele>192.03</ele>
   </trkpt>
   <trkpt lat="-37.9373" lon="145.27387000000002">
    <ele>183.95</ele>
   </trkpt>
   <trkpt lat="-37.93775" lon="145.27389000000002">
    <ele>178.18</ele>
   </trkpt>
   <trkpt lat="-37.9385350000933" lon="145.27382500068802">
    <ele>170.5</ele>
   </trkpt>
   <trkpt lat="-37.93932" lon="145.27376">
    <ele>168.45000000000002</ele>
   </trkpt>
   <trkpt lat="-37.93976" lon="145.27377">
    <ele>169.57000000000002</ele>
   </trkpt>
   <trkpt lat="-37.93995" lon="145.27381000000003">
    <ele>169.96000000000004</ele>
   </trkpt>
   <trkpt lat="-37.940070000000006" lon="145.27365">
    <ele>170.48000000000002</ele>
   </trkpt>
   <trkpt lat="-37.9405" lon="145.2732">
    <ele>171.51000000000002</ele>
   </trkpt>
   <trkpt lat="-37.9407" lon="145.27306000000002">
    <ele>172.24</ele>
   </trkpt>
   <trkpt lat="-37.9405" lon="145.2732">
    <ele>171.51000000000002</ele>
   </trkpt>
   <trkpt lat="-37.940070000000006" lon="145.27365">
    <ele>170.48000000000002</ele>
   </trkpt>
   <trkpt lat="-37.93995" lon="145.27381000000003">
    <ele>169.96000000000004</ele>
   </trkpt>
   <trkpt lat="-37.9401" lon="145.27383">
    <ele>170.52</ele>
   </trkpt>
   <trkpt lat="-37.94075" lon="145.27405000000002">
    <ele>172.99</ele>
   </trkpt>
   <trkpt lat="-37.94093" lon="145.27418">
    <ele>172.94</ele>
   </trkpt>
   <trkpt lat="-37.94106" lon="145.27431">
    <ele>172.58</ele>
   </trkpt>
   <trkpt lat="-37.94142000081293" lon="145.27474999783692">
    <ele>171.5</ele>
   </trkpt>
   <trkpt lat="-37.94178" lon="145.27519">
    <ele>169.71000000000004</ele>
   </trkpt>
   <trkpt lat="-37.94191" lon="145.27538">
    <ele>169.59</ele>
   </trkpt>
   <trkpt lat="-37.94216" lon="145.27594000000002">
    <ele>169.87</ele>
   </trkpt>
   <trkpt lat="-37.942260000000005" lon="145.27609">
    <ele>169.86</ele>
   </trkpt>
   <trkpt lat="-37.94289500141663" lon="145.2766349954277">
    <ele>169.66</ele>
   </trkpt>
   <trkpt lat="-37.94353" lon="145.27718000000002">
    <ele>169.01000000000002</ele>
   </trkpt>
   <trkpt lat="-37.94393" lon="145.27756000000002">
    <ele>168.89000000000001</ele>
   </trkpt>
   <trkpt lat="-37.94447" lon="145.27812">
    <ele>168.58</ele>
   </trkpt>
   <trkpt lat="-37.945080000000004" lon="145.27868">
    <ele>168.43</ele>
   </trkpt>
   <trkpt lat="-37.94552" lon="145.27894">
    <ele>162.51000000000002</ele>
   </trkpt>
   <trkpt lat="-37.94565" lon="145.27898000000002">
    <ele>161.34</ele>
   </trkpt>
   <trkpt lat="-37.94612" lon="145.27903">
    <ele>156.54000000000002</ele>
   </trkpt>
   <trkpt lat="-37.94626" lon="145.27908000000002">
    <ele>154.88000000000002</ele>
   </trkpt>
   <trkpt lat="-37.94639" lon="145.27917000000002">
    <ele>154.88000000000002</ele>
   </trkpt>
   <trkpt lat="-37.94652" lon="145.27921">
    <ele>153.46</ele>
   </trkpt>
   <trkpt lat="-37.94691" lon="145.27938">
    <ele>151.38000000000002</ele>
   </trkpt>
   <trkpt lat="-37.94717" lon="145.27966">
    <ele>150.46</ele>
   </trkpt>
   <trkpt lat="-37.947300000000006" lon="145.27975">
    <ele>148.75000000000003</ele>
   </trkpt>
   <trkpt lat="-37.94758" lon="145.27988000000002">
    <ele>147.52</ele>
   </trkpt>
   <trkpt lat="-37.9482" lon="145.28028">
    <ele>141.39000000000001</ele>
   </trkpt>
   <trkpt lat="-37.94874" lon="145.28051000000002">
    <ele>137.16</ele>
   </trkpt>
   <trkpt lat="-37.94914" lon="145.28057">
    <ele>134.18</ele>
   </trkpt>
   <trkpt lat="-37.949510000000004" lon="145.28094000000002">
    <ele>132.22</ele>
   </trkpt>
   <trkpt lat="-37.94964" lon="145.28104000000002">
    <ele>131.99</ele>
   </trkpt>
   <trkpt lat="-37.95012000114423" lon="145.28157499642984">
    <ele>132.91</ele>
   </trkpt>
   <trkpt lat="-37.9506" lon="145.28211000000002">
    <ele>134.0</ele>
   </trkpt>
   <trkpt lat="-37.95082" lon="145.28217">
    <ele>132.45000000000002</ele>
   </trkpt>
   <trkpt lat="-37.9512" lon="145.28219">
    <ele>129.65</ele>
   </trkpt>
   <trkpt lat="-37.95156" lon="145.28220000000002">
    <ele>126.71000000000001</ele>
   </trkpt>
   <trkpt lat="-37.95205500005226" lon="145.28223999973414">
    <ele>125.76</ele>
   </trkpt>
   <trkpt lat="-37.95255" lon="145.28228000000001">
    <ele>128.57999999999998</ele>
   </trkpt>
   <trkpt lat="-37.953300000000006" lon="145.28231000000002">
    <ele>134.84</ele>
   </trkpt>
   <trkpt lat="-37.9534" lon="145.28233">
    <ele>135.14000000000001</ele>
   </trkpt>
   <trkpt lat="-37.953540000000004" lon="145.28244">
    <ele>136.4</ele>
   </trkpt>
   <trkpt lat="-37.95362" lon="145.28256000000002">
    <ele>137.42000000000002</ele>
   </trkpt>
   <trkpt lat="-37.953700000000005" lon="145.28285000000002">
    <ele>138.06</ele>
   </trkpt>
   <trkpt lat="-37.95382" lon="145.28323">
    <ele>138.25</ele>
   </trkpt>
   <trkpt lat="-37.95391" lon="145.28341">
    <ele>138.35</ele>
   </trkpt>
   <trkpt lat="-37.95407" lon="145.28364000000002">
    <ele>138.87</ele>
   </trkpt>
   <trkpt lat="-37.95411" lon="145.28363000000002">
    <ele>138.87</ele>
   </trkpt>
   <trkpt lat="-37.95436" lon="145.28363000000002">
    <ele>141.26000000000002</ele>
   </trkpt>
   <trkpt lat="-37.9544" lon="145.28367">
    <ele>141.59000000000003</ele>
   </trkpt>
   <trkpt lat="-37.954570000000004" lon="145.28364000000002">
    <ele>141.84000000000003</ele>
   </trkpt>
   <trkpt lat="-37.9547" lon="145.28359">
    <ele>141.79</ele>
   </trkpt>
   <trkpt lat="-37.95474" lon="145.28369">
    <ele>141.57</ele>
   </trkpt>
   <trkpt lat="-37.955110000000005" lon="145.28371">
    <ele>139.98000000000002</ele>
   </trkpt>
   <trkpt lat="-37.95512" lon="145.28371">
    <ele>139.98000000000002</ele>
   </trkpt>
   <trkpt lat="-37.95528" lon="145.28482000000002">
    <ele>133.57000000000002</ele>
   </trkpt>
   <trkpt lat="-37.95588333884174" lon="145.2856266534156">
    <ele>127.0</ele>
   </trkpt>
   <trkpt lat="-37.95648667217583" lon="145.28643332008306">
    <ele>122.24000000000001</ele>
   </trkpt>
   <trkpt lat="-37.95709" lon="145.28724000000003">
    <ele>121.01</ele>
   </trkpt>
   <trkpt lat="-37.95724000631024" lon="145.28810332981536">
    <ele>121.56000000000002</ele>
   </trkpt>
   <trkpt lat="-37.9573900063117" lon="145.28896666315703">
    <ele>121.59</ele>
   </trkpt>
   <trkpt lat="-37.95754" lon="145.28983000000002">
    <ele>123.93</ele>
   </trkpt>
   <trkpt lat="-37.95759" lon="145.28991000000002">
    <ele>124.94000000000001</ele>
   </trkpt>
   <trkpt lat="-37.957600000000006" lon="145.28992000000002">
    <ele>124.94000000000001</ele>
   </trkpt>
   <trkpt lat="-37.957910000000005" lon="145.28991000000002">
    <ele>125.71000000000001</ele>
   </trkpt>
   <trkpt lat="-37.958180000000006" lon="145.28988">
    <ele>124.16000000000001</ele>
   </trkpt>
   <trkpt lat="-37.95825" lon="145.28978">
    <ele>123.49000000000001</ele>
   </trkpt>
   <trkpt lat="-37.95834" lon="145.28924">
    <ele>121.22</ele>
   </trkpt>
   <trkpt lat="-37.95841" lon="145.28904">
    <ele>120.21000000000001</ele>
   </trkpt>
   <trkpt lat="-37.95917" lon="145.28865000000002">
    <ele>114.95</ele>
   </trkpt>
   <trkpt lat="-37.95946" lon="145.28867000000002">
    <ele>114.78</ele>
   </trkpt>
   <trkpt lat="-37.95976" lon="145.28878">
    <ele>115.11</ele>
   </trkpt>
   <trkpt lat="-37.95993" lon="145.28882000000002">
    <ele>115.96000000000001</ele>
   </trkpt>
   <trkpt lat="-37.96051499996788" lon="145.28873500068622">
    <ele>120.04</ele>
   </trkpt>
   <trkpt lat="-37.9611" lon="145.28865000000002">
    <ele>124.01</ele>
   </trkpt>
   <trkpt lat="-37.96186" lon="145.28882000000002">
    <ele>127.82000000000001</ele>
   </trkpt>
   <trkpt lat="-37.96237500013094" lon="145.28896499899494">
    <ele>128.63000000000002</ele>
   </trkpt>
   <trkpt lat="-37.96289" lon="145.28911000000002">
    <ele>128.25</ele>
   </trkpt>
   <trkpt lat="-37.96341499992468" lon="145.2891299998541">
    <ele>127.55</ele>
   </trkpt>
   <trkpt lat="-37.96394" lon="145.28915">
    <ele>127.73</ele>
   </trkpt>
   <trkpt lat="-37.964440000212974" lon="145.28928499911743">
    <ele>129.15</ele>
   </trkpt>
   <trkpt lat="-37.964940000000006" lon="145.28942">
    <ele>129.51000000000002</ele>
   </trkpt>
   <trkpt lat="-37.9654350001873" lon="145.2895449991879">
    <ele>128.04999999999998</ele>
   </trkpt>
   <trkpt lat="-37.96593" lon="145.28967">
    <ele>125.83</ele>
   </trkpt>
   <trkpt lat="-37.966435000238484" lon="145.2897749993177">
    <ele>123.94000000000001</ele>
   </trkpt>
   <trkpt lat="-37.96694" lon="145.28988">
    <ele>118.53</ele>
   </trkpt>
   <trkpt lat="-37.96735000043745" lon="145.29014999857716">
    <ele>117.70000000000002</ele>
   </trkpt>
   <trkpt lat="-37.967760000000006" lon="145.29042">
    <ele>118.91000000000001</ele>
   </trkpt>
   <trkpt lat="-37.96801" lon="145.29068">
    <ele>119.76</ele>
   </trkpt>
   <trkpt lat="-37.96835" lon="145.29062000000002">
    <ele>121.29</ele>
   </trkpt>
   <trkpt lat="-37.96898" lon="145.29061000000002">
    <ele>125.12</ele>
   </trkpt>
   <trkpt lat="-37.96972" lon="145.29066">
    <ele>129.35000000000002</ele>
   </trkpt>
   <trkpt lat="-37.96978" lon="145.29076">
    <ele>129.16</ele>
   </trkpt>
   <trkpt lat="-37.96983" lon="145.29104">
    <ele>127.41000000000003</ele>
   </trkpt>
   <trkpt lat="-37.96992" lon="145.29116000000002">
    <ele>126.73</ele>
   </trkpt>
   <trkpt lat="-37.97044" lon="145.29171000000002">
    <ele>121.88000000000001</ele>
   </trkpt>
   <trkpt lat="-37.970850000000006" lon="145.29211">
    <ele>118.60000000000001</ele>
   </trkpt>
   <trkpt lat="-37.97124" lon="145.29258000000002">
    <ele>114.09</ele>
   </trkpt>
   <trkpt lat="-37.9716" lon="145.29296000000002">
    <ele>107.91</ele>
   </trkpt>
   <trkpt lat="-37.971610000000005" lon="145.29313000000002">
    <ele>106.64000000000001</ele>
   </trkpt>
   <trkpt lat="-37.971630000000005" lon="145.29315000000003">
    <ele>106.64000000000001</ele>
   </trkpt>
   <trkpt lat="-37.97146" lon="145.2932">
    <ele>106.25000000000001</ele>
   </trkpt>
   <trkpt lat="-37.97124" lon="145.29319">
    <ele>106.26</ele>
   </trkpt>
   <trkpt lat="-37.97068999997458" lon="145.29310499935457">
    <ele>106.27</ele>
   </trkpt>
   <trkpt lat="-37.97014" lon="145.29302">
    <ele>104.55</ele>
   </trkpt>
   <trkpt lat="-37.97021" lon="145.29341000000002">
    <ele>101.38000000000001</ele>
   </trkpt>
   <trkpt lat="-37.97016" lon="145.29384000000002">
    <ele>96.96000000000001</ele>
   </trkpt>
   <trkpt lat="-37.97025" lon="145.29414">
    <ele>92.43</ele>
   </trkpt>
   <trkpt lat="-37.97045" lon="145.29438000000002">
    <ele>88.83</ele>
   </trkpt>
   <trkpt lat="-37.97048" lon="145.29452">
    <ele>88.83</ele>
   </trkpt>
   <trkpt lat="-37.97041" lon="145.29485000000003">
    <ele>84.84000000000002</ele>
   </trkpt>
   <trkpt lat="-37.97043" lon="145.29497">
    <ele>83.88000000000001</ele>
   </trkpt>
   <trkpt lat="-37.97052" lon="145.29511000000002">
    <ele>83.08</ele>
   </trkpt>
   <trkpt lat="-37.97059" lon="145.29528000000002">
    <ele>82.24000000000001</ele>
   </trkpt>
   <trkpt lat="-37.97066" lon="145.29539000000003">
    <ele>82.2</ele>
   </trkpt>
   <trkpt lat="-37.970670000000005" lon="145.29565000000002">
    <ele>82.31</ele>
   </trkpt>
   <trkpt lat="-37.970778013837446" lon="145.29655399469328">
    <ele>82.29</ele>
   </trkpt>
   <trkpt lat="-37.970886020757" lon="145.29745799204662">
    <ele>82.29</ele>
   </trkpt>
   <trkpt lat="-37.97099402075861" lon="145.29836199205982">
    <ele>82.06</ele>
   </trkpt>
   <trkpt lat="-37.97110201384223" lon="145.29926599473285">
    <ele>81.88000000000001</ele>
   </trkpt>
   <trkpt lat="-37.971210000000006" lon="145.30017">
    <ele>81.62</ele>
   </trkpt>
   <trkpt lat="-37.97122" lon="145.30027">
    <ele>81.65</ele>
   </trkpt>
   <trkpt lat="-37.97111" lon="145.30072">
    <ele>81.68</ele>
   </trkpt>
   <trkpt lat="-37.97097" lon="145.30073000000002">
    <ele>81.94000000000001</ele>
   </trkpt>
   <trkpt lat="-37.97068" lon="145.30082000000002">
    <ele>83.80000000000001</ele>
   </trkpt>
   <trkpt lat="-37.970490000000005" lon="145.30081">
    <ele>84.32000000000001</ele>
   </trkpt>
   <trkpt lat="-37.9701" lon="145.30076000000003">
    <ele>84.36</ele>
   </trkpt>
   <trkpt lat="-37.969930000000005" lon="145.30079">
    <ele>84.56</ele>
   </trkpt>
   <trkpt lat="-37.96976" lon="145.30076000000003">
    <ele>84.69</ele>
   </trkpt>
   <trkpt lat="-37.96951" lon="145.30084000000002">
    <ele>85.13000000000001</ele>
   </trkpt>
   <trkpt lat="-37.96907" lon="145.30108">
    <ele>86.51</ele>
   </trkpt>
   <trkpt lat="-37.96838333342891" lon="145.30120333564633">
    <ele>86.22</ele>
   </trkpt>
   <trkpt lat="-37.967696666729054" lon="145.30132666898558">
    <ele>84.77000000000001</ele>
   </trkpt>
   <trkpt lat="-37.96701" lon="145.30145000000002">
    <ele>83.34</ele>
   </trkpt>
   <trkpt lat="-37.967000000000006" lon="145.30151">
    <ele>83.34</ele>
   </trkpt>
   <trkpt lat="-37.966860000000004" lon="145.30152">
    <ele>83.29</ele>
   </trkpt>
   <trkpt lat="-37.96683" lon="145.30158">
    <ele>83.33</ele>
   </trkpt>
   <trkpt lat="-37.96672" lon="145.30165000000002">
    <ele>83.44</ele>
   </trkpt>
   <trkpt lat="-37.96663" lon="145.30166">
    <ele>83.64</ele>
   </trkpt>
   <trkpt lat="-37.966530000000006" lon="145.30158">
    <ele>83.87</ele>
   </trkpt>
   <trkpt lat="-37.966460000000005" lon="145.30221">
    <ele>88.56000000000002</ele>
   </trkpt>
   <trkpt lat="-37.96632" lon="145.30232">
    <ele>89.41</ele>
   </trkpt>
   <trkpt lat="-37.966210000000004" lon="145.30224">
    <ele>89.22</ele>
   </trkpt>
   <trkpt lat="-37.96616" lon="145.30216000000001">
    <ele>89.22</ele>
   </trkpt>
   <trkpt lat="-37.96611" lon="145.30216000000001">
    <ele>89.22</ele>
   </trkpt>
   <trkpt lat="-37.96605" lon="145.30226000000002">
    <ele>89.38</ele>
   </trkpt>
   <trkpt lat="-37.96589" lon="145.30233">
    <ele>89.76</ele>
   </trkpt>
   <trkpt lat="-37.96576" lon="145.30236000000002">
    <ele>89.76</ele>
   </trkpt>
   <trkpt lat="-37.96582" lon="145.30287">
    <ele>91.57000000000001</ele>
   </trkpt>
   <trkpt lat="-37.96569" lon="145.30293">
    <ele>92.03</ele>
   </trkpt>
   <trkpt lat="-37.96566" lon="145.30316000000002">
    <ele>92.27</ele>
   </trkpt>
   <trkpt lat="-37.96569" lon="145.30328">
    <ele>92.28</ele>
   </trkpt>
   <trkpt lat="-37.96564" lon="145.30343000000002">
    <ele>91.9</ele>
   </trkpt>
   <trkpt lat="-37.96557" lon="145.30356">
    <ele>91.57000000000001</ele>
   </trkpt>
   <trkpt lat="-37.96549" lon="145.30367">
    <ele>91.01</ele>
   </trkpt>
   <trkpt lat="-37.96537" lon="145.30372">
    <ele>91.01</ele>
   </trkpt>
   <trkpt lat="-37.965250000000005" lon="145.30386000000001">
    <ele>89.99</ele>
   </trkpt>
   <trkpt lat="-37.96522" lon="145.30385">
    <ele>89.99</ele>
   </trkpt>
   <trkpt lat="-37.96486" lon="145.30398000000002">
    <ele>88.15</ele>
   </trkpt>
   <trkpt lat="-37.96406" lon="145.30444">
    <ele>84.03</ele>
   </trkpt>
   <trkpt lat="-37.96337000140595" lon="145.30486000794608">
    <ele>82.34</ele>
   </trkpt>
   <trkpt lat="-37.9626800013187" lon="145.30528000799904">
    <ele>81.26</ele>
   </trkpt>
   <trkpt lat="-37.96199" lon="145.3057">
    <ele>80.80000000000001</ele>
   </trkpt>
   <trkpt lat="-37.96164" lon="145.30586000000002">
    <ele>80.95</ele>
   </trkpt>
   <trkpt lat="-37.96089000036123" lon="145.306022504973">
    <ele>82.93</ele>
   </trkpt>
   <trkpt lat="-37.960140000498946" lon="145.30618500662678">
    <ele>85.67</ele>
   </trkpt>
   <trkpt lat="-37.95939000041313" lon="145.30634750496156">
    <ele>86.83</ele>
   </trkpt>
   <trkpt lat="-37.95864" lon="145.30651">
    <ele>87.72</ele>
   </trkpt>
   <trkpt lat="-37.957864000676665" lon="145.3067100084524">
    <ele>86.82000000000001</ele>
   </trkpt>
   <trkpt lat="-37.95708800101475" lon="145.30691001267843">
    <ele>86.74000000000001</ele>
   </trkpt>
   <trkpt lat="-37.956312001014254" lon="145.30711001267838">
    <ele>87.05</ele>
   </trkpt>
   <trkpt lat="-37.95553600067519" lon="145.30731000845236">
    <ele>88.07000000000001</ele>
   </trkpt>
   <trkpt lat="-37.95476" lon="145.30751">
    <ele>89.39000000000001</ele>
   </trkpt>
   <trkpt lat="-37.954040000000006" lon="145.30771000000001">
    <ele>90.34</ele>
   </trkpt>
   <trkpt lat="-37.95476" lon="145.30751">
    <ele>89.39000000000001</ele>
   </trkpt>
   <trkpt lat="-37.9555360006776" lon="145.3073100084517">
    <ele>88.07000000000001</ele>
   </trkpt>
   <trkpt lat="-37.95631200101668" lon="145.30711001267773">
    <ele>87.05</ele>
   </trkpt>
   <trkpt lat="-37.95708800101716" lon="145.3069100126778">
    <ele>86.74000000000001</ele>
   </trkpt>
   <trkpt lat="-37.95786400067909" lon="145.30671000845177">
    <ele>86.82000000000001</ele>
   </trkpt>
   <trkpt lat="-37.95864" lon="145.30651">
    <ele>87.8</ele>
   </trkpt>
   <trkpt lat="-37.95939000030932" lon="145.30634750498407">
    <ele>86.83</ele>
   </trkpt>
   <trkpt lat="-37.960140000395135" lon="145.3061850066493">
    <ele>85.67</ele>
   </trkpt>
   <trkpt lat="-37.96089000025743" lon="145.3060225049955">
    <ele>82.93</ele>
   </trkpt>
   <trkpt lat="-37.96164" lon="145.30586000000002">
    <ele>80.88000000000001</ele>
   </trkpt>
   <trkpt lat="-37.96199" lon="145.3057">
    <ele>80.80000000000001</ele>
   </trkpt>
   <trkpt lat="-37.96268000158039" lon="145.3052800078398">
    <ele>81.26</ele>
   </trkpt>
   <trkpt lat="-37.963370001667634" lon="145.30486000778677">
    <ele>82.34</ele>
   </trkpt>
   <trkpt lat="-37.96406" lon="145.30444">
    <ele>84.03</ele>
   </trkpt>
   <trkpt lat="-37.96486" lon="145.30398000000002">
    <ele>88.15</ele>
   </trkpt>
   <trkpt lat="-37.96522" lon="145.30385">
    <ele>89.99</ele>
   </trkpt>
   <trkpt lat="-37.965250000000005" lon="145.30386000000001">
    <ele>89.99</ele>
   </trkpt>
   <trkpt lat="-37.965590000000006" lon="145.30386000000001">
    <ele>91.75000000000001</ele>
   </trkpt>
   <trkpt lat="-37.96562" lon="145.30374">
    <ele>91.91</ele>
   </trkpt>
   <trkpt lat="-37.96578" lon="145.30367">
    <ele>92.50000000000001</ele>
   </trkpt>
   <trkpt lat="-37.9658" lon="145.3035">
    <ele>92.65</ele>
   </trkpt>
   <trkpt lat="-37.965880000000006" lon="145.30343000000002">
    <ele>92.83000000000001</ele>
   </trkpt>
  </trkseg>
 </trk>
</gpx>
