<?xml version="1.0" encoding="UTF-8"?>
<gpx creator="StravaGPX" version="1.1" xmlns="http://www.topografix.com/GPX/1/1" xmlns:xsi="http://www.w3.org/2001/XMLSchema-instance" xsi:schemaLocation="http://www.topografix.com/GPX/1/1 http://www.topografix.com/GPX/1/1/gpx.xsd">
 <metadata>
  <name>Morning Trail Run</name>
  <author>
   <name>Natalie Gow</name>
  </author>
  <copyright author="OpenStreetMap contributors">
   <year>2020</year>
   <license>https://www.openstreetmap.org/copyright</license>
  </copyright>
 </metadata>
 <trk>
  <name>Morning Trail Run</name>
  <link href=""/>
  <type>trail_running</type>
  <trkseg>
   <trkpt lat="-37.890550000000005" lon="145.31712000000002">
    <ele>184.10000000000002</ele>
   </trkpt>
   <trkpt lat="-37.89049" lon="145.31721000000002">
    <ele>184.3</ele>
   </trkpt>
   <trkpt lat="-37.890280000000004" lon="145.31739000000002">
    <ele>186.00000000000003</ele>
   </trkpt>
   <trkpt lat="-37.88978" lon="145.31753">
    <ele>190.88000000000002</ele>
   </trkpt>
   <trkpt lat="-37.88973" lon="145.31761">
    <ele>191.67000000000002</ele>
   </trkpt>
   <trkpt lat="-37.88962" lon="145.31768000000002">
    <ele>192.99</ele>
   </trkpt>
   <trkpt lat="-37.889410000000005" lon="145.31771">
    <ele>194.8</ele>
   </trkpt>
   <trkpt lat="-37.88929" lon="145.31777000000002">
    <ele>196.29000000000002</ele>
   </trkpt>
   <trkpt lat="-37.88866" lon="145.31772">
    <ele>203.13</ele>
   </trkpt>
   <trkpt lat="-37.88846" lon="145.31753">
    <ele>205.72</ele>
   </trkpt>
   <trkpt lat="-37.88839" lon="145.31764">
    <ele>206.68000000000004</ele>
   </trkpt>
   <trkpt lat="-37.88817" lon="145.31758000000002">
    <ele>209.42000000000002</ele>
   </trkpt>
   <trkpt lat="-37.88799" lon="145.31761">
    <ele>210.6</ele>
   </trkpt>
   <trkpt lat="-37.88783" lon="145.31755">
    <ele>211.57</ele>
   </trkpt>
   <trkpt lat="-37.88761" lon="145.31761">
    <ele>214.08</ele>
   </trkpt>
   <trkpt lat="-37.88725" lon="145.31765000000001">
    <ele>220.29000000000002</ele>
   </trkpt>
   <trkpt lat="-37.88712" lon="145.31764">
    <ele>220.29000000000002</ele>
   </trkpt>
   <trkpt lat="-37.886880000000005" lon="145.31755">
    <ele>223.73000000000002</ele>
   </trkpt>
   <trkpt lat="-37.88669" lon="145.31744">
    <ele>226.26000000000002</ele>
   </trkpt>
   <trkpt lat="-37.88611" lon="145.31784000000002">
    <ele>225.86</ele>
   </trkpt>
   <trkpt lat="-37.88555" lon="145.31807">
    <ele>228.31</ele>
   </trkpt>
   <trkpt lat="-37.88528" lon="145.31820000000002">
    <ele>232.27000000000004</ele>
   </trkpt>
   <trkpt lat="-37.88477" lon="145.31835">
    <ele>243.35</ele>
   </trkpt>
   <trkpt lat="-37.88429" lon="145.31839000000002">
    <ele>250.41000000000003</ele>
   </trkpt>
   <trkpt lat="-37.88396" lon="145.31833">
    <ele>253.98000000000005</ele>
   </trkpt>
   <trkpt lat="-37.88373" lon="145.31835">
    <ele>257.33</ele>
   </trkpt>
   <trkpt lat="-37.88378" lon="145.31852">
    <ele>259.26000000000005</ele>
   </trkpt>
   <trkpt lat="-37.884" lon="145.31884000000002">
    <ele>261.90000000000003</ele>
   </trkpt>
   <trkpt lat="-37.88409" lon="145.31915">
    <ele>264.39</ele>
   </trkpt>
   <trkpt lat="-37.88416" lon="145.31972000000002">
    <ele>270.29</ele>
   </trkpt>
   <trkpt lat="-37.88416" lon="145.31998000000002">
    <ele>272.47</ele>
   </trkpt>
   <trkpt lat="-37.88425" lon="145.3202">
    <ele>274.66</ele>
   </trkpt>
   <trkpt lat="-37.88429" lon="145.32048">
    <ele>276.84000000000003</ele>
   </trkpt>
   <trkpt lat="-37.88425" lon="145.32069">
    <ele>279.46000000000004</ele>
   </trkpt>
   <trkpt lat="-37.88416" lon="145.32099000000002">
    <ele>284.48</ele>
   </trkpt>
   <trkpt lat="-37.88416" lon="145.3211">
    <ele>284.48</ele>
   </trkpt>
   <trkpt lat="-37.88423" lon="145.32127">
    <ele>286.93</ele>
   </trkpt>
   <trkpt lat="-37.88432" lon="145.32141000000001">
    <ele>288.56000000000006</ele>
   </trkpt>
   <trkpt lat="-37.88443" lon="145.32186000000002">
    <ele>292.73</ele>
   </trkpt>
   <trkpt lat="-37.88447" lon="145.32227">
    <ele>297.49</ele>
   </trkpt>
   <trkpt lat="-37.88456" lon="145.32247">
    <ele>299.33000000000004</ele>
   </trkpt>
   <trkpt lat="-37.88479" lon="145.32282">
    <ele>302.08</ele>
   </trkpt>
   <trkpt lat="-37.88488" lon="145.32315">
    <ele>309.33000000000004</ele>
   </trkpt>
   <trkpt lat="-37.8849" lon="145.32336">
    <ele>310.92</ele>
   </trkpt>
   <trkpt lat="-37.88481" lon="145.32355">
    <ele>314.69</ele>
   </trkpt>
   <trkpt lat="-37.88483" lon="145.32404000000002">
    <ele>322.20000000000005</ele>
   </trkpt>
   <trkpt lat="-37.88481" lon="145.32417">
    <ele>326.84000000000003</ele>
   </trkpt>
   <trkpt lat="-37.88481" lon="145.32436">
    <ele>330.29</ele>
   </trkpt>
   <trkpt lat="-37.8849" lon="145.32459">
    <ele>332.59000000000003</ele>
   </trkpt>
   <trkpt lat="-37.88494" lon="145.32475000000002">
    <ele>334.49</ele>
   </trkpt>
   <trkpt lat="-37.88494" lon="145.32504">
    <ele>338.22</ele>
   </trkpt>
   <trkpt lat="-37.8849" lon="145.32534">
    <ele>341.78000000000003</ele>
   </trkpt>
   <trkpt lat="-37.88483" lon="145.32566">
    <ele>345.42</ele>
   </trkpt>
   <trkpt lat="-37.88472" lon="145.32581000000002">
    <ele>348.51000000000005</ele>
   </trkpt>
   <trkpt lat="-37.88467" lon="145.32594">
    <ele>350.09000000000003</ele>
   </trkpt>
   <trkpt lat="-37.8847" lon="145.32606">
    <ele>351.27000000000004</ele>
   </trkpt>
   <trkpt lat="-37.88472" lon="145.32611">
    <ele>351.27000000000004</ele>
   </trkpt>
   <trkpt lat="-37.88481" lon="145.32615">
    <ele>352.11</ele>
   </trkpt>
   <trkpt lat="-37.88501" lon="145.32641">
    <ele>355.16</ele>
   </trkpt>
   <trkpt lat="-37.88503" lon="145.32657">
    <ele>357.1</ele>
   </trkpt>
   <trkpt lat="-37.8851" lon="145.32674">
    <ele>359.38000000000005</ele>
   </trkpt>
   <trkpt lat="-37.88517" lon="145.32679000000002">
    <ele>359.38000000000005</ele>
   </trkpt>
   <trkpt lat="-37.88532" lon="145.32677">
    <ele>360.92</ele>
   </trkpt>
   <trkpt lat="-37.88539" lon="145.32682">
    <ele>363.1</ele>
   </trkpt>
   <trkpt lat="-37.88546" lon="145.32689000000002">
    <ele>364.26000000000005</ele>
   </trkpt>
   <trkpt lat="-37.88555" lon="145.32716000000002">
    <ele>367.17</ele>
   </trkpt>
   <trkpt lat="-37.88559" lon="145.32723000000001">
    <ele>367.6700000000001</ele>
   </trkpt>
   <trkpt lat="-37.8857" lon="145.3273">
    <ele>369.48</ele>
   </trkpt>
   <trkpt lat="-37.88608" lon="145.32707000000002">
    <ele>373.24</ele>
   </trkpt>
   <trkpt lat="-37.886190000000006" lon="145.32696">
    <ele>374.76000000000005</ele>
   </trkpt>
   <trkpt lat="-37.88624" lon="145.32741000000001">
    <ele>375.37</ele>
   </trkpt>
   <trkpt lat="-37.88633" lon="145.32777000000002">
    <ele>376.53000000000003</ele>
   </trkpt>
   <trkpt lat="-37.88638" lon="145.32785">
    <ele>376.81</ele>
   </trkpt>
   <trkpt lat="-37.88638" lon="145.32786000000002">
    <ele>376.81</ele>
   </trkpt>
   <trkpt lat="-37.886390000000006" lon="145.32833000000002">
    <ele>380.44000000000005</ele>
   </trkpt>
   <trkpt lat="-37.88624" lon="145.32841000000002">
    <ele>381.70000000000005</ele>
   </trkpt>
   <trkpt lat="-37.88604" lon="145.32873">
    <ele>388.15000000000003</ele>
   </trkpt>
   <trkpt lat="-37.88584" lon="145.32891">
    <ele>396.83</ele>
   </trkpt>
   <trkpt lat="-37.88555" lon="145.32898">
    <ele>401.27</ele>
   </trkpt>
   <trkpt lat="-37.88499" lon="145.32899">
    <ele>411.41</ele>
   </trkpt>
   <trkpt lat="-37.88447" lon="145.32879">
    <ele>423.14</ele>
   </trkpt>
   <trkpt lat="-37.88407" lon="145.32862">
    <ele>429.43</ele>
   </trkpt>
   <trkpt lat="-37.88378" lon="145.32857">
    <ele>434.44000000000005</ele>
   </trkpt>
   <trkpt lat="-37.88342" lon="145.32859000000002">
    <ele>442.06</ele>
   </trkpt>
   <trkpt lat="-37.88311" lon="145.32864">
    <ele>444.81</ele>
   </trkpt>
   <trkpt lat="-37.88284" lon="145.32863">
    <ele>449.77000000000004</ele>
   </trkpt>
   <trkpt lat="-37.88264" lon="145.32853">
    <ele>456.1000000000001</ele>
   </trkpt>
   <trkpt lat="-37.88241" lon="145.32832000000002">
    <ele>460.79</ele>
   </trkpt>
   <trkpt lat="-37.88223" lon="145.32806000000002">
    <ele>465.01000000000005</ele>
   </trkpt>
   <trkpt lat="-37.88201" lon="145.32736">
    <ele>470.01000000000005</ele>
   </trkpt>
   <trkpt lat="-37.88181" lon="145.32698000000002">
    <ele>472.78000000000003</ele>
   </trkpt>
   <trkpt lat="-37.88172" lon="145.32688000000002">
    <ele>473.98</ele>
   </trkpt>
   <trkpt lat="-37.88132" lon="145.32653000000002">
    <ele>478.53000000000003</ele>
   </trkpt>
   <trkpt lat="-37.88067" lon="145.32611">
    <ele>485.15000000000003</ele>
   </trkpt>
   <trkpt lat="-37.87993" lon="145.32551">
    <ele>492.61</ele>
   </trkpt>
   <trkpt lat="-37.87932" lon="145.32488">
    <ele>497.46</ele>
   </trkpt>
   <trkpt lat="-37.87892" lon="145.32431000000003">
    <ele>499.2300000000001</ele>
   </trkpt>
   <trkpt lat="-37.8787" lon="145.32406">
    <ele>498.26000000000005</ele>
   </trkpt>
   <trkpt lat="-37.8782" lon="145.32342">
    <ele>497.11</ele>
   </trkpt>
   <trkpt lat="-37.87783" lon="145.32313000000002">
    <ele>497.54</ele>
   </trkpt>
   <trkpt lat="-37.877" lon="145.32270000000003">
    <ele>493.69</ele>
   </trkpt>
   <trkpt lat="-37.87675" lon="145.32254">
    <ele>491.78000000000003</ele>
   </trkpt>
   <trkpt lat="-37.87620500007607" lon="145.32235499860795">
    <ele>493.7900000000001</ele>
   </trkpt>
   <trkpt lat="-37.87566" lon="145.32217">
    <ele>493.41</ele>
   </trkpt>
   <trkpt lat="-37.87541" lon="145.32191">
    <ele>492.21000000000004</ele>
   </trkpt>
   <trkpt lat="-37.87534" lon="145.32181">
    <ele>492.21000000000004</ele>
   </trkpt>
   <trkpt lat="-37.87518" lon="145.32162000000002">
    <ele>490.72</ele>
   </trkpt>
   <trkpt lat="-37.87498" lon="145.32116000000002">
    <ele>490.08</ele>
   </trkpt>
   <trkpt lat="-37.874970000000005" lon="145.32116000000002">
    <ele>490.08</ele>
   </trkpt>
   <trkpt lat="-37.87491" lon="145.3202">
    <ele>493.95000000000005</ele>
   </trkpt>
   <trkpt lat="-37.87498" lon="145.32019000000003">
    <ele>493.78000000000003</ele>
   </trkpt>
   <trkpt lat="-37.87507" lon="145.32012">
    <ele>493.1</ele>
   </trkpt>
   <trkpt lat="-37.87536" lon="145.31973000000002">
    <ele>490.16</ele>
   </trkpt>
   <trkpt lat="-37.87547" lon="145.31965000000002">
    <ele>489.45000000000005</ele>
   </trkpt>
   <trkpt lat="-37.87583" lon="145.31924">
    <ele>485.12000000000006</ele>
   </trkpt>
   <trkpt lat="-37.87608" lon="145.31889">
    <ele>482.47</ele>
   </trkpt>
   <trkpt lat="-37.87641" lon="145.31827">
    <ele>476.55</ele>
   </trkpt>
   <trkpt lat="-37.87668" lon="145.31728">
    <ele>465.09000000000003</ele>
   </trkpt>
   <trkpt lat="-37.87682" lon="145.31683">
    <ele>458.08000000000004</ele>
   </trkpt>
   <trkpt lat="-37.87693" lon="145.31661000000003">
    <ele>456.95</ele>
   </trkpt>
   <trkpt lat="-37.87735" lon="145.31589000000002">
    <ele>448.43000000000006</ele>
   </trkpt>
   <trkpt lat="-37.87753" lon="145.31569000000002">
    <ele>446.50000000000006</ele>
   </trkpt>
   <trkpt lat="-37.87778" lon="145.31557">
    <ele>444.15000000000003</ele>
   </trkpt>
   <trkpt lat="-37.87791" lon="145.31546">
    <ele>441.21000000000004</ele>
   </trkpt>
   <trkpt lat="-37.87829" lon="145.31506000000002">
    <ele>434.86</ele>
   </trkpt>
   <trkpt lat="-37.878600000000006" lon="145.31485">
    <ele>431.15000000000003</ele>
   </trkpt>
   <trkpt lat="-37.87885" lon="145.31461000000002">
    <ele>428.63</ele>
   </trkpt>
   <trkpt lat="-37.87939" lon="145.31436000000002">
    <ele>425.66</ele>
   </trkpt>
   <trkpt lat="-37.87946" lon="145.31428000000002">
    <ele>425.57000000000005</ele>
   </trkpt>
   <trkpt lat="-37.87948" lon="145.31417000000002">
    <ele>425.44000000000005</ele>
   </trkpt>
   <trkpt lat="-37.87953" lon="145.31416000000002">
    <ele>425.41</ele>
   </trkpt>
   <trkpt lat="-37.87975" lon="145.31393">
    <ele>425.15000000000003</ele>
   </trkpt>
   <trkpt lat="-37.87993" lon="145.31385">
    <ele>424.8500000000001</ele>
   </trkpt>
   <trkpt lat="-37.88006" lon="145.31393">
    <ele>424.66</ele>
   </trkpt>
   <trkpt lat="-37.88013" lon="145.31401000000002">
    <ele>424.39000000000004</ele>
   </trkpt>
   <trkpt lat="-37.88026" lon="145.31401000000002">
    <ele>423.55</ele>
   </trkpt>
   <trkpt lat="-37.88049" lon="145.31388">
    <ele>422.02000000000004</ele>
   </trkpt>
   <trkpt lat="-37.88082" lon="145.31362000000001">
    <ele>417.66</ele>
   </trkpt>
   <trkpt lat="-37.88118" lon="145.31343">
    <ele>413.59000000000003</ele>
   </trkpt>
   <trkpt lat="-37.88152" lon="145.31319000000002">
    <ele>410.19000000000005</ele>
   </trkpt>
   <trkpt lat="-37.88199" lon="145.31279">
    <ele>407.18</ele>
   </trkpt>
   <trkpt lat="-37.8825" lon="145.31224">
    <ele>408.82</ele>
   </trkpt>
   <trkpt lat="-37.88266" lon="145.31217">
    <ele>408.58000000000004</ele>
   </trkpt>
   <trkpt lat="-37.882740000000005" lon="145.31214">
    <ele>408.58000000000004</ele>
   </trkpt>
   <trkpt lat="-37.88308" lon="145.31215">
    <ele>405.16</ele>
   </trkpt>
   <trkpt lat="-37.8834" lon="145.31222000000002">
    <ele>400.75000000000006</ele>
   </trkpt>
   <trkpt lat="-37.88369" lon="145.31236">
    <ele>395.65000000000003</ele>
   </trkpt>
   <trkpt lat="-37.88414" lon="145.31267000000003">
    <ele>387.18</ele>
   </trkpt>
   <trkpt lat="-37.88429" lon="145.31272">
    <ele>385.54</ele>
   </trkpt>
   <trkpt lat="-37.884640000000005" lon="145.31277">
    <ele>378.07</ele>
   </trkpt>
   <trkpt lat="-37.88461" lon="145.31262">
    <ele>376.93</ele>
   </trkpt>
   <trkpt lat="-37.88436000109947" lon="145.3121049982058">
    <ele>373.13</ele>
   </trkpt>
   <trkpt lat="-37.88411" lon="145.31159000000002">
    <ele>369.08</ele>
   </trkpt>
   <trkpt lat="-37.884" lon="145.31125">
    <ele>366.12000000000006</ele>
   </trkpt>
   <trkpt lat="-37.88394" lon="145.31089">
    <ele>362.96</ele>
   </trkpt>
   <trkpt lat="-37.88391" lon="145.31067000000002">
    <ele>360.68000000000006</ele>
   </trkpt>
   <trkpt lat="-37.88398" lon="145.30967">
    <ele>353.35</ele>
   </trkpt>
   <trkpt lat="-37.88398" lon="145.3095">
    <ele>352.53000000000003</ele>
   </trkpt>
   <trkpt lat="-37.883950000000006" lon="145.30926000000002">
    <ele>349.74000000000007</ele>
   </trkpt>
   <trkpt lat="-37.883860000000006" lon="145.30907000000002">
    <ele>349.74000000000007</ele>
   </trkpt>
   <trkpt lat="-37.88353" lon="145.3086">
    <ele>346.27000000000004</ele>
   </trkpt>
   <trkpt lat="-37.88333" lon="145.30835000000002">
    <ele>344.41</ele>
   </trkpt>
   <trkpt lat="-37.88313" lon="145.30817000000002">
    <ele>342.07000000000005</ele>
   </trkpt>
   <trkpt lat="-37.88268" lon="145.30786">
    <ele>337.13000000000005</ele>
   </trkpt>
   <trkpt lat="-37.88232" lon="145.30774000000002">
    <ele>333.81000000000006</ele>
   </trkpt>
   <trkpt lat="-37.88208" lon="145.30768">
    <ele>331.79</ele>
   </trkpt>
   <trkpt lat="-37.881640000000004" lon="145.30761">
    <ele>324.09000000000003</ele>
   </trkpt>
   <trkpt lat="-37.88156" lon="145.30758">
    <ele>322.42</ele>
   </trkpt>
   <trkpt lat="-37.88109" lon="145.30728000000002">
    <ele>313.82000000000005</ele>
   </trkpt>
   <trkpt lat="-37.88089" lon="145.30704">
    <ele>305.29</ele>
   </trkpt>
   <trkpt lat="-37.880860000000006" lon="145.30694000000003">
    <ele>305.29</ele>
   </trkpt>
   <trkpt lat="-37.88083" lon="145.3068">
    <ele>305.29</ele>
   </trkpt>
   <trkpt lat="-37.88083" lon="145.30677">
    <ele>305.29</ele>
   </trkpt>
   <trkpt lat="-37.88087" lon="145.30666000000002">
    <ele>303.18</ele>
   </trkpt>
   <trkpt lat="-37.881" lon="145.30655000000002">
    <ele>302.1</ele>
   </trkpt>
   <trkpt lat="-37.88105" lon="145.30653">
    <ele>301.62</ele>
   </trkpt>
   <trkpt lat="-37.88183" lon="145.30649000000003">
    <ele>295.32</ele>
   </trkpt>
   <trkpt lat="-37.88232" lon="145.30639000000002">
    <ele>290.12000000000006</ele>
   </trkpt>
   <trkpt lat="-37.882815000122044" lon="145.30617000151545">
    <ele>283.86</ele>
   </trkpt>
   <trkpt lat="-37.88331" lon="145.30595000000002">
    <ele>276.7</ele>
   </trkpt>
   <trkpt lat="-37.88353" lon="145.30589">
    <ele>273.79</ele>
   </trkpt>
   <trkpt lat="-37.88364" lon="145.30588">
    <ele>270.63000000000005</ele>
   </trkpt>
   <trkpt lat="-37.884" lon="145.3059">
    <ele>267.03000000000003</ele>
   </trkpt>
   <trkpt lat="-37.88438" lon="145.30587">
    <ele>260.68</ele>
   </trkpt>
   <trkpt lat="-37.8847" lon="145.30594000000002">
    <ele>256.38</ele>
   </trkpt>
   <trkpt lat="-37.88485" lon="145.30595000000002">
    <ele>255.12</ele>
   </trkpt>
   <trkpt lat="-37.88501" lon="145.30593000000002">
    <ele>252.42000000000002</ele>
   </trkpt>
   <trkpt lat="-37.88552500009424" lon="145.30579000097603">
    <ele>243.78000000000003</ele>
   </trkpt>
   <trkpt lat="-37.88604" lon="145.30565">
    <ele>238.99</ele>
   </trkpt>
   <trkpt lat="-37.88622" lon="145.30555">
    <ele>236.0</ele>
   </trkpt>
   <trkpt lat="-37.88651" lon="145.30526">
    <ele>231.89000000000001</ele>
   </trkpt>
   <trkpt lat="-37.88669" lon="145.3051">
    <ele>227.15</ele>
   </trkpt>
   <trkpt lat="-37.88678" lon="145.30505000000002">
    <ele>227.15</ele>
   </trkpt>
   <trkpt lat="-37.88761" lon="145.30491">
    <ele>217.96</ele>
   </trkpt>
   <trkpt lat="-37.88779" lon="145.30485000000002">
    <ele>214.63000000000002</ele>
   </trkpt>
   <trkpt lat="-37.88783" lon="145.30486000000002">
    <ele>214.63000000000002</ele>
   </trkpt>
   <trkpt lat="-37.887910000000005" lon="145.30494000000002">
    <ele>211.49</ele>
   </trkpt>
   <trkpt lat="-37.88801" lon="145.30476000000002">
    <ele>207.94</ele>
   </trkpt>
   <trkpt lat="-37.888020000000004" lon="145.30467000000002">
    <ele>207.94</ele>
   </trkpt>
   <trkpt lat="-37.88823" lon="145.30448">
    <ele>209.51000000000002</ele>
   </trkpt>
   <trkpt lat="-37.88828" lon="145.30439">
    <ele>211.15</ele>
   </trkpt>
   <trkpt lat="-37.88848" lon="145.30454">
    <ele>213.02</ele>
   </trkpt>
   <trkpt lat="-37.8887" lon="145.30462">
    <ele>214.58</ele>
   </trkpt>
   <trkpt lat="-37.888870000000004" lon="145.30451000000002">
    <ele>215.28000000000003</ele>
   </trkpt>
   <trkpt lat="-37.88913" lon="145.30452000000002">
    <ele>211.34000000000003</ele>
   </trkpt>
   <trkpt lat="-37.88931" lon="145.30447">
    <ele>208.07</ele>
   </trkpt>
   <trkpt lat="-37.88953" lon="145.30433000000002">
    <ele>203.08</ele>
   </trkpt>
   <trkpt lat="-37.88955" lon="145.30429">
    <ele>203.08</ele>
   </trkpt>
   <trkpt lat="-37.88953" lon="145.30433000000002">
    <ele>203.08</ele>
   </trkpt>
   <trkpt lat="-37.88955" lon="145.30427">
    <ele>203.08</ele>
   </trkpt>
   <trkpt lat="-37.88951" lon="145.3042">
    <ele>200.99000000000004</ele>
   </trkpt>
   <trkpt lat="-37.88935" lon="145.30413000000001">
    <ele>197.89000000000001</ele>
   </trkpt>
   <trkpt lat="-37.88864" lon="145.30369000000002">
    <ele>192.76000000000002</ele>
   </trkpt>
   <trkpt lat="-37.88846" lon="145.30367">
    <ele>192.91000000000003</ele>
   </trkpt>
   <trkpt lat="-37.88828" lon="145.30369000000002">
    <ele>193.4</ele>
   </trkpt>
   <trkpt lat="-37.88808" lon="145.30385">
    <ele>194.46</ele>
   </trkpt>
   <trkpt lat="-37.88783" lon="145.30395000000001">
    <ele>193.54000000000002</ele>
   </trkpt>
   <trkpt lat="-37.88752" lon="145.30386000000001">
    <ele>188.29000000000002</ele>
   </trkpt>
   <trkpt lat="-37.88732" lon="145.30372">
    <ele>183.96</ele>
   </trkpt>
   <trkpt lat="-37.8867900003533" lon="145.30345499812074">
    <ele>175.77</ele>
   </trkpt>
   <trkpt lat="-37.88626" lon="145.30319">
    <ele>167.85000000000002</ele>
   </trkpt>
   <trkpt lat="-37.886140000000005" lon="145.30307000000002">
    <ele>165.17000000000002</ele>
   </trkpt>
   <trkpt lat="-37.88613" lon="145.30305">
    <ele>165.17000000000002</ele>
   </trkpt>
   <trkpt lat="-37.88626" lon="145.30297000000002">
    <ele>162.13000000000002</ele>
   </trkpt>
   <trkpt lat="-37.88617" lon="145.30289000000002">
    <ele>161.02</ele>
   </trkpt>
   <trkpt lat="-37.88626" lon="145.30284">
    <ele>159.53</ele>
   </trkpt>
   <trkpt lat="-37.8862" lon="145.30275">
    <ele>159.53</ele>
   </trkpt>
   <trkpt lat="-37.88631" lon="145.30272000000002">
    <ele>157.67</ele>
   </trkpt>
   <trkpt lat="-37.8862" lon="145.30258">
    <ele>155.95</ele>
   </trkpt>
   <trkpt lat="-37.88622" lon="145.30247">
    <ele>154.42</ele>
   </trkpt>
   <trkpt lat="-37.88629" lon="145.3023">
    <ele>151.96</ele>
   </trkpt>
   <trkpt lat="-37.88622" lon="145.30229">
    <ele>151.96</ele>
   </trkpt>
   <trkpt lat="-37.88629" lon="145.30182000000002">
    <ele>148.32</ele>
   </trkpt>
   <trkpt lat="-37.88633" lon="145.30166">
    <ele>145.02</ele>
   </trkpt>
   <trkpt lat="-37.88638" lon="145.30168">
    <ele>145.02</ele>
   </trkpt>
   <trkpt lat="-37.88642" lon="145.30162">
    <ele>144.87</ele>
   </trkpt>
   <trkpt lat="-37.8864" lon="145.30155000000002">
    <ele>143.70000000000002</ele>
   </trkpt>
   <trkpt lat="-37.88645" lon="145.30154000000002">
    <ele>143.16</ele>
   </trkpt>
   <trkpt lat="-37.88646" lon="145.30148">
    <ele>141.97</ele>
   </trkpt>
   <trkpt lat="-37.886540000000004" lon="145.30142">
    <ele>139.65000000000003</ele>
   </trkpt>
   <trkpt lat="-37.886570000000006" lon="145.30142">
    <ele>139.14000000000001</ele>
   </trkpt>
   <trkpt lat="-37.8866" lon="145.30139">
    <ele>138.02</ele>
   </trkpt>
   <trkpt lat="-37.88667" lon="145.30146000000002">
    <ele>136.54000000000002</ele>
   </trkpt>
   <trkpt lat="-37.88671" lon="145.30144">
    <ele>135.9</ele>
   </trkpt>
   <trkpt lat="-37.88671" lon="145.30129000000002">
    <ele>134.46</ele>
   </trkpt>
   <trkpt lat="-37.886680000000005" lon="145.30126">
    <ele>133.44</ele>
   </trkpt>
   <trkpt lat="-37.88671" lon="145.30122">
    <ele>132.79000000000002</ele>
   </trkpt>
   <trkpt lat="-37.88678" lon="145.30117">
    <ele>130.60000000000002</ele>
   </trkpt>
   <trkpt lat="-37.8868" lon="145.30110000000002">
    <ele>130.60000000000002</ele>
   </trkpt>
   <trkpt lat="-37.886900000000004" lon="145.30114">
    <ele>122.89000000000001</ele>
   </trkpt>
   <trkpt lat="-37.88707" lon="145.30104">
    <ele>119.68</ele>
   </trkpt>
   <trkpt lat="-37.887170000000005" lon="145.30103000000003">
    <ele>117.79</ele>
   </trkpt>
   <trkpt lat="-37.887440000000005" lon="145.30115">
    <ele>111.35000000000001</ele>
   </trkpt>
   <trkpt lat="-37.887530000000005" lon="145.30114">
    <ele>107.43</ele>
   </trkpt>
   <trkpt lat="-37.88754" lon="145.30121000000003">
    <ele>107.43</ele>
   </trkpt>
   <trkpt lat="-37.88763" lon="145.30126">
    <ele>105.31000000000002</ele>
   </trkpt>
   <trkpt lat="-37.88783" lon="145.30120000000002">
    <ele>103.98</ele>
   </trkpt>
   <trkpt lat="-37.8881" lon="145.30123">
    <ele>102.97</ele>
   </trkpt>
   <trkpt lat="-37.88835" lon="145.30120000000002">
    <ele>103.62</ele>
   </trkpt>
   <trkpt lat="-37.88848" lon="145.30121000000003">
    <ele>103.62</ele>
   </trkpt>
   <trkpt lat="-37.88875" lon="145.3013">
    <ele>104.36</ele>
   </trkpt>
   <trkpt lat="-37.88893" lon="145.30139">
    <ele>105.58</ele>
   </trkpt>
   <trkpt lat="-37.88893" lon="145.30137000000002">
    <ele>105.58</ele>
   </trkpt>
   <trkpt lat="-37.88893" lon="145.30138000000002">
    <ele>105.58</ele>
   </trkpt>
   <trkpt lat="-37.88893" lon="145.30134">
    <ele>105.67000000000002</ele>
   </trkpt>
   <trkpt lat="-37.888690000000004" lon="145.30120000000002">
    <ele>106.41</ele>
   </trkpt>
   <trkpt lat="-37.88834000000001" lon="145.30097">
    <ele>108.27</ele>
   </trkpt>
   <trkpt lat="-37.88823" lon="145.30094000000003">
    <ele>108.89000000000001</ele>
   </trkpt>
   <trkpt lat="-37.88817" lon="145.30093000000002">
    <ele>109.27000000000001</ele>
   </trkpt>
   <trkpt lat="-37.88763" lon="145.30101000000002">
    <ele>111.10000000000001</ele>
   </trkpt>
   <trkpt lat="-37.88761" lon="145.30099">
    <ele>111.10000000000001</ele>
   </trkpt>
   <trkpt lat="-37.88763" lon="145.30095">
    <ele>111.24000000000001</ele>
   </trkpt>
   <trkpt lat="-37.88834000000001" lon="145.30081">
    <ele>113.08000000000001</ele>
   </trkpt>
   <trkpt lat="-37.8885" lon="145.30081">
    <ele>113.72000000000001</ele>
   </trkpt>
   <trkpt lat="-37.88864" lon="145.30084000000002">
    <ele>114.14</ele>
   </trkpt>
   <trkpt lat="-37.88897" lon="145.30098">
    <ele>115.83000000000001</ele>
   </trkpt>
   <trkpt lat="-37.88902" lon="145.30098">
    <ele>115.83000000000001</ele>
   </trkpt>
   <trkpt lat="-37.88902" lon="145.30095">
    <ele>115.95</ele>
   </trkpt>
   <trkpt lat="-37.889010000000006" lon="145.30098">
    <ele>115.95</ele>
   </trkpt>
   <trkpt lat="-37.88902" lon="145.30095">
    <ele>115.95</ele>
   </trkpt>
   <trkpt lat="-37.88886" lon="145.30089">
    <ele>116.76</ele>
   </trkpt>
   <trkpt lat="-37.888740000000006" lon="145.30074000000002">
    <ele>116.96000000000001</ele>
   </trkpt>
   <trkpt lat="-37.88855" lon="145.30068">
    <ele>117.13000000000001</ele>
   </trkpt>
   <trkpt lat="-37.88834000000001" lon="145.30067000000003">
    <ele>117.65</ele>
   </trkpt>
   <trkpt lat="-37.88828" lon="145.30065000000002">
    <ele>117.82000000000001</ele>
   </trkpt>
   <trkpt lat="-37.88801" lon="145.30066000000002">
    <ele>118.43</ele>
   </trkpt>
   <trkpt lat="-37.88772" lon="145.3006">
    <ele>119.70000000000002</ele>
   </trkpt>
   <trkpt lat="-37.887640000000005" lon="145.30056000000002">
    <ele>120.19</ele>
   </trkpt>
   <trkpt lat="-37.88781" lon="145.30057000000002">
    <ele>120.08</ele>
   </trkpt>
   <trkpt lat="-37.88834000000001" lon="145.3005">
    <ele>121.16</ele>
   </trkpt>
   <trkpt lat="-37.888360000000006" lon="145.30028000000001">
    <ele>126.25</ele>
   </trkpt>
   <trkpt lat="-37.8883" lon="145.30013000000002">
    <ele>128.79999999999998</ele>
   </trkpt>
   <trkpt lat="-37.88824" lon="145.29981">
    <ele>131.29000000000002</ele>
   </trkpt>
   <trkpt lat="-37.88891" lon="145.2998">
    <ele>130.60000000000002</ele>
   </trkpt>
   <trkpt lat="-37.88936" lon="145.30029000000002">
    <ele>130.43</ele>
   </trkpt>
   <trkpt lat="-37.889410000000005" lon="145.30023">
    <ele>130.85000000000002</ele>
   </trkpt>
   <trkpt lat="-37.889680000000006" lon="145.3006">
    <ele>131.34</ele>
   </trkpt>
   <trkpt lat="-37.88987" lon="145.30094000000003">
    <ele>131.67000000000002</ele>
   </trkpt>
   <trkpt lat="-37.89029500271384" lon="145.30173999539497">
    <ele>132.97</ele>
   </trkpt>
   <trkpt lat="-37.89072" lon="145.30254000000002">
    <ele>132.82000000000002</ele>
   </trkpt>
   <trkpt lat="-37.89105000786748" lon="145.3033274894066">
    <ele>133.37</ele>
   </trkpt>
   <trkpt lat="-37.891380010488945" lon="145.3041149858728">
    <ele>132.39000000000001</ele>
   </trkpt>
   <trkpt lat="-37.8917100078643" lon="145.3049024893987">
    <ele>130.5</ele>
   </trkpt>
   <trkpt lat="-37.89204" lon="145.30569">
    <ele>131.94</ele>
   </trkpt>
   <trkpt lat="-37.89217" lon="145.30586000000002">
    <ele>132.19</ele>
   </trkpt>
   <trkpt lat="-37.89218" lon="145.30587">
    <ele>132.20000000000002</ele>
   </trkpt>
   <trkpt lat="-37.89215" lon="145.30595000000002">
    <ele>132.83</ele>
   </trkpt>
   <trkpt lat="-37.89211" lon="145.30653">
    <ele>136.66</ele>
   </trkpt>
   <trkpt lat="-37.892050000000005" lon="145.30664000000002">
    <ele>137.93000000000004</ele>
   </trkpt>
   <trkpt lat="-37.89213" lon="145.30671">
    <ele>138.12</ele>
   </trkpt>
   <trkpt lat="-37.89215" lon="145.30678">
    <ele>138.18000000000004</ele>
   </trkpt>
   <trkpt lat="-37.892245009175255" lon="145.30762999677518">
    <ele>137.18000000000004</ele>
   </trkpt>
   <trkpt lat="-37.892340012238584" lon="145.30847999574416">
    <ele>136.04000000000002</ele>
   </trkpt>
   <trkpt lat="-37.892435009189995" lon="145.30932999690685">
    <ele>139.92000000000002</ele>
   </trkpt>
   <trkpt lat="-37.89253" lon="145.31018">
    <ele>143.54</ele>
   </trkpt>
   <trkpt lat="-37.892590000000006" lon="145.31021">
    <ele>143.58</ele>
   </trkpt>
   <trkpt lat="-37.892590000000006" lon="145.31034000000002">
    <ele>143.58</ele>
   </trkpt>
   <trkpt lat="-37.89267" lon="145.31045">
    <ele>143.70000000000002</ele>
   </trkpt>
   <trkpt lat="-37.89273" lon="145.31086000000002">
    <ele>143.61</ele>
   </trkpt>
   <trkpt lat="-37.89289" lon="145.31119">
    <ele>142.73000000000002</ele>
   </trkpt>
   <trkpt lat="-37.89289" lon="145.31139000000002">
    <ele>143.18</ele>
   </trkpt>
   <trkpt lat="-37.89285" lon="145.31176000000002">
    <ele>146.33</ele>
   </trkpt>
   <trkpt lat="-37.8928" lon="145.31192000000001">
    <ele>146.33</ele>
   </trkpt>
   <trkpt lat="-37.89280000165223" lon="145.31254500040464">
    <ele>148.91000000000003</ele>
   </trkpt>
   <trkpt lat="-37.8928" lon="145.31317">
    <ele>149.83</ele>
   </trkpt>
   <trkpt lat="-37.892680000000006" lon="145.31344">
    <ele>154.15</ele>
   </trkpt>
   <trkpt lat="-37.892360000000004" lon="145.31427000000002">
    <ele>161.11</ele>
   </trkpt>
   <trkpt lat="-37.89202" lon="145.31486">
    <ele>166.42000000000002</ele>
   </trkpt>
   <trkpt lat="-37.89164" lon="145.31531">
    <ele>173.74</ele>
   </trkpt>
   <trkpt lat="-37.89159" lon="145.3153">
    <ele>173.74</ele>
   </trkpt>
   <trkpt lat="-37.89148" lon="145.31548">
    <ele>174.96</ele>
   </trkpt>
   <trkpt lat="-37.89108" lon="145.31604000000002">
    <ele>180.36</ele>
   </trkpt>
   <trkpt lat="-37.89099" lon="145.31613000000002">
    <ele>182.53000000000003</ele>
   </trkpt>
   <trkpt lat="-37.89099" lon="145.31640000000002">
    <ele>182.48</ele>
   </trkpt>
   <trkpt lat="-37.8909" lon="145.31665">
    <ele>182.56000000000003</ele>
   </trkpt>
   <trkpt lat="-37.890730000000005" lon="145.31686000000002">
    <ele>183.19000000000003</ele>
   </trkpt>
   <trkpt lat="-37.89074" lon="145.31705000000002">
    <ele>181.17000000000002</ele>
   </trkpt>
   <trkpt lat="-37.89088" lon="145.31726">
    <ele>175.44</ele>
   </trkpt>
   <trkpt lat="-37.890950000000004" lon="145.31734">
    <ele>174.11</ele>
   </trkpt>
   <trkpt lat="-37.89087" lon="145.31741000000002">
    <ele>174.17000000000002</ele>
   </trkpt>
   <trkpt lat="-37.89068" lon="145.31747000000001">
    <ele>178.76</ele>
   </trkpt>
   <trkpt lat="-37.89059" lon="145.31754">
    <ele>178.76</ele>
   </trkpt>
   <trkpt lat="-37.89049" lon="145.31755">
    <ele>180.18</ele>
   </trkpt>
   <trkpt lat="-37.89041" lon="145.31748000000002">
    <ele>183.38000000000002</ele>
   </trkpt>
   <trkpt lat="-37.89038" lon="145.31738">
    <ele>183.38000000000002</ele>
   </trkpt>
   <trkpt lat="-37.890440000000005" lon="145.31727">
    <ele>184.23</ele>
   </trkpt>
   <trkpt lat="-37.89054" lon="145.31726">
    <ele>181.89000000000001</ele>
   </trkpt>
   <trkpt lat="-37.89094" lon="145.31729">
    <ele>174.62000000000003</ele>
   </trkpt>
   <trkpt lat="-37.89088" lon="145.31739000000002">
    <ele>174.1</ele>
   </trkpt>
  </trkseg>
 </trk>
</gpx>
