<?xml version="1.0" encoding="UTF-8"?>
<gpx creator="StravaGPX" version="1.1" xmlns="http://www.topografix.com/GPX/1/1" xmlns:xsi="http://www.w3.org/2001/XMLSchema-instance" xsi:schemaLocation="http://www.topografix.com/GPX/1/1 http://www.topografix.com/GPX/1/1/gpx.xsd">
 <metadata>
  <name>Morning Trail Run</name>
  <author>
   <name>Natalie Gow</name>
  </author>
  <copyright author="OpenStreetMap contributors">
   <year>2020</year>
   <license>https://www.openstreetmap.org/copyright</license>
  </copyright>
 </metadata>
 <trk>
  <name>Morning Trail Run</name>
  <link href=""/>
  <type>trail_running</type>
  <trkseg>
   <trkpt lat="-37.89092" lon="145.31735">
    <ele>179.4</ele>
   </trkpt>
   <trkpt lat="-37.89074" lon="145.31744">
    <ele>180.77</ele>
   </trkpt>
   <trkpt lat="-37.89067" lon="145.31745">
    <ele>183.17000000000002</ele>
   </trkpt>
   <trkpt lat="-37.89058" lon="145.31753">
    <ele>183.62</ele>
   </trkpt>
   <trkpt lat="-37.89049" lon="145.31752">
    <ele>184.4</ele>
   </trkpt>
   <trkpt lat="-37.89043" lon="145.31745">
    <ele>184.4</ele>
   </trkpt>
   <trkpt lat="-37.890280000000004" lon="145.31739000000002">
    <ele>186.00000000000003</ele>
   </trkpt>
   <trkpt lat="-37.889920000000004" lon="145.31748000000002">
    <ele>189.41000000000003</ele>
   </trkpt>
   <trkpt lat="-37.88978" lon="145.31753">
    <ele>190.88000000000002</ele>
   </trkpt>
   <trkpt lat="-37.88973" lon="145.31761">
    <ele>191.67000000000002</ele>
   </trkpt>
   <trkpt lat="-37.88962" lon="145.31768000000002">
    <ele>192.99</ele>
   </trkpt>
   <trkpt lat="-37.889410000000005" lon="145.31771">
    <ele>194.8</ele>
   </trkpt>
   <trkpt lat="-37.88929" lon="145.31777000000002">
    <ele>196.29000000000002</ele>
   </trkpt>
   <trkpt lat="-37.88866" lon="145.31772">
    <ele>203.13</ele>
   </trkpt>
   <trkpt lat="-37.88846" lon="145.31753">
    <ele>205.72</ele>
   </trkpt>
   <trkpt lat="-37.88839" lon="145.31764">
    <ele>206.68000000000004</ele>
   </trkpt>
   <trkpt lat="-37.88817" lon="145.31758000000002">
    <ele>209.42000000000002</ele>
   </trkpt>
   <trkpt lat="-37.88799" lon="145.31761">
    <ele>210.6</ele>
   </trkpt>
   <trkpt lat="-37.88783" lon="145.31755">
    <ele>211.57</ele>
   </trkpt>
   <trkpt lat="-37.88761" lon="145.31761">
    <ele>214.08</ele>
   </trkpt>
   <trkpt lat="-37.88725" lon="145.31765000000001">
    <ele>220.29000000000002</ele>
   </trkpt>
   <trkpt lat="-37.88712" lon="145.31764">
    <ele>220.29000000000002</ele>
   </trkpt>
   <trkpt lat="-37.886880000000005" lon="145.31755">
    <ele>223.73000000000002</ele>
   </trkpt>
   <trkpt lat="-37.88669" lon="145.31744">
    <ele>226.26000000000002</ele>
   </trkpt>
   <trkpt lat="-37.88611" lon="145.31784000000002">
    <ele>225.86</ele>
   </trkpt>
   <trkpt lat="-37.88555" lon="145.31807">
    <ele>228.31</ele>
   </trkpt>
   <trkpt lat="-37.88528" lon="145.31820000000002">
    <ele>232.27000000000004</ele>
   </trkpt>
   <trkpt lat="-37.88477" lon="145.31835">
    <ele>243.35</ele>
   </trkpt>
   <trkpt lat="-37.88429" lon="145.31839000000002">
    <ele>249.87</ele>
   </trkpt>
   <trkpt lat="-37.88396" lon="145.31833">
    <ele>253.98000000000005</ele>
   </trkpt>
   <trkpt lat="-37.88373" lon="145.31835">
    <ele>257.33</ele>
   </trkpt>
   <trkpt lat="-37.88378" lon="145.31852">
    <ele>259.26000000000005</ele>
   </trkpt>
   <trkpt lat="-37.884" lon="145.31884000000002">
    <ele>261.90000000000003</ele>
   </trkpt>
   <trkpt lat="-37.88409" lon="145.31915">
    <ele>264.39</ele>
   </trkpt>
   <trkpt lat="-37.88416" lon="145.31972000000002">
    <ele>270.29</ele>
   </trkpt>
   <trkpt lat="-37.88416" lon="145.31998000000002">
    <ele>272.47</ele>
   </trkpt>
   <trkpt lat="-37.88425" lon="145.3202">
    <ele>274.66</ele>
   </trkpt>
   <trkpt lat="-37.88429" lon="145.32048">
    <ele>276.84000000000003</ele>
   </trkpt>
   <trkpt lat="-37.88425" lon="145.32069">
    <ele>279.46000000000004</ele>
   </trkpt>
   <trkpt lat="-37.88416" lon="145.32099000000002">
    <ele>284.48</ele>
   </trkpt>
   <trkpt lat="-37.88416" lon="145.3211">
    <ele>284.48</ele>
   </trkpt>
   <trkpt lat="-37.88423" lon="145.32127">
    <ele>286.93</ele>
   </trkpt>
   <trkpt lat="-37.88432" lon="145.32141000000001">
    <ele>288.56000000000006</ele>
   </trkpt>
   <trkpt lat="-37.88443" lon="145.32186000000002">
    <ele>292.73</ele>
   </trkpt>
   <trkpt lat="-37.88447" lon="145.32227">
    <ele>297.49</ele>
   </trkpt>
   <trkpt lat="-37.88456" lon="145.32247">
    <ele>299.33000000000004</ele>
   </trkpt>
   <trkpt lat="-37.88479" lon="145.32282">
    <ele>302.08</ele>
   </trkpt>
   <trkpt lat="-37.88488" lon="145.32315">
    <ele>309.33000000000004</ele>
   </trkpt>
   <trkpt lat="-37.8849" lon="145.32336">
    <ele>310.92</ele>
   </trkpt>
   <trkpt lat="-37.88481" lon="145.32355">
    <ele>314.69</ele>
   </trkpt>
   <trkpt lat="-37.88483" lon="145.32404000000002">
    <ele>322.20000000000005</ele>
   </trkpt>
   <trkpt lat="-37.88481" lon="145.32417">
    <ele>326.84000000000003</ele>
   </trkpt>
   <trkpt lat="-37.88481" lon="145.32436">
    <ele>330.29</ele>
   </trkpt>
   <trkpt lat="-37.8849" lon="145.32459">
    <ele>332.59000000000003</ele>
   </trkpt>
   <trkpt lat="-37.88494" lon="145.32475000000002">
    <ele>334.49</ele>
   </trkpt>
   <trkpt lat="-37.88494" lon="145.32504">
    <ele>338.22</ele>
   </trkpt>
   <trkpt lat="-37.8849" lon="145.32534">
    <ele>341.78000000000003</ele>
   </trkpt>
   <trkpt lat="-37.88483" lon="145.32566">
    <ele>345.42</ele>
   </trkpt>
   <trkpt lat="-37.88472" lon="145.32581000000002">
    <ele>348.51000000000005</ele>
   </trkpt>
   <trkpt lat="-37.88467" lon="145.32594">
    <ele>350.09000000000003</ele>
   </trkpt>
   <trkpt lat="-37.8847" lon="145.32606">
    <ele>351.27000000000004</ele>
   </trkpt>
   <trkpt lat="-37.88472" lon="145.32611">
    <ele>351.27000000000004</ele>
   </trkpt>
   <trkpt lat="-37.88481" lon="145.32615">
    <ele>352.11</ele>
   </trkpt>
   <trkpt lat="-37.88501" lon="145.32641">
    <ele>355.16</ele>
   </trkpt>
   <trkpt lat="-37.88503" lon="145.32657">
    <ele>357.1</ele>
   </trkpt>
   <trkpt lat="-37.8851" lon="145.32674">
    <ele>359.38000000000005</ele>
   </trkpt>
   <trkpt lat="-37.88517" lon="145.32679000000002">
    <ele>359.38000000000005</ele>
   </trkpt>
   <trkpt lat="-37.88532" lon="145.32677">
    <ele>360.92</ele>
   </trkpt>
   <trkpt lat="-37.88539" lon="145.32682">
    <ele>363.1</ele>
   </trkpt>
   <trkpt lat="-37.88546" lon="145.32689000000002">
    <ele>364.26000000000005</ele>
   </trkpt>
   <trkpt lat="-37.88555" lon="145.32716000000002">
    <ele>367.17</ele>
   </trkpt>
   <trkpt lat="-37.88559" lon="145.32723000000001">
    <ele>367.6700000000001</ele>
   </trkpt>
   <trkpt lat="-37.8857" lon="145.3273">
    <ele>369.48</ele>
   </trkpt>
   <trkpt lat="-37.88608" lon="145.32707000000002">
    <ele>373.24</ele>
   </trkpt>
   <trkpt lat="-37.886190000000006" lon="145.32696">
    <ele>374.76000000000005</ele>
   </trkpt>
   <trkpt lat="-37.88624" lon="145.32741000000001">
    <ele>375.37</ele>
   </trkpt>
   <trkpt lat="-37.88633" lon="145.32777000000002">
    <ele>376.53000000000003</ele>
   </trkpt>
   <trkpt lat="-37.88638" lon="145.32785">
    <ele>376.81</ele>
   </trkpt>
   <trkpt lat="-37.88638" lon="145.32786000000002">
    <ele>376.81</ele>
   </trkpt>
   <trkpt lat="-37.886390000000006" lon="145.32833000000002">
    <ele>380.44000000000005</ele>
   </trkpt>
   <trkpt lat="-37.88624" lon="145.32841000000002">
    <ele>381.70000000000005</ele>
   </trkpt>
   <trkpt lat="-37.88604" lon="145.32873">
    <ele>388.15000000000003</ele>
   </trkpt>
   <trkpt lat="-37.88584" lon="145.32891">
    <ele>396.83</ele>
   </trkpt>
   <trkpt lat="-37.88555" lon="145.32898">
    <ele>401.27</ele>
   </trkpt>
   <trkpt lat="-37.88499" lon="145.32899">
    <ele>411.41</ele>
   </trkpt>
   <trkpt lat="-37.88447" lon="145.32879">
    <ele>423.14</ele>
   </trkpt>
   <trkpt lat="-37.88407" lon="145.32862">
    <ele>429.43</ele>
   </trkpt>
   <trkpt lat="-37.88378" lon="145.32857">
    <ele>434.44000000000005</ele>
   </trkpt>
   <trkpt lat="-37.88342" lon="145.32859000000002">
    <ele>442.06</ele>
   </trkpt>
   <trkpt lat="-37.88311" lon="145.32864">
    <ele>444.81</ele>
   </trkpt>
   <trkpt lat="-37.88284" lon="145.32863">
    <ele>449.77000000000004</ele>
   </trkpt>
   <trkpt lat="-37.882630000000006" lon="145.32852000000003">
    <ele>454.54</ele>
   </trkpt>
   <trkpt lat="-37.88264" lon="145.32853">
    <ele>454.54</ele>
   </trkpt>
   <trkpt lat="-37.88241" lon="145.32832000000002">
    <ele>460.79</ele>
   </trkpt>
   <trkpt lat="-37.88223" lon="145.32806000000002">
    <ele>465.01000000000005</ele>
   </trkpt>
   <trkpt lat="-37.88201" lon="145.32736">
    <ele>470.01000000000005</ele>
   </trkpt>
   <trkpt lat="-37.88181" lon="145.32698000000002">
    <ele>472.78000000000003</ele>
   </trkpt>
   <trkpt lat="-37.88172" lon="145.32688000000002">
    <ele>473.98</ele>
   </trkpt>
   <trkpt lat="-37.88132" lon="145.32653000000002">
    <ele>478.53000000000003</ele>
   </trkpt>
   <trkpt lat="-37.88067" lon="145.32611">
    <ele>485.15000000000003</ele>
   </trkpt>
   <trkpt lat="-37.87993" lon="145.32551">
    <ele>492.61</ele>
   </trkpt>
   <trkpt lat="-37.87932" lon="145.32488">
    <ele>497.46</ele>
   </trkpt>
   <trkpt lat="-37.87892" lon="145.32431000000003">
    <ele>499.2300000000001</ele>
   </trkpt>
   <trkpt lat="-37.8787" lon="145.32406">
    <ele>498.26000000000005</ele>
   </trkpt>
   <trkpt lat="-37.8782" lon="145.32342">
    <ele>497.11</ele>
   </trkpt>
   <trkpt lat="-37.87783" lon="145.32313000000002">
    <ele>497.54</ele>
   </trkpt>
   <trkpt lat="-37.87737000028028" lon="145.32288499848408">
    <ele>495.37</ele>
   </trkpt>
   <trkpt lat="-37.87691" lon="145.32264">
    <ele>493.00000000000006</ele>
   </trkpt>
   <trkpt lat="-37.877" lon="145.32270000000003">
    <ele>493.69</ele>
   </trkpt>
   <trkpt lat="-37.87758" lon="145.323">
    <ele>511.50000000000006</ele>
   </trkpt>
   <trkpt lat="-37.877" lon="145.32270000000003">
    <ele>493.69</ele>
   </trkpt>
   <trkpt lat="-37.87675" lon="145.32254">
    <ele>491.78000000000003</ele>
   </trkpt>
   <trkpt lat="-37.87620500007607" lon="145.32235499860795">
    <ele>493.7900000000001</ele>
   </trkpt>
   <trkpt lat="-37.87566" lon="145.32217">
    <ele>493.41</ele>
   </trkpt>
   <trkpt lat="-37.87541" lon="145.32191">
    <ele>492.21000000000004</ele>
   </trkpt>
   <trkpt lat="-37.87534" lon="145.32181">
    <ele>492.21000000000004</ele>
   </trkpt>
   <trkpt lat="-37.87518" lon="145.32162000000002">
    <ele>490.72</ele>
   </trkpt>
   <trkpt lat="-37.874970000000005" lon="145.32116000000002">
    <ele>490.08</ele>
   </trkpt>
   <trkpt lat="-37.87491" lon="145.3202">
    <ele>493.94000000000005</ele>
   </trkpt>
   <trkpt lat="-37.87473" lon="145.32017000000002">
    <ele>495.81</ele>
   </trkpt>
   <trkpt lat="-37.87442" lon="145.32003">
    <ele>498.43</ele>
   </trkpt>
   <trkpt lat="-37.87415" lon="145.32003">
    <ele>504.24</ele>
   </trkpt>
   <trkpt lat="-37.874" lon="145.32000000000002">
    <ele>504.24</ele>
   </trkpt>
   <trkpt lat="-37.87355" lon="145.31979">
    <ele>510.09000000000003</ele>
   </trkpt>
   <trkpt lat="-37.87328" lon="145.3197">
    <ele>511.83</ele>
   </trkpt>
   <trkpt lat="-37.87303" lon="145.31965000000002">
    <ele>514.5200000000001</ele>
   </trkpt>
   <trkpt lat="-37.872600000000006" lon="145.31964000000002">
    <ele>516.1600000000001</ele>
   </trkpt>
   <trkpt lat="-37.872550000000004" lon="145.31966">
    <ele>516.2800000000001</ele>
   </trkpt>
   <trkpt lat="-37.87254" lon="145.31967">
    <ele>516.2800000000001</ele>
   </trkpt>
   <trkpt lat="-37.87232" lon="145.31989000000002">
    <ele>514.23</ele>
   </trkpt>
   <trkpt lat="-37.87223" lon="145.32034000000002">
    <ele>505.83</ele>
   </trkpt>
   <trkpt lat="-37.87203" lon="145.32099000000002">
    <ele>493.00000000000006</ele>
   </trkpt>
   <trkpt lat="-37.872" lon="145.32119">
    <ele>488.33000000000004</ele>
   </trkpt>
   <trkpt lat="-37.872" lon="145.32135000000002">
    <ele>484.26</ele>
   </trkpt>
   <trkpt lat="-37.87207" lon="145.32187000000002">
    <ele>476.71000000000004</ele>
   </trkpt>
   <trkpt lat="-37.87203" lon="145.32209">
    <ele>473.70000000000005</ele>
   </trkpt>
   <trkpt lat="-37.87191" lon="145.32233000000002">
    <ele>464.41</ele>
   </trkpt>
   <trkpt lat="-37.871840000000006" lon="145.32255">
    <ele>460.65000000000003</ele>
   </trkpt>
   <trkpt lat="-37.8718" lon="145.32255">
    <ele>459.82000000000005</ele>
   </trkpt>
   <trkpt lat="-37.871790000000004" lon="145.32255">
    <ele>459.82000000000005</ele>
   </trkpt>
   <trkpt lat="-37.87169" lon="145.32248">
    <ele>458.29</ele>
   </trkpt>
   <trkpt lat="-37.87127" lon="145.32199">
    <ele>454.98</ele>
   </trkpt>
   <trkpt lat="-37.87086" lon="145.32168000000001">
    <ele>452.53000000000003</ele>
   </trkpt>
   <trkpt lat="-37.87046" lon="145.3213">
    <ele>449.35</ele>
   </trkpt>
   <trkpt lat="-37.870250000000006" lon="145.32102">
    <ele>444.74</ele>
   </trkpt>
   <trkpt lat="-37.87019" lon="145.32089000000002">
    <ele>443.00000000000006</ele>
   </trkpt>
   <trkpt lat="-37.87012" lon="145.32062000000002">
    <ele>439.94000000000005</ele>
   </trkpt>
   <trkpt lat="-37.87001" lon="145.32003">
    <ele>431.81</ele>
   </trkpt>
   <trkpt lat="-37.86992" lon="145.31986">
    <ele>429.43</ele>
   </trkpt>
   <trkpt lat="-37.86974" lon="145.3196">
    <ele>423.96000000000004</ele>
   </trkpt>
   <trkpt lat="-37.86965" lon="145.31935000000001">
    <ele>422.02000000000004</ele>
   </trkpt>
   <trkpt lat="-37.86947" lon="145.31873000000002">
    <ele>417.42</ele>
   </trkpt>
   <trkpt lat="-37.86945" lon="145.31861">
    <ele>415.84000000000003</ele>
   </trkpt>
   <trkpt lat="-37.869440000000004" lon="145.31848000000002">
    <ele>415.32</ele>
   </trkpt>
   <trkpt lat="-37.869440000000004" lon="145.31849000000003">
    <ele>415.32</ele>
   </trkpt>
   <trkpt lat="-37.869510000000005" lon="145.31796">
    <ele>413.35</ele>
   </trkpt>
   <trkpt lat="-37.869780000000006" lon="145.31726">
    <ele>407.36000000000007</ele>
   </trkpt>
   <trkpt lat="-37.87006" lon="145.31660000000002">
    <ele>396.70000000000005</ele>
   </trkpt>
   <trkpt lat="-37.87041" lon="145.31596000000002">
    <ele>396.24</ele>
   </trkpt>
   <trkpt lat="-37.87059" lon="145.31573">
    <ele>397.51000000000005</ele>
   </trkpt>
   <trkpt lat="-37.871" lon="145.31558">
    <ele>402.27</ele>
   </trkpt>
   <trkpt lat="-37.871190000000006" lon="145.31547">
    <ele>403.57000000000005</ele>
   </trkpt>
   <trkpt lat="-37.871" lon="145.31480000000002">
    <ele>394.59000000000003</ele>
   </trkpt>
   <trkpt lat="-37.87064" lon="145.31427000000002">
    <ele>388.91</ele>
   </trkpt>
   <trkpt lat="-37.87055" lon="145.31419000000002">
    <ele>387.44</ele>
   </trkpt>
   <trkpt lat="-37.87091000188113" lon="145.31352500322902">
    <ele>393.23</ele>
   </trkpt>
   <trkpt lat="-37.87127" lon="145.31286">
    <ele>389.97</ele>
   </trkpt>
   <trkpt lat="-37.87133" lon="145.3128">
    <ele>388.15000000000003</ele>
   </trkpt>
   <trkpt lat="-37.87165" lon="145.31262">
    <ele>381.43000000000006</ele>
   </trkpt>
   <trkpt lat="-37.87174" lon="145.31253">
    <ele>372.33000000000004</ele>
   </trkpt>
   <trkpt lat="-37.87182" lon="145.31231000000002">
    <ele>369.49</ele>
   </trkpt>
   <trkpt lat="-37.87201" lon="145.31204000000002">
    <ele>360.62000000000006</ele>
   </trkpt>
   <trkpt lat="-37.87228" lon="145.31187">
    <ele>351.96999999999997</ele>
   </trkpt>
   <trkpt lat="-37.87227" lon="145.31188">
    <ele>351.96999999999997</ele>
   </trkpt>
   <trkpt lat="-37.87236" lon="145.31185000000002">
    <ele>350.1</ele>
   </trkpt>
   <trkpt lat="-37.87245" lon="145.31188">
    <ele>348.84000000000003</ele>
   </trkpt>
   <trkpt lat="-37.87254" lon="145.31198">
    <ele>347.86</ele>
   </trkpt>
   <trkpt lat="-37.87259" lon="145.31212000000002">
    <ele>348.23</ele>
   </trkpt>
   <trkpt lat="-37.87254" lon="145.31233">
    <ele>349.34000000000003</ele>
   </trkpt>
   <trkpt lat="-37.87229" lon="145.31288">
    <ele>355.24000000000007</ele>
   </trkpt>
   <trkpt lat="-37.87227" lon="145.31307">
    <ele>356.36</ele>
   </trkpt>
   <trkpt lat="-37.87229" lon="145.31326">
    <ele>358.41</ele>
   </trkpt>
   <trkpt lat="-37.87241" lon="145.3135">
    <ele>360.84000000000003</ele>
   </trkpt>
   <trkpt lat="-37.872600000000006" lon="145.31367">
    <ele>363.78000000000003</ele>
   </trkpt>
   <trkpt lat="-37.87288" lon="145.31376">
    <ele>367.20000000000005</ele>
   </trkpt>
   <trkpt lat="-37.87344" lon="145.31381000000002">
    <ele>369.23</ele>
   </trkpt>
   <trkpt lat="-37.87366" lon="145.31386">
    <ele>370.11000000000007</ele>
   </trkpt>
   <trkpt lat="-37.8742" lon="145.31409000000002">
    <ele>371.54</ele>
   </trkpt>
   <trkpt lat="-37.87447" lon="145.31404">
    <ele>373.28000000000003</ele>
   </trkpt>
   <trkpt lat="-37.87489" lon="145.31387">
    <ele>377.05000000000007</ele>
   </trkpt>
   <trkpt lat="-37.87532" lon="145.31391000000002">
    <ele>380.41</ele>
   </trkpt>
   <trkpt lat="-37.8757" lon="145.31402">
    <ele>383.86</ele>
   </trkpt>
   <trkpt lat="-37.87585" lon="145.31401000000002">
    <ele>385.56</ele>
   </trkpt>
   <trkpt lat="-37.87635" lon="145.31387">
    <ele>389.75000000000006</ele>
   </trkpt>
   <trkpt lat="-37.87684" lon="145.31383000000002">
    <ele>396.48</ele>
   </trkpt>
   <trkpt lat="-37.87729" lon="145.31387">
    <ele>403.07000000000005</ele>
   </trkpt>
   <trkpt lat="-37.87753" lon="145.31387">
    <ele>406.01000000000005</ele>
   </trkpt>
   <trkpt lat="-37.87796" lon="145.31396">
    <ele>411.07000000000005</ele>
   </trkpt>
   <trkpt lat="-37.87838" lon="145.31409000000002">
    <ele>416.26</ele>
   </trkpt>
   <trkpt lat="-37.87883000008877" lon="145.31413999970323">
    <ele>420.87</ele>
   </trkpt>
   <trkpt lat="-37.87928" lon="145.31419000000002">
    <ele>424.01000000000005</ele>
   </trkpt>
   <trkpt lat="-37.87872" lon="145.31412">
    <ele>419.98</ele>
   </trkpt>
   <trkpt lat="-37.87928" lon="145.31419000000002">
    <ele>423.39000000000004</ele>
   </trkpt>
   <trkpt lat="-37.87948" lon="145.31417000000002">
    <ele>425.44000000000005</ele>
   </trkpt>
   <trkpt lat="-37.87953" lon="145.31416000000002">
    <ele>425.44000000000005</ele>
   </trkpt>
   <trkpt lat="-37.87975" lon="145.31393">
    <ele>425.15000000000003</ele>
   </trkpt>
   <trkpt lat="-37.87993" lon="145.31385">
    <ele>424.8500000000001</ele>
   </trkpt>
   <trkpt lat="-37.87975" lon="145.31343">
    <ele>421.71000000000004</ele>
   </trkpt>
   <trkpt lat="-37.87961" lon="145.3129">
    <ele>413.80000000000007</ele>
   </trkpt>
   <trkpt lat="-37.87948" lon="145.31256000000002">
    <ele>407.80000000000007</ele>
   </trkpt>
   <trkpt lat="-37.87937" lon="145.31237000000002">
    <ele>398.06</ele>
   </trkpt>
   <trkpt lat="-37.8793" lon="145.31218">
    <ele>398.06</ele>
   </trkpt>
   <trkpt lat="-37.87926" lon="145.31189">
    <ele>387.84000000000003</ele>
   </trkpt>
   <trkpt lat="-37.87912" lon="145.31145">
    <ele>375.9</ele>
   </trkpt>
   <trkpt lat="-37.8791" lon="145.31098">
    <ele>362.03000000000003</ele>
   </trkpt>
   <trkpt lat="-37.87903" lon="145.3108">
    <ele>355.53000000000003</ele>
   </trkpt>
   <trkpt lat="-37.87885" lon="145.31058000000002">
    <ele>347.24000000000007</ele>
   </trkpt>
   <trkpt lat="-37.878600000000006" lon="145.31039">
    <ele>341.1</ele>
   </trkpt>
   <trkpt lat="-37.87847" lon="145.31033000000002">
    <ele>333.73</ele>
   </trkpt>
   <trkpt lat="-37.87814" lon="145.31003">
    <ele>316.46000000000004</ele>
   </trkpt>
   <trkpt lat="-37.87796" lon="145.30995000000001">
    <ele>310.25</ele>
   </trkpt>
   <trkpt lat="-37.8778" lon="145.30980000000002">
    <ele>307.29</ele>
   </trkpt>
   <trkpt lat="-37.87749" lon="145.30934000000002">
    <ele>289.37</ele>
   </trkpt>
   <trkpt lat="-37.87711" lon="145.30854000000002">
    <ele>266.67</ele>
   </trkpt>
   <trkpt lat="-37.87675" lon="145.30823">
    <ele>255.89000000000001</ele>
   </trkpt>
   <trkpt lat="-37.87664" lon="145.30818000000002">
    <ele>253.0</ele>
   </trkpt>
   <trkpt lat="-37.876470000000005" lon="145.30795">
    <ele>248.33</ele>
   </trkpt>
   <trkpt lat="-37.87686" lon="145.30793">
    <ele>253.06</ele>
   </trkpt>
   <trkpt lat="-37.877300000000005" lon="145.30784">
    <ele>255.76000000000005</ele>
   </trkpt>
   <trkpt lat="-37.87729" lon="145.30784">
    <ele>255.76000000000005</ele>
   </trkpt>
   <trkpt lat="-37.87744" lon="145.30784">
    <ele>256.74</ele>
   </trkpt>
   <trkpt lat="-37.87787" lon="145.30791000000002">
    <ele>261.8</ele>
   </trkpt>
   <trkpt lat="-37.87816" lon="145.30803">
    <ele>265.90000000000003</ele>
   </trkpt>
   <trkpt lat="-37.87863" lon="145.30831">
    <ele>274.56</ele>
   </trkpt>
   <trkpt lat="-37.87921" lon="145.30859">
    <ele>283.44</ele>
   </trkpt>
   <trkpt lat="-37.87979" lon="145.30893">
    <ele>289.63</ele>
   </trkpt>
   <trkpt lat="-37.88035" lon="145.30939">
    <ele>298.07</ele>
   </trkpt>
   <trkpt lat="-37.88082" lon="145.31005000000002">
    <ele>310.65000000000003</ele>
   </trkpt>
   <trkpt lat="-37.88089" lon="145.31011">
    <ele>311.0</ele>
   </trkpt>
   <trkpt lat="-37.880970000000005" lon="145.31011">
    <ele>311.12</ele>
   </trkpt>
   <trkpt lat="-37.88096" lon="145.31011">
    <ele>311.12</ele>
   </trkpt>
   <trkpt lat="-37.881040000000006" lon="145.31008">
    <ele>311.24</ele>
   </trkpt>
   <trkpt lat="-37.88114" lon="145.30981">
    <ele>312.58000000000004</ele>
   </trkpt>
   <trkpt lat="-37.8812" lon="145.30912">
    <ele>320.14000000000004</ele>
   </trkpt>
   <trkpt lat="-37.88127" lon="145.30875">
    <ele>322.42</ele>
   </trkpt>
   <trkpt lat="-37.88145" lon="145.30807000000001">
    <ele>326.83</ele>
   </trkpt>
   <trkpt lat="-37.88152" lon="145.30794">
    <ele>327.59000000000003</ele>
   </trkpt>
   <trkpt lat="-37.881660000000004" lon="145.30779">
    <ele>328.12</ele>
   </trkpt>
   <trkpt lat="-37.88152" lon="145.30794">
    <ele>327.59000000000003</ele>
   </trkpt>
   <trkpt lat="-37.88145" lon="145.30807000000001">
    <ele>324.43000000000006</ele>
   </trkpt>
   <trkpt lat="-37.88141" lon="145.30825000000002">
    <ele>325.43000000000006</ele>
   </trkpt>
   <trkpt lat="-37.88145" lon="145.30807000000001">
    <ele>326.83</ele>
   </trkpt>
   <trkpt lat="-37.88152" lon="145.30794">
    <ele>327.59000000000003</ele>
   </trkpt>
   <trkpt lat="-37.881800000000005" lon="145.30764000000002">
    <ele>330.02000000000004</ele>
   </trkpt>
   <trkpt lat="-37.88208" lon="145.30768">
    <ele>331.79</ele>
   </trkpt>
   <trkpt lat="-37.88232" lon="145.30774000000002">
    <ele>333.81000000000006</ele>
   </trkpt>
   <trkpt lat="-37.88268" lon="145.30786">
    <ele>337.13000000000005</ele>
   </trkpt>
   <trkpt lat="-37.882780000000004" lon="145.30791000000002">
    <ele>338.08000000000004</ele>
   </trkpt>
   <trkpt lat="-37.88277" lon="145.30790000000002">
    <ele>338.08000000000004</ele>
   </trkpt>
   <trkpt lat="-37.88313" lon="145.30817000000002">
    <ele>342.07000000000005</ele>
   </trkpt>
   <trkpt lat="-37.88333" lon="145.30835000000002">
    <ele>344.41</ele>
   </trkpt>
   <trkpt lat="-37.88353" lon="145.3086">
    <ele>346.27000000000004</ele>
   </trkpt>
   <trkpt lat="-37.883860000000006" lon="145.30907000000002">
    <ele>349.74000000000007</ele>
   </trkpt>
   <trkpt lat="-37.883950000000006" lon="145.30926000000002">
    <ele>349.74000000000007</ele>
   </trkpt>
   <trkpt lat="-37.88398" lon="145.3095">
    <ele>352.53000000000003</ele>
   </trkpt>
   <trkpt lat="-37.88398" lon="145.30967">
    <ele>353.35</ele>
   </trkpt>
   <trkpt lat="-37.88391" lon="145.31067000000002">
    <ele>360.68000000000006</ele>
   </trkpt>
   <trkpt lat="-37.88394" lon="145.31089">
    <ele>362.96</ele>
   </trkpt>
   <trkpt lat="-37.884" lon="145.31125">
    <ele>366.12000000000006</ele>
   </trkpt>
   <trkpt lat="-37.88411" lon="145.31159000000002">
    <ele>369.08</ele>
   </trkpt>
   <trkpt lat="-37.88436000114402" lon="145.31210499829754">
    <ele>373.13</ele>
   </trkpt>
   <trkpt lat="-37.88461" lon="145.31262">
    <ele>376.93</ele>
   </trkpt>
   <trkpt lat="-37.884640000000005" lon="145.31277">
    <ele>378.07</ele>
   </trkpt>
   <trkpt lat="-37.88488" lon="145.3128">
    <ele>372.4</ele>
   </trkpt>
   <trkpt lat="-37.88501" lon="145.31279">
    <ele>368.45000000000005</ele>
   </trkpt>
   <trkpt lat="-37.88519" lon="145.31273000000002">
    <ele>366.56000000000006</ele>
   </trkpt>
   <trkpt lat="-37.885270000000006" lon="145.31266000000002">
    <ele>363.97</ele>
   </trkpt>
   <trkpt lat="-37.8853" lon="145.31255000000002">
    <ele>362.37</ele>
   </trkpt>
   <trkpt lat="-37.88541" lon="145.31207">
    <ele>354.69</ele>
   </trkpt>
   <trkpt lat="-37.88548" lon="145.31186000000002">
    <ele>350.68000000000006</ele>
   </trkpt>
   <trkpt lat="-37.88579500183977" lon="145.31120500274952">
    <ele>339.01000000000005</ele>
   </trkpt>
   <trkpt lat="-37.88611" lon="145.31055">
    <ele>328.72</ele>
   </trkpt>
   <trkpt lat="-37.8862" lon="145.31044">
    <ele>328.72</ele>
   </trkpt>
   <trkpt lat="-37.88629" lon="145.31038">
    <ele>323.55</ele>
   </trkpt>
   <trkpt lat="-37.886610000000005" lon="145.31019">
    <ele>319.26000000000005</ele>
   </trkpt>
   <trkpt lat="-37.8866" lon="145.3102">
    <ele>319.26000000000005</ele>
   </trkpt>
   <trkpt lat="-37.88673" lon="145.31015000000002">
    <ele>317.66</ele>
   </trkpt>
   <trkpt lat="-37.88687" lon="145.31014000000002">
    <ele>316.53000000000003</ele>
   </trkpt>
   <trkpt lat="-37.88696" lon="145.31015000000002">
    <ele>316.53000000000003</ele>
   </trkpt>
   <trkpt lat="-37.88705" lon="145.31019">
    <ele>315.12</ele>
   </trkpt>
   <trkpt lat="-37.887330000000006" lon="145.31040000000002">
    <ele>311.5</ele>
   </trkpt>
   <trkpt lat="-37.88779" lon="145.31063">
    <ele>300.8</ele>
   </trkpt>
   <trkpt lat="-37.88794" lon="145.31068000000002">
    <ele>292.98</ele>
   </trkpt>
   <trkpt lat="-37.888450000000006" lon="145.31074">
    <ele>284.16</ele>
   </trkpt>
   <trkpt lat="-37.88859" lon="145.31071">
    <ele>281.46999999999997</ele>
   </trkpt>
   <trkpt lat="-37.88868" lon="145.31060000000002">
    <ele>279.92</ele>
   </trkpt>
   <trkpt lat="-37.88893" lon="145.31018">
    <ele>272.45000000000005</ele>
   </trkpt>
   <trkpt lat="-37.88902" lon="145.31014000000002">
    <ele>272.45000000000005</ele>
   </trkpt>
   <trkpt lat="-37.88908" lon="145.31016000000002">
    <ele>267.72</ele>
   </trkpt>
   <trkpt lat="-37.889210000000006" lon="145.31025000000002">
    <ele>266.27</ele>
   </trkpt>
   <trkpt lat="-37.88931" lon="145.31038">
    <ele>266.27</ele>
   </trkpt>
   <trkpt lat="-37.88951" lon="145.31074">
    <ele>257.39</ele>
   </trkpt>
   <trkpt lat="-37.88958" lon="145.3109">
    <ele>255.84</ele>
   </trkpt>
   <trkpt lat="-37.88958" lon="145.31101">
    <ele>255.84</ele>
   </trkpt>
   <trkpt lat="-37.88955" lon="145.31122000000002">
    <ele>252.8</ele>
   </trkpt>
   <trkpt lat="-37.88958" lon="145.31130000000002">
    <ele>249.62</ele>
   </trkpt>
   <trkpt lat="-37.8896" lon="145.31134">
    <ele>249.62</ele>
   </trkpt>
   <trkpt lat="-37.889680000000006" lon="145.31134">
    <ele>248.09000000000003</ele>
   </trkpt>
   <trkpt lat="-37.88993" lon="145.31119">
    <ele>244.75000000000003</ele>
   </trkpt>
   <trkpt lat="-37.89002" lon="145.31111">
    <ele>243.55</ele>
   </trkpt>
   <trkpt lat="-37.89016" lon="145.31092">
    <ele>239.03</ele>
   </trkpt>
   <trkpt lat="-37.89025" lon="145.31066">
    <ele>237.3</ele>
   </trkpt>
   <trkpt lat="-37.89027" lon="145.31046">
    <ele>234.86</ele>
   </trkpt>
   <trkpt lat="-37.89025" lon="145.31002">
    <ele>229.92000000000002</ele>
   </trkpt>
   <trkpt lat="-37.89027" lon="145.30997000000002">
    <ele>229.92000000000002</ele>
   </trkpt>
   <trkpt lat="-37.890330000000006" lon="145.30995000000001">
    <ele>228.22</ele>
   </trkpt>
   <trkpt lat="-37.890390000000004" lon="145.30998000000002">
    <ele>227.02</ele>
   </trkpt>
   <trkpt lat="-37.89038" lon="145.30997000000002">
    <ele>227.02</ele>
   </trkpt>
   <trkpt lat="-37.89092" lon="145.31052000000003">
    <ele>215.21</ele>
   </trkpt>
   <trkpt lat="-37.89119" lon="145.31122000000002">
    <ele>204.69</ele>
   </trkpt>
   <trkpt lat="-37.89121" lon="145.31161">
    <ele>201.14000000000001</ele>
   </trkpt>
   <trkpt lat="-37.891180000000006" lon="145.31198">
    <ele>198.42000000000002</ele>
   </trkpt>
   <trkpt lat="-37.89105" lon="145.31242">
    <ele>195.48000000000002</ele>
   </trkpt>
   <trkpt lat="-37.89101" lon="145.31248000000002">
    <ele>195.0</ele>
   </trkpt>
   <trkpt lat="-37.89072" lon="145.31278">
    <ele>194.5</ele>
   </trkpt>
   <trkpt lat="-37.890710000000006" lon="145.31282000000002">
    <ele>194.46</ele>
   </trkpt>
   <trkpt lat="-37.890710000000006" lon="145.31292000000002">
    <ele>194.36</ele>
   </trkpt>
   <trkpt lat="-37.89074" lon="145.31299">
    <ele>193.93</ele>
   </trkpt>
   <trkpt lat="-37.89092" lon="145.31309000000002">
    <ele>192.75</ele>
   </trkpt>
   <trkpt lat="-37.89132" lon="145.3134">
    <ele>187.19000000000003</ele>
   </trkpt>
   <trkpt lat="-37.8915" lon="145.31358">
    <ele>185.45</ele>
   </trkpt>
   <trkpt lat="-37.89159" lon="145.31376">
    <ele>184.15</ele>
   </trkpt>
   <trkpt lat="-37.89168" lon="145.31405">
    <ele>182.28000000000003</ele>
   </trkpt>
   <trkpt lat="-37.8917" lon="145.3142">
    <ele>180.61</ele>
   </trkpt>
   <trkpt lat="-37.89166" lon="145.31470000000002">
    <ele>177.64000000000001</ele>
   </trkpt>
   <trkpt lat="-37.89159" lon="145.3153">
    <ele>173.74</ele>
   </trkpt>
   <trkpt lat="-37.89159" lon="145.31574">
    <ele>170.52</ele>
   </trkpt>
   <trkpt lat="-37.89157" lon="145.316">
    <ele>167.91</ele>
   </trkpt>
   <trkpt lat="-37.89161" lon="145.31606000000002">
    <ele>167.91</ele>
   </trkpt>
   <trkpt lat="-37.89175" lon="145.31639">
    <ele>165.16</ele>
   </trkpt>
   <trkpt lat="-37.891960000000005" lon="145.31650000000002">
    <ele>163.03</ele>
   </trkpt>
   <trkpt lat="-37.891980000000004" lon="145.31651000000002">
    <ele>162.89000000000001</ele>
   </trkpt>
   <trkpt lat="-37.89195" lon="145.31661000000003">
    <ele>164.58</ele>
   </trkpt>
   <trkpt lat="-37.89186" lon="145.31668000000002">
    <ele>166.29000000000002</ele>
   </trkpt>
   <trkpt lat="-37.89173" lon="145.31668000000002">
    <ele>168.39000000000001</ele>
   </trkpt>
   <trkpt lat="-37.89166" lon="145.31673">
    <ele>168.39000000000001</ele>
   </trkpt>
   <trkpt lat="-37.89143" lon="145.31695000000002">
    <ele>172.83</ele>
   </trkpt>
   <trkpt lat="-37.89134" lon="145.31707">
    <ele>173.94</ele>
   </trkpt>
   <trkpt lat="-37.8909" lon="145.31737">
    <ele>179.26</ele>
   </trkpt>
   <trkpt lat="-37.89074" lon="145.31744">
    <ele>182.06000000000003</ele>
   </trkpt>
   <trkpt lat="-37.890690000000006" lon="145.31744">
    <ele>182.06000000000003</ele>
   </trkpt>
  </trkseg>
 </trk>
</gpx>
