<?xml version="1.0" encoding="UTF-8"?>
<gpx creator="StravaGPX" version="1.1" xmlns="http://www.topografix.com/GPX/1/1" xmlns:xsi="http://www.w3.org/2001/XMLSchema-instance" xsi:schemaLocation="http://www.topografix.com/GPX/1/1 http://www.topografix.com/GPX/1/1/gpx.xsd">
 <metadata>
  <name>DTR Sunday- Roller Coaster 🎢</name>
  <author>
   <name>Natalie Gow</name>
  </author>
  <copyright author="OpenStreetMap contributors">
   <year>2020</year>
   <license>https://www.openstreetmap.org/copyright</license>
  </copyright>
 </metadata>
 <trk>
  <name>DTR Sunday- Roller Coaster 🎢</name>
  <link href=""/>
  <type>trail_running</type>
  <trkseg>
   <trkpt lat="-37.817420000000006" lon="145.37872000000002">
    <ele>431.78000000000003</ele>
   </trkpt>
   <trkpt lat="-37.81727" lon="145.37852">
    <ele>432.97</ele>
   </trkpt>
   <trkpt lat="-37.81696" lon="145.37828000000002">
    <ele>435.11000000000007</ele>
   </trkpt>
   <trkpt lat="-37.81676" lon="145.37821000000002">
    <ele>435.89000000000004</ele>
   </trkpt>
   <trkpt lat="-37.81656" lon="145.37825">
    <ele>436.09000000000003</ele>
   </trkpt>
   <trkpt lat="-37.81642" lon="145.37833">
    <ele>435.6</ele>
   </trkpt>
   <trkpt lat="-37.81629" lon="145.37849">
    <ele>434.75</ele>
   </trkpt>
   <trkpt lat="-37.81617" lon="145.37872000000002">
    <ele>433.72</ele>
   </trkpt>
   <trkpt lat="-37.81613" lon="145.37887">
    <ele>432.99</ele>
   </trkpt>
   <trkpt lat="-37.8162" lon="145.37919000000002">
    <ele>434.58000000000004</ele>
   </trkpt>
   <trkpt lat="-37.81622" lon="145.37971000000002">
    <ele>436.78000000000003</ele>
   </trkpt>
   <trkpt lat="-37.81629" lon="145.37992">
    <ele>438.95000000000005</ele>
   </trkpt>
   <trkpt lat="-37.81642" lon="145.37999000000002">
    <ele>438.95000000000005</ele>
   </trkpt>
   <trkpt lat="-37.817080000000004" lon="145.37994">
    <ele>436.22</ele>
   </trkpt>
   <trkpt lat="-37.817260000000005" lon="145.37983">
    <ele>437.19</ele>
   </trkpt>
   <trkpt lat="-37.817330000000005" lon="145.37976">
    <ele>436.49</ele>
   </trkpt>
   <trkpt lat="-37.81739" lon="145.37965">
    <ele>435.00000000000006</ele>
   </trkpt>
   <trkpt lat="-37.81741" lon="145.37931">
    <ele>427.24</ele>
   </trkpt>
   <trkpt lat="-37.817550000000004" lon="145.37901000000002">
    <ele>430.68000000000006</ele>
   </trkpt>
   <trkpt lat="-37.81752" lon="145.37898">
    <ele>430.68000000000006</ele>
   </trkpt>
   <trkpt lat="-37.81743" lon="145.37873000000002">
    <ele>431.74</ele>
   </trkpt>
   <trkpt lat="-37.81727" lon="145.37852">
    <ele>432.97</ele>
   </trkpt>
   <trkpt lat="-37.81696" lon="145.37828000000002">
    <ele>435.11000000000007</ele>
   </trkpt>
   <trkpt lat="-37.81676" lon="145.37821000000002">
    <ele>435.89000000000004</ele>
   </trkpt>
   <trkpt lat="-37.81656" lon="145.37825">
    <ele>436.12000000000006</ele>
   </trkpt>
   <trkpt lat="-37.81642" lon="145.37833">
    <ele>435.76000000000005</ele>
   </trkpt>
   <trkpt lat="-37.81629" lon="145.37849">
    <ele>434.75</ele>
   </trkpt>
   <trkpt lat="-37.81617" lon="145.37872000000002">
    <ele>433.72</ele>
   </trkpt>
   <trkpt lat="-37.81613" lon="145.37887">
    <ele>432.99</ele>
   </trkpt>
   <trkpt lat="-37.8162" lon="145.37919000000002">
    <ele>434.58000000000004</ele>
   </trkpt>
   <trkpt lat="-37.81622" lon="145.37971000000002">
    <ele>436.78000000000003</ele>
   </trkpt>
   <trkpt lat="-37.81629" lon="145.37992">
    <ele>438.95000000000005</ele>
   </trkpt>
   <trkpt lat="-37.81642" lon="145.37999000000002">
    <ele>438.95000000000005</ele>
   </trkpt>
   <trkpt lat="-37.817170000000004" lon="145.37992">
    <ele>436.74</ele>
   </trkpt>
   <trkpt lat="-37.81734" lon="145.37976">
    <ele>437.1700000000001</ele>
   </trkpt>
   <trkpt lat="-37.81738" lon="145.37962000000002">
    <ele>434.25</ele>
   </trkpt>
   <trkpt lat="-37.81741" lon="145.37931">
    <ele>427.24</ele>
   </trkpt>
   <trkpt lat="-37.817550000000004" lon="145.37901000000002">
    <ele>430.68000000000006</ele>
   </trkpt>
   <trkpt lat="-37.81752" lon="145.37898">
    <ele>430.68000000000006</ele>
   </trkpt>
   <trkpt lat="-37.81743" lon="145.37873000000002">
    <ele>431.74</ele>
   </trkpt>
   <trkpt lat="-37.81727" lon="145.37852">
    <ele>432.97</ele>
   </trkpt>
   <trkpt lat="-37.81696" lon="145.37828000000002">
    <ele>435.11000000000007</ele>
   </trkpt>
   <trkpt lat="-37.81676" lon="145.37821000000002">
    <ele>435.89000000000004</ele>
   </trkpt>
   <trkpt lat="-37.81656" lon="145.37825">
    <ele>436.12000000000006</ele>
   </trkpt>
   <trkpt lat="-37.81642" lon="145.37833">
    <ele>435.76000000000005</ele>
   </trkpt>
   <trkpt lat="-37.81629" lon="145.37849">
    <ele>434.75</ele>
   </trkpt>
   <trkpt lat="-37.81617" lon="145.37872000000002">
    <ele>433.72</ele>
   </trkpt>
   <trkpt lat="-37.81613" lon="145.37887">
    <ele>432.99</ele>
   </trkpt>
   <trkpt lat="-37.8162" lon="145.37919000000002">
    <ele>434.58000000000004</ele>
   </trkpt>
   <trkpt lat="-37.81622" lon="145.37971000000002">
    <ele>436.78000000000003</ele>
   </trkpt>
   <trkpt lat="-37.81629" lon="145.37992">
    <ele>438.95000000000005</ele>
   </trkpt>
   <trkpt lat="-37.81642" lon="145.37999000000002">
    <ele>438.95000000000005</ele>
   </trkpt>
   <trkpt lat="-37.81701" lon="145.37994">
    <ele>436.04</ele>
   </trkpt>
   <trkpt lat="-37.81725" lon="145.37947">
    <ele>432.01000000000005</ele>
   </trkpt>
   <trkpt lat="-37.81736" lon="145.37944000000002">
    <ele>432.01000000000005</ele>
   </trkpt>
   <trkpt lat="-37.81738" lon="145.37937000000002">
    <ele>431.21000000000004</ele>
   </trkpt>
   <trkpt lat="-37.81736" lon="145.37944000000002">
    <ele>432.01000000000005</ele>
   </trkpt>
   <trkpt lat="-37.81725" lon="145.37947">
    <ele>432.01000000000005</ele>
   </trkpt>
   <trkpt lat="-37.81701" lon="145.37994">
    <ele>436.04</ele>
   </trkpt>
   <trkpt lat="-37.81642" lon="145.38000000000002">
    <ele>438.98</ele>
   </trkpt>
   <trkpt lat="-37.81629" lon="145.37992">
    <ele>438.95000000000005</ele>
   </trkpt>
   <trkpt lat="-37.81622" lon="145.37971000000002">
    <ele>436.78000000000003</ele>
   </trkpt>
   <trkpt lat="-37.8162" lon="145.37919000000002">
    <ele>434.58000000000004</ele>
   </trkpt>
   <trkpt lat="-37.81613" lon="145.37887">
    <ele>433.82000000000005</ele>
   </trkpt>
   <trkpt lat="-37.816" lon="145.37896">
    <ele>432.14000000000004</ele>
   </trkpt>
   <trkpt lat="-37.81579" lon="145.3788">
    <ele>430.98</ele>
   </trkpt>
   <trkpt lat="-37.81566" lon="145.37857000000002">
    <ele>430.58</ele>
   </trkpt>
   <trkpt lat="-37.81523" lon="145.37830000000002">
    <ele>429.34000000000003</ele>
   </trkpt>
   <trkpt lat="-37.814980000000006" lon="145.37811000000002">
    <ele>429.55</ele>
   </trkpt>
   <trkpt lat="-37.8144950014339" lon="145.37753499626578">
    <ele>435.13</ele>
   </trkpt>
   <trkpt lat="-37.81401" lon="145.37696000000003">
    <ele>441.54</ele>
   </trkpt>
   <trkpt lat="-37.813880004748974" lon="145.37620999732337">
    <ele>447.6</ele>
   </trkpt>
   <trkpt lat="-37.81375000474283" lon="145.37545999728792">
    <ele>454.21000000000004</ele>
   </trkpt>
   <trkpt lat="-37.81362" lon="145.37471000000002">
    <ele>461.13000000000005</ele>
   </trkpt>
   <trkpt lat="-37.81349" lon="145.37412">
    <ele>465.08000000000004</ele>
   </trkpt>
   <trkpt lat="-37.81331" lon="145.37307">
    <ele>466.33000000000004</ele>
   </trkpt>
   <trkpt lat="-37.81358" lon="145.37265000000002">
    <ele>467.08000000000004</ele>
   </trkpt>
   <trkpt lat="-37.81396" lon="145.37239000000002">
    <ele>469.77000000000004</ele>
   </trkpt>
   <trkpt lat="-37.81441" lon="145.37232">
    <ele>471.61</ele>
   </trkpt>
   <trkpt lat="-37.81461" lon="145.37204">
    <ele>473.73</ele>
   </trkpt>
   <trkpt lat="-37.81479" lon="145.37143">
    <ele>478.42</ele>
   </trkpt>
   <trkpt lat="-37.81481" lon="145.37055">
    <ele>481.32</ele>
   </trkpt>
   <trkpt lat="-37.81467" lon="145.36967">
    <ele>474.24000000000007</ele>
   </trkpt>
   <trkpt lat="-37.81459" lon="145.36878000000002">
    <ele>465.87000000000006</ele>
   </trkpt>
   <trkpt lat="-37.81459" lon="145.36827000000002">
    <ele>462.25000000000006</ele>
   </trkpt>
   <trkpt lat="-37.8147" lon="145.36782000000002">
    <ele>457.57000000000005</ele>
   </trkpt>
   <trkpt lat="-37.81488" lon="145.36741">
    <ele>453.77000000000004</ele>
   </trkpt>
   <trkpt lat="-37.81508" lon="145.36724">
    <ele>450.8</ele>
   </trkpt>
   <trkpt lat="-37.81537" lon="145.36716">
    <ele>450.67</ele>
   </trkpt>
   <trkpt lat="-37.8155" lon="145.36708000000002">
    <ele>451.48</ele>
   </trkpt>
   <trkpt lat="-37.81573" lon="145.36681000000002">
    <ele>454.52000000000004</ele>
   </trkpt>
   <trkpt lat="-37.81615" lon="145.36669">
    <ele>457.98</ele>
   </trkpt>
   <trkpt lat="-37.81678999995962" lon="145.36669999991267">
    <ele>465.34000000000003</ele>
   </trkpt>
   <trkpt lat="-37.81743" lon="145.36671">
    <ele>471.54</ele>
   </trkpt>
   <trkpt lat="-37.81752" lon="145.36676">
    <ele>471.89000000000004</ele>
   </trkpt>
   <trkpt lat="-37.817530000000005" lon="145.36663000000001">
    <ele>473.98</ele>
   </trkpt>
   <trkpt lat="-37.81765" lon="145.36620000000002">
    <ele>475.84000000000003</ele>
   </trkpt>
   <trkpt lat="-37.81774" lon="145.36595">
    <ele>475.49</ele>
   </trkpt>
   <trkpt lat="-37.81774" lon="145.36581">
    <ele>474.88</ele>
   </trkpt>
   <trkpt lat="-37.8177" lon="145.36568000000003">
    <ele>473.43</ele>
   </trkpt>
   <trkpt lat="-37.817600000000006" lon="145.36507">
    <ele>471.44</ele>
   </trkpt>
   <trkpt lat="-37.817600000000006" lon="145.36438">
    <ele>468.12</ele>
   </trkpt>
   <trkpt lat="-37.81765" lon="145.36397000000002">
    <ele>466.62</ele>
   </trkpt>
   <trkpt lat="-37.81779" lon="145.36370000000002">
    <ele>466.4800000000001</ele>
   </trkpt>
   <trkpt lat="-37.817980000000006" lon="145.36344000000003">
    <ele>465.6</ele>
   </trkpt>
   <trkpt lat="-37.8183" lon="145.36328">
    <ele>465.74</ele>
   </trkpt>
   <trkpt lat="-37.81877" lon="145.36299000000002">
    <ele>472.06</ele>
   </trkpt>
   <trkpt lat="-37.81931" lon="145.36299000000002">
    <ele>487.15000000000003</ele>
   </trkpt>
   <trkpt lat="-37.81949" lon="145.36302">
    <ele>498.82000000000005</ele>
   </trkpt>
   <trkpt lat="-37.81958" lon="145.36325000000002">
    <ele>505.14000000000004</ele>
   </trkpt>
   <trkpt lat="-37.81969" lon="145.36317000000003">
    <ele>506.0</ele>
   </trkpt>
   <trkpt lat="-37.81976" lon="145.36298000000002">
    <ele>506.04</ele>
   </trkpt>
   <trkpt lat="-37.81996" lon="145.36259">
    <ele>509.0</ele>
   </trkpt>
   <trkpt lat="-37.82016" lon="145.36235000000002">
    <ele>515.03</ele>
   </trkpt>
   <trkpt lat="-37.82092" lon="145.36214">
    <ele>542.12</ele>
   </trkpt>
   <trkpt lat="-37.82114" lon="145.36204">
    <ele>546.74</ele>
   </trkpt>
   <trkpt lat="-37.82168" lon="145.36193">
    <ele>554.36</ele>
   </trkpt>
   <trkpt lat="-37.82186" lon="145.36196">
    <ele>555.09</ele>
   </trkpt>
   <trkpt lat="-37.82222" lon="145.36195">
    <ele>554.6600000000001</ele>
   </trkpt>
   <trkpt lat="-37.822390000000006" lon="145.36191000000002">
    <ele>554.4</ele>
   </trkpt>
   <trkpt lat="-37.82251" lon="145.36179">
    <ele>554.23</ele>
   </trkpt>
   <trkpt lat="-37.82278" lon="145.36161">
    <ele>553.6000000000001</ele>
   </trkpt>
   <trkpt lat="-37.82285" lon="145.36151">
    <ele>553.4499999999999</ele>
   </trkpt>
   <trkpt lat="-37.82287" lon="145.36139">
    <ele>553.06</ele>
   </trkpt>
   <trkpt lat="-37.82251" lon="145.36086">
    <ele>544.2</ele>
   </trkpt>
   <trkpt lat="-37.82247" lon="145.36068">
    <ele>541.59</ele>
   </trkpt>
   <trkpt lat="-37.82251" lon="145.36048000000002">
    <ele>540.3800000000001</ele>
   </trkpt>
   <trkpt lat="-37.82291" lon="145.35968000000003">
    <ele>543.74</ele>
   </trkpt>
   <trkpt lat="-37.82314" lon="145.35915">
    <ele>544.5699999999999</ele>
   </trkpt>
   <trkpt lat="-37.82334" lon="145.3588">
    <ele>550.51</ele>
   </trkpt>
   <trkpt lat="-37.8237" lon="145.35811">
    <ele>552.3</ele>
   </trkpt>
   <trkpt lat="-37.82405" lon="145.35753000000003">
    <ele>548.23</ele>
   </trkpt>
   <trkpt lat="-37.82419" lon="145.35738">
    <ele>548.1600000000001</ele>
   </trkpt>
   <trkpt lat="-37.82493" lon="145.35696000000002">
    <ele>557.7</ele>
   </trkpt>
   <trkpt lat="-37.82504" lon="145.35681000000002">
    <ele>561.84</ele>
   </trkpt>
   <trkpt lat="-37.825320000000005" lon="145.35658">
    <ele>567.35</ele>
   </trkpt>
   <trkpt lat="-37.82536" lon="145.35629">
    <ele>569.07</ele>
   </trkpt>
   <trkpt lat="-37.82529" lon="145.35569">
    <ele>572.3600000000001</ele>
   </trkpt>
   <trkpt lat="-37.82529" lon="145.35529000000002">
    <ele>573.0500000000001</ele>
   </trkpt>
   <trkpt lat="-37.82531" lon="145.35505">
    <ele>573.55</ele>
   </trkpt>
   <trkpt lat="-37.82535" lon="145.35486">
    <ele>574.6</ele>
   </trkpt>
   <trkpt lat="-37.82544" lon="145.35431">
    <ele>579.62</ele>
   </trkpt>
   <trkpt lat="-37.82555" lon="145.35337">
    <ele>586.45</ele>
   </trkpt>
   <trkpt lat="-37.82553" lon="145.35331000000002">
    <ele>586.45</ele>
   </trkpt>
   <trkpt lat="-37.82547" lon="145.35287000000002">
    <ele>586.58</ele>
   </trkpt>
   <trkpt lat="-37.82551" lon="145.35260000000002">
    <ele>586.0600000000001</ele>
   </trkpt>
   <trkpt lat="-37.82558" lon="145.35231000000002">
    <ele>585.37</ele>
   </trkpt>
   <trkpt lat="-37.82596" lon="145.35162000000003">
    <ele>582.16</ele>
   </trkpt>
   <trkpt lat="-37.826240000000006" lon="145.35123000000002">
    <ele>579.32</ele>
   </trkpt>
   <trkpt lat="-37.82625" lon="145.35122">
    <ele>579.32</ele>
   </trkpt>
   <trkpt lat="-37.82658" lon="145.35101">
    <ele>577.47</ele>
   </trkpt>
   <trkpt lat="-37.82701" lon="145.35084">
    <ele>578.0000000000001</ele>
   </trkpt>
   <trkpt lat="-37.82758000007891" lon="145.35072500088367">
    <ele>576.5600000000001</ele>
   </trkpt>
   <trkpt lat="-37.82815" lon="145.35061000000002">
    <ele>575.5400000000001</ele>
   </trkpt>
   <trkpt lat="-37.8286300000965" lon="145.35060500003155">
    <ele>577.97</ele>
   </trkpt>
   <trkpt lat="-37.82911" lon="145.35060000000001">
    <ele>575.46</ele>
   </trkpt>
   <trkpt lat="-37.82943" lon="145.35047">
    <ele>569.64</ele>
   </trkpt>
   <trkpt lat="-37.82963" lon="145.35047">
    <ele>567.38</ele>
   </trkpt>
   <trkpt lat="-37.82999" lon="145.35055">
    <ele>564.6300000000001</ele>
   </trkpt>
   <trkpt lat="-37.83032" lon="145.35069000000001">
    <ele>561.62</ele>
   </trkpt>
   <trkpt lat="-37.83066" lon="145.35092">
    <ele>559.7700000000001</ele>
   </trkpt>
   <trkpt lat="-37.83093" lon="145.35097000000002">
    <ele>557.5</ele>
   </trkpt>
   <trkpt lat="-37.83122" lon="145.35091">
    <ele>557.36</ele>
   </trkpt>
   <trkpt lat="-37.83162" lon="145.35071000000002">
    <ele>563.9200000000001</ele>
   </trkpt>
   <trkpt lat="-37.83196" lon="145.35046">
    <ele>571.5400000000001</ele>
   </trkpt>
   <trkpt lat="-37.83231" lon="145.35010000000003">
    <ele>578.79</ele>
   </trkpt>
   <trkpt lat="-37.83267" lon="145.34969">
    <ele>587.2400000000001</ele>
   </trkpt>
   <trkpt lat="-37.83274" lon="145.34954000000002">
    <ele>587.8500000000001</ele>
   </trkpt>
   <trkpt lat="-37.83287" lon="145.34947000000003">
    <ele>588.44</ele>
   </trkpt>
   <trkpt lat="-37.83296" lon="145.34934">
    <ele>589.36</ele>
   </trkpt>
   <trkpt lat="-37.83323" lon="145.34911000000002">
    <ele>592.69</ele>
   </trkpt>
   <trkpt lat="-37.833330000000004" lon="145.3484">
    <ele>597.2</ele>
   </trkpt>
   <trkpt lat="-37.83346" lon="145.34808">
    <ele>596.46</ele>
   </trkpt>
   <trkpt lat="-37.83379500052499" lon="145.34767500204265">
    <ele>598.75</ele>
   </trkpt>
   <trkpt lat="-37.83413" lon="145.34727">
    <ele>598.35</ele>
   </trkpt>
   <trkpt lat="-37.8344" lon="145.34703000000002">
    <ele>598.1700000000001</ele>
   </trkpt>
   <trkpt lat="-37.83487" lon="145.34681">
    <ele>598.1800000000001</ele>
   </trkpt>
   <trkpt lat="-37.835150000000006" lon="145.34676000000002">
    <ele>598.83</ele>
   </trkpt>
   <trkpt lat="-37.83574" lon="145.34658000000002">
    <ele>602.09</ele>
   </trkpt>
   <trkpt lat="-37.83601" lon="145.34655">
    <ele>604.58</ele>
   </trkpt>
   <trkpt lat="-37.8363" lon="145.34654">
    <ele>607.95</ele>
   </trkpt>
   <trkpt lat="-37.83668" lon="145.34659000000002">
    <ele>612.1500000000001</ele>
   </trkpt>
   <trkpt lat="-37.83681" lon="145.34658000000002">
    <ele>611.98</ele>
   </trkpt>
   <trkpt lat="-37.83699" lon="145.34654">
    <ele>609.95</ele>
   </trkpt>
   <trkpt lat="-37.83706" lon="145.34649000000002">
    <ele>608.3000000000001</ele>
   </trkpt>
   <trkpt lat="-37.83726" lon="145.34629">
    <ele>602.94</ele>
   </trkpt>
   <trkpt lat="-37.83733" lon="145.34626">
    <ele>600.8100000000001</ele>
   </trkpt>
   <trkpt lat="-37.8376" lon="145.34623000000002">
    <ele>595.35</ele>
   </trkpt>
   <trkpt lat="-37.83771" lon="145.34619">
    <ele>592.1800000000001</ele>
   </trkpt>
   <trkpt lat="-37.83791" lon="145.34608">
    <ele>585.84</ele>
   </trkpt>
   <trkpt lat="-37.83813" lon="145.34605000000002">
    <ele>580.2700000000001</ele>
   </trkpt>
   <trkpt lat="-37.83834" lon="145.34596000000002">
    <ele>573.2700000000001</ele>
   </trkpt>
   <trkpt lat="-37.83843" lon="145.34587000000002">
    <ele>570.59</ele>
   </trkpt>
   <trkpt lat="-37.83856" lon="145.34584">
    <ele>567.44</ele>
   </trkpt>
   <trkpt lat="-37.83872" lon="145.34589000000003">
    <ele>565.7800000000001</ele>
   </trkpt>
   <trkpt lat="-37.83896" lon="145.34608">
    <ele>566.13</ele>
   </trkpt>
   <trkpt lat="-37.83912" lon="145.34611">
    <ele>563.97</ele>
   </trkpt>
   <trkpt lat="-37.83979" lon="145.34601">
    <ele>549.4100000000001</ele>
   </trkpt>
   <trkpt lat="-37.84004" lon="145.34603">
    <ele>545.25</ele>
   </trkpt>
   <trkpt lat="-37.84013" lon="145.34605000000002">
    <ele>543.0400000000001</ele>
   </trkpt>
   <trkpt lat="-37.84033" lon="145.34614000000002">
    <ele>540.09</ele>
   </trkpt>
   <trkpt lat="-37.84035" lon="145.34612">
    <ele>540.09</ele>
   </trkpt>
   <trkpt lat="-37.84035" lon="145.34608">
    <ele>540.09</ele>
   </trkpt>
   <trkpt lat="-37.84004" lon="145.34539">
    <ele>530.6200000000001</ele>
   </trkpt>
   <trkpt lat="-37.83977" lon="145.34502">
    <ele>520.7</ele>
   </trkpt>
   <trkpt lat="-37.83977" lon="145.34496000000001">
    <ele>517.39</ele>
   </trkpt>
   <trkpt lat="-37.83979" lon="145.34494">
    <ele>517.39</ele>
   </trkpt>
   <trkpt lat="-37.8401" lon="145.34494">
    <ele>514.0100000000001</ele>
   </trkpt>
   <trkpt lat="-37.84053" lon="145.34499000000002">
    <ele>505.51</ele>
   </trkpt>
   <trkpt lat="-37.84082" lon="145.34505000000001">
    <ele>501.40000000000003</ele>
   </trkpt>
   <trkpt lat="-37.84118" lon="145.34518">
    <ele>496.90000000000003</ele>
   </trkpt>
   <trkpt lat="-37.84122" lon="145.34518">
    <ele>496.90000000000003</ele>
   </trkpt>
   <trkpt lat="-37.84122" lon="145.34513">
    <ele>496.90000000000003</ele>
   </trkpt>
   <trkpt lat="-37.8412" lon="145.34506000000002">
    <ele>489.68000000000006</ele>
   </trkpt>
   <trkpt lat="-37.84066" lon="145.34425000000002">
    <ele>475.81000000000006</ele>
   </trkpt>
   <trkpt lat="-37.84051" lon="145.34409000000002">
    <ele>472.63000000000005</ele>
   </trkpt>
   <trkpt lat="-37.84028" lon="145.34392000000003">
    <ele>468.72</ele>
   </trkpt>
   <trkpt lat="-37.84024" lon="145.34384">
    <ele>467.27</ele>
   </trkpt>
   <trkpt lat="-37.84057" lon="145.34386">
    <ele>462.99</ele>
   </trkpt>
   <trkpt lat="-37.84091" lon="145.34394">
    <ele>461.46000000000004</ele>
   </trkpt>
   <trkpt lat="-37.84125" lon="145.34408000000002">
    <ele>458.11</ele>
   </trkpt>
   <trkpt lat="-37.84163" lon="145.34426000000002">
    <ele>456.65000000000003</ele>
   </trkpt>
   <trkpt lat="-37.84183" lon="145.34441">
    <ele>455.35</ele>
   </trkpt>
   <trkpt lat="-37.842040000000004" lon="145.34463000000002">
    <ele>454.93000000000006</ele>
   </trkpt>
   <trkpt lat="-37.84221" lon="145.34493">
    <ele>453.84000000000003</ele>
   </trkpt>
   <trkpt lat="-37.8423" lon="145.34518">
    <ele>453.6</ele>
   </trkpt>
   <trkpt lat="-37.84239" lon="145.34554">
    <ele>452.65000000000003</ele>
   </trkpt>
   <trkpt lat="-37.84241" lon="145.34594">
    <ele>450.36</ele>
   </trkpt>
   <trkpt lat="-37.84239" lon="145.34612">
    <ele>449.66</ele>
   </trkpt>
   <trkpt lat="-37.8423" lon="145.34661">
    <ele>447.81000000000006</ele>
   </trkpt>
   <trkpt lat="-37.84228" lon="145.3468">
    <ele>446.73</ele>
   </trkpt>
   <trkpt lat="-37.84228" lon="145.347">
    <ele>445.81</ele>
   </trkpt>
   <trkpt lat="-37.84232" lon="145.34731000000002">
    <ele>444.91</ele>
   </trkpt>
   <trkpt lat="-37.8423" lon="145.34775000000002">
    <ele>441.59000000000003</ele>
   </trkpt>
   <trkpt lat="-37.84221" lon="145.34804000000003">
    <ele>440.31</ele>
   </trkpt>
   <trkpt lat="-37.842000000000006" lon="145.34844">
    <ele>439.02000000000004</ele>
   </trkpt>
   <trkpt lat="-37.841860000000004" lon="145.34887">
    <ele>437.42</ele>
   </trkpt>
   <trkpt lat="-37.84201" lon="145.34904">
    <ele>434.24</ele>
   </trkpt>
   <trkpt lat="-37.8421" lon="145.34902000000002">
    <ele>433.25</ele>
   </trkpt>
   <trkpt lat="-37.84219" lon="145.34892000000002">
    <ele>429.04</ele>
   </trkpt>
   <trkpt lat="-37.84237" lon="145.3488">
    <ele>424.14</ele>
   </trkpt>
   <trkpt lat="-37.842760000000006" lon="145.34866000000002">
    <ele>414.46000000000004</ele>
   </trkpt>
   <trkpt lat="-37.84286" lon="145.34865000000002">
    <ele>414.46000000000004</ele>
   </trkpt>
   <trkpt lat="-37.84297" lon="145.34869">
    <ele>412.81</ele>
   </trkpt>
   <trkpt lat="-37.84313" lon="145.34868">
    <ele>409.91</ele>
   </trkpt>
   <trkpt lat="-37.843140000000005" lon="145.34867">
    <ele>409.91</ele>
   </trkpt>
   <trkpt lat="-37.84322" lon="145.34862">
    <ele>408.91</ele>
   </trkpt>
   <trkpt lat="-37.84328" lon="145.34847000000002">
    <ele>407.87</ele>
   </trkpt>
   <trkpt lat="-37.84337" lon="145.34801000000002">
    <ele>405.55</ele>
   </trkpt>
   <trkpt lat="-37.84382" lon="145.34711000000001">
    <ele>392.51</ele>
   </trkpt>
   <trkpt lat="-37.84384" lon="145.3469">
    <ele>387.96000000000004</ele>
   </trkpt>
   <trkpt lat="-37.84378" lon="145.34646">
    <ele>383.74</ele>
   </trkpt>
   <trkpt lat="-37.8438" lon="145.34609">
    <ele>376.15000000000003</ele>
   </trkpt>
   <trkpt lat="-37.843880000000006" lon="145.34591">
    <ele>372.70000000000005</ele>
   </trkpt>
   <trkpt lat="-37.84393" lon="145.34585">
    <ele>368.86</ele>
   </trkpt>
   <trkpt lat="-37.84398" lon="145.34587000000002">
    <ele>368.86</ele>
   </trkpt>
   <trkpt lat="-37.84418" lon="145.34607000000003">
    <ele>364.47</ele>
   </trkpt>
   <trkpt lat="-37.84445" lon="145.34615000000002">
    <ele>360.82000000000005</ele>
   </trkpt>
   <trkpt lat="-37.845060000000004" lon="145.34613000000002">
    <ele>347.94</ele>
   </trkpt>
   <trkpt lat="-37.84519" lon="145.34607000000003">
    <ele>345.30000000000007</ele>
   </trkpt>
   <trkpt lat="-37.84543" lon="145.3459">
    <ele>340.82</ele>
   </trkpt>
   <trkpt lat="-37.84548" lon="145.34592">
    <ele>337.41</ele>
   </trkpt>
   <trkpt lat="-37.84561" lon="145.34591">
    <ele>336.46000000000004</ele>
   </trkpt>
   <trkpt lat="-37.84572" lon="145.34585">
    <ele>334.44</ele>
   </trkpt>
   <trkpt lat="-37.8459" lon="145.34558">
    <ele>329.17</ele>
   </trkpt>
   <trkpt lat="-37.84595" lon="145.34548">
    <ele>328.41</ele>
   </trkpt>
   <trkpt lat="-37.84597" lon="145.34538">
    <ele>327.81000000000006</ele>
   </trkpt>
   <trkpt lat="-37.84586" lon="145.34505000000001">
    <ele>326.68</ele>
   </trkpt>
   <trkpt lat="-37.8457" lon="145.34482">
    <ele>325.19000000000005</ele>
   </trkpt>
   <trkpt lat="-37.84559" lon="145.34452000000002">
    <ele>321.47</ele>
   </trkpt>
   <trkpt lat="-37.84557" lon="145.34426000000002">
    <ele>319.67</ele>
   </trkpt>
   <trkpt lat="-37.84559" lon="145.34419000000003">
    <ele>318.29</ele>
   </trkpt>
   <trkpt lat="-37.84568" lon="145.34411">
    <ele>316.78</ele>
   </trkpt>
   <trkpt lat="-37.84579" lon="145.34413">
    <ele>313.71000000000004</ele>
   </trkpt>
   <trkpt lat="-37.84599" lon="145.34422">
    <ele>312.23</ele>
   </trkpt>
   <trkpt lat="-37.84642" lon="145.34432">
    <ele>302.23</ele>
   </trkpt>
   <trkpt lat="-37.84657" lon="145.34428">
    <ele>302.23</ele>
   </trkpt>
   <trkpt lat="-37.84666" lon="145.3442">
    <ele>300.86</ele>
   </trkpt>
   <trkpt lat="-37.84691" lon="145.34377">
    <ele>295.19</ele>
   </trkpt>
   <trkpt lat="-37.84702" lon="145.34371000000002">
    <ele>293.88000000000005</ele>
   </trkpt>
   <trkpt lat="-37.84709" lon="145.34374000000003">
    <ele>293.26</ele>
   </trkpt>
   <trkpt lat="-37.847170000000006" lon="145.34381000000002">
    <ele>292.43</ele>
   </trkpt>
   <trkpt lat="-37.84718" lon="145.34387">
    <ele>292.43</ele>
   </trkpt>
   <trkpt lat="-37.8472" lon="145.34408000000002">
    <ele>291.56000000000006</ele>
   </trkpt>
   <trkpt lat="-37.84707" lon="145.34472000000002">
    <ele>288.40000000000003</ele>
   </trkpt>
   <trkpt lat="-37.84707" lon="145.34496000000001">
    <ele>288.43</ele>
   </trkpt>
   <trkpt lat="-37.847170000000006" lon="145.34528">
    <ele>288.93</ele>
   </trkpt>
   <trkpt lat="-37.84722" lon="145.34541000000002">
    <ele>289.01000000000005</ele>
   </trkpt>
   <trkpt lat="-37.84731" lon="145.34550000000002">
    <ele>289.01000000000005</ele>
   </trkpt>
   <trkpt lat="-37.84745" lon="145.34555">
    <ele>288.8</ele>
   </trkpt>
   <trkpt lat="-37.84756" lon="145.34556">
    <ele>288.52</ele>
   </trkpt>
   <trkpt lat="-37.84781" lon="145.34555">
    <ele>287.33000000000004</ele>
   </trkpt>
   <trkpt lat="-37.84789" lon="145.34557">
    <ele>286.7</ele>
   </trkpt>
   <trkpt lat="-37.84798" lon="145.34563">
    <ele>284.69</ele>
   </trkpt>
   <trkpt lat="-37.848200000000006" lon="145.3459">
    <ele>283.19</ele>
   </trkpt>
   <trkpt lat="-37.84848" lon="145.34639">
    <ele>279.56</ele>
   </trkpt>
   <trkpt lat="-37.84852" lon="145.34641000000002">
    <ele>278.90000000000003</ele>
   </trkpt>
   <trkpt lat="-37.84855" lon="145.34642000000002">
    <ele>278.90000000000003</ele>
   </trkpt>
   <trkpt lat="-37.84857" lon="145.34639">
    <ele>278.90000000000003</ele>
   </trkpt>
   <trkpt lat="-37.84859" lon="145.34626">
    <ele>277.04</ele>
   </trkpt>
   <trkpt lat="-37.848600001899754" lon="145.34558999997228">
    <ele>273.02000000000004</ele>
   </trkpt>
   <trkpt lat="-37.84861" lon="145.34492">
    <ele>270.38</ele>
   </trkpt>
   <trkpt lat="-37.84868" lon="145.34415">
    <ele>268.94</ele>
   </trkpt>
   <trkpt lat="-37.84875" lon="145.34364000000002">
    <ele>268.53000000000003</ele>
   </trkpt>
   <trkpt lat="-37.84875" lon="145.34361">
    <ele>268.51000000000005</ele>
   </trkpt>
   <trkpt lat="-37.84886" lon="145.34412">
    <ele>272.74</ele>
   </trkpt>
   <trkpt lat="-37.84895" lon="145.34452000000002">
    <ele>279.46000000000004</ele>
   </trkpt>
   <trkpt lat="-37.8491" lon="145.34499000000002">
    <ele>287.1</ele>
   </trkpt>
   <trkpt lat="-37.84937" lon="145.34567">
    <ele>299.35</ele>
   </trkpt>
   <trkpt lat="-37.84964" lon="145.34674">
    <ele>307.19</ele>
   </trkpt>
   <trkpt lat="-37.84975" lon="145.34712000000002">
    <ele>312.54</ele>
   </trkpt>
   <trkpt lat="-37.85007" lon="145.34765000000002">
    <ele>319.70000000000005</ele>
   </trkpt>
   <trkpt lat="-37.85033500150118" lon="145.34822999808796">
    <ele>330.11</ele>
   </trkpt>
   <trkpt lat="-37.8506" lon="145.34881000000001">
    <ele>338.90000000000003</ele>
   </trkpt>
   <trkpt lat="-37.8508" lon="145.34936000000002">
    <ele>345.14</ele>
   </trkpt>
   <trkpt lat="-37.85098" lon="145.34968">
    <ele>358.98</ele>
   </trkpt>
   <trkpt lat="-37.85105" lon="145.34977">
    <ele>358.98</ele>
   </trkpt>
   <trkpt lat="-37.85116" lon="145.34979">
    <ele>361.93</ele>
   </trkpt>
   <trkpt lat="-37.85195" lon="145.34931">
    <ele>391.90000000000003</ele>
   </trkpt>
   <trkpt lat="-37.85246" lon="145.34893000000002">
    <ele>412.37</ele>
   </trkpt>
   <trkpt lat="-37.85262" lon="145.34889">
    <ele>414.87</ele>
   </trkpt>
   <trkpt lat="-37.85284" lon="145.34871">
    <ele>424.61</ele>
   </trkpt>
   <trkpt lat="-37.85298" lon="145.34869">
    <ele>426.85</ele>
   </trkpt>
   <trkpt lat="-37.85329" lon="145.34838000000002">
    <ele>432.83000000000004</ele>
   </trkpt>
   <trkpt lat="-37.853440000000006" lon="145.34834">
    <ele>435.02</ele>
   </trkpt>
   <trkpt lat="-37.85343" lon="145.34844">
    <ele>435.12000000000006</ele>
   </trkpt>
   <trkpt lat="-37.85349" lon="145.34869">
    <ele>444.01</ele>
   </trkpt>
   <trkpt lat="-37.85378" lon="145.34931">
    <ele>448.46000000000004</ele>
   </trkpt>
   <trkpt lat="-37.85419" lon="145.34983000000003">
    <ele>456.01</ele>
   </trkpt>
   <trkpt lat="-37.85468" lon="145.35037">
    <ele>470.87</ele>
   </trkpt>
   <trkpt lat="-37.85507500138615" lon="145.35092499714384">
    <ele>479.62000000000006</ele>
   </trkpt>
   <trkpt lat="-37.855470000000004" lon="145.35148">
    <ele>488.53000000000003</ele>
   </trkpt>
   <trkpt lat="-37.85580500087528" lon="145.35193999788288">
    <ele>499.76000000000005</ele>
   </trkpt>
   <trkpt lat="-37.85614" lon="145.35240000000002">
    <ele>505.51</ele>
   </trkpt>
   <trkpt lat="-37.85622" lon="145.35247">
    <ele>506.4200000000001</ele>
   </trkpt>
   <trkpt lat="-37.85636" lon="145.35252">
    <ele>507.4200000000001</ele>
   </trkpt>
   <trkpt lat="-37.85683" lon="145.35260000000002">
    <ele>505.34</ele>
   </trkpt>
   <trkpt lat="-37.85701" lon="145.35266000000001">
    <ele>503.53999999999996</ele>
   </trkpt>
   <trkpt lat="-37.85712" lon="145.35268000000002">
    <ele>502.01000000000005</ele>
   </trkpt>
   <trkpt lat="-37.85763499999471" lon="145.35270499982497">
    <ele>497.42</ele>
   </trkpt>
   <trkpt lat="-37.85815" lon="145.35273">
    <ele>489.97</ele>
   </trkpt>
   <trkpt lat="-37.85850000000001" lon="145.35268000000002">
    <ele>485.02000000000004</ele>
   </trkpt>
   <trkpt lat="-37.85851" lon="145.35267000000002">
    <ele>485.02000000000004</ele>
   </trkpt>
   <trkpt lat="-37.8592" lon="145.35248">
    <ele>474.58000000000004</ele>
   </trkpt>
   <trkpt lat="-37.85945" lon="145.35244">
    <ele>471.68</ele>
   </trkpt>
   <trkpt lat="-37.8596" lon="145.35241000000002">
    <ele>469.78000000000003</ele>
   </trkpt>
   <trkpt lat="-37.85994" lon="145.35221">
    <ele>464.83</ele>
   </trkpt>
   <trkpt lat="-37.86023" lon="145.35196000000002">
    <ele>460.34000000000003</ele>
   </trkpt>
   <trkpt lat="-37.860490000000006" lon="145.35181">
    <ele>455.37000000000006</ele>
   </trkpt>
   <trkpt lat="-37.860960000000006" lon="145.35146">
    <ele>446.00000000000006</ele>
   </trkpt>
   <trkpt lat="-37.86104" lon="145.35133000000002">
    <ele>444.06</ele>
   </trkpt>
   <trkpt lat="-37.86115" lon="145.3511">
    <ele>442.24</ele>
   </trkpt>
   <trkpt lat="-37.86135" lon="145.35045000000002">
    <ele>433.65000000000003</ele>
   </trkpt>
   <trkpt lat="-37.86166" lon="145.34982000000002">
    <ele>424.8500000000001</ele>
   </trkpt>
   <trkpt lat="-37.86182" lon="145.34959">
    <ele>422.27000000000004</ele>
   </trkpt>
   <trkpt lat="-37.86224" lon="145.34912">
    <ele>411.65000000000003</ele>
   </trkpt>
   <trkpt lat="-37.86236" lon="145.34893000000002">
    <ele>410.32</ele>
   </trkpt>
   <trkpt lat="-37.86238" lon="145.34883000000002">
    <ele>409.17</ele>
   </trkpt>
   <trkpt lat="-37.862370000000006" lon="145.34855000000002">
    <ele>405.13000000000005</ele>
   </trkpt>
   <trkpt lat="-37.86211500119145" lon="145.3480099980435">
    <ele>402.09000000000003</ele>
   </trkpt>
   <trkpt lat="-37.86186" lon="145.34747000000002">
    <ele>402.8</ele>
   </trkpt>
   <trkpt lat="-37.861790000000006" lon="145.34698">
    <ele>402.55</ele>
   </trkpt>
   <trkpt lat="-37.86186" lon="145.34658000000002">
    <ele>400.35</ele>
   </trkpt>
   <trkpt lat="-37.86193" lon="145.34642000000002">
    <ele>399.9200000000001</ele>
   </trkpt>
   <trkpt lat="-37.86209" lon="145.34566">
    <ele>393.18</ele>
   </trkpt>
   <trkpt lat="-37.86213" lon="145.34550000000002">
    <ele>392.44</ele>
   </trkpt>
   <trkpt lat="-37.86238" lon="145.34501">
    <ele>388.26000000000005</ele>
   </trkpt>
   <trkpt lat="-37.86253" lon="145.34477">
    <ele>385.06</ele>
   </trkpt>
   <trkpt lat="-37.862840000000006" lon="145.3444">
    <ele>380.3</ele>
   </trkpt>
   <trkpt lat="-37.86305" lon="145.34406">
    <ele>378.06</ele>
   </trkpt>
   <trkpt lat="-37.86307" lon="145.34395">
    <ele>377.58000000000004</ele>
   </trkpt>
   <trkpt lat="-37.863060000000004" lon="145.34392000000003">
    <ele>377.58000000000004</ele>
   </trkpt>
   <trkpt lat="-37.86307" lon="145.34394">
    <ele>377.58000000000004</ele>
   </trkpt>
   <trkpt lat="-37.86303" lon="145.34388">
    <ele>377.3</ele>
   </trkpt>
   <trkpt lat="-37.86296" lon="145.34383000000003">
    <ele>376.85</ele>
   </trkpt>
   <trkpt lat="-37.86231" lon="145.34352">
    <ele>372.68</ele>
   </trkpt>
   <trkpt lat="-37.86168" lon="145.34332">
    <ele>368.4</ele>
   </trkpt>
   <trkpt lat="-37.861520000000006" lon="145.34317000000001">
    <ele>368.4</ele>
   </trkpt>
   <trkpt lat="-37.86139" lon="145.34300000000002">
    <ele>365.98</ele>
   </trkpt>
   <trkpt lat="-37.86128" lon="145.34276">
    <ele>365.13</ele>
   </trkpt>
   <trkpt lat="-37.86121" lon="145.34249">
    <ele>363.28000000000003</ele>
   </trkpt>
   <trkpt lat="-37.86108" lon="145.3417">
    <ele>358.13</ele>
   </trkpt>
   <trkpt lat="-37.86097" lon="145.34123000000002">
    <ele>355.77000000000004</ele>
   </trkpt>
   <trkpt lat="-37.860910000000004" lon="145.34112000000002">
    <ele>354.37</ele>
   </trkpt>
   <trkpt lat="-37.86097" lon="145.34123000000002">
    <ele>355.18000000000006</ele>
   </trkpt>
   <trkpt lat="-37.86108" lon="145.3417">
    <ele>358.13</ele>
   </trkpt>
   <trkpt lat="-37.86121" lon="145.34249">
    <ele>363.28000000000003</ele>
   </trkpt>
   <trkpt lat="-37.86128" lon="145.34276">
    <ele>365.13</ele>
   </trkpt>
   <trkpt lat="-37.86139" lon="145.34300000000002">
    <ele>365.98</ele>
   </trkpt>
   <trkpt lat="-37.861520000000006" lon="145.34317000000001">
    <ele>368.4</ele>
   </trkpt>
   <trkpt lat="-37.86168" lon="145.34332">
    <ele>368.4</ele>
   </trkpt>
   <trkpt lat="-37.86231" lon="145.34352">
    <ele>372.68</ele>
   </trkpt>
   <trkpt lat="-37.86296" lon="145.34383000000003">
    <ele>377.3</ele>
   </trkpt>
   <trkpt lat="-37.86303" lon="145.34388">
    <ele>377.3</ele>
   </trkpt>
   <trkpt lat="-37.86307" lon="145.34395">
    <ele>377.74</ele>
   </trkpt>
   <trkpt lat="-37.86305" lon="145.34406">
    <ele>378.45</ele>
   </trkpt>
   <trkpt lat="-37.862840000000006" lon="145.3444">
    <ele>383.23</ele>
   </trkpt>
   <trkpt lat="-37.86253" lon="145.34477">
    <ele>387.37000000000006</ele>
   </trkpt>
   <trkpt lat="-37.86238" lon="145.34501">
    <ele>388.26000000000005</ele>
   </trkpt>
   <trkpt lat="-37.86213" lon="145.34550000000002">
    <ele>392.44</ele>
   </trkpt>
   <trkpt lat="-37.86209" lon="145.34566">
    <ele>393.99</ele>
   </trkpt>
   <trkpt lat="-37.86193" lon="145.34642000000002">
    <ele>399.9200000000001</ele>
   </trkpt>
   <trkpt lat="-37.86186" lon="145.34658000000002">
    <ele>400.96000000000004</ele>
   </trkpt>
   <trkpt lat="-37.861790000000006" lon="145.34698">
    <ele>402.55</ele>
   </trkpt>
   <trkpt lat="-37.86162" lon="145.34737">
    <ele>398.14000000000004</ele>
   </trkpt>
   <trkpt lat="-37.86162" lon="145.34753">
    <ele>397.14000000000004</ele>
   </trkpt>
   <trkpt lat="-37.86168" lon="145.34779">
    <ele>395.0400000000001</ele>
   </trkpt>
   <trkpt lat="-37.86164" lon="145.34794000000002">
    <ele>394.42</ele>
   </trkpt>
   <trkpt lat="-37.86159" lon="145.34802000000002">
    <ele>393.41</ele>
   </trkpt>
   <trkpt lat="-37.861270000000005" lon="145.34822">
    <ele>390.15000000000003</ele>
   </trkpt>
   <trkpt lat="-37.86128" lon="145.34822">
    <ele>390.15000000000003</ele>
   </trkpt>
   <trkpt lat="-37.86121" lon="145.34824">
    <ele>390.15000000000003</ele>
   </trkpt>
   <trkpt lat="-37.86112" lon="145.34822">
    <ele>387.26000000000005</ele>
   </trkpt>
   <trkpt lat="-37.86104" lon="145.34814">
    <ele>385.8</ele>
   </trkpt>
   <trkpt lat="-37.86097" lon="145.34804000000003">
    <ele>384.15000000000003</ele>
   </trkpt>
   <trkpt lat="-37.86097" lon="145.34788">
    <ele>382.81000000000006</ele>
   </trkpt>
   <trkpt lat="-37.86101" lon="145.34771">
    <ele>381.23</ele>
   </trkpt>
   <trkpt lat="-37.86101" lon="145.34763">
    <ele>380.58000000000004</ele>
   </trkpt>
   <trkpt lat="-37.86097" lon="145.34757000000002">
    <ele>379.04</ele>
   </trkpt>
   <trkpt lat="-37.86068" lon="145.34759000000003">
    <ele>373.69</ele>
   </trkpt>
   <trkpt lat="-37.86032" lon="145.34775000000002">
    <ele>367.63</ele>
   </trkpt>
   <trkpt lat="-37.86027" lon="145.34776000000002">
    <ele>367.63</ele>
   </trkpt>
   <trkpt lat="-37.859500000000004" lon="145.34782">
    <ele>359.52</ele>
   </trkpt>
   <trkpt lat="-37.85942" lon="145.34772">
    <ele>350.48</ele>
   </trkpt>
   <trkpt lat="-37.859370000000006" lon="145.34754">
    <ele>346.16</ele>
   </trkpt>
   <trkpt lat="-37.85931" lon="145.34758000000002">
    <ele>346.82</ele>
   </trkpt>
   <trkpt lat="-37.85918" lon="145.3476">
    <ele>348.58</ele>
   </trkpt>
   <trkpt lat="-37.8586" lon="145.34761">
    <ele>351.95000000000005</ele>
   </trkpt>
   <trkpt lat="-37.85853" lon="145.34743">
    <ele>350.15000000000003</ele>
   </trkpt>
   <trkpt lat="-37.85833" lon="145.34718">
    <ele>346.23</ele>
   </trkpt>
   <trkpt lat="-37.85806" lon="145.34698">
    <ele>342.35</ele>
   </trkpt>
   <trkpt lat="-37.85797" lon="145.34686000000002">
    <ele>341.16</ele>
   </trkpt>
   <trkpt lat="-37.85783" lon="145.34678000000002">
    <ele>340.24</ele>
   </trkpt>
   <trkpt lat="-37.8575" lon="145.34649000000002">
    <ele>334.04</ele>
   </trkpt>
   <trkpt lat="-37.8573" lon="145.34642000000002">
    <ele>331.84000000000003</ele>
   </trkpt>
   <trkpt lat="-37.85703" lon="145.34640000000002">
    <ele>330.74</ele>
   </trkpt>
   <trkpt lat="-37.85663" lon="145.34618">
    <ele>334.21</ele>
   </trkpt>
   <trkpt lat="-37.85662000000001" lon="145.34617">
    <ele>334.21</ele>
   </trkpt>
   <trkpt lat="-37.85622" lon="145.34578000000002">
    <ele>344.05</ele>
   </trkpt>
   <trkpt lat="-37.85609" lon="145.34559000000002">
    <ele>345.62</ele>
   </trkpt>
   <trkpt lat="-37.85593" lon="145.34545">
    <ele>349.99</ele>
   </trkpt>
   <trkpt lat="-37.85553" lon="145.34492">
    <ele>353.81</ele>
   </trkpt>
   <trkpt lat="-37.85544" lon="145.34475">
    <ele>354.06000000000006</ele>
   </trkpt>
   <trkpt lat="-37.85528" lon="145.34457">
    <ele>355.49</ele>
   </trkpt>
   <trkpt lat="-37.85515" lon="145.34415">
    <ele>355.40000000000003</ele>
   </trkpt>
   <trkpt lat="-37.8551" lon="145.34404">
    <ele>354.8</ele>
   </trkpt>
   <trkpt lat="-37.855050000000006" lon="145.34368">
    <ele>351.46000000000004</ele>
   </trkpt>
   <trkpt lat="-37.85492" lon="145.34354000000002">
    <ele>348.63000000000005</ele>
   </trkpt>
   <trkpt lat="-37.8549" lon="145.34348">
    <ele>348.63000000000005</ele>
   </trkpt>
   <trkpt lat="-37.85488" lon="145.34337000000002">
    <ele>346.62</ele>
   </trkpt>
   <trkpt lat="-37.85492" lon="145.34293000000002">
    <ele>339.87</ele>
   </trkpt>
   <trkpt lat="-37.85474" lon="145.3426">
    <ele>333.82</ele>
   </trkpt>
   <trkpt lat="-37.85472" lon="145.34233">
    <ele>330.91</ele>
   </trkpt>
   <trkpt lat="-37.85468" lon="145.34225">
    <ele>328.20000000000005</ele>
   </trkpt>
   <trkpt lat="-37.85448" lon="145.34206">
    <ele>319.20000000000005</ele>
   </trkpt>
   <trkpt lat="-37.85419" lon="145.34158000000002">
    <ele>308.84</ele>
   </trkpt>
   <trkpt lat="-37.85387" lon="145.34123000000002">
    <ele>311.53000000000003</ele>
   </trkpt>
   <trkpt lat="-37.85374" lon="145.34099">
    <ele>312.37</ele>
   </trkpt>
   <trkpt lat="-37.85365" lon="145.34067000000002">
    <ele>309.44000000000005</ele>
   </trkpt>
   <trkpt lat="-37.85358" lon="145.33991">
    <ele>299.76000000000005</ele>
   </trkpt>
   <trkpt lat="-37.853460000000005" lon="145.33943000000002">
    <ele>298.65000000000003</ele>
   </trkpt>
   <trkpt lat="-37.8534" lon="145.33894">
    <ele>295.59000000000003</ele>
   </trkpt>
   <trkpt lat="-37.85333" lon="145.33871000000002">
    <ele>293.86</ele>
   </trkpt>
   <trkpt lat="-37.85333" lon="145.33833">
    <ele>289.40999999999997</ele>
   </trkpt>
   <trkpt lat="-37.85327" lon="145.33823">
    <ele>288.89000000000004</ele>
   </trkpt>
   <trkpt lat="-37.85313" lon="145.33813">
    <ele>290.54</ele>
   </trkpt>
   <trkpt lat="-37.85304" lon="145.33812">
    <ele>292.71000000000004</ele>
   </trkpt>
   <trkpt lat="-37.85293" lon="145.33818000000002">
    <ele>295.50000000000006</ele>
   </trkpt>
   <trkpt lat="-37.85242" lon="145.33856">
    <ele>315.42</ele>
   </trkpt>
   <trkpt lat="-37.85233" lon="145.33851">
    <ele>317.08000000000004</ele>
   </trkpt>
   <trkpt lat="-37.85215" lon="145.33823">
    <ele>318.74</ele>
   </trkpt>
   <trkpt lat="-37.85206" lon="145.33798000000002">
    <ele>318.63</ele>
   </trkpt>
   <trkpt lat="-37.8519" lon="145.33773000000002">
    <ele>318.96000000000004</ele>
   </trkpt>
   <trkpt lat="-37.85177" lon="145.33761">
    <ele>319.0</ele>
   </trkpt>
   <trkpt lat="-37.85172" lon="145.33751">
    <ele>318.69</ele>
   </trkpt>
   <trkpt lat="-37.85168" lon="145.33735000000001">
    <ele>317.75</ele>
   </trkpt>
   <trkpt lat="-37.85139" lon="145.33696">
    <ele>316.28</ele>
   </trkpt>
   <trkpt lat="-37.85116" lon="145.33651">
    <ele>312.68</ele>
   </trkpt>
   <trkpt lat="-37.851060000000004" lon="145.33639000000002">
    <ele>311.91</ele>
   </trkpt>
   <trkpt lat="-37.85096" lon="145.33634">
    <ele>311.83000000000004</ele>
   </trkpt>
   <trkpt lat="-37.85085" lon="145.33637000000002">
    <ele>311.66</ele>
   </trkpt>
   <trkpt lat="-37.85074" lon="145.33634">
    <ele>311.38000000000005</ele>
   </trkpt>
   <trkpt lat="-37.85063" lon="145.33599">
    <ele>307.13</ele>
   </trkpt>
   <trkpt lat="-37.85051" lon="145.33530000000002">
    <ele>292.87</ele>
   </trkpt>
   <trkpt lat="-37.85051" lon="145.33468000000002">
    <ele>288.39000000000004</ele>
   </trkpt>
   <trkpt lat="-37.850645001564736" lon="145.33407000115557">
    <ele>268.13000000000005</ele>
   </trkpt>
   <trkpt lat="-37.85078" lon="145.33346">
    <ele>254.92000000000004</ele>
   </trkpt>
   <trkpt lat="-37.8508" lon="145.33325000000002">
    <ele>251.63000000000002</ele>
   </trkpt>
   <trkpt lat="-37.85076" lon="145.33294">
    <ele>245.37000000000003</ele>
   </trkpt>
   <trkpt lat="-37.85085" lon="145.33266">
    <ele>239.69</ele>
   </trkpt>
   <trkpt lat="-37.850860000000004" lon="145.33241">
    <ele>231.52000000000004</ele>
   </trkpt>
   <trkpt lat="-37.85036" lon="145.33271000000002">
    <ele>234.36</ele>
   </trkpt>
   <trkpt lat="-37.8502" lon="145.33283">
    <ele>235.66</ele>
   </trkpt>
   <trkpt lat="-37.85004" lon="145.333">
    <ele>236.61</ele>
   </trkpt>
   <trkpt lat="-37.84989" lon="145.33313">
    <ele>237.67000000000002</ele>
   </trkpt>
   <trkpt lat="-37.84975" lon="145.33316000000002">
    <ele>238.13</ele>
   </trkpt>
   <trkpt lat="-37.84926" lon="145.33305000000001">
    <ele>240.36</ele>
   </trkpt>
   <trkpt lat="-37.849140000000006" lon="145.33307000000002">
    <ele>241.67000000000002</ele>
   </trkpt>
   <trkpt lat="-37.84899" lon="145.33313">
    <ele>241.67000000000002</ele>
   </trkpt>
   <trkpt lat="-37.848800000000004" lon="145.33329">
    <ele>243.1</ele>
   </trkpt>
   <trkpt lat="-37.84857" lon="145.33327">
    <ele>240.94</ele>
   </trkpt>
   <trkpt lat="-37.84848" lon="145.3333">
    <ele>240.27</ele>
   </trkpt>
   <trkpt lat="-37.84839" lon="145.33338">
    <ele>239.75</ele>
   </trkpt>
   <trkpt lat="-37.84792" lon="145.33391">
    <ele>235.26000000000002</ele>
   </trkpt>
   <trkpt lat="-37.84778" lon="145.33398000000003">
    <ele>234.10000000000002</ele>
   </trkpt>
   <trkpt lat="-37.84772" lon="145.33393">
    <ele>234.10000000000002</ele>
   </trkpt>
   <trkpt lat="-37.84767" lon="145.33385">
    <ele>232.87</ele>
   </trkpt>
   <trkpt lat="-37.8476" lon="145.33334000000002">
    <ele>226.56</ele>
   </trkpt>
   <trkpt lat="-37.84754" lon="145.3331">
    <ele>226.56</ele>
   </trkpt>
   <trkpt lat="-37.84745" lon="145.33298000000002">
    <ele>223.01000000000002</ele>
   </trkpt>
   <trkpt lat="-37.847390000000004" lon="145.33296">
    <ele>223.01000000000002</ele>
   </trkpt>
   <trkpt lat="-37.84731" lon="145.33297000000002">
    <ele>222.21</ele>
   </trkpt>
   <trkpt lat="-37.84713" lon="145.33309">
    <ele>220.44000000000003</ele>
   </trkpt>
   <trkpt lat="-37.84664" lon="145.33361000000002">
    <ele>216.99</ele>
   </trkpt>
   <trkpt lat="-37.84593" lon="145.33428">
    <ele>213.3</ele>
   </trkpt>
   <trkpt lat="-37.84582" lon="145.33483">
    <ele>214.19000000000003</ele>
   </trkpt>
   <trkpt lat="-37.84581" lon="145.33486000000002">
    <ele>214.19000000000003</ele>
   </trkpt>
   <trkpt lat="-37.84581" lon="145.33519">
    <ele>214.84000000000003</ele>
   </trkpt>
   <trkpt lat="-37.84595" lon="145.33595000000003">
    <ele>218.85000000000002</ele>
   </trkpt>
   <trkpt lat="-37.84601" lon="145.33611000000002">
    <ele>220.45</ele>
   </trkpt>
   <trkpt lat="-37.84613" lon="145.33619000000002">
    <ele>221.42</ele>
   </trkpt>
   <trkpt lat="-37.84626" lon="145.33624">
    <ele>223.72000000000003</ele>
   </trkpt>
   <trkpt lat="-37.8466" lon="145.33685">
    <ele>227.16000000000003</ele>
   </trkpt>
   <trkpt lat="-37.84684" lon="145.33762000000002">
    <ele>229.87</ele>
   </trkpt>
   <trkpt lat="-37.84698" lon="145.33795">
    <ele>231.37</ele>
   </trkpt>
   <trkpt lat="-37.84729" lon="145.33877">
    <ele>239.5</ele>
   </trkpt>
   <trkpt lat="-37.84756" lon="145.33926000000002">
    <ele>241.8</ele>
   </trkpt>
   <trkpt lat="-37.84765" lon="145.33934000000002">
    <ele>244.25000000000003</ele>
   </trkpt>
   <trkpt lat="-37.84776" lon="145.33938">
    <ele>244.25000000000003</ele>
   </trkpt>
   <trkpt lat="-37.84807" lon="145.33973">
    <ele>247.74</ele>
   </trkpt>
   <trkpt lat="-37.84816" lon="145.33994">
    <ele>248.9</ele>
   </trkpt>
   <trkpt lat="-37.84845" lon="145.34047">
    <ele>254.24</ele>
   </trkpt>
   <trkpt lat="-37.84852" lon="145.34067000000002">
    <ele>255.48999999999998</ele>
   </trkpt>
   <trkpt lat="-37.84869000161858" lon="145.3412899985462">
    <ele>260.02000000000004</ele>
   </trkpt>
   <trkpt lat="-37.84886" lon="145.34191">
    <ele>262.31000000000006</ele>
   </trkpt>
   <trkpt lat="-37.84888" lon="145.34232">
    <ele>264.39</ele>
   </trkpt>
   <trkpt lat="-37.84886" lon="145.34281000000001">
    <ele>266.37</ele>
   </trkpt>
   <trkpt lat="-37.848770001908534" lon="145.34348000073928">
    <ele>268.07000000000005</ele>
   </trkpt>
   <trkpt lat="-37.84868" lon="145.34415">
    <ele>268.94</ele>
   </trkpt>
   <trkpt lat="-37.84861" lon="145.34492">
    <ele>270.38</ele>
   </trkpt>
   <trkpt lat="-37.848600001896216" lon="145.34559000020948">
    <ele>273.02000000000004</ele>
   </trkpt>
   <trkpt lat="-37.84859" lon="145.34626">
    <ele>277.04</ele>
   </trkpt>
   <trkpt lat="-37.84857" lon="145.34640000000002">
    <ele>278.01000000000005</ele>
   </trkpt>
   <trkpt lat="-37.84854" lon="145.34642000000002">
    <ele>278.56</ele>
   </trkpt>
   <trkpt lat="-37.84848" lon="145.34639">
    <ele>279.56</ele>
   </trkpt>
   <trkpt lat="-37.848200000000006" lon="145.3459">
    <ele>283.19</ele>
   </trkpt>
   <trkpt lat="-37.84798" lon="145.34563">
    <ele>284.69</ele>
   </trkpt>
   <trkpt lat="-37.84789" lon="145.34557">
    <ele>286.7</ele>
   </trkpt>
   <trkpt lat="-37.84781" lon="145.34555">
    <ele>287.33000000000004</ele>
   </trkpt>
   <trkpt lat="-37.84756" lon="145.34556">
    <ele>288.52</ele>
   </trkpt>
   <trkpt lat="-37.84745" lon="145.34555">
    <ele>288.8</ele>
   </trkpt>
   <trkpt lat="-37.84731" lon="145.34550000000002">
    <ele>289.01000000000005</ele>
   </trkpt>
   <trkpt lat="-37.84722" lon="145.34541000000002">
    <ele>289.01000000000005</ele>
   </trkpt>
   <trkpt lat="-37.847170000000006" lon="145.34528">
    <ele>288.93</ele>
   </trkpt>
   <trkpt lat="-37.84707" lon="145.34496000000001">
    <ele>288.43</ele>
   </trkpt>
   <trkpt lat="-37.84707" lon="145.34472000000002">
    <ele>288.40000000000003</ele>
   </trkpt>
   <trkpt lat="-37.84716" lon="145.34429">
    <ele>290.33000000000004</ele>
   </trkpt>
   <trkpt lat="-37.84736" lon="145.34413">
    <ele>289.94</ele>
   </trkpt>
   <trkpt lat="-37.84745" lon="145.34394">
    <ele>288.83000000000004</ele>
   </trkpt>
   <trkpt lat="-37.84747" lon="145.34383000000003">
    <ele>288.34000000000003</ele>
   </trkpt>
   <trkpt lat="-37.84745" lon="145.34362000000002">
    <ele>287.92</ele>
   </trkpt>
   <trkpt lat="-37.84751" lon="145.34304">
    <ele>284.0</ele>
   </trkpt>
   <trkpt lat="-37.84756" lon="145.34290000000001">
    <ele>282.66</ele>
   </trkpt>
   <trkpt lat="-37.84767" lon="145.34276">
    <ele>280.34000000000003</ele>
   </trkpt>
   <trkpt lat="-37.847730000000006" lon="145.34262">
    <ele>276.2</ele>
   </trkpt>
   <trkpt lat="-37.847730000000006" lon="145.34234">
    <ele>273.11</ele>
   </trkpt>
   <trkpt lat="-37.84767" lon="145.34217">
    <ele>271.12</ele>
   </trkpt>
   <trkpt lat="-37.84756" lon="145.34195000000003">
    <ele>268.8</ele>
   </trkpt>
   <trkpt lat="-37.84713" lon="145.34135">
    <ele>260.69000000000005</ele>
   </trkpt>
   <trkpt lat="-37.84693" lon="145.3411">
    <ele>258.61</ele>
   </trkpt>
   <trkpt lat="-37.84673" lon="145.34095000000002">
    <ele>256.06</ele>
   </trkpt>
   <trkpt lat="-37.84646" lon="145.34082">
    <ele>254.56</ele>
   </trkpt>
   <trkpt lat="-37.84617" lon="145.34048">
    <ele>254.03000000000003</ele>
   </trkpt>
   <trkpt lat="-37.84595" lon="145.34006000000002">
    <ele>253.32000000000005</ele>
   </trkpt>
   <trkpt lat="-37.8457" lon="145.33971000000003">
    <ele>251.81000000000003</ele>
   </trkpt>
   <trkpt lat="-37.8451" lon="145.33901">
    <ele>250.66</ele>
   </trkpt>
   <trkpt lat="-37.84458" lon="145.33867">
    <ele>256.99</ele>
   </trkpt>
   <trkpt lat="-37.84422" lon="145.33827000000002">
    <ele>254.9</ele>
   </trkpt>
   <trkpt lat="-37.84398" lon="145.33810000000003">
    <ele>252.79000000000002</ele>
   </trkpt>
   <trkpt lat="-37.84382" lon="145.33804">
    <ele>252.21000000000004</ele>
   </trkpt>
   <trkpt lat="-37.84357" lon="145.33804">
    <ele>253.43000000000004</ele>
   </trkpt>
   <trkpt lat="-37.84317" lon="145.33780000000002">
    <ele>255.25000000000003</ele>
   </trkpt>
   <trkpt lat="-37.84304" lon="145.33775">
    <ele>257.03000000000003</ele>
   </trkpt>
   <trkpt lat="-37.842850000000006" lon="145.33771000000002">
    <ele>260.70000000000005</ele>
   </trkpt>
   <trkpt lat="-37.8427" lon="145.33763000000002">
    <ele>262.48</ele>
   </trkpt>
   <trkpt lat="-37.84266" lon="145.33792000000003">
    <ele>267.65</ele>
   </trkpt>
   <trkpt lat="-37.84242500179924" lon="145.33857000203523">
    <ele>278.54</ele>
   </trkpt>
   <trkpt lat="-37.84219" lon="145.33922">
    <ele>292.24</ele>
   </trkpt>
   <trkpt lat="-37.841950000000004" lon="145.33969000000002">
    <ele>308.56</ele>
   </trkpt>
   <trkpt lat="-37.84178" lon="145.33959000000002">
    <ele>308.67</ele>
   </trkpt>
   <trkpt lat="-37.8416" lon="145.33959000000002">
    <ele>309.28</ele>
   </trkpt>
   <trkpt lat="-37.84143" lon="145.33965">
    <ele>310.58000000000004</ele>
   </trkpt>
   <trkpt lat="-37.84098" lon="145.33985">
    <ele>316.91</ele>
   </trkpt>
   <trkpt lat="-37.84069" lon="145.33977000000002">
    <ele>318.58000000000004</ele>
   </trkpt>
   <trkpt lat="-37.84042" lon="145.33958">
    <ele>321.26000000000005</ele>
   </trkpt>
   <trkpt lat="-37.84015" lon="145.33934000000002">
    <ele>325.57</ele>
   </trkpt>
   <trkpt lat="-37.83977" lon="145.33871000000002">
    <ele>334.70000000000005</ele>
   </trkpt>
   <trkpt lat="-37.83961" lon="145.33852000000002">
    <ele>335.83</ele>
   </trkpt>
   <trkpt lat="-37.83928" lon="145.33822">
    <ele>335.21</ele>
   </trkpt>
   <trkpt lat="-37.83885" lon="145.33808000000002">
    <ele>332.08000000000004</ele>
   </trkpt>
   <trkpt lat="-37.83847" lon="145.33802">
    <ele>332.61</ele>
   </trkpt>
   <trkpt lat="-37.83809" lon="145.33800000000002">
    <ele>337.41</ele>
   </trkpt>
   <trkpt lat="-37.83766" lon="145.33823">
    <ele>345.72</ele>
   </trkpt>
   <trkpt lat="-37.836940000000006" lon="145.33883">
    <ele>358.45000000000005</ele>
   </trkpt>
   <trkpt lat="-37.83677" lon="145.339">
    <ele>360.06000000000006</ele>
   </trkpt>
   <trkpt lat="-37.83625" lon="145.33926000000002">
    <ele>360.69</ele>
   </trkpt>
   <trkpt lat="-37.83606" lon="145.3394">
    <ele>360.21000000000004</ele>
   </trkpt>
   <trkpt lat="-37.83576" lon="145.33959000000002">
    <ele>356.81</ele>
   </trkpt>
   <trkpt lat="-37.83543" lon="145.33977000000002">
    <ele>351.62000000000006</ele>
   </trkpt>
   <trkpt lat="-37.835150000000006" lon="145.33989000000003">
    <ele>348.11</ele>
   </trkpt>
   <trkpt lat="-37.83475" lon="145.34023000000002">
    <ele>340.0</ele>
   </trkpt>
   <trkpt lat="-37.83442" lon="145.34049000000002">
    <ele>345.68000000000006</ele>
   </trkpt>
   <trkpt lat="-37.83415" lon="145.34074">
    <ele>348.08000000000004</ele>
   </trkpt>
   <trkpt lat="-37.83397" lon="145.34079">
    <ele>344.7</ele>
   </trkpt>
   <trkpt lat="-37.83357" lon="145.34077000000002">
    <ele>333.67</ele>
   </trkpt>
   <trkpt lat="-37.83337" lon="145.34082">
    <ele>331.1</ele>
   </trkpt>
   <trkpt lat="-37.83323" lon="145.34098">
    <ele>330.08000000000004</ele>
   </trkpt>
   <trkpt lat="-37.83301" lon="145.34152">
    <ele>330.1</ele>
   </trkpt>
   <trkpt lat="-37.8327" lon="145.34184000000002">
    <ele>327.43000000000006</ele>
   </trkpt>
   <trkpt lat="-37.83238" lon="145.34191">
    <ele>329.96000000000004</ele>
   </trkpt>
   <trkpt lat="-37.83178" lon="145.34217">
    <ele>332.63000000000005</ele>
   </trkpt>
   <trkpt lat="-37.83164" lon="145.34225">
    <ele>332.5</ele>
   </trkpt>
   <trkpt lat="-37.83153" lon="145.3424">
    <ele>332.74</ele>
   </trkpt>
   <trkpt lat="-37.83144" lon="145.34259">
    <ele>333.77</ele>
   </trkpt>
   <trkpt lat="-37.83124" lon="145.34334">
    <ele>334.15</ele>
   </trkpt>
   <trkpt lat="-37.83113" lon="145.34359">
    <ele>335.08000000000004</ele>
   </trkpt>
   <trkpt lat="-37.83095" lon="145.34385">
    <ele>335.11</ele>
   </trkpt>
   <trkpt lat="-37.83034" lon="145.34411">
    <ele>337.29</ele>
   </trkpt>
   <trkpt lat="-37.829930000000004" lon="145.34408000000002">
    <ele>331.24</ele>
   </trkpt>
   <trkpt lat="-37.82963" lon="145.34352">
    <ele>314.64000000000004</ele>
   </trkpt>
   <trkpt lat="-37.82952" lon="145.34314">
    <ele>308.06</ele>
   </trkpt>
   <trkpt lat="-37.82943" lon="145.34233">
    <ele>292.59000000000003</ele>
   </trkpt>
   <trkpt lat="-37.829240000000006" lon="145.34232">
    <ele>292.09000000000003</ele>
   </trkpt>
   <trkpt lat="-37.828950000000006" lon="145.34237000000002">
    <ele>292.09000000000003</ele>
   </trkpt>
   <trkpt lat="-37.82878" lon="145.34246000000002">
    <ele>292.00000000000006</ele>
   </trkpt>
   <trkpt lat="-37.82831" lon="145.34295">
    <ele>291.11</ele>
   </trkpt>
   <trkpt lat="-37.82782" lon="145.34341">
    <ele>292.78000000000003</ele>
   </trkpt>
   <trkpt lat="-37.82755" lon="145.34356000000002">
    <ele>294.7</ele>
   </trkpt>
   <trkpt lat="-37.8273" lon="145.34364000000002">
    <ele>296.9</ele>
   </trkpt>
   <trkpt lat="-37.82705" lon="145.34382000000002">
    <ele>299.54</ele>
   </trkpt>
   <trkpt lat="-37.82692" lon="145.34395">
    <ele>300.62</ele>
   </trkpt>
   <trkpt lat="-37.82681" lon="145.34403">
    <ele>301.56000000000006</ele>
   </trkpt>
   <trkpt lat="-37.82638" lon="145.34404">
    <ele>303.21000000000004</ele>
   </trkpt>
   <trkpt lat="-37.82607" lon="145.34413">
    <ele>304.43</ele>
   </trkpt>
   <trkpt lat="-37.825720000000004" lon="145.34426000000002">
    <ele>305.45</ele>
   </trkpt>
   <trkpt lat="-37.82555" lon="145.34439">
    <ele>306.26000000000005</ele>
   </trkpt>
   <trkpt lat="-37.82538" lon="145.34456">
    <ele>306.91</ele>
   </trkpt>
   <trkpt lat="-37.82495" lon="145.34516000000002">
    <ele>306.06</ele>
   </trkpt>
   <trkpt lat="-37.824870000000004" lon="145.34524000000002">
    <ele>306.06</ele>
   </trkpt>
   <trkpt lat="-37.82446" lon="145.34535000000002">
    <ele>308.38000000000005</ele>
   </trkpt>
   <trkpt lat="-37.82428" lon="145.34546">
    <ele>312.09000000000003</ele>
   </trkpt>
   <trkpt lat="-37.82408" lon="145.34560000000002">
    <ele>314.78</ele>
   </trkpt>
   <trkpt lat="-37.82381" lon="145.34588000000002">
    <ele>317.82000000000005</ele>
   </trkpt>
   <trkpt lat="-37.82338000026485" lon="145.346110001318">
    <ele>319.43000000000006</ele>
   </trkpt>
   <trkpt lat="-37.822950000000006" lon="145.34634">
    <ele>319.21000000000004</ele>
   </trkpt>
   <trkpt lat="-37.82294" lon="145.34635">
    <ele>319.21000000000004</ele>
   </trkpt>
   <trkpt lat="-37.822770000000006" lon="145.34649000000002">
    <ele>320.23</ele>
   </trkpt>
   <trkpt lat="-37.82267" lon="145.34663">
    <ele>322.44</ele>
   </trkpt>
   <trkpt lat="-37.822590000000005" lon="145.34677000000002">
    <ele>324.52000000000004</ele>
   </trkpt>
   <trkpt lat="-37.82253" lon="145.34703000000002">
    <ele>328.43</ele>
   </trkpt>
   <trkpt lat="-37.82253" lon="145.34733">
    <ele>331.93</ele>
   </trkpt>
   <trkpt lat="-37.82255" lon="145.34759000000003">
    <ele>335.0</ele>
   </trkpt>
   <trkpt lat="-37.82253" lon="145.34774000000002">
    <ele>336.39000000000004</ele>
   </trkpt>
   <trkpt lat="-37.82244" lon="145.3478">
    <ele>337.47</ele>
   </trkpt>
   <trkpt lat="-37.82204" lon="145.3479">
    <ele>341.03000000000003</ele>
   </trkpt>
   <trkpt lat="-37.82166" lon="145.34824">
    <ele>346.35</ele>
   </trkpt>
   <trkpt lat="-37.82126" lon="145.34882000000002">
    <ele>354.95000000000005</ele>
   </trkpt>
   <trkpt lat="-37.82108" lon="145.3493">
    <ele>362.25</ele>
   </trkpt>
   <trkpt lat="-37.82103" lon="145.34965000000003">
    <ele>366.18</ele>
   </trkpt>
   <trkpt lat="-37.82101" lon="145.35052000000002">
    <ele>375.9</ele>
   </trkpt>
   <trkpt lat="-37.82103" lon="145.35089000000002">
    <ele>379.69</ele>
   </trkpt>
   <trkpt lat="-37.820980000000006" lon="145.35155">
    <ele>381.84000000000003</ele>
   </trkpt>
   <trkpt lat="-37.82088" lon="145.35202">
    <ele>381.78</ele>
   </trkpt>
   <trkpt lat="-37.82052" lon="145.35284000000001">
    <ele>382.33000000000004</ele>
   </trkpt>
   <trkpt lat="-37.82047" lon="145.35311000000002">
    <ele>382.32000000000005</ele>
   </trkpt>
   <trkpt lat="-37.82047" lon="145.35327">
    <ele>382.62</ele>
   </trkpt>
   <trkpt lat="-37.82052" lon="145.35340000000002">
    <ele>382.70000000000005</ele>
   </trkpt>
   <trkpt lat="-37.82063" lon="145.35363">
    <ele>382.70000000000005</ele>
   </trkpt>
   <trkpt lat="-37.82101" lon="145.35419000000002">
    <ele>381.96000000000004</ele>
   </trkpt>
   <trkpt lat="-37.821450000000006" lon="145.35441">
    <ele>382.27000000000004</ele>
   </trkpt>
   <trkpt lat="-37.8215" lon="145.3545">
    <ele>382.27000000000004</ele>
   </trkpt>
   <trkpt lat="-37.82155" lon="145.35462">
    <ele>382.3</ele>
   </trkpt>
   <trkpt lat="-37.82159" lon="145.3548">
    <ele>382.25</ele>
   </trkpt>
   <trkpt lat="-37.82152" lon="145.35504">
    <ele>381.97</ele>
   </trkpt>
   <trkpt lat="-37.82126500116141" lon="145.35554500157954">
    <ele>382.01</ele>
   </trkpt>
   <trkpt lat="-37.82101" lon="145.35605">
    <ele>381.91</ele>
   </trkpt>
   <trkpt lat="-37.82081" lon="145.35627000000002">
    <ele>381.85</ele>
   </trkpt>
   <trkpt lat="-37.82034" lon="145.35669000000001">
    <ele>382.61</ele>
   </trkpt>
   <trkpt lat="-37.82014" lon="145.35699000000002">
    <ele>382.42</ele>
   </trkpt>
   <trkpt lat="-37.82009" lon="145.35717000000002">
    <ele>382.33000000000004</ele>
   </trkpt>
   <trkpt lat="-37.82007" lon="145.35739">
    <ele>382.32000000000005</ele>
   </trkpt>
   <trkpt lat="-37.82011" lon="145.35786000000002">
    <ele>382.29</ele>
   </trkpt>
   <trkpt lat="-37.82011" lon="145.35802">
    <ele>382.02000000000004</ele>
   </trkpt>
   <trkpt lat="-37.82005" lon="145.35831000000002">
    <ele>381.83000000000004</ele>
   </trkpt>
   <trkpt lat="-37.81978" lon="145.35862">
    <ele>381.82000000000005</ele>
   </trkpt>
   <trkpt lat="-37.81935500048139" lon="145.35900000230328">
    <ele>381.49000000000007</ele>
   </trkpt>
   <trkpt lat="-37.81893" lon="145.35938000000002">
    <ele>381.67</ele>
   </trkpt>
   <trkpt lat="-37.81866" lon="145.35975000000002">
    <ele>380.99000000000007</ele>
   </trkpt>
   <trkpt lat="-37.81864" lon="145.35987">
    <ele>380.63</ele>
   </trkpt>
   <trkpt lat="-37.81857" lon="145.36003000000002">
    <ele>380.36</ele>
   </trkpt>
   <trkpt lat="-37.8187" lon="145.36094">
    <ele>391.15000000000003</ele>
   </trkpt>
   <trkpt lat="-37.8187" lon="145.36124">
    <ele>395.0</ele>
   </trkpt>
   <trkpt lat="-37.81861" lon="145.36159">
    <ele>399.15000000000003</ele>
   </trkpt>
   <trkpt lat="-37.81828" lon="145.36215">
    <ele>408.47</ele>
   </trkpt>
   <trkpt lat="-37.8181" lon="145.36234000000002">
    <ele>412.12000000000006</ele>
   </trkpt>
   <trkpt lat="-37.8177" lon="145.36251000000001">
    <ele>419.49</ele>
   </trkpt>
   <trkpt lat="-37.81734" lon="145.36311">
    <ele>426.15000000000003</ele>
   </trkpt>
   <trkpt lat="-37.81721" lon="145.36373">
    <ele>436.48</ele>
   </trkpt>
   <trkpt lat="-37.81723" lon="145.36425">
    <ele>441.6700000000001</ele>
   </trkpt>
   <trkpt lat="-37.81736" lon="145.36494000000002">
    <ele>451.90000000000003</ele>
   </trkpt>
   <trkpt lat="-37.81745" lon="145.36571">
    <ele>459.76000000000005</ele>
   </trkpt>
   <trkpt lat="-37.81743" lon="145.36671">
    <ele>471.54</ele>
   </trkpt>
   <trkpt lat="-37.81679000004122" lon="145.36669999991395">
    <ele>465.34000000000003</ele>
   </trkpt>
   <trkpt lat="-37.81615" lon="145.36669">
    <ele>457.98</ele>
   </trkpt>
   <trkpt lat="-37.81573" lon="145.36681000000002">
    <ele>454.52000000000004</ele>
   </trkpt>
   <trkpt lat="-37.8155" lon="145.36708000000002">
    <ele>451.48</ele>
   </trkpt>
   <trkpt lat="-37.81537" lon="145.36716">
    <ele>450.67</ele>
   </trkpt>
   <trkpt lat="-37.81508" lon="145.36724">
    <ele>451.47</ele>
   </trkpt>
   <trkpt lat="-37.81488" lon="145.36741">
    <ele>453.77000000000004</ele>
   </trkpt>
   <trkpt lat="-37.8147" lon="145.36782000000002">
    <ele>456.92</ele>
   </trkpt>
   <trkpt lat="-37.81459" lon="145.36827000000002">
    <ele>462.25000000000006</ele>
   </trkpt>
   <trkpt lat="-37.81459" lon="145.36878000000002">
    <ele>465.87000000000006</ele>
   </trkpt>
   <trkpt lat="-37.81467" lon="145.36967">
    <ele>474.24000000000007</ele>
   </trkpt>
   <trkpt lat="-37.81481" lon="145.37055">
    <ele>481.32</ele>
   </trkpt>
   <trkpt lat="-37.81479" lon="145.37143">
    <ele>478.02000000000004</ele>
   </trkpt>
   <trkpt lat="-37.81461" lon="145.37204">
    <ele>473.02000000000004</ele>
   </trkpt>
   <trkpt lat="-37.81441" lon="145.37232">
    <ele>471.4200000000001</ele>
   </trkpt>
   <trkpt lat="-37.81396" lon="145.37239000000002">
    <ele>469.77000000000004</ele>
   </trkpt>
   <trkpt lat="-37.81358" lon="145.37265000000002">
    <ele>467.08000000000004</ele>
   </trkpt>
   <trkpt lat="-37.813320000000004" lon="145.37307">
    <ele>466.32</ele>
   </trkpt>
   <trkpt lat="-37.813320000000004" lon="145.37306">
    <ele>466.32</ele>
   </trkpt>
   <trkpt lat="-37.81349" lon="145.37412">
    <ele>465.08000000000004</ele>
   </trkpt>
   <trkpt lat="-37.81362" lon="145.37471000000002">
    <ele>461.13000000000005</ele>
   </trkpt>
   <trkpt lat="-37.813746671425655" lon="145.37545999744955">
    <ele>454.21000000000004</ele>
   </trkpt>
   <trkpt lat="-37.81387333809623" lon="145.37620999747264">
    <ele>446.32000000000005</ele>
   </trkpt>
   <trkpt lat="-37.814" lon="145.37696000000003">
    <ele>439.49000000000007</ele>
   </trkpt>
   <trkpt lat="-37.81449000138971" lon="145.37753499617455">
    <ele>435.13</ele>
   </trkpt>
   <trkpt lat="-37.814980000000006" lon="145.37811000000002">
    <ele>429.55</ele>
   </trkpt>
   <trkpt lat="-37.81523" lon="145.37830000000002">
    <ele>429.34000000000003</ele>
   </trkpt>
   <trkpt lat="-37.81566" lon="145.37857000000002">
    <ele>430.58</ele>
   </trkpt>
   <trkpt lat="-37.81579" lon="145.3788">
    <ele>431.1</ele>
   </trkpt>
   <trkpt lat="-37.816" lon="145.37896">
    <ele>432.14000000000004</ele>
   </trkpt>
   <trkpt lat="-37.81613" lon="145.37887">
    <ele>433.82000000000005</ele>
   </trkpt>
   <trkpt lat="-37.8162" lon="145.37919000000002">
    <ele>434.58000000000004</ele>
   </trkpt>
   <trkpt lat="-37.816210000000005" lon="145.3795">
    <ele>437.53000000000003</ele>
   </trkpt>
   <trkpt lat="-37.816390000000006" lon="145.37948">
    <ele>438.1700000000001</ele>
   </trkpt>
   <trkpt lat="-37.816570000000006" lon="145.37955000000002">
    <ele>437.72</ele>
   </trkpt>
   <trkpt lat="-37.81669" lon="145.37957">
    <ele>437.26000000000005</ele>
   </trkpt>
   <trkpt lat="-37.81694" lon="145.37954000000002">
    <ele>435.18</ele>
   </trkpt>
  </trkseg>
 </trk>
</gpx>
