<?xml version="1.0" encoding="UTF-8"?>
<gpx creator="StravaGPX" version="1.1" xmlns="http://www.topografix.com/GPX/1/1" xmlns:xsi="http://www.w3.org/2001/XMLSchema-instance" xsi:schemaLocation="http://www.topografix.com/GPX/1/1 http://www.topografix.com/GPX/1/1/gpx.xsd">
 <metadata>
  <name>Post DTR</name>
  <author>
   <name>Natalie Gow</name>
  </author>
  <copyright author="OpenStreetMap contributors">
   <year>2020</year>
   <license>https://www.openstreetmap.org/copyright</license>
  </copyright>
 </metadata>
 <trk>
  <name>Post DTR</name>
  <link href=""/>
  <type>trail_running</type>
  <trkseg>
   <trkpt lat="-37.84857" lon="145.36141">
    <ele>513.7</ele>
   </trkpt>
   <trkpt lat="-37.848780000000005" lon="145.36108000000002">
    <ele>512.6500000000001</ele>
   </trkpt>
   <trkpt lat="-37.848850000000006" lon="145.36101000000002">
    <ele>511.90000000000003</ele>
   </trkpt>
   <trkpt lat="-37.84895" lon="145.36091000000002">
    <ele>511.4700000000001</ele>
   </trkpt>
   <trkpt lat="-37.849090000000004" lon="145.36085">
    <ele>510.78000000000003</ele>
   </trkpt>
   <trkpt lat="-37.849320000000006" lon="145.36083000000002">
    <ele>509.7900000000001</ele>
   </trkpt>
   <trkpt lat="-37.85004" lon="145.36096">
    <ele>506.38000000000005</ele>
   </trkpt>
   <trkpt lat="-37.8504" lon="145.36100000000002">
    <ele>503.85</ele>
   </trkpt>
   <trkpt lat="-37.85092" lon="145.36096">
    <ele>500.99</ele>
   </trkpt>
   <trkpt lat="-37.85159" lon="145.36077">
    <ele>498.89000000000004</ele>
   </trkpt>
   <trkpt lat="-37.85188" lon="145.36064000000002">
    <ele>498.15000000000003</ele>
   </trkpt>
   <trkpt lat="-37.8521" lon="145.36052">
    <ele>497.45000000000005</ele>
   </trkpt>
   <trkpt lat="-37.85217" lon="145.36042">
    <ele>497.16</ele>
   </trkpt>
   <trkpt lat="-37.85219" lon="145.36025">
    <ele>496.48</ele>
   </trkpt>
   <trkpt lat="-37.85206" lon="145.3599">
    <ele>495.12000000000006</ele>
   </trkpt>
   <trkpt lat="-37.85201" lon="145.35962">
    <ele>492.90000000000003</ele>
   </trkpt>
   <trkpt lat="-37.85204" lon="145.35945">
    <ele>492.90000000000003</ele>
   </trkpt>
   <trkpt lat="-37.85213" lon="145.35915">
    <ele>492.13000000000005</ele>
   </trkpt>
   <trkpt lat="-37.85224" lon="145.35893000000002">
    <ele>490.57000000000005</ele>
   </trkpt>
   <trkpt lat="-37.85246" lon="145.35859000000002">
    <ele>488.57000000000005</ele>
   </trkpt>
   <trkpt lat="-37.85271" lon="145.35832000000002">
    <ele>485.67</ele>
   </trkpt>
   <trkpt lat="-37.85338" lon="145.35768000000002">
    <ele>481.18000000000006</ele>
   </trkpt>
   <trkpt lat="-37.85374" lon="145.35714000000002">
    <ele>477.88</ele>
   </trkpt>
   <trkpt lat="-37.8538" lon="145.35702">
    <ele>477.83000000000004</ele>
   </trkpt>
   <trkpt lat="-37.85412" lon="145.35674">
    <ele>475.91</ele>
   </trkpt>
   <trkpt lat="-37.85421" lon="145.35660000000001">
    <ele>474.49</ele>
   </trkpt>
   <trkpt lat="-37.85423" lon="145.35635000000002">
    <ele>473.63000000000005</ele>
   </trkpt>
   <trkpt lat="-37.854110000000006" lon="145.35583000000003">
    <ele>472.69000000000005</ele>
   </trkpt>
   <trkpt lat="-37.85405" lon="145.35554000000002">
    <ele>470.91</ele>
   </trkpt>
   <trkpt lat="-37.85403" lon="145.35528000000002">
    <ele>469.91</ele>
   </trkpt>
   <trkpt lat="-37.854110000000006" lon="145.35432">
    <ele>466.52000000000004</ele>
   </trkpt>
   <trkpt lat="-37.85434" lon="145.35327">
    <ele>461.5400000000001</ele>
   </trkpt>
   <trkpt lat="-37.854350000000004" lon="145.353">
    <ele>460.25000000000006</ele>
   </trkpt>
   <trkpt lat="-37.854350000000004" lon="145.35299">
    <ele>460.21000000000004</ele>
   </trkpt>
   <trkpt lat="-37.854110000000006" lon="145.35328">
    <ele>457.23</ele>
   </trkpt>
   <trkpt lat="-37.85396" lon="145.35339000000002">
    <ele>454.15000000000003</ele>
   </trkpt>
   <trkpt lat="-37.85342" lon="145.35415">
    <ele>447.47</ele>
   </trkpt>
   <trkpt lat="-37.85331" lon="145.35443">
    <ele>443.78000000000003</ele>
   </trkpt>
   <trkpt lat="-37.853" lon="145.35505">
    <ele>442.89000000000004</ele>
   </trkpt>
   <trkpt lat="-37.85298" lon="145.3556">
    <ele>445.62</ele>
   </trkpt>
   <trkpt lat="-37.85289" lon="145.35602">
    <ele>446.41</ele>
   </trkpt>
   <trkpt lat="-37.85284" lon="145.3561">
    <ele>446.31000000000006</ele>
   </trkpt>
   <trkpt lat="-37.8526" lon="145.35617000000002">
    <ele>439.13</ele>
   </trkpt>
   <trkpt lat="-37.85195" lon="145.35605">
    <ele>424.91</ele>
   </trkpt>
   <trkpt lat="-37.85147999996115" lon="145.35608500022641">
    <ele>419.14</ele>
   </trkpt>
   <trkpt lat="-37.85101" lon="145.35612">
    <ele>419.77000000000004</ele>
   </trkpt>
   <trkpt lat="-37.85083" lon="145.35617000000002">
    <ele>420.11</ele>
   </trkpt>
   <trkpt lat="-37.85054" lon="145.35639">
    <ele>420.33000000000004</ele>
   </trkpt>
   <trkpt lat="-37.85009" lon="145.35676">
    <ele>416.46000000000004</ele>
   </trkpt>
   <trkpt lat="-37.84998" lon="145.35682">
    <ele>417.34000000000003</ele>
   </trkpt>
   <trkpt lat="-37.849700000000006" lon="145.35709">
    <ele>424.23</ele>
   </trkpt>
   <trkpt lat="-37.84951" lon="145.35711">
    <ele>428.33000000000004</ele>
   </trkpt>
   <trkpt lat="-37.84895" lon="145.35702">
    <ele>439.70000000000005</ele>
   </trkpt>
   <trkpt lat="-37.84886" lon="145.35699000000002">
    <ele>440.58000000000004</ele>
   </trkpt>
   <trkpt lat="-37.848780000000005" lon="145.35692">
    <ele>441.96000000000004</ele>
   </trkpt>
   <trkpt lat="-37.84877" lon="145.35691">
    <ele>441.96000000000004</ele>
   </trkpt>
   <trkpt lat="-37.84872" lon="145.35680000000002">
    <ele>442.73</ele>
   </trkpt>
   <trkpt lat="-37.8487" lon="145.35663000000002">
    <ele>443.37</ele>
   </trkpt>
   <trkpt lat="-37.84866" lon="145.35649">
    <ele>444.36</ele>
   </trkpt>
   <trkpt lat="-37.84859" lon="145.35638">
    <ele>444.36</ele>
   </trkpt>
   <trkpt lat="-37.84821" lon="145.35601">
    <ele>447.23</ele>
   </trkpt>
   <trkpt lat="-37.84814" lon="145.35590000000002">
    <ele>446.03000000000003</ele>
   </trkpt>
   <trkpt lat="-37.84812" lon="145.35582000000002">
    <ele>445.6</ele>
   </trkpt>
   <trkpt lat="-37.84814" lon="145.3557">
    <ele>445.12</ele>
   </trkpt>
   <trkpt lat="-37.84839" lon="145.35525">
    <ele>448.86</ele>
   </trkpt>
   <trkpt lat="-37.84852" lon="145.35456000000002">
    <ele>452.63</ele>
   </trkpt>
   <trkpt lat="-37.84863" lon="145.35433">
    <ele>452.04</ele>
   </trkpt>
   <trkpt lat="-37.84881" lon="145.35385000000002">
    <ele>447.59000000000003</ele>
   </trkpt>
   <trkpt lat="-37.84884" lon="145.35374000000002">
    <ele>446.59000000000003</ele>
   </trkpt>
   <trkpt lat="-37.848800000000004" lon="145.35342">
    <ele>445.27000000000004</ele>
   </trkpt>
   <trkpt lat="-37.84868" lon="145.35357000000002">
    <ele>444.6</ele>
   </trkpt>
   <trkpt lat="-37.848800000000004" lon="145.35342">
    <ele>445.01</ele>
   </trkpt>
   <trkpt lat="-37.84877" lon="145.35304000000002">
    <ele>442.75</ele>
   </trkpt>
   <trkpt lat="-37.848670000000006" lon="145.35243">
    <ele>438.66</ele>
   </trkpt>
   <trkpt lat="-37.8485" lon="145.35187000000002">
    <ele>432.21000000000004</ele>
   </trkpt>
   <trkpt lat="-37.84819" lon="145.35123000000002">
    <ele>426.92</ele>
   </trkpt>
   <trkpt lat="-37.84792" lon="145.35086">
    <ele>423.73</ele>
   </trkpt>
   <trkpt lat="-37.84767" lon="145.35063000000002">
    <ele>423.3</ele>
   </trkpt>
   <trkpt lat="-37.8472" lon="145.35029">
    <ele>419.67</ele>
   </trkpt>
   <trkpt lat="-37.84695" lon="145.35014">
    <ele>417.87</ele>
   </trkpt>
   <trkpt lat="-37.84678" lon="145.35007000000002">
    <ele>417.79</ele>
   </trkpt>
   <trkpt lat="-37.84653" lon="145.35004">
    <ele>419.15000000000003</ele>
   </trkpt>
   <trkpt lat="-37.845980000089995" lon="145.35005500010948">
    <ele>425.1</ele>
   </trkpt>
   <trkpt lat="-37.84543" lon="145.35007000000002">
    <ele>426.11</ele>
   </trkpt>
   <trkpt lat="-37.844934999841115" lon="145.35014000049526">
    <ele>430.01000000000005</ele>
   </trkpt>
   <trkpt lat="-37.844440000000006" lon="145.35021">
    <ele>435.25</ele>
   </trkpt>
   <trkpt lat="-37.84409" lon="145.35022">
    <ele>437.27000000000004</ele>
   </trkpt>
   <trkpt lat="-37.84355" lon="145.35018000000002">
    <ele>440.29</ele>
   </trkpt>
   <trkpt lat="-37.84306" lon="145.35005">
    <ele>443.11000000000007</ele>
   </trkpt>
   <trkpt lat="-37.84262500001824" lon="145.3498699988892">
    <ele>446.00000000000006</ele>
   </trkpt>
   <trkpt lat="-37.84219" lon="145.34969">
    <ele>450.02000000000004</ele>
   </trkpt>
   <trkpt lat="-37.84196" lon="145.34958">
    <ele>452.18</ele>
   </trkpt>
   <trkpt lat="-37.84179" lon="145.34944000000002">
    <ele>452.71000000000004</ele>
   </trkpt>
   <trkpt lat="-37.84176" lon="145.34928000000002">
    <ele>447.99000000000007</ele>
   </trkpt>
   <trkpt lat="-37.84185" lon="145.34889">
    <ele>441.39000000000004</ele>
   </trkpt>
   <trkpt lat="-37.84192" lon="145.34903">
    <ele>439.21000000000004</ele>
   </trkpt>
   <trkpt lat="-37.84201" lon="145.34906">
    <ele>436.51</ele>
   </trkpt>
   <trkpt lat="-37.8421" lon="145.34902000000002">
    <ele>436.51</ele>
   </trkpt>
   <trkpt lat="-37.84219" lon="145.34892000000002">
    <ele>432.57</ele>
   </trkpt>
   <trkpt lat="-37.84237" lon="145.3488">
    <ele>428.81</ele>
   </trkpt>
   <trkpt lat="-37.84263" lon="145.34873000000002">
    <ele>422.93</ele>
   </trkpt>
   <trkpt lat="-37.842760000000006" lon="145.34866000000002">
    <ele>422.06000000000006</ele>
   </trkpt>
   <trkpt lat="-37.84286" lon="145.34865000000002">
    <ele>419.35</ele>
   </trkpt>
   <trkpt lat="-37.84306" lon="145.34874000000002">
    <ele>415.31</ele>
   </trkpt>
   <trkpt lat="-37.84315" lon="145.34874000000002">
    <ele>413.90000000000003</ele>
   </trkpt>
   <trkpt lat="-37.843320000000006" lon="145.34844">
    <ele>411.41</ele>
   </trkpt>
   <trkpt lat="-37.84337" lon="145.34801000000002">
    <ele>409.34000000000003</ele>
   </trkpt>
   <trkpt lat="-37.84382" lon="145.34711000000001">
    <ele>396.95</ele>
   </trkpt>
   <trkpt lat="-37.84384" lon="145.3469">
    <ele>392.27</ele>
   </trkpt>
   <trkpt lat="-37.84378" lon="145.34646">
    <ele>386.14000000000004</ele>
   </trkpt>
   <trkpt lat="-37.8438" lon="145.34609">
    <ele>380.20000000000005</ele>
   </trkpt>
   <trkpt lat="-37.84389" lon="145.34585">
    <ele>374.42</ele>
   </trkpt>
   <trkpt lat="-37.84393" lon="145.34585">
    <ele>373.3</ele>
   </trkpt>
   <trkpt lat="-37.844" lon="145.34587000000002">
    <ele>371.33000000000004</ele>
   </trkpt>
   <trkpt lat="-37.84418" lon="145.34607000000003">
    <ele>367.98</ele>
   </trkpt>
   <trkpt lat="-37.84445" lon="145.34615000000002">
    <ele>364.64</ele>
   </trkpt>
   <trkpt lat="-37.845060000000004" lon="145.34613000000002">
    <ele>351.22</ele>
   </trkpt>
   <trkpt lat="-37.84519" lon="145.34607000000003">
    <ele>344.44</ele>
   </trkpt>
   <trkpt lat="-37.84543" lon="145.3459">
    <ele>341.62</ele>
   </trkpt>
   <trkpt lat="-37.84548" lon="145.34592">
    <ele>339.83000000000004</ele>
   </trkpt>
   <trkpt lat="-37.84559" lon="145.34591">
    <ele>336.81000000000006</ele>
   </trkpt>
   <trkpt lat="-37.84564" lon="145.34588000000002">
    <ele>336.81000000000006</ele>
   </trkpt>
   <trkpt lat="-37.84593" lon="145.34555">
    <ele>330.90000000000003</ele>
   </trkpt>
   <trkpt lat="-37.84592" lon="145.34556">
    <ele>330.90000000000003</ele>
   </trkpt>
   <trkpt lat="-37.84597" lon="145.34545">
    <ele>330.31000000000006</ele>
   </trkpt>
   <trkpt lat="-37.84597" lon="145.34536">
    <ele>329.89</ele>
   </trkpt>
   <trkpt lat="-37.84586" lon="145.34502">
    <ele>329.37000000000006</ele>
   </trkpt>
   <trkpt lat="-37.8457" lon="145.34482">
    <ele>328.25000000000006</ele>
   </trkpt>
   <trkpt lat="-37.84559" lon="145.34452000000002">
    <ele>325.85</ele>
   </trkpt>
   <trkpt lat="-37.84554" lon="145.34428">
    <ele>323.43000000000006</ele>
   </trkpt>
   <trkpt lat="-37.84557" lon="145.34413">
    <ele>322.32000000000005</ele>
   </trkpt>
   <trkpt lat="-37.84559" lon="145.34410000000003">
    <ele>319.96000000000004</ele>
   </trkpt>
   <trkpt lat="-37.845690000000005" lon="145.34410000000003">
    <ele>319.96000000000004</ele>
   </trkpt>
   <trkpt lat="-37.8457" lon="145.34397">
    <ele>320.74</ele>
   </trkpt>
   <trkpt lat="-37.8457" lon="145.34371000000002">
    <ele>321.61</ele>
   </trkpt>
   <trkpt lat="-37.84548" lon="145.34309000000002">
    <ele>327.89</ele>
   </trkpt>
   <trkpt lat="-37.84532" lon="145.34258">
    <ele>326.92</ele>
   </trkpt>
   <trkpt lat="-37.845330000000004" lon="145.34259">
    <ele>326.92</ele>
   </trkpt>
   <trkpt lat="-37.8451" lon="145.34224">
    <ele>324.83</ele>
   </trkpt>
   <trkpt lat="-37.84496" lon="145.34209">
    <ele>324.34000000000003</ele>
   </trkpt>
   <trkpt lat="-37.84451500060959" lon="145.3417299978776">
    <ele>323.06</ele>
   </trkpt>
   <trkpt lat="-37.84407" lon="145.34137">
    <ele>321.04</ele>
   </trkpt>
   <trkpt lat="-37.8438" lon="145.34104000000002">
    <ele>319.62</ele>
   </trkpt>
   <trkpt lat="-37.84369" lon="145.34098">
    <ele>319.62</ele>
   </trkpt>
   <trkpt lat="-37.84348" lon="145.34089">
    <ele>318.40000000000003</ele>
   </trkpt>
   <trkpt lat="-37.84297" lon="145.34079">
    <ele>318.09000000000003</ele>
   </trkpt>
   <trkpt lat="-37.84275" lon="145.3407">
    <ele>317.55</ele>
   </trkpt>
   <trkpt lat="-37.84252" lon="145.34050000000002">
    <ele>313.98</ele>
   </trkpt>
   <trkpt lat="-37.84225" lon="145.34014000000002">
    <ele>311.26000000000005</ele>
   </trkpt>
   <trkpt lat="-37.8421" lon="145.33983">
    <ele>310.87</ele>
   </trkpt>
   <trkpt lat="-37.841950000000004" lon="145.33969000000002">
    <ele>310.27000000000004</ele>
   </trkpt>
   <trkpt lat="-37.84178" lon="145.33959000000002">
    <ele>310.3</ele>
   </trkpt>
   <trkpt lat="-37.8416" lon="145.33959000000002">
    <ele>311.14000000000004</ele>
   </trkpt>
   <trkpt lat="-37.84143" lon="145.33965">
    <ele>312.6</ele>
   </trkpt>
   <trkpt lat="-37.84098" lon="145.33985">
    <ele>318.48</ele>
   </trkpt>
   <trkpt lat="-37.84069" lon="145.33977000000002">
    <ele>320.19</ele>
   </trkpt>
   <trkpt lat="-37.84042" lon="145.33958">
    <ele>322.49</ele>
   </trkpt>
   <trkpt lat="-37.84015" lon="145.33934000000002">
    <ele>326.68</ele>
   </trkpt>
   <trkpt lat="-37.83977" lon="145.33871000000002">
    <ele>335.66</ele>
   </trkpt>
   <trkpt lat="-37.83961" lon="145.33852000000002">
    <ele>336.88</ele>
   </trkpt>
   <trkpt lat="-37.839290000000005" lon="145.33823">
    <ele>336.38</ele>
   </trkpt>
   <trkpt lat="-37.83928" lon="145.33822">
    <ele>336.38</ele>
   </trkpt>
   <trkpt lat="-37.83885" lon="145.33808000000002">
    <ele>332.90000000000003</ele>
   </trkpt>
   <trkpt lat="-37.83847" lon="145.33802">
    <ele>333.1</ele>
   </trkpt>
   <trkpt lat="-37.83809" lon="145.33800000000002">
    <ele>336.81000000000006</ele>
   </trkpt>
   <trkpt lat="-37.83766" lon="145.33823">
    <ele>345.59</ele>
   </trkpt>
   <trkpt lat="-37.83721500047108" lon="145.33861500245715">
    <ele>354.28000000000003</ele>
   </trkpt>
   <trkpt lat="-37.83677" lon="145.339">
    <ele>359.42</ele>
   </trkpt>
   <trkpt lat="-37.836270000000006" lon="145.33924000000002">
    <ele>360.26</ele>
   </trkpt>
   <trkpt lat="-37.83606" lon="145.3394">
    <ele>359.90000000000003</ele>
   </trkpt>
   <trkpt lat="-37.83576" lon="145.33959000000002">
    <ele>357.22</ele>
   </trkpt>
   <trkpt lat="-37.83543" lon="145.33977000000002">
    <ele>352.07000000000005</ele>
   </trkpt>
   <trkpt lat="-37.835150000000006" lon="145.33989000000003">
    <ele>347.88</ele>
   </trkpt>
   <trkpt lat="-37.83475" lon="145.34023000000002">
    <ele>339.77</ele>
   </trkpt>
   <trkpt lat="-37.83442" lon="145.34049000000002">
    <ele>345.18</ele>
   </trkpt>
   <trkpt lat="-37.83415" lon="145.34074">
    <ele>347.63000000000005</ele>
   </trkpt>
   <trkpt lat="-37.83397" lon="145.34079">
    <ele>344.14</ele>
   </trkpt>
   <trkpt lat="-37.83357" lon="145.34077000000002">
    <ele>334.07000000000005</ele>
   </trkpt>
   <trkpt lat="-37.83337" lon="145.34082">
    <ele>330.56</ele>
   </trkpt>
   <trkpt lat="-37.83323" lon="145.34098">
    <ele>329.48</ele>
   </trkpt>
   <trkpt lat="-37.83301" lon="145.34152">
    <ele>329.43</ele>
   </trkpt>
   <trkpt lat="-37.8327" lon="145.34184000000002">
    <ele>326.43000000000006</ele>
   </trkpt>
   <trkpt lat="-37.832330000000006" lon="145.34193000000002">
    <ele>329.20000000000005</ele>
   </trkpt>
   <trkpt lat="-37.8327" lon="145.34184000000002">
    <ele>326.43000000000006</ele>
   </trkpt>
   <trkpt lat="-37.83301" lon="145.34152">
    <ele>329.43</ele>
   </trkpt>
   <trkpt lat="-37.83323" lon="145.34098">
    <ele>329.48</ele>
   </trkpt>
   <trkpt lat="-37.83337" lon="145.34082">
    <ele>330.56</ele>
   </trkpt>
   <trkpt lat="-37.83323" lon="145.34098">
    <ele>329.48</ele>
   </trkpt>
   <trkpt lat="-37.83301" lon="145.34152">
    <ele>329.43</ele>
   </trkpt>
   <trkpt lat="-37.8327" lon="145.34184000000002">
    <ele>326.48</ele>
   </trkpt>
   <trkpt lat="-37.832330000000006" lon="145.34193000000002">
    <ele>329.20000000000005</ele>
   </trkpt>
   <trkpt lat="-37.83243" lon="145.34217">
    <ele>337.48</ele>
   </trkpt>
   <trkpt lat="-37.83245" lon="145.34245">
    <ele>343.01000000000005</ele>
   </trkpt>
   <trkpt lat="-37.83249" lon="145.34262">
    <ele>350.61</ele>
   </trkpt>
   <trkpt lat="-37.83249" lon="145.34288">
    <ele>365.04</ele>
   </trkpt>
   <trkpt lat="-37.83261" lon="145.34326000000001">
    <ele>375.98</ele>
   </trkpt>
   <trkpt lat="-37.83258" lon="145.34358">
    <ele>388.09000000000003</ele>
   </trkpt>
   <trkpt lat="-37.83261" lon="145.34380000000002">
    <ele>396.96000000000004</ele>
   </trkpt>
   <trkpt lat="-37.83267" lon="145.34406">
    <ele>408.21000000000004</ele>
   </trkpt>
   <trkpt lat="-37.83276" lon="145.34487000000001">
    <ele>444.84000000000003</ele>
   </trkpt>
   <trkpt lat="-37.83278" lon="145.34532000000002">
    <ele>463.74</ele>
   </trkpt>
   <trkpt lat="-37.83283" lon="145.34573">
    <ele>476.0</ele>
   </trkpt>
   <trkpt lat="-37.83283" lon="145.34615000000002">
    <ele>497.39000000000004</ele>
   </trkpt>
   <trkpt lat="-37.83294" lon="145.34682">
    <ele>531.0400000000001</ele>
   </trkpt>
   <trkpt lat="-37.83294" lon="145.347">
    <ele>531.0400000000001</ele>
   </trkpt>
   <trkpt lat="-37.833000000000006" lon="145.34723000000002">
    <ele>547.85</ele>
   </trkpt>
   <trkpt lat="-37.8331" lon="145.34797">
    <ele>576.5100000000001</ele>
   </trkpt>
   <trkpt lat="-37.83346" lon="145.34808">
    <ele>594.34</ele>
   </trkpt>
   <trkpt lat="-37.83339" lon="145.34822">
    <ele>594.53</ele>
   </trkpt>
   <trkpt lat="-37.83328" lon="145.3487">
    <ele>594.4</ele>
   </trkpt>
   <trkpt lat="-37.83321" lon="145.34907">
    <ele>591.55</ele>
   </trkpt>
   <trkpt lat="-37.83316000000001" lon="145.34919000000002">
    <ele>590.5600000000001</ele>
   </trkpt>
   <trkpt lat="-37.83296" lon="145.34934">
    <ele>587.7900000000001</ele>
   </trkpt>
   <trkpt lat="-37.83285" lon="145.34933">
    <ele>584.6</ele>
   </trkpt>
   <trkpt lat="-37.83281" lon="145.34934">
    <ele>584.6</ele>
   </trkpt>
   <trkpt lat="-37.83274" lon="145.34954000000002">
    <ele>586.58</ele>
   </trkpt>
   <trkpt lat="-37.83267" lon="145.34969">
    <ele>585.77</ele>
   </trkpt>
   <trkpt lat="-37.83231" lon="145.35010000000003">
    <ele>577.46</ele>
   </trkpt>
   <trkpt lat="-37.83196" lon="145.35046">
    <ele>570.5300000000001</ele>
   </trkpt>
   <trkpt lat="-37.831970000000005" lon="145.35045000000002">
    <ele>570.5300000000001</ele>
   </trkpt>
   <trkpt lat="-37.83162" lon="145.35071000000002">
    <ele>564.69</ele>
   </trkpt>
   <trkpt lat="-37.83122" lon="145.35091">
    <ele>556.5500000000001</ele>
   </trkpt>
   <trkpt lat="-37.83093" lon="145.35097000000002">
    <ele>556.74</ele>
   </trkpt>
   <trkpt lat="-37.83066" lon="145.35092">
    <ele>558.6000000000001</ele>
   </trkpt>
   <trkpt lat="-37.83032" lon="145.35069000000001">
    <ele>560.6300000000001</ele>
   </trkpt>
   <trkpt lat="-37.82999" lon="145.35055">
    <ele>563.74</ele>
   </trkpt>
   <trkpt lat="-37.82963" lon="145.35047">
    <ele>566.62</ele>
   </trkpt>
   <trkpt lat="-37.82943" lon="145.35047">
    <ele>570.2900000000001</ele>
   </trkpt>
   <trkpt lat="-37.82911" lon="145.35060000000001">
    <ele>575.3600000000001</ele>
   </trkpt>
   <trkpt lat="-37.828629999903704" lon="145.35060500003354">
    <ele>577.19</ele>
   </trkpt>
   <trkpt lat="-37.82815" lon="145.35061000000002">
    <ele>574.5600000000001</ele>
   </trkpt>
   <trkpt lat="-37.82758000003291" lon="145.35072500089296">
    <ele>575.86</ele>
   </trkpt>
   <trkpt lat="-37.82701" lon="145.35084">
    <ele>577.6</ele>
   </trkpt>
   <trkpt lat="-37.82658" lon="145.35101">
    <ele>576.72</ele>
   </trkpt>
   <trkpt lat="-37.82625" lon="145.35123000000002">
    <ele>578.67</ele>
   </trkpt>
   <trkpt lat="-37.82596" lon="145.35162000000003">
    <ele>581.5600000000001</ele>
   </trkpt>
   <trkpt lat="-37.825590000000005" lon="145.3523">
    <ele>584.49</ele>
   </trkpt>
   <trkpt lat="-37.82551" lon="145.35260000000002">
    <ele>585.2900000000001</ele>
   </trkpt>
   <trkpt lat="-37.82547" lon="145.35287000000002">
    <ele>585.83</ele>
   </trkpt>
   <trkpt lat="-37.82555" lon="145.35337">
    <ele>585.5100000000001</ele>
   </trkpt>
   <trkpt lat="-37.82544" lon="145.35431">
    <ele>577.8100000000001</ele>
   </trkpt>
   <trkpt lat="-37.82535" lon="145.35486">
    <ele>574.32</ele>
   </trkpt>
   <trkpt lat="-37.82531" lon="145.35505">
    <ele>573.35</ele>
   </trkpt>
   <trkpt lat="-37.82529" lon="145.35529000000002">
    <ele>572.91</ele>
   </trkpt>
   <trkpt lat="-37.82529" lon="145.35569">
    <ele>572.21</ele>
   </trkpt>
   <trkpt lat="-37.825320000000005" lon="145.35603">
    <ele>569.9000000000001</ele>
   </trkpt>
   <trkpt lat="-37.82536" lon="145.35629">
    <ele>568.9200000000001</ele>
   </trkpt>
   <trkpt lat="-37.82526" lon="145.35688000000002">
    <ele>564.86</ele>
   </trkpt>
   <trkpt lat="-37.82524" lon="145.35717000000002">
    <ele>561.49</ele>
   </trkpt>
   <trkpt lat="-37.825250000000004" lon="145.35765">
    <ele>555.94</ele>
   </trkpt>
   <trkpt lat="-37.82531" lon="145.35758">
    <ele>552.88</ele>
   </trkpt>
   <trkpt lat="-37.82549" lon="145.35781">
    <ele>558.9900000000001</ele>
   </trkpt>
   <trkpt lat="-37.82555" lon="145.35802">
    <ele>554.2600000000001</ele>
   </trkpt>
   <trkpt lat="-37.82567" lon="145.35817">
    <ele>552.9000000000001</ele>
   </trkpt>
   <trkpt lat="-37.82587" lon="145.35828">
    <ele>550.5500000000001</ele>
   </trkpt>
   <trkpt lat="-37.82614" lon="145.35836">
    <ele>548.88</ele>
   </trkpt>
   <trkpt lat="-37.82645" lon="145.35860000000002">
    <ele>544.88</ele>
   </trkpt>
   <trkpt lat="-37.82667" lon="145.35872">
    <ele>542.97</ele>
   </trkpt>
   <trkpt lat="-37.82678000000001" lon="145.35874">
    <ele>542.46</ele>
   </trkpt>
   <trkpt lat="-37.82681" lon="145.35894000000002">
    <ele>539.1400000000001</ele>
   </trkpt>
   <trkpt lat="-37.82687" lon="145.35904000000002">
    <ele>537.61</ele>
   </trkpt>
   <trkpt lat="-37.82694" lon="145.35909">
    <ele>536.39</ele>
   </trkpt>
   <trkpt lat="-37.82705" lon="145.35911000000002">
    <ele>535.47</ele>
   </trkpt>
   <trkpt lat="-37.827180000000006" lon="145.35917">
    <ele>534.2800000000001</ele>
   </trkpt>
   <trkpt lat="-37.82728" lon="145.35929000000002">
    <ele>532.5500000000001</ele>
   </trkpt>
   <trkpt lat="-37.82772000000001" lon="145.35955">
    <ele>526.66</ele>
   </trkpt>
   <trkpt lat="-37.82786" lon="145.3596">
    <ele>516.99</ele>
   </trkpt>
   <trkpt lat="-37.82797" lon="145.35967000000002">
    <ele>515.09</ele>
   </trkpt>
   <trkpt lat="-37.82802" lon="145.35974000000002">
    <ele>511.68</ele>
   </trkpt>
   <trkpt lat="-37.828030000000005" lon="145.35981">
    <ele>510.16</ele>
   </trkpt>
   <trkpt lat="-37.82788" lon="145.35998">
    <ele>510.21999999999997</ele>
   </trkpt>
   <trkpt lat="-37.82804" lon="145.36018">
    <ele>515.82</ele>
   </trkpt>
   <trkpt lat="-37.828210000000006" lon="145.36029000000002">
    <ele>512.17</ele>
   </trkpt>
   <trkpt lat="-37.82833" lon="145.36049">
    <ele>506.95</ele>
   </trkpt>
   <trkpt lat="-37.82835" lon="145.36064000000002">
    <ele>504.39</ele>
   </trkpt>
   <trkpt lat="-37.82831" lon="145.36141">
    <ele>495.13</ele>
   </trkpt>
   <trkpt lat="-37.828340000000004" lon="145.36183000000003">
    <ele>494.43</ele>
   </trkpt>
   <trkpt lat="-37.8284" lon="145.36201">
    <ele>495.1</ele>
   </trkpt>
   <trkpt lat="-37.82842" lon="145.3622">
    <ele>496.1700000000001</ele>
   </trkpt>
   <trkpt lat="-37.8284" lon="145.36231">
    <ele>496.49</ele>
   </trkpt>
   <trkpt lat="-37.82842" lon="145.36245000000002">
    <ele>495.96000000000004</ele>
   </trkpt>
   <trkpt lat="-37.8286" lon="145.36275">
    <ele>496.99</ele>
   </trkpt>
   <trkpt lat="-37.82882" lon="145.36294">
    <ele>497.94000000000005</ele>
   </trkpt>
   <trkpt lat="-37.82945" lon="145.36360000000002">
    <ele>495.51000000000005</ele>
   </trkpt>
   <trkpt lat="-37.82968" lon="145.3639">
    <ele>493.53000000000003</ele>
   </trkpt>
   <trkpt lat="-37.82967" lon="145.36389">
    <ele>493.53000000000003</ele>
   </trkpt>
   <trkpt lat="-37.83032" lon="145.36443">
    <ele>490.19</ele>
   </trkpt>
   <trkpt lat="-37.8305" lon="145.36452">
    <ele>490.18000000000006</ele>
   </trkpt>
   <trkpt lat="-37.83059" lon="145.36460000000002">
    <ele>489.95000000000005</ele>
   </trkpt>
   <trkpt lat="-37.8309" lon="145.36471">
    <ele>489.93</ele>
   </trkpt>
   <trkpt lat="-37.83113" lon="145.36475000000002">
    <ele>489.50000000000006</ele>
   </trkpt>
   <trkpt lat="-37.83126" lon="145.36482">
    <ele>488.44000000000005</ele>
   </trkpt>
   <trkpt lat="-37.83144" lon="145.36499">
    <ele>485.34000000000003</ele>
   </trkpt>
   <trkpt lat="-37.83151" lon="145.36502000000002">
    <ele>484.91</ele>
   </trkpt>
   <trkpt lat="-37.83164" lon="145.365">
    <ele>484.19000000000005</ele>
   </trkpt>
   <trkpt lat="-37.83196" lon="145.36511000000002">
    <ele>480.64</ele>
   </trkpt>
   <trkpt lat="-37.83207" lon="145.36518">
    <ele>479.94</ele>
   </trkpt>
   <trkpt lat="-37.8324" lon="145.36562">
    <ele>469.72</ele>
   </trkpt>
   <trkpt lat="-37.83252" lon="145.36566000000002">
    <ele>468.31000000000006</ele>
   </trkpt>
   <trkpt lat="-37.832710000000006" lon="145.36564">
    <ele>466.37000000000006</ele>
   </trkpt>
   <trkpt lat="-37.83276" lon="145.3656">
    <ele>465.77</ele>
   </trkpt>
   <trkpt lat="-37.833090000000006" lon="145.36562">
    <ele>460.41</ele>
   </trkpt>
   <trkpt lat="-37.83341" lon="145.3658">
    <ele>455.36</ele>
   </trkpt>
   <trkpt lat="-37.8337" lon="145.36607">
    <ele>451.88000000000005</ele>
   </trkpt>
   <trkpt lat="-37.83419" lon="145.36644">
    <ele>443.25</ele>
   </trkpt>
   <trkpt lat="-37.83431" lon="145.36658">
    <ele>441.08000000000004</ele>
   </trkpt>
   <trkpt lat="-37.8344" lon="145.36679">
    <ele>438.91</ele>
   </trkpt>
   <trkpt lat="-37.83469" lon="145.36711000000003">
    <ele>433.69</ele>
   </trkpt>
   <trkpt lat="-37.83482" lon="145.36722">
    <ele>431.32000000000005</ele>
   </trkpt>
   <trkpt lat="-37.83509" lon="145.3673">
    <ele>427.18000000000006</ele>
   </trkpt>
   <trkpt lat="-37.83518" lon="145.36738000000003">
    <ele>426.02</ele>
   </trkpt>
   <trkpt lat="-37.83522" lon="145.36747000000003">
    <ele>425.77000000000004</ele>
   </trkpt>
   <trkpt lat="-37.83531" lon="145.36742">
    <ele>425.22</ele>
   </trkpt>
   <trkpt lat="-37.8354" lon="145.36739">
    <ele>425.14</ele>
   </trkpt>
   <trkpt lat="-37.83552" lon="145.36745000000002">
    <ele>425.50000000000006</ele>
   </trkpt>
   <trkpt lat="-37.83594" lon="145.36824000000001">
    <ele>429.93</ele>
   </trkpt>
   <trkpt lat="-37.83631000105445" lon="145.3687299975945">
    <ele>434.66</ele>
   </trkpt>
   <trkpt lat="-37.83668" lon="145.36922">
    <ele>439.06000000000006</ele>
   </trkpt>
   <trkpt lat="-37.8369" lon="145.36942000000002">
    <ele>442.66</ele>
   </trkpt>
   <trkpt lat="-37.83708" lon="145.36950000000002">
    <ele>443.96000000000004</ele>
   </trkpt>
   <trkpt lat="-37.83719" lon="145.36952000000002">
    <ele>444.40000000000003</ele>
   </trkpt>
   <trkpt lat="-37.83719" lon="145.36971">
    <ele>442.92</ele>
   </trkpt>
   <trkpt lat="-37.83706" lon="145.3701">
    <ele>437.75</ele>
   </trkpt>
   <trkpt lat="-37.83701000000001" lon="145.37063">
    <ele>434.35</ele>
   </trkpt>
   <trkpt lat="-37.83737" lon="145.37053">
    <ele>433.95000000000005</ele>
   </trkpt>
   <trkpt lat="-37.83769" lon="145.37040000000002">
    <ele>430.28000000000003</ele>
   </trkpt>
   <trkpt lat="-37.83798" lon="145.37023000000002">
    <ele>430.34000000000003</ele>
   </trkpt>
   <trkpt lat="-37.83849" lon="145.36997000000002">
    <ele>436.54</ele>
   </trkpt>
   <trkpt lat="-37.83869" lon="145.36991">
    <ele>440.38000000000005</ele>
   </trkpt>
   <trkpt lat="-37.83885" lon="145.3698">
    <ele>442.32000000000005</ele>
   </trkpt>
   <trkpt lat="-37.8391" lon="145.36968000000002">
    <ele>445.95</ele>
   </trkpt>
   <trkpt lat="-37.839560000000006" lon="145.36941000000002">
    <ele>451.14000000000004</ele>
   </trkpt>
   <trkpt lat="-37.83975" lon="145.36926000000003">
    <ele>456.1000000000001</ele>
   </trkpt>
   <trkpt lat="-37.839940000000006" lon="145.36906000000002">
    <ele>460.58000000000004</ele>
   </trkpt>
   <trkpt lat="-37.83999" lon="145.36903">
    <ele>461.08000000000004</ele>
   </trkpt>
   <trkpt lat="-37.84022" lon="145.36902">
    <ele>463.32000000000005</ele>
   </trkpt>
   <trkpt lat="-37.84057" lon="145.36894">
    <ele>469.03000000000003</ele>
   </trkpt>
   <trkpt lat="-37.84087" lon="145.36892">
    <ele>472.38</ele>
   </trkpt>
   <trkpt lat="-37.840880000000006" lon="145.36921">
    <ele>470.38</ele>
   </trkpt>
   <trkpt lat="-37.84080500173106" lon="145.36985000065633">
    <ele>466.4800000000001</ele>
   </trkpt>
   <trkpt lat="-37.84073" lon="145.37049000000002">
    <ele>465.26000000000005</ele>
   </trkpt>
   <trkpt lat="-37.84073" lon="145.37071">
    <ele>464.89000000000004</ele>
   </trkpt>
   <trkpt lat="-37.84075" lon="145.37084000000002">
    <ele>464.83</ele>
   </trkpt>
   <trkpt lat="-37.84089" lon="145.37119">
    <ele>464.91</ele>
   </trkpt>
   <trkpt lat="-37.841245002043856" lon="145.37188999657602">
    <ele>466.03000000000003</ele>
   </trkpt>
   <trkpt lat="-37.8416" lon="145.37259">
    <ele>467.73</ele>
   </trkpt>
   <trkpt lat="-37.84183" lon="145.37294">
    <ele>467.84000000000003</ele>
   </trkpt>
   <trkpt lat="-37.84205" lon="145.37321">
    <ele>468.01000000000005</ele>
   </trkpt>
   <trkpt lat="-37.84232" lon="145.37346000000002">
    <ele>468.95000000000005</ele>
   </trkpt>
   <trkpt lat="-37.84261" lon="145.37362000000002">
    <ele>470.70000000000005</ele>
   </trkpt>
   <trkpt lat="-37.84313" lon="145.37378">
    <ele>474.48</ele>
   </trkpt>
   <trkpt lat="-37.843410000000006" lon="145.37382000000002">
    <ele>477.37</ele>
   </trkpt>
   <trkpt lat="-37.84373" lon="145.37384">
    <ele>479.91</ele>
   </trkpt>
   <trkpt lat="-37.8442" lon="145.37382000000002">
    <ele>481.92</ele>
   </trkpt>
   <trkpt lat="-37.84445" lon="145.37379">
    <ele>483.52000000000004</ele>
   </trkpt>
   <trkpt lat="-37.84489500003845" lon="145.3736950005732">
    <ele>485.13000000000005</ele>
   </trkpt>
   <trkpt lat="-37.84534" lon="145.3736">
    <ele>486.78000000000003</ele>
   </trkpt>
   <trkpt lat="-37.8457" lon="145.37356000000003">
    <ele>488.08</ele>
   </trkpt>
   <trkpt lat="-37.84595" lon="145.37358">
    <ele>487.69</ele>
   </trkpt>
   <trkpt lat="-37.846700000000006" lon="145.37385">
    <ele>483.7</ele>
   </trkpt>
   <trkpt lat="-37.84745" lon="145.37404">
    <ele>480.76</ele>
   </trkpt>
   <trkpt lat="-37.84765" lon="145.37413">
    <ele>480.11</ele>
   </trkpt>
   <trkpt lat="-37.84794" lon="145.37421">
    <ele>479.52000000000004</ele>
   </trkpt>
   <trkpt lat="-37.848200000000006" lon="145.37433000000001">
    <ele>479.13000000000005</ele>
   </trkpt>
   <trkpt lat="-37.84832" lon="145.37447">
    <ele>479.15000000000003</ele>
   </trkpt>
   <trkpt lat="-37.848330000000004" lon="145.37449">
    <ele>479.15000000000003</ele>
   </trkpt>
   <trkpt lat="-37.84832" lon="145.37446">
    <ele>479.15000000000003</ele>
   </trkpt>
   <trkpt lat="-37.84834" lon="145.37458">
    <ele>479.25000000000006</ele>
   </trkpt>
   <trkpt lat="-37.84816" lon="145.37506000000002">
    <ele>481.44</ele>
   </trkpt>
   <trkpt lat="-37.8481" lon="145.37556">
    <ele>483.92</ele>
   </trkpt>
   <trkpt lat="-37.84816" lon="145.37637">
    <ele>489.72</ele>
   </trkpt>
   <trkpt lat="-37.84814" lon="145.37654">
    <ele>490.17</ele>
   </trkpt>
   <trkpt lat="-37.8481" lon="145.3767">
    <ele>490.24000000000007</ele>
   </trkpt>
   <trkpt lat="-37.84787" lon="145.37705000000003">
    <ele>488.89000000000004</ele>
   </trkpt>
   <trkpt lat="-37.84751" lon="145.37740000000002">
    <ele>485.03000000000003</ele>
   </trkpt>
   <trkpt lat="-37.84731" lon="145.37754">
    <ele>484.02000000000004</ele>
   </trkpt>
   <trkpt lat="-37.84758" lon="145.37766000000002">
    <ele>487.22</ele>
   </trkpt>
   <trkpt lat="-37.84799" lon="145.37777">
    <ele>490.97</ele>
   </trkpt>
   <trkpt lat="-37.84758" lon="145.37766000000002">
    <ele>487.22</ele>
   </trkpt>
   <trkpt lat="-37.84731" lon="145.37754">
    <ele>483.55</ele>
   </trkpt>
   <trkpt lat="-37.84729" lon="145.37757000000002">
    <ele>483.57000000000005</ele>
   </trkpt>
   <trkpt lat="-37.8468" lon="145.37722000000002">
    <ele>472.99</ele>
   </trkpt>
   <trkpt lat="-37.84666" lon="145.37718">
    <ele>472.99</ele>
   </trkpt>
   <trkpt lat="-37.84646" lon="145.37716">
    <ele>468.46000000000004</ele>
   </trkpt>
   <trkpt lat="-37.84633" lon="145.37718">
    <ele>467.63000000000005</ele>
   </trkpt>
   <trkpt lat="-37.8461" lon="145.37725">
    <ele>464.07000000000005</ele>
   </trkpt>
   <trkpt lat="-37.8459" lon="145.37727">
    <ele>456.24</ele>
   </trkpt>
   <trkpt lat="-37.84582" lon="145.37730000000002">
    <ele>456.24</ele>
   </trkpt>
   <trkpt lat="-37.84523" lon="145.37737">
    <ele>442.46000000000004</ele>
   </trkpt>
   <trkpt lat="-37.84492" lon="145.37729000000002">
    <ele>436.85</ele>
   </trkpt>
   <trkpt lat="-37.84431" lon="145.37730000000002">
    <ele>427.11</ele>
   </trkpt>
   <trkpt lat="-37.84384" lon="145.37723000000003">
    <ele>416.51000000000005</ele>
   </trkpt>
   <trkpt lat="-37.843610000000005" lon="145.37727">
    <ele>411.78000000000003</ele>
   </trkpt>
   <trkpt lat="-37.8436" lon="145.37728">
    <ele>411.78000000000003</ele>
   </trkpt>
   <trkpt lat="-37.84346" lon="145.37734">
    <ele>407.9200000000001</ele>
   </trkpt>
   <trkpt lat="-37.84333" lon="145.37742">
    <ele>406.18</ele>
   </trkpt>
   <trkpt lat="-37.84326" lon="145.37756000000002">
    <ele>403.9200000000001</ele>
   </trkpt>
   <trkpt lat="-37.84324" lon="145.37767000000002">
    <ele>402.14000000000004</ele>
   </trkpt>
   <trkpt lat="-37.84326" lon="145.3778">
    <ele>401.19000000000005</ele>
   </trkpt>
   <trkpt lat="-37.84333" lon="145.37800000000001">
    <ele>399.35</ele>
   </trkpt>
   <trkpt lat="-37.84375" lon="145.37878">
    <ele>388.74</ele>
   </trkpt>
   <trkpt lat="-37.84411" lon="145.37913">
    <ele>384.5</ele>
   </trkpt>
   <trkpt lat="-37.84427" lon="145.37936000000002">
    <ele>381.02000000000004</ele>
   </trkpt>
   <trkpt lat="-37.8444" lon="145.37967">
    <ele>374.73</ele>
   </trkpt>
   <trkpt lat="-37.84451" lon="145.38000000000002">
    <ele>371.44000000000005</ele>
   </trkpt>
   <trkpt lat="-37.84451" lon="145.3802">
    <ele>369.23</ele>
   </trkpt>
   <trkpt lat="-37.844500000000004" lon="145.38032">
    <ele>367.45000000000005</ele>
   </trkpt>
   <trkpt lat="-37.844440000000006" lon="145.3804">
    <ele>365.97</ele>
   </trkpt>
   <trkpt lat="-37.84431" lon="145.38042000000002">
    <ele>363.68</ele>
   </trkpt>
   <trkpt lat="-37.84396" lon="145.38022">
    <ele>357.51000000000005</ele>
   </trkpt>
   <trkpt lat="-37.84315" lon="145.37983">
    <ele>346.24000000000007</ele>
   </trkpt>
   <trkpt lat="-37.84297" lon="145.37982000000002">
    <ele>342.79</ele>
   </trkpt>
   <trkpt lat="-37.84277" lon="145.37985">
    <ele>339.63000000000005</ele>
   </trkpt>
   <trkpt lat="-37.84257" lon="145.37998000000002">
    <ele>334.28000000000003</ele>
   </trkpt>
   <trkpt lat="-37.8425" lon="145.38008000000002">
    <ele>333.53000000000003</ele>
   </trkpt>
   <trkpt lat="-37.842380000000006" lon="145.38016000000002">
    <ele>330.62</ele>
   </trkpt>
   <trkpt lat="-37.84223" lon="145.38017000000002">
    <ele>327.37000000000006</ele>
   </trkpt>
   <trkpt lat="-37.84205" lon="145.38012">
    <ele>325.17</ele>
   </trkpt>
   <trkpt lat="-37.84201" lon="145.38002">
    <ele>325.16</ele>
   </trkpt>
   <trkpt lat="-37.84185" lon="145.37971000000002">
    <ele>326.09000000000003</ele>
   </trkpt>
   <trkpt lat="-37.84154" lon="145.37922">
    <ele>328.47</ele>
   </trkpt>
   <trkpt lat="-37.84122" lon="145.37847000000002">
    <ele>330.15000000000003</ele>
   </trkpt>
   <trkpt lat="-37.84103" lon="145.37786">
    <ele>333.08000000000004</ele>
   </trkpt>
   <trkpt lat="-37.84122" lon="145.37847000000002">
    <ele>329.99</ele>
   </trkpt>
   <trkpt lat="-37.84154" lon="145.37922">
    <ele>328.47</ele>
   </trkpt>
   <trkpt lat="-37.84185" lon="145.37971000000002">
    <ele>326.09000000000003</ele>
   </trkpt>
   <trkpt lat="-37.84201" lon="145.38002">
    <ele>325.16</ele>
   </trkpt>
   <trkpt lat="-37.84205" lon="145.38012">
    <ele>325.17</ele>
   </trkpt>
   <trkpt lat="-37.84223" lon="145.38017000000002">
    <ele>327.37000000000006</ele>
   </trkpt>
   <trkpt lat="-37.842380000000006" lon="145.38016000000002">
    <ele>331.37000000000006</ele>
   </trkpt>
   <trkpt lat="-37.8425" lon="145.38008000000002">
    <ele>333.53000000000003</ele>
   </trkpt>
   <trkpt lat="-37.84257" lon="145.37998000000002">
    <ele>334.28000000000003</ele>
   </trkpt>
   <trkpt lat="-37.84277" lon="145.37985">
    <ele>339.63000000000005</ele>
   </trkpt>
   <trkpt lat="-37.84297" lon="145.37982000000002">
    <ele>342.79</ele>
   </trkpt>
   <trkpt lat="-37.84315" lon="145.37983">
    <ele>346.24000000000007</ele>
   </trkpt>
   <trkpt lat="-37.84396" lon="145.38022">
    <ele>357.51000000000005</ele>
   </trkpt>
   <trkpt lat="-37.84431" lon="145.38042000000002">
    <ele>363.68</ele>
   </trkpt>
   <trkpt lat="-37.844440000000006" lon="145.3804">
    <ele>365.97</ele>
   </trkpt>
   <trkpt lat="-37.84431" lon="145.38042000000002">
    <ele>363.68</ele>
   </trkpt>
   <trkpt lat="-37.84396" lon="145.38022">
    <ele>357.51000000000005</ele>
   </trkpt>
   <trkpt lat="-37.84315" lon="145.37983">
    <ele>346.24000000000007</ele>
   </trkpt>
   <trkpt lat="-37.84297" lon="145.37982000000002">
    <ele>342.79</ele>
   </trkpt>
   <trkpt lat="-37.84277" lon="145.37985">
    <ele>339.63000000000005</ele>
   </trkpt>
   <trkpt lat="-37.84257" lon="145.37998000000002">
    <ele>334.28000000000003</ele>
   </trkpt>
   <trkpt lat="-37.8425" lon="145.38008000000002">
    <ele>333.53000000000003</ele>
   </trkpt>
   <trkpt lat="-37.842380000000006" lon="145.38016000000002">
    <ele>330.62</ele>
   </trkpt>
   <trkpt lat="-37.84223" lon="145.38017000000002">
    <ele>327.37000000000006</ele>
   </trkpt>
   <trkpt lat="-37.84205" lon="145.38012">
    <ele>325.17</ele>
   </trkpt>
   <trkpt lat="-37.84201" lon="145.38002">
    <ele>325.16</ele>
   </trkpt>
   <trkpt lat="-37.84185" lon="145.37971000000002">
    <ele>326.09000000000003</ele>
   </trkpt>
   <trkpt lat="-37.84154" lon="145.37922">
    <ele>328.47</ele>
   </trkpt>
   <trkpt lat="-37.84122" lon="145.37847000000002">
    <ele>330.15000000000003</ele>
   </trkpt>
   <trkpt lat="-37.84103" lon="145.37786">
    <ele>333.08000000000004</ele>
   </trkpt>
   <trkpt lat="-37.840990000000005" lon="145.37779">
    <ele>333.11</ele>
   </trkpt>
   <trkpt lat="-37.840970000000006" lon="145.37764">
    <ele>334.14000000000004</ele>
   </trkpt>
   <trkpt lat="-37.84089" lon="145.37754">
    <ele>335.01000000000005</ele>
   </trkpt>
   <trkpt lat="-37.84046" lon="145.37711000000002">
    <ele>343.25000000000006</ele>
   </trkpt>
   <trkpt lat="-37.84024" lon="145.37681">
    <ele>350.74000000000007</ele>
   </trkpt>
   <trkpt lat="-37.83999500117897" lon="145.37628499828548">
    <ele>355.56000000000006</ele>
   </trkpt>
   <trkpt lat="-37.83975" lon="145.37576">
    <ele>361.75</ele>
   </trkpt>
   <trkpt lat="-37.83948000276182" lon="145.37494999699896">
    <ele>370.4</ele>
   </trkpt>
   <trkpt lat="-37.83921" lon="145.37414">
    <ele>378.39</ele>
   </trkpt>
   <trkpt lat="-37.8391" lon="145.37399000000002">
    <ele>379.3</ele>
   </trkpt>
   <trkpt lat="-37.83883" lon="145.37376">
    <ele>380.0</ele>
   </trkpt>
   <trkpt lat="-37.83858" lon="145.37359">
    <ele>380.36</ele>
   </trkpt>
   <trkpt lat="-37.83847" lon="145.37354000000002">
    <ele>381.05000000000007</ele>
   </trkpt>
   <trkpt lat="-37.83822" lon="145.37348">
    <ele>384.14000000000004</ele>
   </trkpt>
   <trkpt lat="-37.83805" lon="145.37351">
    <ele>390.16</ele>
   </trkpt>
   <trkpt lat="-37.83791" lon="145.37358">
    <ele>393.43000000000006</ele>
   </trkpt>
   <trkpt lat="-37.83784" lon="145.37368">
    <ele>395.53000000000003</ele>
   </trkpt>
   <trkpt lat="-37.83764" lon="145.37427000000002">
    <ele>404.16</ele>
   </trkpt>
   <trkpt lat="-37.83746" lon="145.37449">
    <ele>406.94</ele>
   </trkpt>
   <trkpt lat="-37.837360000000004" lon="145.37465">
    <ele>407.38</ele>
   </trkpt>
   <trkpt lat="-37.83735" lon="145.37466">
    <ele>407.38</ele>
   </trkpt>
   <trkpt lat="-37.83719" lon="145.37407000000002">
    <ele>409.1</ele>
   </trkpt>
   <trkpt lat="-37.83719" lon="145.37388">
    <ele>409.54</ele>
   </trkpt>
   <trkpt lat="-37.83708" lon="145.37331">
    <ele>413.61</ele>
   </trkpt>
   <trkpt lat="-37.83699" lon="145.37235">
    <ele>423.93</ele>
   </trkpt>
   <trkpt lat="-37.837030000000006" lon="145.3719">
    <ele>426.8</ele>
   </trkpt>
   <trkpt lat="-37.83699" lon="145.37133">
    <ele>429.84000000000003</ele>
   </trkpt>
   <trkpt lat="-37.837030000000006" lon="145.37094000000002">
    <ele>432.22</ele>
   </trkpt>
   <trkpt lat="-37.83701000000001" lon="145.37064">
    <ele>434.28000000000003</ele>
   </trkpt>
   <trkpt lat="-37.83701000000001" lon="145.37063">
    <ele>434.28000000000003</ele>
   </trkpt>
   <trkpt lat="-37.83737" lon="145.37053">
    <ele>433.95000000000005</ele>
   </trkpt>
   <trkpt lat="-37.83769" lon="145.37040000000002">
    <ele>430.28000000000003</ele>
   </trkpt>
   <trkpt lat="-37.83798" lon="145.37023000000002">
    <ele>430.34000000000003</ele>
   </trkpt>
   <trkpt lat="-37.83849" lon="145.36997000000002">
    <ele>436.54</ele>
   </trkpt>
   <trkpt lat="-37.83869" lon="145.36991">
    <ele>440.38000000000005</ele>
   </trkpt>
   <trkpt lat="-37.83885" lon="145.3698">
    <ele>442.32000000000005</ele>
   </trkpt>
   <trkpt lat="-37.8391" lon="145.36968000000002">
    <ele>445.95</ele>
   </trkpt>
   <trkpt lat="-37.839560000000006" lon="145.36941000000002">
    <ele>451.14000000000004</ele>
   </trkpt>
   <trkpt lat="-37.83975" lon="145.36926000000003">
    <ele>456.1000000000001</ele>
   </trkpt>
   <trkpt lat="-37.839940000000006" lon="145.36906000000002">
    <ele>460.58000000000004</ele>
   </trkpt>
   <trkpt lat="-37.83999" lon="145.36903">
    <ele>461.08000000000004</ele>
   </trkpt>
   <trkpt lat="-37.84022" lon="145.36902">
    <ele>463.32000000000005</ele>
   </trkpt>
   <trkpt lat="-37.84057" lon="145.36894">
    <ele>467.76000000000005</ele>
   </trkpt>
   <trkpt lat="-37.84087" lon="145.36892">
    <ele>472.40000000000003</ele>
   </trkpt>
   <trkpt lat="-37.84093" lon="145.36841">
    <ele>474.79</ele>
   </trkpt>
   <trkpt lat="-37.84091" lon="145.36816000000002">
    <ele>475.93</ele>
   </trkpt>
   <trkpt lat="-37.84135999986439" lon="145.36817499990394">
    <ele>480.71000000000004</ele>
   </trkpt>
   <trkpt lat="-37.84181" lon="145.36819">
    <ele>486.4100000000001</ele>
   </trkpt>
   <trkpt lat="-37.84219" lon="145.36729000000003">
    <ele>478.5</ele>
   </trkpt>
   <trkpt lat="-37.842290000000006" lon="145.36720000000003">
    <ele>477.2</ele>
   </trkpt>
   <trkpt lat="-37.84246" lon="145.36715">
    <ele>475.24000000000007</ele>
   </trkpt>
   <trkpt lat="-37.8425" lon="145.36701000000002">
    <ele>474.66</ele>
   </trkpt>
   <trkpt lat="-37.8425" lon="145.36689">
    <ele>474.76</ele>
   </trkpt>
   <trkpt lat="-37.84234" lon="145.36639000000002">
    <ele>477.99</ele>
   </trkpt>
   <trkpt lat="-37.84212000120055" lon="145.36584499823752">
    <ele>479.44</ele>
   </trkpt>
   <trkpt lat="-37.8419" lon="145.36530000000002">
    <ele>475.58000000000004</ele>
   </trkpt>
   <trkpt lat="-37.84196" lon="145.36505000000002">
    <ele>473.95000000000005</ele>
   </trkpt>
   <trkpt lat="-37.8421" lon="145.36476000000002">
    <ele>472.48</ele>
   </trkpt>
   <trkpt lat="-37.84245500074403" lon="145.3643400020237">
    <ele>467.13000000000005</ele>
   </trkpt>
   <trkpt lat="-37.84281" lon="145.36392">
    <ele>459.05</ele>
   </trkpt>
   <trkpt lat="-37.84286" lon="145.36383">
    <ele>458.1000000000001</ele>
   </trkpt>
   <trkpt lat="-37.84288" lon="145.36368000000002">
    <ele>457.28000000000003</ele>
   </trkpt>
   <trkpt lat="-37.84281" lon="145.36349">
    <ele>457.41</ele>
   </trkpt>
   <trkpt lat="-37.84223" lon="145.36280000000002">
    <ele>469.94</ele>
   </trkpt>
   <trkpt lat="-37.8421" lon="145.36245000000002">
    <ele>471.81000000000006</ele>
   </trkpt>
   <trkpt lat="-37.842130000000004" lon="145.36174000000003">
    <ele>477.07000000000005</ele>
   </trkpt>
   <trkpt lat="-37.8428350004788" lon="145.3615475055181">
    <ele>484.01000000000005</ele>
   </trkpt>
   <trkpt lat="-37.84354000064427" lon="145.36135500735594">
    <ele>494.31</ele>
   </trkpt>
   <trkpt lat="-37.8442450004964" lon="145.36116250551345">
    <ele>506.15</ele>
   </trkpt>
   <trkpt lat="-37.844950000000004" lon="145.36097">
    <ele>512.6700000000001</ele>
   </trkpt>
   <trkpt lat="-37.84516" lon="145.36088">
    <ele>512.0300000000001</ele>
   </trkpt>
   <trkpt lat="-37.845240000000004" lon="145.36079">
    <ele>511.61</ele>
   </trkpt>
   <trkpt lat="-37.84539" lon="145.36082000000002">
    <ele>511.88</ele>
   </trkpt>
   <trkpt lat="-37.84619" lon="145.36064000000002">
    <ele>511.77000000000004</ele>
   </trkpt>
   <trkpt lat="-37.84655" lon="145.36054000000001">
    <ele>511.55000000000007</ele>
   </trkpt>
   <trkpt lat="-37.84682" lon="145.36052">
    <ele>511.33000000000004</ele>
   </trkpt>
   <trkpt lat="-37.84698" lon="145.36054000000001">
    <ele>511.15</ele>
   </trkpt>
   <trkpt lat="-37.84705" lon="145.36058">
    <ele>510.97999999999996</ele>
   </trkpt>
   <trkpt lat="-37.84707" lon="145.36051">
    <ele>510.97999999999996</ele>
   </trkpt>
   <trkpt lat="-37.84718" lon="145.3604">
    <ele>511.44</ele>
   </trkpt>
   <trkpt lat="-37.847350000000006" lon="145.36039000000002">
    <ele>511.63</ele>
   </trkpt>
   <trkpt lat="-37.84741" lon="145.36042">
    <ele>511.63</ele>
   </trkpt>
   <trkpt lat="-37.847350000000006" lon="145.36039000000002">
    <ele>511.63</ele>
   </trkpt>
   <trkpt lat="-37.84718" lon="145.3604">
    <ele>511.44</ele>
   </trkpt>
   <trkpt lat="-37.84707" lon="145.36051">
    <ele>510.97999999999996</ele>
   </trkpt>
   <trkpt lat="-37.84705" lon="145.36058">
    <ele>510.97999999999996</ele>
   </trkpt>
   <trkpt lat="-37.84727" lon="145.36066000000002">
    <ele>510.77000000000004</ele>
   </trkpt>
   <trkpt lat="-37.8474" lon="145.36077">
    <ele>510.46000000000004</ele>
   </trkpt>
   <trkpt lat="-37.84761" lon="145.36091000000002">
    <ele>510.21999999999997</ele>
   </trkpt>
   <trkpt lat="-37.848050000500415" lon="145.3612599978976">
    <ele>510.02000000000004</ele>
   </trkpt>
   <trkpt lat="-37.848490000000005" lon="145.36161">
    <ele>511.78000000000003</ele>
   </trkpt>
   <trkpt lat="-37.84857" lon="145.36141">
    <ele>513.6700000000001</ele>
   </trkpt>
   <trkpt lat="-37.84854" lon="145.3614">
    <ele>513.6700000000001</ele>
   </trkpt>
  </trkseg>
 </trk>
</gpx>
