<?xml version="1.0" encoding="UTF-8"?>
<gpx creator="StravaGPX" version="1.1" xmlns="http://www.topografix.com/GPX/1/1" xmlns:xsi="http://www.w3.org/2001/XMLSchema-instance" xsi:schemaLocation="http://www.topografix.com/GPX/1/1 http://www.topografix.com/GPX/1/1/gpx.xsd">
 <metadata>
  <name>DTR 16th March 14k</name>
  <author>
   <name>Natalie Gow</name>
  </author>
  <copyright author="OpenStreetMap contributors">
   <year>2020</year>
   <license>https://www.openstreetmap.org/copyright</license>
  </copyright>
 </metadata>
 <trk>
  <name>DTR 16th March 14k</name>
  <link href=""/>
  <type>trail_running</type>
  <trkseg>
   <trkpt lat="-37.89123" lon="145.31714000000002">
    <ele>175.42000000000002</ele>
   </trkpt>
   <trkpt lat="-37.89134" lon="145.31707">
    <ele>174.07</ele>
   </trkpt>
   <trkpt lat="-37.89143" lon="145.31695000000002">
    <ele>172.31</ele>
   </trkpt>
   <trkpt lat="-37.89123" lon="145.31670000000003">
    <ele>177.07</ele>
   </trkpt>
   <trkpt lat="-37.891270000000006" lon="145.31591">
    <ele>184.42000000000002</ele>
   </trkpt>
   <trkpt lat="-37.891220000000004" lon="145.31585">
    <ele>185.77</ele>
   </trkpt>
   <trkpt lat="-37.89108" lon="145.31604000000002">
    <ele>181.24</ele>
   </trkpt>
   <trkpt lat="-37.89099" lon="145.31613000000002">
    <ele>182.09</ele>
   </trkpt>
   <trkpt lat="-37.89099" lon="145.31640000000002">
    <ele>182.04</ele>
   </trkpt>
   <trkpt lat="-37.8909" lon="145.31665">
    <ele>181.68</ele>
   </trkpt>
   <trkpt lat="-37.890730000000005" lon="145.31686000000002">
    <ele>182.09</ele>
   </trkpt>
   <trkpt lat="-37.89049" lon="145.31721000000002">
    <ele>183.98</ele>
   </trkpt>
   <trkpt lat="-37.890280000000004" lon="145.31739000000002">
    <ele>186.05</ele>
   </trkpt>
   <trkpt lat="-37.88978" lon="145.31753">
    <ele>190.20000000000002</ele>
   </trkpt>
   <trkpt lat="-37.88973" lon="145.31761">
    <ele>191.43</ele>
   </trkpt>
   <trkpt lat="-37.88962" lon="145.31768000000002">
    <ele>192.76000000000002</ele>
   </trkpt>
   <trkpt lat="-37.889410000000005" lon="145.31771">
    <ele>194.62</ele>
   </trkpt>
   <trkpt lat="-37.88929" lon="145.31777000000002">
    <ele>196.39000000000001</ele>
   </trkpt>
   <trkpt lat="-37.88866" lon="145.31772">
    <ele>202.36</ele>
   </trkpt>
   <trkpt lat="-37.88846" lon="145.31753">
    <ele>204.77</ele>
   </trkpt>
   <trkpt lat="-37.88839" lon="145.31764">
    <ele>205.56</ele>
   </trkpt>
   <trkpt lat="-37.88846" lon="145.31768000000002">
    <ele>201.26000000000002</ele>
   </trkpt>
   <trkpt lat="-37.88837" lon="145.31803000000002">
    <ele>197.59</ele>
   </trkpt>
   <trkpt lat="-37.88828" lon="145.31826">
    <ele>196.52</ele>
   </trkpt>
   <trkpt lat="-37.88828" lon="145.31838000000002">
    <ele>195.45000000000002</ele>
   </trkpt>
   <trkpt lat="-37.888400000000004" lon="145.31849000000003">
    <ele>194.54000000000002</ele>
   </trkpt>
   <trkpt lat="-37.88846" lon="145.31836">
    <ele>192.70000000000002</ele>
   </trkpt>
   <trkpt lat="-37.88852" lon="145.31825">
    <ele>192.70000000000002</ele>
   </trkpt>
   <trkpt lat="-37.88864" lon="145.31816">
    <ele>190.78</ele>
   </trkpt>
   <trkpt lat="-37.8887" lon="145.31814">
    <ele>190.78</ele>
   </trkpt>
   <trkpt lat="-37.8889" lon="145.31815">
    <ele>189.57000000000002</ele>
   </trkpt>
   <trkpt lat="-37.88946" lon="145.31834">
    <ele>183.19000000000003</ele>
   </trkpt>
   <trkpt lat="-37.889680000000006" lon="145.31833">
    <ele>183.19000000000003</ele>
   </trkpt>
   <trkpt lat="-37.88994" lon="145.31826">
    <ele>179.87</ele>
   </trkpt>
   <trkpt lat="-37.89023" lon="145.31815">
    <ele>176.73000000000002</ele>
   </trkpt>
   <trkpt lat="-37.89054" lon="145.31805">
    <ele>174.90000000000003</ele>
   </trkpt>
   <trkpt lat="-37.89108" lon="145.31797">
    <ele>170.07000000000002</ele>
   </trkpt>
   <trkpt lat="-37.89143" lon="145.31795000000002">
    <ele>167.61</ele>
   </trkpt>
   <trkpt lat="-37.89159" lon="145.31788">
    <ele>165.57000000000002</ele>
   </trkpt>
   <trkpt lat="-37.89177" lon="145.31771">
    <ele>164.17000000000002</ele>
   </trkpt>
   <trkpt lat="-37.89193" lon="145.3177">
    <ele>164.48000000000002</ele>
   </trkpt>
   <trkpt lat="-37.892030000000005" lon="145.31774000000001">
    <ele>164.57000000000002</ele>
   </trkpt>
   <trkpt lat="-37.892120000000006" lon="145.31784000000002">
    <ele>164.38000000000002</ele>
   </trkpt>
   <trkpt lat="-37.892260003259764" lon="145.31871999822775">
    <ele>167.09</ele>
   </trkpt>
   <trkpt lat="-37.8924" lon="145.3196">
    <ele>174.19</ele>
   </trkpt>
   <trkpt lat="-37.89246" lon="145.31988">
    <ele>175.38</ele>
   </trkpt>
   <trkpt lat="-37.8926" lon="145.32019000000003">
    <ele>175.44</ele>
   </trkpt>
   <trkpt lat="-37.892610000000005" lon="145.3202">
    <ele>175.43</ele>
   </trkpt>
   <trkpt lat="-37.89246" lon="145.31988">
    <ele>175.38</ele>
   </trkpt>
   <trkpt lat="-37.8924" lon="145.3196">
    <ele>174.19</ele>
   </trkpt>
   <trkpt lat="-37.89224500408075" lon="145.3186199980539">
    <ele>166.58</ele>
   </trkpt>
   <trkpt lat="-37.89209" lon="145.31764">
    <ele>164.27</ele>
   </trkpt>
   <trkpt lat="-37.89209" lon="145.31715">
    <ele>160.93</ele>
   </trkpt>
   <trkpt lat="-37.89227" lon="145.31651000000002">
    <ele>160.94</ele>
   </trkpt>
   <trkpt lat="-37.89219000000001" lon="145.31646">
    <ele>156.42</ele>
   </trkpt>
   <trkpt lat="-37.89217" lon="145.31654">
    <ele>156.83</ele>
   </trkpt>
   <trkpt lat="-37.89206" lon="145.31648">
    <ele>159.85999999999999</ele>
   </trkpt>
   <trkpt lat="-37.89199" lon="145.31684">
    <ele>162.13000000000002</ele>
   </trkpt>
   <trkpt lat="-37.89181" lon="145.31715">
    <ele>164.53</ele>
   </trkpt>
   <trkpt lat="-37.89105" lon="145.31766000000002">
    <ele>174.3</ele>
   </trkpt>
   <trkpt lat="-37.8909" lon="145.31774000000001">
    <ele>174.3</ele>
   </trkpt>
   <trkpt lat="-37.8905" lon="145.31787">
    <ele>179.62</ele>
   </trkpt>
   <trkpt lat="-37.88987" lon="145.31801000000002">
    <ele>185.58</ele>
   </trkpt>
   <trkpt lat="-37.88971" lon="145.318">
    <ele>187.06</ele>
   </trkpt>
   <trkpt lat="-37.88904" lon="145.31795000000002">
    <ele>194.04000000000002</ele>
   </trkpt>
   <trkpt lat="-37.88875" lon="145.31786000000002">
    <ele>197.63000000000002</ele>
   </trkpt>
   <trkpt lat="-37.88846" lon="145.31768000000002">
    <ele>201.26000000000002</ele>
   </trkpt>
   <trkpt lat="-37.88837" lon="145.31803000000002">
    <ele>197.59</ele>
   </trkpt>
   <trkpt lat="-37.88828" lon="145.31826">
    <ele>196.52</ele>
   </trkpt>
   <trkpt lat="-37.88828" lon="145.31838000000002">
    <ele>195.45000000000002</ele>
   </trkpt>
   <trkpt lat="-37.888400000000004" lon="145.31849000000003">
    <ele>194.54000000000002</ele>
   </trkpt>
   <trkpt lat="-37.88839" lon="145.31866000000002">
    <ele>194.54000000000002</ele>
   </trkpt>
   <trkpt lat="-37.88848" lon="145.3189">
    <ele>198.02000000000004</ele>
   </trkpt>
   <trkpt lat="-37.88888" lon="145.31943">
    <ele>201.29000000000002</ele>
   </trkpt>
   <trkpt lat="-37.88902" lon="145.31968">
    <ele>203.99</ele>
   </trkpt>
   <trkpt lat="-37.88930000223018" lon="145.320404997261">
    <ele>213.02</ele>
   </trkpt>
   <trkpt lat="-37.88958" lon="145.32113">
    <ele>218.22000000000003</ele>
   </trkpt>
   <trkpt lat="-37.889700000000005" lon="145.32170000000002">
    <ele>222.50000000000003</ele>
   </trkpt>
   <trkpt lat="-37.8898" lon="145.32205000000002">
    <ele>225.94000000000003</ele>
   </trkpt>
   <trkpt lat="-37.88987" lon="145.32222000000002">
    <ele>226.85000000000002</ele>
   </trkpt>
   <trkpt lat="-37.88998" lon="145.32240000000002">
    <ele>229.05000000000004</ele>
   </trkpt>
   <trkpt lat="-37.89016" lon="145.32258000000002">
    <ele>230.26000000000002</ele>
   </trkpt>
   <trkpt lat="-37.89062000067549" lon="145.32290999809234">
    <ele>235.60000000000002</ele>
   </trkpt>
   <trkpt lat="-37.89108" lon="145.32324">
    <ele>239.76000000000002</ele>
   </trkpt>
   <trkpt lat="-37.89164" lon="145.32368000000002">
    <ele>248.42000000000002</ele>
   </trkpt>
   <trkpt lat="-37.892120000000006" lon="145.32410000000002">
    <ele>253.13000000000002</ele>
   </trkpt>
   <trkpt lat="-37.89231" lon="145.32430000000002">
    <ele>253.13000000000002</ele>
   </trkpt>
   <trkpt lat="-37.8926" lon="145.32465000000002">
    <ele>260.59000000000003</ele>
   </trkpt>
   <trkpt lat="-37.89298" lon="145.32529000000002">
    <ele>266.92</ele>
   </trkpt>
   <trkpt lat="-37.89331" lon="145.32575">
    <ele>274.46000000000004</ele>
   </trkpt>
   <trkpt lat="-37.893330000000006" lon="145.32586">
    <ele>274.46000000000004</ele>
   </trkpt>
   <trkpt lat="-37.89327" lon="145.32601000000003">
    <ele>274.96000000000004</ele>
   </trkpt>
   <trkpt lat="-37.8932" lon="145.32604">
    <ele>275.38</ele>
   </trkpt>
   <trkpt lat="-37.89311" lon="145.32603">
    <ele>275.73</ele>
   </trkpt>
   <trkpt lat="-37.893" lon="145.32594">
    <ele>276.18</ele>
   </trkpt>
   <trkpt lat="-37.892790000000005" lon="145.32572000000002">
    <ele>277.99</ele>
   </trkpt>
   <trkpt lat="-37.89255" lon="145.32547000000002">
    <ele>282.53</ele>
   </trkpt>
   <trkpt lat="-37.89231" lon="145.32527000000002">
    <ele>282.53</ele>
   </trkpt>
   <trkpt lat="-37.89199" lon="145.32508">
    <ele>288.86</ele>
   </trkpt>
   <trkpt lat="-37.89166" lon="145.32494">
    <ele>289.74</ele>
   </trkpt>
   <trkpt lat="-37.89101" lon="145.3248">
    <ele>295.44000000000005</ele>
   </trkpt>
   <trkpt lat="-37.8903049999841" lon="145.32475999961574">
    <ele>301.21000000000004</ele>
   </trkpt>
   <trkpt lat="-37.8896" lon="145.32472">
    <ele>309.1</ele>
   </trkpt>
   <trkpt lat="-37.88913" lon="145.32464000000002">
    <ele>314.71999999999997</ele>
   </trkpt>
   <trkpt lat="-37.888740000000006" lon="145.32451">
    <ele>319.23</ele>
   </trkpt>
   <trkpt lat="-37.88837" lon="145.32436">
    <ele>324.09000000000003</ele>
   </trkpt>
   <trkpt lat="-37.88797" lon="145.32415">
    <ele>328.32</ele>
   </trkpt>
   <trkpt lat="-37.88732" lon="145.32373">
    <ele>336.09</ele>
   </trkpt>
   <trkpt lat="-37.88718" lon="145.32368000000002">
    <ele>338.81</ele>
   </trkpt>
   <trkpt lat="-37.88707" lon="145.32368000000002">
    <ele>338.81</ele>
   </trkpt>
   <trkpt lat="-37.88693" lon="145.32371">
    <ele>341.59</ele>
   </trkpt>
   <trkpt lat="-37.886770000000006" lon="145.32379">
    <ele>341.59</ele>
   </trkpt>
   <trkpt lat="-37.88667" lon="145.32387">
    <ele>343.05</ele>
   </trkpt>
   <trkpt lat="-37.88649" lon="145.32406">
    <ele>347.05</ele>
   </trkpt>
   <trkpt lat="-37.886390000000006" lon="145.32431000000003">
    <ele>348.52000000000004</ele>
   </trkpt>
   <trkpt lat="-37.88635" lon="145.32461">
    <ele>350.84000000000003</ele>
   </trkpt>
   <trkpt lat="-37.88635" lon="145.32529000000002">
    <ele>357.00000000000006</ele>
   </trkpt>
   <trkpt lat="-37.886375001794164" lon="145.32593999996666">
    <ele>362.22</ele>
   </trkpt>
   <trkpt lat="-37.8864" lon="145.32659">
    <ele>366.09000000000003</ele>
   </trkpt>
   <trkpt lat="-37.88639000170629" lon="145.32722500003212">
    <ele>373.15000000000003</ele>
   </trkpt>
   <trkpt lat="-37.88638" lon="145.32786000000002">
    <ele>377.69</ele>
   </trkpt>
   <trkpt lat="-37.88624" lon="145.32771000000002">
    <ele>376.93</ele>
   </trkpt>
   <trkpt lat="-37.8862" lon="145.3274">
    <ele>376.36</ele>
   </trkpt>
   <trkpt lat="-37.886190000000006" lon="145.32696">
    <ele>376.54</ele>
   </trkpt>
   <trkpt lat="-37.88624" lon="145.32741000000001">
    <ele>376.63</ele>
   </trkpt>
   <trkpt lat="-37.88633" lon="145.32777000000002">
    <ele>377.38000000000005</ele>
   </trkpt>
   <trkpt lat="-37.88638" lon="145.32786000000002">
    <ele>377.46000000000004</ele>
   </trkpt>
   <trkpt lat="-37.886390000000006" lon="145.32833000000002">
    <ele>380.76000000000005</ele>
   </trkpt>
   <trkpt lat="-37.88624" lon="145.32841000000002">
    <ele>381.97</ele>
   </trkpt>
   <trkpt lat="-37.88604" lon="145.32873">
    <ele>388.66</ele>
   </trkpt>
   <trkpt lat="-37.88584" lon="145.32891">
    <ele>395.78000000000003</ele>
   </trkpt>
   <trkpt lat="-37.88555" lon="145.32898">
    <ele>402.13000000000005</ele>
   </trkpt>
   <trkpt lat="-37.88499" lon="145.32899">
    <ele>412.38</ele>
   </trkpt>
   <trkpt lat="-37.88447" lon="145.32879">
    <ele>424.55</ele>
   </trkpt>
   <trkpt lat="-37.88407" lon="145.32862">
    <ele>431.66</ele>
   </trkpt>
   <trkpt lat="-37.88378" lon="145.32857">
    <ele>436.65000000000003</ele>
   </trkpt>
   <trkpt lat="-37.88342" lon="145.32859000000002">
    <ele>441.43000000000006</ele>
   </trkpt>
   <trkpt lat="-37.88311" lon="145.32864">
    <ele>446.37000000000006</ele>
   </trkpt>
   <trkpt lat="-37.88284" lon="145.32863">
    <ele>450.86</ele>
   </trkpt>
   <trkpt lat="-37.88264" lon="145.32853">
    <ele>455.84000000000003</ele>
   </trkpt>
   <trkpt lat="-37.88241" lon="145.32832000000002">
    <ele>461.07000000000005</ele>
   </trkpt>
   <trkpt lat="-37.88223" lon="145.32806000000002">
    <ele>466.68</ele>
   </trkpt>
   <trkpt lat="-37.88201" lon="145.32736">
    <ele>470.74</ele>
   </trkpt>
   <trkpt lat="-37.88181" lon="145.32698000000002">
    <ele>473.34000000000003</ele>
   </trkpt>
   <trkpt lat="-37.88172" lon="145.32688000000002">
    <ele>474.57000000000005</ele>
   </trkpt>
   <trkpt lat="-37.88132" lon="145.32653000000002">
    <ele>479.21000000000004</ele>
   </trkpt>
   <trkpt lat="-37.88067" lon="145.32611">
    <ele>485.38</ele>
   </trkpt>
   <trkpt lat="-37.87993" lon="145.32551">
    <ele>493.45000000000005</ele>
   </trkpt>
   <trkpt lat="-37.87932" lon="145.32488">
    <ele>498.55</ele>
   </trkpt>
   <trkpt lat="-37.87892" lon="145.32431000000003">
    <ele>499.31</ele>
   </trkpt>
   <trkpt lat="-37.8787" lon="145.32406">
    <ele>498.37</ele>
   </trkpt>
   <trkpt lat="-37.8782" lon="145.32342">
    <ele>497.64000000000004</ele>
   </trkpt>
   <trkpt lat="-37.87783" lon="145.32313000000002">
    <ele>498.20000000000005</ele>
   </trkpt>
   <trkpt lat="-37.877" lon="145.32270000000003">
    <ele>493.88000000000005</ele>
   </trkpt>
   <trkpt lat="-37.87675" lon="145.32254">
    <ele>492.78000000000003</ele>
   </trkpt>
   <trkpt lat="-37.8772" lon="145.32261000000003">
    <ele>488.93</ele>
   </trkpt>
   <trkpt lat="-37.87742" lon="145.32267000000002">
    <ele>484.97</ele>
   </trkpt>
   <trkpt lat="-37.87738" lon="145.32242000000002">
    <ele>483.79</ele>
   </trkpt>
   <trkpt lat="-37.87684" lon="145.32166">
    <ele>480.76</ele>
   </trkpt>
   <trkpt lat="-37.87632" lon="145.32108000000002">
    <ele>477.15000000000003</ele>
   </trkpt>
   <trkpt lat="-37.87619" lon="145.32080000000002">
    <ele>474.76</ele>
   </trkpt>
   <trkpt lat="-37.876090000000005" lon="145.32037000000003">
    <ele>474.06</ele>
   </trkpt>
   <trkpt lat="-37.876180000000005" lon="145.32034000000002">
    <ele>472.96000000000004</ele>
   </trkpt>
   <trkpt lat="-37.87632" lon="145.32018000000002">
    <ele>469.74</ele>
   </trkpt>
   <trkpt lat="-37.87644" lon="145.31984">
    <ele>463.71</ele>
   </trkpt>
   <trkpt lat="-37.87659" lon="145.31948">
    <ele>454.38000000000005</ele>
   </trkpt>
   <trkpt lat="-37.87686" lon="145.31899">
    <ele>447.24</ele>
   </trkpt>
   <trkpt lat="-37.87726" lon="145.31836">
    <ele>437.3</ele>
   </trkpt>
   <trkpt lat="-37.8776" lon="145.31788">
    <ele>430.66</ele>
   </trkpt>
   <trkpt lat="-37.87773" lon="145.31763">
    <ele>427.75</ele>
   </trkpt>
   <trkpt lat="-37.877950000000006" lon="145.31736">
    <ele>422.83000000000004</ele>
   </trkpt>
   <trkpt lat="-37.87827" lon="145.31706">
    <ele>418.1</ele>
   </trkpt>
   <trkpt lat="-37.87836" lon="145.31685000000002">
    <ele>418.49</ele>
   </trkpt>
   <trkpt lat="-37.87875333713269" lon="145.3161766739189">
    <ele>418.97</ele>
   </trkpt>
   <trkpt lat="-37.87914667043056" lon="145.31550334064636">
    <ele>419.04</ele>
   </trkpt>
   <trkpt lat="-37.879540000000006" lon="145.31483">
    <ele>425.64</ele>
   </trkpt>
   <trkpt lat="-37.87955" lon="145.31474">
    <ele>426.7</ele>
   </trkpt>
   <trkpt lat="-37.87948" lon="145.31471000000002">
    <ele>427.27000000000004</ele>
   </trkpt>
   <trkpt lat="-37.87932" lon="145.31458">
    <ele>428.1</ele>
   </trkpt>
   <trkpt lat="-37.87924" lon="145.31447">
    <ele>428.36</ele>
   </trkpt>
   <trkpt lat="-37.87924" lon="145.31446000000003">
    <ele>428.36</ele>
   </trkpt>
   <trkpt lat="-37.87915" lon="145.31446000000003">
    <ele>428.50000000000006</ele>
   </trkpt>
   <trkpt lat="-37.87885" lon="145.31461000000002">
    <ele>430.70000000000005</ele>
   </trkpt>
   <trkpt lat="-37.878600000000006" lon="145.31485">
    <ele>433.55</ele>
   </trkpt>
   <trkpt lat="-37.87829" lon="145.31506000000002">
    <ele>438.23</ele>
   </trkpt>
   <trkpt lat="-37.87791" lon="145.31546">
    <ele>444.19</ele>
   </trkpt>
   <trkpt lat="-37.87778" lon="145.31557">
    <ele>444.19</ele>
   </trkpt>
   <trkpt lat="-37.87753" lon="145.31569000000002">
    <ele>447.43000000000006</ele>
   </trkpt>
   <trkpt lat="-37.87735" lon="145.31589000000002">
    <ele>450.76000000000005</ele>
   </trkpt>
   <trkpt lat="-37.87693" lon="145.31661000000003">
    <ele>458.78000000000003</ele>
   </trkpt>
   <trkpt lat="-37.87682" lon="145.31683">
    <ele>461.64000000000004</ele>
   </trkpt>
   <trkpt lat="-37.87668" lon="145.31728">
    <ele>465.76000000000005</ele>
   </trkpt>
   <trkpt lat="-37.87641" lon="145.31827">
    <ele>477.33000000000004</ele>
   </trkpt>
   <trkpt lat="-37.87608" lon="145.31889">
    <ele>483.76</ele>
   </trkpt>
   <trkpt lat="-37.87583" lon="145.31924">
    <ele>486.34000000000003</ele>
   </trkpt>
   <trkpt lat="-37.87547" lon="145.31965000000002">
    <ele>490.15000000000003</ele>
   </trkpt>
   <trkpt lat="-37.87536" lon="145.31973000000002">
    <ele>490.81</ele>
   </trkpt>
   <trkpt lat="-37.87507" lon="145.32012">
    <ele>493.64</ele>
   </trkpt>
   <trkpt lat="-37.87498" lon="145.32019000000003">
    <ele>494.34000000000003</ele>
   </trkpt>
   <trkpt lat="-37.874880000000005" lon="145.3202">
    <ele>494.8</ele>
   </trkpt>
   <trkpt lat="-37.87473" lon="145.32017000000002">
    <ele>496.55</ele>
   </trkpt>
   <trkpt lat="-37.87442" lon="145.32003">
    <ele>499.57</ele>
   </trkpt>
   <trkpt lat="-37.87415" lon="145.32003">
    <ele>502.9800000000001</ele>
   </trkpt>
   <trkpt lat="-37.874" lon="145.32000000000002">
    <ele>504.82000000000005</ele>
   </trkpt>
   <trkpt lat="-37.87355" lon="145.31979">
    <ele>508.86000000000007</ele>
   </trkpt>
   <trkpt lat="-37.87328" lon="145.3197">
    <ele>513.38</ele>
   </trkpt>
   <trkpt lat="-37.87303" lon="145.31965000000002">
    <ele>514.14</ele>
   </trkpt>
   <trkpt lat="-37.87243" lon="145.31962000000001">
    <ele>515.99</ele>
   </trkpt>
   <trkpt lat="-37.87241" lon="145.31979">
    <ele>515.14</ele>
   </trkpt>
   <trkpt lat="-37.87232" lon="145.31989000000002">
    <ele>513.1300000000001</ele>
   </trkpt>
   <trkpt lat="-37.87223" lon="145.32034000000002">
    <ele>507.33000000000004</ele>
   </trkpt>
   <trkpt lat="-37.87203" lon="145.32099000000002">
    <ele>490.73</ele>
   </trkpt>
   <trkpt lat="-37.872" lon="145.32119">
    <ele>487.51000000000005</ele>
   </trkpt>
   <trkpt lat="-37.872" lon="145.32135000000002">
    <ele>485.56000000000006</ele>
   </trkpt>
   <trkpt lat="-37.87207" lon="145.32187000000002">
    <ele>478.21000000000004</ele>
   </trkpt>
   <trkpt lat="-37.87203" lon="145.32209">
    <ele>473.4200000000001</ele>
   </trkpt>
   <trkpt lat="-37.87191" lon="145.32233000000002">
    <ele>465.88</ele>
   </trkpt>
   <trkpt lat="-37.871840000000006" lon="145.32255">
    <ele>462.38</ele>
   </trkpt>
   <trkpt lat="-37.87187" lon="145.32276000000002">
    <ele>460.87000000000006</ele>
   </trkpt>
   <trkpt lat="-37.87185" lon="145.3232">
    <ele>461.09000000000003</ele>
   </trkpt>
   <trkpt lat="-37.871880000000004" lon="145.32333">
    <ele>464.35</ele>
   </trkpt>
   <trkpt lat="-37.87194" lon="145.32344">
    <ele>466.44</ele>
   </trkpt>
   <trkpt lat="-37.87184500277241" lon="145.32425000106326">
    <ele>476.72</ele>
   </trkpt>
   <trkpt lat="-37.871750000000006" lon="145.32506">
    <ele>484.02000000000004</ele>
   </trkpt>
   <trkpt lat="-37.87171" lon="145.32548">
    <ele>484.95000000000005</ele>
   </trkpt>
   <trkpt lat="-37.87142" lon="145.32584">
    <ele>479.44</ele>
   </trkpt>
   <trkpt lat="-37.87124" lon="145.32594">
    <ele>473.76</ele>
   </trkpt>
   <trkpt lat="-37.87104" lon="145.32594">
    <ele>469.29</ele>
   </trkpt>
   <trkpt lat="-37.87093" lon="145.32597">
    <ele>469.29</ele>
   </trkpt>
   <trkpt lat="-37.87082" lon="145.32609000000002">
    <ele>464.33</ele>
   </trkpt>
   <trkpt lat="-37.870720000000006" lon="145.32623">
    <ele>459.82000000000005</ele>
   </trkpt>
   <trkpt lat="-37.87053" lon="145.32625000000002">
    <ele>457.28000000000003</ele>
   </trkpt>
   <trkpt lat="-37.87024" lon="145.32659">
    <ele>448.67</ele>
   </trkpt>
   <trkpt lat="-37.87006" lon="145.32671000000002">
    <ele>446.45</ele>
   </trkpt>
   <trkpt lat="-37.87003" lon="145.32679000000002">
    <ele>445.81</ele>
   </trkpt>
   <trkpt lat="-37.870020000000004" lon="145.32697000000002">
    <ele>443.97</ele>
   </trkpt>
   <trkpt lat="-37.870020000000004" lon="145.32696">
    <ele>443.97</ele>
   </trkpt>
   <trkpt lat="-37.87003" lon="145.32713">
    <ele>441.91</ele>
   </trkpt>
   <trkpt lat="-37.87008" lon="145.32731">
    <ele>439.39000000000004</ele>
   </trkpt>
   <trkpt lat="-37.87024" lon="145.32759000000001">
    <ele>432.45000000000005</ele>
   </trkpt>
   <trkpt lat="-37.87035" lon="145.32771000000002">
    <ele>428.83000000000004</ele>
   </trkpt>
   <trkpt lat="-37.87062" lon="145.32791">
    <ele>423.39000000000004</ele>
   </trkpt>
   <trkpt lat="-37.871" lon="145.32801">
    <ele>418.56000000000006</ele>
   </trkpt>
   <trkpt lat="-37.87131" lon="145.32817">
    <ele>415.89000000000004</ele>
   </trkpt>
   <trkpt lat="-37.8714" lon="145.32824000000002">
    <ele>415.05</ele>
   </trkpt>
   <trkpt lat="-37.87158" lon="145.32842000000002">
    <ele>411.51000000000005</ele>
   </trkpt>
   <trkpt lat="-37.87169" lon="145.32861000000003">
    <ele>408.45000000000005</ele>
   </trkpt>
   <trkpt lat="-37.87171" lon="145.32889">
    <ele>401.66</ele>
   </trkpt>
   <trkpt lat="-37.8718" lon="145.32905000000002">
    <ele>398.93</ele>
   </trkpt>
   <trkpt lat="-37.87196" lon="145.32921000000002">
    <ele>397.33</ele>
   </trkpt>
   <trkpt lat="-37.87216" lon="145.32951">
    <ele>398.95000000000005</ele>
   </trkpt>
   <trkpt lat="-37.87223" lon="145.32968000000002">
    <ele>399.85</ele>
   </trkpt>
   <trkpt lat="-37.87227" lon="145.33004000000003">
    <ele>399.34000000000003</ele>
   </trkpt>
   <trkpt lat="-37.87223" lon="145.33017">
    <ele>398.11</ele>
   </trkpt>
   <trkpt lat="-37.87221" lon="145.33038000000002">
    <ele>396.18</ele>
   </trkpt>
   <trkpt lat="-37.87223" lon="145.3309">
    <ele>392.75000000000006</ele>
   </trkpt>
   <trkpt lat="-37.87225" lon="145.33113">
    <ele>392.51</ele>
   </trkpt>
   <trkpt lat="-37.87236" lon="145.33138000000002">
    <ele>391.32000000000005</ele>
   </trkpt>
   <trkpt lat="-37.87263" lon="145.33171000000002">
    <ele>389.5</ele>
   </trkpt>
   <trkpt lat="-37.87279" lon="145.33183000000002">
    <ele>388.61</ele>
   </trkpt>
   <trkpt lat="-37.87297" lon="145.33206">
    <ele>386.72</ele>
   </trkpt>
   <trkpt lat="-37.87301" lon="145.33218000000002">
    <ele>386.16</ele>
   </trkpt>
   <trkpt lat="-37.87301" lon="145.33225000000002">
    <ele>386.12</ele>
   </trkpt>
   <trkpt lat="-37.872890000000005" lon="145.3325">
    <ele>385.85</ele>
   </trkpt>
   <trkpt lat="-37.87268" lon="145.33283">
    <ele>384.36</ele>
   </trkpt>
   <trkpt lat="-37.87238" lon="145.33305000000001">
    <ele>382.68</ele>
   </trkpt>
   <trkpt lat="-37.87207" lon="145.33307000000002">
    <ele>378.08000000000004</ele>
   </trkpt>
   <trkpt lat="-37.87167" lon="145.33290000000002">
    <ele>373.24</ele>
   </trkpt>
   <trkpt lat="-37.871280000000006" lon="145.33282">
    <ele>369.06000000000006</ele>
   </trkpt>
   <trkpt lat="-37.87113" lon="145.33284">
    <ele>368.85</ele>
   </trkpt>
   <trkpt lat="-37.87102" lon="145.33292">
    <ele>368.94000000000005</ele>
   </trkpt>
   <trkpt lat="-37.87091" lon="145.33315000000002">
    <ele>368.66</ele>
   </trkpt>
   <trkpt lat="-37.87082" lon="145.33339">
    <ele>366.82000000000005</ele>
   </trkpt>
   <trkpt lat="-37.87075" lon="145.33419">
    <ele>361.84000000000003</ele>
   </trkpt>
   <trkpt lat="-37.870810000000006" lon="145.33446">
    <ele>360.42</ele>
   </trkpt>
   <trkpt lat="-37.870810000000006" lon="145.3347">
    <ele>358.46000000000004</ele>
   </trkpt>
   <trkpt lat="-37.870760000000004" lon="145.33477000000002">
    <ele>358.46000000000004</ele>
   </trkpt>
   <trkpt lat="-37.87066" lon="145.33478000000002">
    <ele>357.93</ele>
   </trkpt>
   <trkpt lat="-37.870450000000005" lon="145.33465">
    <ele>356.27000000000004</ele>
   </trkpt>
   <trkpt lat="-37.87026" lon="145.33449000000002">
    <ele>341.90000000000003</ele>
   </trkpt>
   <trkpt lat="-37.87024" lon="145.33442000000002">
    <ele>341.90000000000003</ele>
   </trkpt>
   <trkpt lat="-37.87022" lon="145.33425000000003">
    <ele>336.07000000000005</ele>
   </trkpt>
   <trkpt lat="-37.86992" lon="145.3343">
    <ele>337.5</ele>
   </trkpt>
   <trkpt lat="-37.86959" lon="145.33418">
    <ele>339.38</ele>
   </trkpt>
   <trkpt lat="-37.86925" lon="145.33411">
    <ele>340.96000000000004</ele>
   </trkpt>
   <trkpt lat="-37.86918" lon="145.33404000000002">
    <ele>341.47</ele>
   </trkpt>
   <trkpt lat="-37.86903" lon="145.33386000000002">
    <ele>341.94</ele>
   </trkpt>
   <trkpt lat="-37.868950000000005" lon="145.33355">
    <ele>342.47</ele>
   </trkpt>
   <trkpt lat="-37.86898" lon="145.33324000000002">
    <ele>339.99</ele>
   </trkpt>
   <trkpt lat="-37.86896" lon="145.33297000000002">
    <ele>338.6</ele>
   </trkpt>
   <trkpt lat="-37.86891" lon="145.33268">
    <ele>337.61</ele>
   </trkpt>
   <trkpt lat="-37.868840000000006" lon="145.33249">
    <ele>336.95000000000005</ele>
   </trkpt>
   <trkpt lat="-37.86858" lon="145.33205">
    <ele>334.38</ele>
   </trkpt>
   <trkpt lat="-37.86838" lon="145.33186">
    <ele>333.58000000000004</ele>
   </trkpt>
   <trkpt lat="-37.86815" lon="145.3317">
    <ele>332.92</ele>
   </trkpt>
   <trkpt lat="-37.867720000000006" lon="145.33149">
    <ele>331.3</ele>
   </trkpt>
   <trkpt lat="-37.8675" lon="145.33145000000002">
    <ele>330.27</ele>
   </trkpt>
   <trkpt lat="-37.86728" lon="145.33145000000002">
    <ele>329.47</ele>
   </trkpt>
   <trkpt lat="-37.86672" lon="145.33155000000002">
    <ele>325.85</ele>
   </trkpt>
   <trkpt lat="-37.86643" lon="145.33152">
    <ele>324.20000000000005</ele>
   </trkpt>
   <trkpt lat="-37.86627" lon="145.33148">
    <ele>324.20000000000005</ele>
   </trkpt>
   <trkpt lat="-37.86587" lon="145.33126000000001">
    <ele>320.58000000000004</ele>
   </trkpt>
   <trkpt lat="-37.86565" lon="145.33109000000002">
    <ele>319.38000000000005</ele>
   </trkpt>
   <trkpt lat="-37.8652" lon="145.33063">
    <ele>315.8</ele>
   </trkpt>
   <trkpt lat="-37.86475" lon="145.33010000000002">
    <ele>313.14000000000004</ele>
   </trkpt>
   <trkpt lat="-37.86459" lon="145.32996">
    <ele>311.5</ele>
   </trkpt>
   <trkpt lat="-37.86446" lon="145.32988">
    <ele>311.5</ele>
   </trkpt>
   <trkpt lat="-37.86424" lon="145.32978">
    <ele>310.36</ele>
   </trkpt>
   <trkpt lat="-37.86403" lon="145.32975000000002">
    <ele>308.91</ele>
   </trkpt>
   <trkpt lat="-37.86374" lon="145.32975000000002">
    <ele>307.43</ele>
   </trkpt>
   <trkpt lat="-37.86361" lon="145.32976000000002">
    <ele>307.03000000000003</ele>
   </trkpt>
   <trkpt lat="-37.86352" lon="145.3298">
    <ele>306.83000000000004</ele>
   </trkpt>
   <trkpt lat="-37.86341" lon="145.32991">
    <ele>306.64000000000004</ele>
   </trkpt>
   <trkpt lat="-37.863220000000005" lon="145.32963">
    <ele>291.98</ele>
   </trkpt>
   <trkpt lat="-37.86286000134802" lon="145.3290749973591">
    <ele>281.53</ele>
   </trkpt>
   <trkpt lat="-37.862500000000004" lon="145.32852000000003">
    <ele>263.71</ele>
   </trkpt>
   <trkpt lat="-37.86215" lon="145.32813000000002">
    <ele>250.16</ele>
   </trkpt>
   <trkpt lat="-37.862080000000006" lon="145.32789000000002">
    <ele>243.86</ele>
   </trkpt>
   <trkpt lat="-37.86222" lon="145.32782">
    <ele>248.19000000000003</ele>
   </trkpt>
   <trkpt lat="-37.86265" lon="145.32778000000002">
    <ele>250.13000000000002</ele>
   </trkpt>
   <trkpt lat="-37.86307" lon="145.32762000000002">
    <ele>248.94000000000003</ele>
   </trkpt>
   <trkpt lat="-37.86356" lon="145.32760000000002">
    <ele>248.04</ele>
   </trkpt>
   <trkpt lat="-37.86397" lon="145.32753000000002">
    <ele>247.48000000000002</ele>
   </trkpt>
   <trkpt lat="-37.864180000000005" lon="145.32759000000001">
    <ele>247.8</ele>
   </trkpt>
   <trkpt lat="-37.8643" lon="145.32765">
    <ele>248.43</ele>
   </trkpt>
   <trkpt lat="-37.86446" lon="145.32787000000002">
    <ele>248.68</ele>
   </trkpt>
   <trkpt lat="-37.86453" lon="145.3279">
    <ele>246.70000000000002</ele>
   </trkpt>
   <trkpt lat="-37.86462" lon="145.3279">
    <ele>244.12000000000003</ele>
   </trkpt>
   <trkpt lat="-37.86471" lon="145.32788000000002">
    <ele>242.3</ele>
   </trkpt>
   <trkpt lat="-37.864810000000006" lon="145.32766">
    <ele>248.25000000000003</ele>
   </trkpt>
   <trkpt lat="-37.86482" lon="145.32749">
    <ele>249.67000000000002</ele>
   </trkpt>
   <trkpt lat="-37.86486" lon="145.32749">
    <ele>250.08</ele>
   </trkpt>
   <trkpt lat="-37.86491" lon="145.32743000000002">
    <ele>250.08</ele>
   </trkpt>
   <trkpt lat="-37.865" lon="145.32741000000001">
    <ele>252.10000000000005</ele>
   </trkpt>
   <trkpt lat="-37.865610000000004" lon="145.3274">
    <ele>272.07000000000005</ele>
   </trkpt>
   <trkpt lat="-37.86589" lon="145.3273">
    <ele>277.95000000000005</ele>
   </trkpt>
   <trkpt lat="-37.86596" lon="145.3273">
    <ele>277.95000000000005</ele>
   </trkpt>
   <trkpt lat="-37.86616" lon="145.32719">
    <ele>287.18000000000006</ele>
   </trkpt>
   <trkpt lat="-37.86623" lon="145.32717000000002">
    <ele>287.18000000000006</ele>
   </trkpt>
   <trkpt lat="-37.8663" lon="145.32718">
    <ele>289.08</ele>
   </trkpt>
   <trkpt lat="-37.86634" lon="145.32726000000002">
    <ele>289.08</ele>
   </trkpt>
   <trkpt lat="-37.86641" lon="145.32750000000001">
    <ele>294.72</ele>
   </trkpt>
   <trkpt lat="-37.866510000000005" lon="145.32752000000002">
    <ele>296.19</ele>
   </trkpt>
   <trkpt lat="-37.86652" lon="145.32690000000002">
    <ele>294.09000000000003</ele>
   </trkpt>
   <trkpt lat="-37.866580000000006" lon="145.32649">
    <ele>291.37</ele>
   </trkpt>
   <trkpt lat="-37.86692000197666" lon="145.32582500285992">
    <ele>298.04</ele>
   </trkpt>
   <trkpt lat="-37.86726" lon="145.32516">
    <ele>304.72</ele>
   </trkpt>
   <trkpt lat="-37.86771500169878" lon="145.32454000372869">
    <ele>308.51</ele>
   </trkpt>
   <trkpt lat="-37.868170000000006" lon="145.32392000000002">
    <ele>316.04</ele>
   </trkpt>
   <trkpt lat="-37.86827" lon="145.32377000000002">
    <ele>317.16</ele>
   </trkpt>
   <trkpt lat="-37.868280000000006" lon="145.32366000000002">
    <ele>317.16</ele>
   </trkpt>
   <trkpt lat="-37.86824" lon="145.32357000000002">
    <ele>317.16</ele>
   </trkpt>
   <trkpt lat="-37.86782500174928" lon="145.3229399965594">
    <ele>319.1</ele>
   </trkpt>
   <trkpt lat="-37.86741" lon="145.32231000000002">
    <ele>323.67</ele>
   </trkpt>
   <trkpt lat="-37.86715" lon="145.32185">
    <ele>325.48</ele>
   </trkpt>
   <trkpt lat="-37.86706" lon="145.32158">
    <ele>327.54</ele>
   </trkpt>
   <trkpt lat="-37.86712" lon="145.32127">
    <ele>329.69000000000005</ele>
   </trkpt>
   <trkpt lat="-37.86737" lon="145.32079000000002">
    <ele>330.23</ele>
   </trkpt>
   <trkpt lat="-37.867720000000006" lon="145.32028000000003">
    <ele>329.01</ele>
   </trkpt>
   <trkpt lat="-37.86786" lon="145.31999000000002">
    <ele>328.86</ele>
   </trkpt>
   <trkpt lat="-37.86786" lon="145.31989000000002">
    <ele>328.91</ele>
   </trkpt>
   <trkpt lat="-37.86782" lon="145.31976">
    <ele>329.31000000000006</ele>
   </trkpt>
   <trkpt lat="-37.86762" lon="145.31942">
    <ele>332.5</ele>
   </trkpt>
   <trkpt lat="-37.86744" lon="145.31893000000002">
    <ele>335.9200000000001</ele>
   </trkpt>
   <trkpt lat="-37.86741" lon="145.31875000000002">
    <ele>335.9200000000001</ele>
   </trkpt>
   <trkpt lat="-37.86759" lon="145.31787">
    <ele>339.43</ele>
   </trkpt>
   <trkpt lat="-37.867855002195505" lon="145.31715000258043">
    <ele>341.91</ele>
   </trkpt>
   <trkpt lat="-37.868120000000005" lon="145.31643000000003">
    <ele>346.45000000000005</ele>
   </trkpt>
   <trkpt lat="-37.86811" lon="145.31645">
    <ele>346.45000000000005</ele>
   </trkpt>
   <trkpt lat="-37.86842" lon="145.31596000000002">
    <ele>348.36</ele>
   </trkpt>
   <trkpt lat="-37.86871" lon="145.31564">
    <ele>348.96999999999997</ele>
   </trkpt>
   <trkpt lat="-37.86889" lon="145.31538">
    <ele>349.95000000000005</ele>
   </trkpt>
   <trkpt lat="-37.86896" lon="145.31523">
    <ele>351.31</ele>
   </trkpt>
   <trkpt lat="-37.869" lon="145.31505">
    <ele>352.17</ele>
   </trkpt>
   <trkpt lat="-37.86898" lon="145.31477">
    <ele>354.72</ele>
   </trkpt>
   <trkpt lat="-37.869020000000006" lon="145.31414">
    <ele>361.25</ele>
   </trkpt>
   <trkpt lat="-37.86972" lon="145.31458">
    <ele>375.31</ele>
   </trkpt>
   <trkpt lat="-37.86988" lon="145.31455000000003">
    <ele>375.31</ele>
   </trkpt>
   <trkpt lat="-37.86997" lon="145.31447">
    <ele>379.51</ele>
   </trkpt>
   <trkpt lat="-37.87017" lon="145.31414">
    <ele>383.15000000000003</ele>
   </trkpt>
   <trkpt lat="-37.87026" lon="145.31409000000002">
    <ele>384.56</ele>
   </trkpt>
   <trkpt lat="-37.870340000000006" lon="145.31408000000002">
    <ele>386.38000000000005</ele>
   </trkpt>
   <trkpt lat="-37.87041" lon="145.31411">
    <ele>387.41</ele>
   </trkpt>
   <trkpt lat="-37.87055" lon="145.31419000000002">
    <ele>388.35</ele>
   </trkpt>
   <trkpt lat="-37.87091000188113" lon="145.31352500322902">
    <ele>393.52000000000004</ele>
   </trkpt>
   <trkpt lat="-37.87127" lon="145.31286">
    <ele>389.63</ele>
   </trkpt>
   <trkpt lat="-37.87133" lon="145.3128">
    <ele>387.8</ele>
   </trkpt>
   <trkpt lat="-37.87165" lon="145.31262">
    <ele>377.48</ele>
   </trkpt>
   <trkpt lat="-37.87174" lon="145.31253">
    <ele>373.76000000000005</ele>
   </trkpt>
   <trkpt lat="-37.87182" lon="145.31231000000002">
    <ele>368.36</ele>
   </trkpt>
   <trkpt lat="-37.87201" lon="145.31204000000002">
    <ele>361.19</ele>
   </trkpt>
   <trkpt lat="-37.87228" lon="145.31187">
    <ele>352.71000000000004</ele>
   </trkpt>
   <trkpt lat="-37.87227" lon="145.31188">
    <ele>352.71000000000004</ele>
   </trkpt>
   <trkpt lat="-37.87236" lon="145.31185000000002">
    <ele>350.91</ele>
   </trkpt>
   <trkpt lat="-37.87245" lon="145.31188">
    <ele>349.68000000000006</ele>
   </trkpt>
   <trkpt lat="-37.87254" lon="145.31198">
    <ele>348.65000000000003</ele>
   </trkpt>
   <trkpt lat="-37.87259" lon="145.31212000000002">
    <ele>349.11</ele>
   </trkpt>
   <trkpt lat="-37.87254" lon="145.31233">
    <ele>350.32</ele>
   </trkpt>
   <trkpt lat="-37.87229" lon="145.31288">
    <ele>356.42</ele>
   </trkpt>
   <trkpt lat="-37.87227" lon="145.31307">
    <ele>358.13</ele>
   </trkpt>
   <trkpt lat="-37.87229" lon="145.31326">
    <ele>360.26</ele>
   </trkpt>
   <trkpt lat="-37.87241" lon="145.3135">
    <ele>362.22</ele>
   </trkpt>
   <trkpt lat="-37.872600000000006" lon="145.31367">
    <ele>365.21000000000004</ele>
   </trkpt>
   <trkpt lat="-37.87288" lon="145.31377">
    <ele>368.92</ele>
   </trkpt>
   <trkpt lat="-37.87344" lon="145.31381000000002">
    <ele>370.65000000000003</ele>
   </trkpt>
   <trkpt lat="-37.87366" lon="145.31386">
    <ele>371.1</ele>
   </trkpt>
   <trkpt lat="-37.8742" lon="145.31409000000002">
    <ele>373.03000000000003</ele>
   </trkpt>
   <trkpt lat="-37.87447" lon="145.31404">
    <ele>374.94000000000005</ele>
   </trkpt>
   <trkpt lat="-37.87489" lon="145.31387">
    <ele>379.09000000000003</ele>
   </trkpt>
   <trkpt lat="-37.87532" lon="145.31391000000002">
    <ele>381.88000000000005</ele>
   </trkpt>
   <trkpt lat="-37.8757" lon="145.31402">
    <ele>386.02000000000004</ele>
   </trkpt>
   <trkpt lat="-37.87585" lon="145.31401000000002">
    <ele>386.02000000000004</ele>
   </trkpt>
   <trkpt lat="-37.87635" lon="145.31387">
    <ele>391.49</ele>
   </trkpt>
   <trkpt lat="-37.87684" lon="145.31383000000002">
    <ele>399.53000000000003</ele>
   </trkpt>
   <trkpt lat="-37.87729" lon="145.31387">
    <ele>404.30000000000007</ele>
   </trkpt>
   <trkpt lat="-37.87753" lon="145.31387">
    <ele>408.38</ele>
   </trkpt>
   <trkpt lat="-37.87796" lon="145.31396">
    <ele>412.92</ele>
   </trkpt>
   <trkpt lat="-37.87838" lon="145.31409000000002">
    <ele>418.14</ele>
   </trkpt>
   <trkpt lat="-37.87883000008877" lon="145.31413999970323">
    <ele>422.77000000000004</ele>
   </trkpt>
   <trkpt lat="-37.87928" lon="145.31419000000002">
    <ele>426.75</ele>
   </trkpt>
   <trkpt lat="-37.87941" lon="145.31419000000002">
    <ele>426.75</ele>
   </trkpt>
   <trkpt lat="-37.87953" lon="145.31416000000002">
    <ele>427.23</ele>
   </trkpt>
   <trkpt lat="-37.87975" lon="145.31393">
    <ele>426.73</ele>
   </trkpt>
   <trkpt lat="-37.87988" lon="145.31388">
    <ele>426.73</ele>
   </trkpt>
   <trkpt lat="-37.87997" lon="145.31387">
    <ele>426.73</ele>
   </trkpt>
   <trkpt lat="-37.88013" lon="145.31401000000002">
    <ele>426.38000000000005</ele>
   </trkpt>
   <trkpt lat="-37.88026" lon="145.31401000000002">
    <ele>425.13</ele>
   </trkpt>
   <trkpt lat="-37.88049" lon="145.31388">
    <ele>423.40000000000003</ele>
   </trkpt>
   <trkpt lat="-37.88082" lon="145.31362000000001">
    <ele>419.12000000000006</ele>
   </trkpt>
   <trkpt lat="-37.88118" lon="145.31343">
    <ele>415.54</ele>
   </trkpt>
   <trkpt lat="-37.88152" lon="145.31319000000002">
    <ele>411.64000000000004</ele>
   </trkpt>
   <trkpt lat="-37.88199" lon="145.31279">
    <ele>408.21000000000004</ele>
   </trkpt>
   <trkpt lat="-37.8825" lon="145.31224">
    <ele>409.44</ele>
   </trkpt>
   <trkpt lat="-37.882740000000005" lon="145.31214">
    <ele>409.16</ele>
   </trkpt>
   <trkpt lat="-37.88308" lon="145.31215">
    <ele>405.68</ele>
   </trkpt>
   <trkpt lat="-37.8834" lon="145.31222000000002">
    <ele>401.06</ele>
   </trkpt>
   <trkpt lat="-37.88369" lon="145.31236">
    <ele>396.65000000000003</ele>
   </trkpt>
   <trkpt lat="-37.88414" lon="145.31267000000003">
    <ele>389.22</ele>
   </trkpt>
   <trkpt lat="-37.88429" lon="145.31272">
    <ele>385.37000000000006</ele>
   </trkpt>
   <trkpt lat="-37.88488" lon="145.3128">
    <ele>373.39000000000004</ele>
   </trkpt>
   <trkpt lat="-37.88501" lon="145.31279">
    <ele>371.41</ele>
   </trkpt>
   <trkpt lat="-37.88519" lon="145.31273000000002">
    <ele>366.46</ele>
   </trkpt>
   <trkpt lat="-37.885270000000006" lon="145.31266000000002">
    <ele>364.74</ele>
   </trkpt>
   <trkpt lat="-37.8853" lon="145.31255000000002">
    <ele>364.74</ele>
   </trkpt>
   <trkpt lat="-37.88541" lon="145.31207">
    <ele>356.19</ele>
   </trkpt>
   <trkpt lat="-37.88548" lon="145.31186000000002">
    <ele>350.25</ele>
   </trkpt>
   <trkpt lat="-37.88579500183977" lon="145.31120500274952">
    <ele>339.25000000000006</ele>
   </trkpt>
   <trkpt lat="-37.88611" lon="145.31055">
    <ele>329.73</ele>
   </trkpt>
   <trkpt lat="-37.8862" lon="145.31044">
    <ele>325.34000000000003</ele>
   </trkpt>
   <trkpt lat="-37.88629" lon="145.31038">
    <ele>325.34000000000003</ele>
   </trkpt>
   <trkpt lat="-37.886610000000005" lon="145.31019">
    <ele>319.40000000000003</ele>
   </trkpt>
   <trkpt lat="-37.8866" lon="145.3102">
    <ele>319.40000000000003</ele>
   </trkpt>
   <trkpt lat="-37.88673" lon="145.31015000000002">
    <ele>317.8</ele>
   </trkpt>
   <trkpt lat="-37.88687" lon="145.31014000000002">
    <ele>316.40000000000003</ele>
   </trkpt>
   <trkpt lat="-37.88696" lon="145.31015000000002">
    <ele>316.40000000000003</ele>
   </trkpt>
   <trkpt lat="-37.88705" lon="145.31019">
    <ele>314.84</ele>
   </trkpt>
   <trkpt lat="-37.887330000000006" lon="145.31040000000002">
    <ele>311.49000000000007</ele>
   </trkpt>
   <trkpt lat="-37.88779" lon="145.31063">
    <ele>298.62000000000006</ele>
   </trkpt>
   <trkpt lat="-37.88794" lon="145.31068000000002">
    <ele>298.62000000000006</ele>
   </trkpt>
   <trkpt lat="-37.888450000000006" lon="145.31074">
    <ele>284.17</ele>
   </trkpt>
   <trkpt lat="-37.88859" lon="145.31071">
    <ele>281.32</ele>
   </trkpt>
   <trkpt lat="-37.88868" lon="145.31060000000002">
    <ele>278.93</ele>
   </trkpt>
   <trkpt lat="-37.88893" lon="145.31018">
    <ele>271.44</ele>
   </trkpt>
   <trkpt lat="-37.88902" lon="145.31014000000002">
    <ele>271.44</ele>
   </trkpt>
   <trkpt lat="-37.88908" lon="145.31016000000002">
    <ele>267.46000000000004</ele>
   </trkpt>
   <trkpt lat="-37.889210000000006" lon="145.31025000000002">
    <ele>265.91</ele>
   </trkpt>
   <trkpt lat="-37.88931" lon="145.31038">
    <ele>264.47</ele>
   </trkpt>
   <trkpt lat="-37.88951" lon="145.31074">
    <ele>259.38</ele>
   </trkpt>
   <trkpt lat="-37.88958" lon="145.3109">
    <ele>254.60000000000005</ele>
   </trkpt>
   <trkpt lat="-37.88958" lon="145.31101">
    <ele>254.60000000000005</ele>
   </trkpt>
   <trkpt lat="-37.88955" lon="145.31122000000002">
    <ele>251.58</ele>
   </trkpt>
   <trkpt lat="-37.88958" lon="145.31130000000002">
    <ele>251.58</ele>
   </trkpt>
   <trkpt lat="-37.8896" lon="145.31134">
    <ele>248.47000000000003</ele>
   </trkpt>
   <trkpt lat="-37.889680000000006" lon="145.31134">
    <ele>248.47000000000003</ele>
   </trkpt>
   <trkpt lat="-37.88993" lon="145.31119">
    <ele>243.63</ele>
   </trkpt>
   <trkpt lat="-37.89002" lon="145.31111">
    <ele>243.02</ele>
   </trkpt>
   <trkpt lat="-37.89016" lon="145.31092">
    <ele>241.3</ele>
   </trkpt>
   <trkpt lat="-37.89025" lon="145.31066">
    <ele>236.85000000000002</ele>
   </trkpt>
   <trkpt lat="-37.89027" lon="145.31046">
    <ele>233.81</ele>
   </trkpt>
   <trkpt lat="-37.89025" lon="145.31002">
    <ele>229.69</ele>
   </trkpt>
   <trkpt lat="-37.89027" lon="145.30997000000002">
    <ele>229.69</ele>
   </trkpt>
   <trkpt lat="-37.89034" lon="145.30995000000001">
    <ele>228.16000000000003</ele>
   </trkpt>
   <trkpt lat="-37.89032" lon="145.30995000000001">
    <ele>228.16000000000003</ele>
   </trkpt>
   <trkpt lat="-37.89038" lon="145.30998000000002">
    <ele>227.27</ele>
   </trkpt>
   <trkpt lat="-37.89092" lon="145.31052000000003">
    <ele>215.23</ele>
   </trkpt>
   <trkpt lat="-37.89119" lon="145.31122000000002">
    <ele>204.23000000000002</ele>
   </trkpt>
   <trkpt lat="-37.89121" lon="145.31161">
    <ele>201.11</ele>
   </trkpt>
   <trkpt lat="-37.891180000000006" lon="145.31198">
    <ele>198.18</ele>
   </trkpt>
   <trkpt lat="-37.89105" lon="145.31242">
    <ele>194.87</ele>
   </trkpt>
   <trkpt lat="-37.89101" lon="145.31248000000002">
    <ele>194.87</ele>
   </trkpt>
   <trkpt lat="-37.89072" lon="145.31278">
    <ele>193.81</ele>
   </trkpt>
   <trkpt lat="-37.890710000000006" lon="145.31282000000002">
    <ele>193.81</ele>
   </trkpt>
   <trkpt lat="-37.890710000000006" lon="145.31292000000002">
    <ele>193.77</ele>
   </trkpt>
   <trkpt lat="-37.89074" lon="145.31299">
    <ele>193.52</ele>
   </trkpt>
   <trkpt lat="-37.89092" lon="145.31309000000002">
    <ele>192.29000000000002</ele>
   </trkpt>
   <trkpt lat="-37.89132" lon="145.3134">
    <ele>186.91000000000003</ele>
   </trkpt>
   <trkpt lat="-37.8915" lon="145.31358">
    <ele>186.16000000000003</ele>
   </trkpt>
   <trkpt lat="-37.89159" lon="145.31376">
    <ele>184.45</ele>
   </trkpt>
   <trkpt lat="-37.89168" lon="145.31405">
    <ele>182.67000000000002</ele>
   </trkpt>
   <trkpt lat="-37.8917" lon="145.3142">
    <ele>182.67000000000002</ele>
   </trkpt>
   <trkpt lat="-37.89166" lon="145.31470000000002">
    <ele>177.82</ele>
   </trkpt>
   <trkpt lat="-37.89159" lon="145.3153">
    <ele>174.16</ele>
   </trkpt>
   <trkpt lat="-37.89148" lon="145.31548">
    <ele>175.11</ele>
   </trkpt>
   <trkpt lat="-37.891200000000005" lon="145.31588000000002">
    <ele>179.1</ele>
   </trkpt>
   <trkpt lat="-37.89119" lon="145.31588000000002">
    <ele>185.85000000000002</ele>
   </trkpt>
   <trkpt lat="-37.891290000000005" lon="145.316">
    <ele>183.4</ele>
   </trkpt>
   <trkpt lat="-37.89119000137141" lon="145.31657000079028">
    <ele>181.42000000000002</ele>
   </trkpt>
   <trkpt lat="-37.891090000000005" lon="145.31714000000002">
    <ele>174.33</ele>
   </trkpt>
  </trkseg>
 </trk>
</gpx>
