<?xml version="1.0" encoding="UTF-8"?>
<gpx creator="StravaGPX" version="1.1" xmlns="http://www.topografix.com/GPX/1/1" xmlns:xsi="http://www.w3.org/2001/XMLSchema-instance" xsi:schemaLocation="http://www.topografix.com/GPX/1/1 http://www.topografix.com/GPX/1/1/gpx.xsd">
 <metadata>
  <name>Hilton Road-Loop Track-Dandenong Ranges Tourist Track</name>
  <author>
   <name>Natalie Gow</name>
  </author>
  <copyright author="OpenStreetMap contributors">
   <year>2020</year>
   <license>https://www.openstreetmap.org/copyright</license>
  </copyright>
 </metadata>
 <trk>
  <name>Hilton Road-Loop Track-Dandenong Ranges Tourist Track</name>
  <link href=""/>
  <type>trail_running</type>
  <trkseg>
   <trkpt lat="-37.874750000000006" lon="145.34601">
    <ele>525.27</ele>
   </trkpt>
   <trkpt lat="-37.87438" lon="145.3459">
    <ele>527.82</ele>
   </trkpt>
   <trkpt lat="-37.87415" lon="145.34579000000002">
    <ele>528.61</ele>
   </trkpt>
   <trkpt lat="-37.87438500149358" lon="145.34636499839908">
    <ele>527.75</ele>
   </trkpt>
   <trkpt lat="-37.87462" lon="145.34694000000002">
    <ele>525.09</ele>
   </trkpt>
   <trkpt lat="-37.87462" lon="145.34726">
    <ele>524.8900000000001</ele>
   </trkpt>
   <trkpt lat="-37.87432000192652" lon="145.34794500292165">
    <ele>525.63</ele>
   </trkpt>
   <trkpt lat="-37.87402" lon="145.34863">
    <ele>524.1800000000001</ele>
   </trkpt>
   <trkpt lat="-37.87397" lon="145.34874000000002">
    <ele>523.4100000000001</ele>
   </trkpt>
   <trkpt lat="-37.87397" lon="145.34883000000002">
    <ele>523.1800000000001</ele>
   </trkpt>
   <trkpt lat="-37.87413" lon="145.34910000000002">
    <ele>522.24</ele>
   </trkpt>
   <trkpt lat="-37.87438" lon="145.34938000000002">
    <ele>521.88</ele>
   </trkpt>
   <trkpt lat="-37.8748" lon="145.34975">
    <ele>521.84</ele>
   </trkpt>
   <trkpt lat="-37.87518" lon="145.35024">
    <ele>518.72</ele>
   </trkpt>
   <trkpt lat="-37.8755" lon="145.3505">
    <ele>516.3000000000001</ele>
   </trkpt>
   <trkpt lat="-37.87576" lon="145.35083">
    <ele>511.75</ele>
   </trkpt>
   <trkpt lat="-37.87592" lon="145.35115000000002">
    <ele>507.19</ele>
   </trkpt>
   <trkpt lat="-37.87601" lon="145.35145">
    <ele>502.9100000000001</ele>
   </trkpt>
   <trkpt lat="-37.87617" lon="145.35166">
    <ele>499.84000000000003</ele>
   </trkpt>
   <trkpt lat="-37.87621" lon="145.35187000000002">
    <ele>498.47</ele>
   </trkpt>
   <trkpt lat="-37.87621" lon="145.35214000000002">
    <ele>494.32000000000005</ele>
   </trkpt>
   <trkpt lat="-37.87635" lon="145.35272">
    <ele>487.1</ele>
   </trkpt>
   <trkpt lat="-37.87635" lon="145.35294000000002">
    <ele>485.13000000000005</ele>
   </trkpt>
   <trkpt lat="-37.87619" lon="145.35323000000002">
    <ele>482.17</ele>
   </trkpt>
   <trkpt lat="-37.87599" lon="145.35412000000002">
    <ele>474.93</ele>
   </trkpt>
   <trkpt lat="-37.8761" lon="145.35474000000002">
    <ele>471.44</ele>
   </trkpt>
   <trkpt lat="-37.876180000000005" lon="145.35491000000002">
    <ele>470.4200000000001</ele>
   </trkpt>
   <trkpt lat="-37.87608" lon="145.35506">
    <ele>469.75000000000006</ele>
   </trkpt>
   <trkpt lat="-37.87608" lon="145.35524">
    <ele>469.40000000000003</ele>
   </trkpt>
   <trkpt lat="-37.87617" lon="145.35548">
    <ele>468.07000000000005</ele>
   </trkpt>
   <trkpt lat="-37.87639" lon="145.35572000000002">
    <ele>466.73</ele>
   </trkpt>
   <trkpt lat="-37.87664" lon="145.35614">
    <ele>466.44</ele>
   </trkpt>
   <trkpt lat="-37.87688" lon="145.35663000000002">
    <ele>468.20000000000005</ele>
   </trkpt>
   <trkpt lat="-37.87688" lon="145.35664">
    <ele>468.24</ele>
   </trkpt>
   <trkpt lat="-37.87684" lon="145.35664">
    <ele>475.81000000000006</ele>
   </trkpt>
   <trkpt lat="-37.87675" lon="145.35661000000002">
    <ele>475.88</ele>
   </trkpt>
   <trkpt lat="-37.876650000000005" lon="145.35662000000002">
    <ele>476.03000000000003</ele>
   </trkpt>
   <trkpt lat="-37.87646" lon="145.35667">
    <ele>476.18000000000006</ele>
   </trkpt>
   <trkpt lat="-37.8763" lon="145.35674">
    <ele>476.74000000000007</ele>
   </trkpt>
   <trkpt lat="-37.876160000000006" lon="145.35686">
    <ele>476.79</ele>
   </trkpt>
   <trkpt lat="-37.87592" lon="145.35717000000002">
    <ele>476.15000000000003</ele>
   </trkpt>
   <trkpt lat="-37.87568" lon="145.35719">
    <ele>476.58000000000004</ele>
   </trkpt>
   <trkpt lat="-37.87563" lon="145.35723000000002">
    <ele>477.15000000000003</ele>
   </trkpt>
   <trkpt lat="-37.87565" lon="145.35726000000003">
    <ele>476.88</ele>
   </trkpt>
   <trkpt lat="-37.87563" lon="145.35729">
    <ele>476.69000000000005</ele>
   </trkpt>
   <trkpt lat="-37.875600000000006" lon="145.35733000000002">
    <ele>476.48</ele>
   </trkpt>
   <trkpt lat="-37.87558000000001" lon="145.3574">
    <ele>476.11</ele>
   </trkpt>
   <trkpt lat="-37.87559" lon="145.35771000000003">
    <ele>470.49</ele>
   </trkpt>
   <trkpt lat="-37.87545" lon="145.35776">
    <ele>469.68</ele>
   </trkpt>
   <trkpt lat="-37.87482" lon="145.35784">
    <ele>464.17</ele>
   </trkpt>
   <trkpt lat="-37.87473" lon="145.35783">
    <ele>463.68</ele>
   </trkpt>
   <trkpt lat="-37.87435" lon="145.35784">
    <ele>460.33</ele>
   </trkpt>
   <trkpt lat="-37.87413" lon="145.35781">
    <ele>459.72</ele>
   </trkpt>
   <trkpt lat="-37.87379" lon="145.35763">
    <ele>457.93000000000006</ele>
   </trkpt>
   <trkpt lat="-37.87353" lon="145.35718">
    <ele>453.88000000000005</ele>
   </trkpt>
   <trkpt lat="-37.87339" lon="145.35649">
    <ele>451.82000000000005</ele>
   </trkpt>
   <trkpt lat="-37.87335" lon="145.35644000000002">
    <ele>451.45</ele>
   </trkpt>
   <trkpt lat="-37.873310000000004" lon="145.35644000000002">
    <ele>451.45</ele>
   </trkpt>
   <trkpt lat="-37.87326" lon="145.35636000000002">
    <ele>450.8</ele>
   </trkpt>
   <trkpt lat="-37.87321" lon="145.35702">
    <ele>444.25</ele>
   </trkpt>
   <trkpt lat="-37.87313" lon="145.35761000000002">
    <ele>439.82000000000005</ele>
   </trkpt>
   <trkpt lat="-37.87313" lon="145.35763">
    <ele>439.82000000000005</ele>
   </trkpt>
   <trkpt lat="-37.87319" lon="145.35809">
    <ele>435.51</ele>
   </trkpt>
   <trkpt lat="-37.87335" lon="145.35840000000002">
    <ele>432.32000000000005</ele>
   </trkpt>
   <trkpt lat="-37.8735" lon="145.35858000000002">
    <ele>428.15000000000003</ele>
   </trkpt>
   <trkpt lat="-37.8736" lon="145.35864">
    <ele>426.2900000000001</ele>
   </trkpt>
   <trkpt lat="-37.873630000000006" lon="145.35879">
    <ele>425.99</ele>
   </trkpt>
   <trkpt lat="-37.87382" lon="145.35876000000002">
    <ele>425.72</ele>
   </trkpt>
   <trkpt lat="-37.87393" lon="145.35877000000002">
    <ele>425.67</ele>
   </trkpt>
   <trkpt lat="-37.87406" lon="145.35889">
    <ele>425.51000000000005</ele>
   </trkpt>
   <trkpt lat="-37.874210000000005" lon="145.35897">
    <ele>425.33000000000004</ele>
   </trkpt>
   <trkpt lat="-37.8744" lon="145.359">
    <ele>425.37</ele>
   </trkpt>
   <trkpt lat="-37.87445" lon="145.35906">
    <ele>425.27000000000004</ele>
   </trkpt>
   <trkpt lat="-37.874460000000006" lon="145.35913000000002">
    <ele>425.06000000000006</ele>
   </trkpt>
   <trkpt lat="-37.87449" lon="145.35915">
    <ele>424.79</ele>
   </trkpt>
   <trkpt lat="-37.874500000000005" lon="145.35922000000002">
    <ele>424.79</ele>
   </trkpt>
   <trkpt lat="-37.87458" lon="145.35937">
    <ele>425.1</ele>
   </trkpt>
   <trkpt lat="-37.874770000000005" lon="145.35926">
    <ele>425.51000000000005</ele>
   </trkpt>
   <trkpt lat="-37.87487" lon="145.35939000000002">
    <ele>424.74000000000007</ele>
   </trkpt>
   <trkpt lat="-37.87496" lon="145.35946">
    <ele>423.24000000000007</ele>
   </trkpt>
   <trkpt lat="-37.875130000000006" lon="145.35951">
    <ele>422.25</ele>
   </trkpt>
   <trkpt lat="-37.87521" lon="145.35967000000002">
    <ele>421.40000000000003</ele>
   </trkpt>
   <trkpt lat="-37.87520000000001" lon="145.35969">
    <ele>421.40000000000003</ele>
   </trkpt>
   <trkpt lat="-37.87520000000001" lon="145.35967000000002">
    <ele>421.40000000000003</ele>
   </trkpt>
   <trkpt lat="-37.87516" lon="145.35986000000003">
    <ele>420.14</ele>
   </trkpt>
   <trkpt lat="-37.87494" lon="145.36006">
    <ele>415.45000000000005</ele>
   </trkpt>
   <trkpt lat="-37.87456" lon="145.36044">
    <ele>407.56</ele>
   </trkpt>
   <trkpt lat="-37.87406" lon="145.36083000000002">
    <ele>400.97</ele>
   </trkpt>
   <trkpt lat="-37.87391" lon="145.36107">
    <ele>399.26000000000005</ele>
   </trkpt>
   <trkpt lat="-37.873720000000006" lon="145.36151">
    <ele>396.82</ele>
   </trkpt>
   <trkpt lat="-37.87377" lon="145.36206">
    <ele>375.48</ele>
   </trkpt>
   <trkpt lat="-37.873740000000005" lon="145.36213">
    <ele>375.48</ele>
   </trkpt>
   <trkpt lat="-37.87391" lon="145.3623">
    <ele>375.35</ele>
   </trkpt>
   <trkpt lat="-37.87413" lon="145.36263000000002">
    <ele>375.58000000000004</ele>
   </trkpt>
   <trkpt lat="-37.87422" lon="145.36283">
    <ele>375.55000000000007</ele>
   </trkpt>
   <trkpt lat="-37.87433" lon="145.36322">
    <ele>374.98</ele>
   </trkpt>
   <trkpt lat="-37.87467" lon="145.36383">
    <ele>372.29</ele>
   </trkpt>
   <trkpt lat="-37.87471" lon="145.36405000000002">
    <ele>372.29</ele>
   </trkpt>
   <trkpt lat="-37.87478" lon="145.3649">
    <ele>368.65000000000003</ele>
   </trkpt>
   <trkpt lat="-37.87485" lon="145.36522000000002">
    <ele>368.65000000000003</ele>
   </trkpt>
   <trkpt lat="-37.87509" lon="145.36587">
    <ele>362.82000000000005</ele>
   </trkpt>
   <trkpt lat="-37.87523" lon="145.36611000000002">
    <ele>362.82000000000005</ele>
   </trkpt>
   <trkpt lat="-37.87579" lon="145.36678">
    <ele>358.02</ele>
   </trkpt>
   <trkpt lat="-37.8759" lon="145.36700000000002">
    <ele>357.05</ele>
   </trkpt>
   <trkpt lat="-37.875980000000006" lon="145.36725">
    <ele>354.96000000000004</ele>
   </trkpt>
   <trkpt lat="-37.87599" lon="145.36753000000002">
    <ele>354.96000000000004</ele>
   </trkpt>
   <trkpt lat="-37.87599" lon="145.36765000000003">
    <ele>353.50000000000006</ele>
   </trkpt>
   <trkpt lat="-37.87592" lon="145.36792">
    <ele>352.73</ele>
   </trkpt>
   <trkpt lat="-37.8757" lon="145.36839">
    <ele>350.11</ele>
   </trkpt>
   <trkpt lat="-37.87567000000001" lon="145.36859">
    <ele>348.40000000000003</ele>
   </trkpt>
   <trkpt lat="-37.875750000000004" lon="145.36912">
    <ele>346.05</ele>
   </trkpt>
   <trkpt lat="-37.87576" lon="145.36974">
    <ele>343.63000000000005</ele>
   </trkpt>
   <trkpt lat="-37.87579" lon="145.36987000000002">
    <ele>342.12</ele>
   </trkpt>
   <trkpt lat="-37.87588" lon="145.37013000000002">
    <ele>340.98</ele>
   </trkpt>
   <trkpt lat="-37.87592" lon="145.37022000000002">
    <ele>339.91</ele>
   </trkpt>
   <trkpt lat="-37.87601" lon="145.37026">
    <ele>339.91</ele>
   </trkpt>
   <trkpt lat="-37.8761" lon="145.37024000000002">
    <ele>338.91</ele>
   </trkpt>
   <trkpt lat="-37.87617" lon="145.37026">
    <ele>338.91</ele>
   </trkpt>
   <trkpt lat="-37.87621" lon="145.37032000000002">
    <ele>338.22</ele>
   </trkpt>
   <trkpt lat="-37.87628" lon="145.37048000000001">
    <ele>338.22</ele>
   </trkpt>
   <trkpt lat="-37.87637" lon="145.37056">
    <ele>336.98</ele>
   </trkpt>
   <trkpt lat="-37.87655" lon="145.37068000000002">
    <ele>336.61</ele>
   </trkpt>
   <trkpt lat="-37.87675" lon="145.37087000000002">
    <ele>335.34000000000003</ele>
   </trkpt>
   <trkpt lat="-37.87682" lon="145.37108">
    <ele>334.89</ele>
   </trkpt>
   <trkpt lat="-37.876850000000005" lon="145.37129000000002">
    <ele>333.73</ele>
   </trkpt>
   <trkpt lat="-37.87675" lon="145.37167000000002">
    <ele>333.13000000000005</ele>
   </trkpt>
   <trkpt lat="-37.87704" lon="145.37202000000002">
    <ele>330.93</ele>
   </trkpt>
   <trkpt lat="-37.87744500059276" lon="145.37245499738538">
    <ele>326.73</ele>
   </trkpt>
   <trkpt lat="-37.87785" lon="145.37289">
    <ele>323.8</ele>
   </trkpt>
   <trkpt lat="-37.87792" lon="145.37301000000002">
    <ele>323.14000000000004</ele>
   </trkpt>
   <trkpt lat="-37.87807" lon="145.37362000000002">
    <ele>322.78000000000003</ele>
   </trkpt>
   <trkpt lat="-37.87818" lon="145.3737">
    <ele>323.44</ele>
   </trkpt>
   <trkpt lat="-37.878190000000004" lon="145.3737">
    <ele>323.47</ele>
   </trkpt>
   <trkpt lat="-37.878240000000005" lon="145.37368">
    <ele>323.43000000000006</ele>
   </trkpt>
   <trkpt lat="-37.87836" lon="145.37346000000002">
    <ele>322.79</ele>
   </trkpt>
   <trkpt lat="-37.878460000000004" lon="145.37306">
    <ele>326.64000000000004</ele>
   </trkpt>
   <trkpt lat="-37.87863" lon="145.37271">
    <ele>331.71</ele>
   </trkpt>
   <trkpt lat="-37.87883" lon="145.37248000000002">
    <ele>334.32</ele>
   </trkpt>
   <trkpt lat="-37.878980000000006" lon="145.3724">
    <ele>334.32</ele>
   </trkpt>
   <trkpt lat="-37.87935" lon="145.37225">
    <ele>340.01000000000005</ele>
   </trkpt>
   <trkpt lat="-37.879430000000006" lon="145.37229000000002">
    <ele>340.65</ele>
   </trkpt>
   <trkpt lat="-37.87955" lon="145.37228000000002">
    <ele>341.56</ele>
   </trkpt>
   <trkpt lat="-37.88013" lon="145.37231">
    <ele>343.82</ele>
   </trkpt>
   <trkpt lat="-37.88033" lon="145.37229000000002">
    <ele>344.77000000000004</ele>
   </trkpt>
   <trkpt lat="-37.88073" lon="145.37217">
    <ele>346.74000000000007</ele>
   </trkpt>
   <trkpt lat="-37.88098" lon="145.37206">
    <ele>348.31</ele>
   </trkpt>
   <trkpt lat="-37.881615000550255" lon="145.37169000320694">
    <ele>353.50000000000006</ele>
   </trkpt>
   <trkpt lat="-37.882250000000006" lon="145.37132000000003">
    <ele>357.54</ele>
   </trkpt>
   <trkpt lat="-37.88273" lon="145.37116">
    <ele>361.22</ele>
   </trkpt>
   <trkpt lat="-37.88302" lon="145.37098">
    <ele>362.95000000000005</ele>
   </trkpt>
   <trkpt lat="-37.88349" lon="145.37054">
    <ele>364.91</ele>
   </trkpt>
   <trkpt lat="-37.88391" lon="145.3701">
    <ele>366.96</ele>
   </trkpt>
   <trkpt lat="-37.884240000000005" lon="145.36970000000002">
    <ele>368.09000000000003</ele>
   </trkpt>
   <trkpt lat="-37.8845" lon="145.36943000000002">
    <ele>368.2300000000001</ele>
   </trkpt>
   <trkpt lat="-37.884690000000006" lon="145.3693">
    <ele>368.84000000000003</ele>
   </trkpt>
   <trkpt lat="-37.88474" lon="145.3693">
    <ele>368.84000000000003</ele>
   </trkpt>
   <trkpt lat="-37.884890000000006" lon="145.36933000000002">
    <ele>367.54</ele>
   </trkpt>
   <trkpt lat="-37.88508" lon="145.36929">
    <ele>367.44000000000005</ele>
   </trkpt>
   <trkpt lat="-37.88528" lon="145.36933000000002">
    <ele>362.87</ele>
   </trkpt>
   <trkpt lat="-37.885920000000006" lon="145.36982">
    <ele>356.85</ele>
   </trkpt>
   <trkpt lat="-37.88608" lon="145.36991">
    <ele>355.15000000000003</ele>
   </trkpt>
   <trkpt lat="-37.88633" lon="145.36996000000002">
    <ele>352.32</ele>
   </trkpt>
   <trkpt lat="-37.88687" lon="145.3699">
    <ele>350.63000000000005</ele>
   </trkpt>
   <trkpt lat="-37.88732" lon="145.36981">
    <ele>349.48</ele>
   </trkpt>
   <trkpt lat="-37.88743" lon="145.36973">
    <ele>350.45000000000005</ele>
   </trkpt>
   <trkpt lat="-37.88749" lon="145.36999">
    <ele>356.68000000000006</ele>
   </trkpt>
   <trkpt lat="-37.88761" lon="145.36997000000002">
    <ele>356.93</ele>
   </trkpt>
   <trkpt lat="-37.888110000000005" lon="145.36993">
    <ele>358.6</ele>
   </trkpt>
   <trkpt lat="-37.88761" lon="145.36997000000002">
    <ele>356.93</ele>
   </trkpt>
   <trkpt lat="-37.88749" lon="145.36999">
    <ele>356.68000000000006</ele>
   </trkpt>
   <trkpt lat="-37.88743" lon="145.36973">
    <ele>350.45000000000005</ele>
   </trkpt>
   <trkpt lat="-37.887865000418564" lon="145.3694250017843">
    <ele>344.99</ele>
   </trkpt>
   <trkpt lat="-37.8883" lon="145.36912">
    <ele>342.44</ele>
   </trkpt>
   <trkpt lat="-37.88897250249969" lon="145.36867751211506">
    <ele>338.53000000000003</ele>
   </trkpt>
   <trkpt lat="-37.889645003343084" lon="145.36823501614697">
    <ele>334.5</ele>
   </trkpt>
   <trkpt lat="-37.890317502530095" lon="145.36779251209543">
    <ele>331.73</ele>
   </trkpt>
   <trkpt lat="-37.89099" lon="145.36735000000002">
    <ele>326.16</ele>
   </trkpt>
   <trkpt lat="-37.89152" lon="145.36698">
    <ele>322.51</ele>
   </trkpt>
   <trkpt lat="-37.89222" lon="145.36643">
    <ele>318.65000000000003</ele>
   </trkpt>
   <trkpt lat="-37.89233" lon="145.36626">
    <ele>317.17</ele>
   </trkpt>
   <trkpt lat="-37.89244" lon="145.36593000000002">
    <ele>315.43000000000006</ele>
   </trkpt>
   <trkpt lat="-37.89293" lon="145.3651">
    <ele>311.46000000000004</ele>
   </trkpt>
   <trkpt lat="-37.89336" lon="145.36472">
    <ele>309.11000000000007</ele>
   </trkpt>
   <trkpt lat="-37.8941" lon="145.36422000000002">
    <ele>304.19</ele>
   </trkpt>
   <trkpt lat="-37.89459" lon="145.36385">
    <ele>301.96</ele>
   </trkpt>
   <trkpt lat="-37.89484" lon="145.36356">
    <ele>300.62</ele>
   </trkpt>
   <trkpt lat="-37.89515" lon="145.36293">
    <ele>297.05</ele>
   </trkpt>
   <trkpt lat="-37.895365001091264" lon="145.36242500144547">
    <ele>295.28000000000003</ele>
   </trkpt>
   <trkpt lat="-37.89558" lon="145.36192">
    <ele>292.03000000000003</ele>
   </trkpt>
   <trkpt lat="-37.89589" lon="145.36144000000002">
    <ele>290.27000000000004</ele>
   </trkpt>
   <trkpt lat="-37.896150000000006" lon="145.36041">
    <ele>286.54</ele>
   </trkpt>
   <trkpt lat="-37.89638000233227" lon="145.35966500237777">
    <ele>282.1</ele>
   </trkpt>
   <trkpt lat="-37.89661" lon="145.35892">
    <ele>279.87</ele>
   </trkpt>
   <trkpt lat="-37.8969" lon="145.35855">
    <ele>277.0</ele>
   </trkpt>
   <trkpt lat="-37.89705" lon="145.35846">
    <ele>277.0</ele>
   </trkpt>
   <trkpt lat="-37.89759000082096" lon="145.35802000322633">
    <ele>272.74</ele>
   </trkpt>
   <trkpt lat="-37.89813" lon="145.35758">
    <ele>269.93</ele>
   </trkpt>
   <trkpt lat="-37.89831" lon="145.35732000000002">
    <ele>268.34000000000003</ele>
   </trkpt>
   <trkpt lat="-37.89844" lon="145.35689000000002">
    <ele>267.07000000000005</ele>
   </trkpt>
   <trkpt lat="-37.89855" lon="145.35669000000001">
    <ele>265.90000000000003</ele>
   </trkpt>
   <trkpt lat="-37.89867" lon="145.35656">
    <ele>265.28000000000003</ele>
   </trkpt>
   <trkpt lat="-37.89882" lon="145.35646">
    <ele>264.23</ele>
   </trkpt>
   <trkpt lat="-37.89891" lon="145.35643000000002">
    <ele>263.63000000000005</ele>
   </trkpt>
   <trkpt lat="-37.899" lon="145.35643000000002">
    <ele>262.95</ele>
   </trkpt>
   <trkpt lat="-37.89911" lon="145.35646">
    <ele>262.23</ele>
   </trkpt>
   <trkpt lat="-37.89953500025462" lon="145.35670999855066">
    <ele>258.26000000000005</ele>
   </trkpt>
   <trkpt lat="-37.89996" lon="145.35696000000002">
    <ele>255.15000000000003</ele>
   </trkpt>
   <trkpt lat="-37.90032" lon="145.35714000000002">
    <ele>250.38000000000005</ele>
   </trkpt>
   <trkpt lat="-37.900580000000005" lon="145.35722">
    <ele>247.22000000000003</ele>
   </trkpt>
   <trkpt lat="-37.90079" lon="145.35722">
    <ele>246.37000000000003</ele>
   </trkpt>
   <trkpt lat="-37.90095" lon="145.35717000000002">
    <ele>245.73000000000002</ele>
   </trkpt>
   <trkpt lat="-37.901300000000006" lon="145.357">
    <ele>242.99</ele>
   </trkpt>
   <trkpt lat="-37.90122" lon="145.35677">
    <ele>247.25000000000003</ele>
   </trkpt>
   <trkpt lat="-37.90113" lon="145.35668">
    <ele>247.25000000000003</ele>
   </trkpt>
   <trkpt lat="-37.90075" lon="145.35647">
    <ele>253.63000000000002</ele>
   </trkpt>
   <trkpt lat="-37.90066" lon="145.35639">
    <ele>258.36</ele>
   </trkpt>
   <trkpt lat="-37.90048" lon="145.35609000000002">
    <ele>261.38</ele>
   </trkpt>
   <trkpt lat="-37.90014" lon="145.35590000000002">
    <ele>268.16</ele>
   </trkpt>
   <trkpt lat="-37.89992" lon="145.35568">
    <ele>272.55</ele>
   </trkpt>
   <trkpt lat="-37.89981" lon="145.35546000000002">
    <ele>272.55</ele>
   </trkpt>
   <trkpt lat="-37.89959" lon="145.3548">
    <ele>289.8</ele>
   </trkpt>
   <trkpt lat="-37.89959" lon="145.35479">
    <ele>290.00000000000006</ele>
   </trkpt>
   <trkpt lat="-37.89981" lon="145.35546000000002">
    <ele>284.51000000000005</ele>
   </trkpt>
   <trkpt lat="-37.89992" lon="145.35568">
    <ele>272.55</ele>
   </trkpt>
   <trkpt lat="-37.90014" lon="145.35590000000002">
    <ele>268.16</ele>
   </trkpt>
   <trkpt lat="-37.90048" lon="145.35609000000002">
    <ele>261.38</ele>
   </trkpt>
   <trkpt lat="-37.90066" lon="145.35639">
    <ele>258.36</ele>
   </trkpt>
   <trkpt lat="-37.90075" lon="145.35647">
    <ele>253.63000000000002</ele>
   </trkpt>
   <trkpt lat="-37.90113" lon="145.35668">
    <ele>247.25000000000003</ele>
   </trkpt>
   <trkpt lat="-37.90122" lon="145.35677">
    <ele>247.25000000000003</ele>
   </trkpt>
   <trkpt lat="-37.901300000000006" lon="145.35699000000002">
    <ele>243.13</ele>
   </trkpt>
   <trkpt lat="-37.901300000000006" lon="145.357">
    <ele>242.99</ele>
   </trkpt>
   <trkpt lat="-37.90095" lon="145.35717000000002">
    <ele>245.73000000000002</ele>
   </trkpt>
   <trkpt lat="-37.90079" lon="145.35722">
    <ele>246.37000000000003</ele>
   </trkpt>
   <trkpt lat="-37.900580000000005" lon="145.35722">
    <ele>247.22000000000003</ele>
   </trkpt>
   <trkpt lat="-37.90032" lon="145.35714000000002">
    <ele>250.38000000000005</ele>
   </trkpt>
   <trkpt lat="-37.89996" lon="145.35696000000002">
    <ele>255.15000000000003</ele>
   </trkpt>
   <trkpt lat="-37.89985" lon="145.35690000000002">
    <ele>254.76000000000005</ele>
   </trkpt>
   <trkpt lat="-37.89994" lon="145.35687000000001">
    <ele>254.76000000000005</ele>
   </trkpt>
   <trkpt lat="-37.90001" lon="145.35687000000001">
    <ele>261.73</ele>
   </trkpt>
   <trkpt lat="-37.9001" lon="145.35691">
    <ele>265.35</ele>
   </trkpt>
   <trkpt lat="-37.900110000000005" lon="145.35685">
    <ele>265.40000000000003</ele>
   </trkpt>
   <trkpt lat="-37.89996" lon="145.35677">
    <ele>266.13000000000005</ele>
   </trkpt>
   <trkpt lat="-37.89985" lon="145.35665">
    <ele>266.78000000000003</ele>
   </trkpt>
   <trkpt lat="-37.89974" lon="145.35645000000002">
    <ele>267.82</ele>
   </trkpt>
   <trkpt lat="-37.899730000000005" lon="145.35632">
    <ele>268.21</ele>
   </trkpt>
   <trkpt lat="-37.89967" lon="145.35628">
    <ele>268.21</ele>
   </trkpt>
   <trkpt lat="-37.89958" lon="145.35626000000002">
    <ele>268.88</ele>
   </trkpt>
   <trkpt lat="-37.89932" lon="145.35603">
    <ele>270.03000000000003</ele>
   </trkpt>
   <trkpt lat="-37.89934" lon="145.35593">
    <ele>270.03000000000003</ele>
   </trkpt>
   <trkpt lat="-37.899170000000005" lon="145.35578">
    <ele>271.58000000000004</ele>
   </trkpt>
   <trkpt lat="-37.89898" lon="145.3557">
    <ele>272.84000000000003</ele>
   </trkpt>
   <trkpt lat="-37.89873" lon="145.35563000000002">
    <ele>274.78000000000003</ele>
   </trkpt>
   <trkpt lat="-37.8984" lon="145.35568">
    <ele>277.35</ele>
   </trkpt>
   <trkpt lat="-37.89819" lon="145.35568">
    <ele>278.53</ele>
   </trkpt>
   <trkpt lat="-37.89804" lon="145.35571000000002">
    <ele>280.65</ele>
   </trkpt>
   <trkpt lat="-37.89755" lon="145.35618000000002">
    <ele>288.2</ele>
   </trkpt>
   <trkpt lat="-37.89728" lon="145.35647">
    <ele>293.07</ele>
   </trkpt>
   <trkpt lat="-37.89719" lon="145.35669000000001">
    <ele>296.05</ele>
   </trkpt>
   <trkpt lat="-37.8971" lon="145.35679000000002">
    <ele>296.05</ele>
   </trkpt>
   <trkpt lat="-37.89701" lon="145.35696000000002">
    <ele>299.52</ele>
   </trkpt>
   <trkpt lat="-37.89663" lon="145.35723000000002">
    <ele>302.39000000000004</ele>
   </trkpt>
   <trkpt lat="-37.89618" lon="145.35743000000002">
    <ele>305.73</ele>
   </trkpt>
   <trkpt lat="-37.89598" lon="145.35739">
    <ele>306.98</ele>
   </trkpt>
   <trkpt lat="-37.89558" lon="145.35742000000002">
    <ele>310.83000000000004</ele>
   </trkpt>
   <trkpt lat="-37.89531" lon="145.35732000000002">
    <ele>313.75</ele>
   </trkpt>
   <trkpt lat="-37.89488" lon="145.35739">
    <ele>318.25</ele>
   </trkpt>
   <trkpt lat="-37.89457" lon="145.35722">
    <ele>322.61</ele>
   </trkpt>
   <trkpt lat="-37.89408" lon="145.35721">
    <ele>332.64000000000004</ele>
   </trkpt>
   <trkpt lat="-37.89372" lon="145.35718">
    <ele>338.16</ele>
   </trkpt>
   <trkpt lat="-37.89329" lon="145.35727">
    <ele>342.65</ele>
   </trkpt>
   <trkpt lat="-37.89316" lon="145.35723000000002">
    <ele>343.31</ele>
   </trkpt>
   <trkpt lat="-37.89298" lon="145.35709">
    <ele>344.94</ele>
   </trkpt>
   <trkpt lat="-37.89287" lon="145.35705000000002">
    <ele>346.86</ele>
   </trkpt>
   <trkpt lat="-37.89273" lon="145.35704">
    <ele>346.86</ele>
   </trkpt>
   <trkpt lat="-37.89258" lon="145.35709">
    <ele>350.13000000000005</ele>
   </trkpt>
   <trkpt lat="-37.89246" lon="145.35708000000002">
    <ele>351.15000000000003</ele>
   </trkpt>
   <trkpt lat="-37.89195" lon="145.35690000000002">
    <ele>361.08</ele>
   </trkpt>
   <trkpt lat="-37.89186" lon="145.35682">
    <ele>361.89000000000004</ele>
   </trkpt>
   <trkpt lat="-37.891740000000006" lon="145.35659">
    <ele>364.84000000000003</ele>
   </trkpt>
   <trkpt lat="-37.891200000000005" lon="145.35612">
    <ele>373.73</ele>
   </trkpt>
   <trkpt lat="-37.89049" lon="145.35545000000002">
    <ele>382.89</ele>
   </trkpt>
   <trkpt lat="-37.89034" lon="145.35532">
    <ele>385.89</ele>
   </trkpt>
   <trkpt lat="-37.89014" lon="145.35523">
    <ele>387.55</ele>
   </trkpt>
   <trkpt lat="-37.889880000000005" lon="145.35507">
    <ele>390.94</ele>
   </trkpt>
   <trkpt lat="-37.88985" lon="145.35506">
    <ele>390.94</ele>
   </trkpt>
   <trkpt lat="-37.88964" lon="145.35511000000002">
    <ele>397.74</ele>
   </trkpt>
   <trkpt lat="-37.88958" lon="145.35502000000002">
    <ele>399.0</ele>
   </trkpt>
   <trkpt lat="-37.88922" lon="145.35487">
    <ele>402.01000000000005</ele>
   </trkpt>
   <trkpt lat="-37.88915" lon="145.35486">
    <ele>402.57000000000005</ele>
   </trkpt>
   <trkpt lat="-37.88893" lon="145.35489">
    <ele>404.56</ele>
   </trkpt>
   <trkpt lat="-37.888630000000006" lon="145.35499000000002">
    <ele>410.79</ele>
   </trkpt>
   <trkpt lat="-37.888600000000004" lon="145.35502000000002">
    <ele>411.54</ele>
   </trkpt>
   <trkpt lat="-37.88855" lon="145.35496">
    <ele>411.75000000000006</ele>
   </trkpt>
   <trkpt lat="-37.88857" lon="145.35492000000002">
    <ele>413.17</ele>
   </trkpt>
   <trkpt lat="-37.88848" lon="145.35468">
    <ele>415.69000000000005</ele>
   </trkpt>
   <trkpt lat="-37.88828" lon="145.35435">
    <ele>422.61</ele>
   </trkpt>
   <trkpt lat="-37.8881" lon="145.35416">
    <ele>427.05</ele>
   </trkpt>
   <trkpt lat="-37.88792" lon="145.35378">
    <ele>431.46</ele>
   </trkpt>
   <trkpt lat="-37.88781" lon="145.35358000000002">
    <ele>436.14000000000004</ele>
   </trkpt>
   <trkpt lat="-37.88772" lon="145.35336">
    <ele>439.35</ele>
   </trkpt>
   <trkpt lat="-37.88765" lon="145.35301">
    <ele>442.13</ele>
   </trkpt>
   <trkpt lat="-37.88745" lon="145.35251000000002">
    <ele>451.49000000000007</ele>
   </trkpt>
   <trkpt lat="-37.88725" lon="145.35215000000002">
    <ele>456.87000000000006</ele>
   </trkpt>
   <trkpt lat="-37.88696" lon="145.35204000000002">
    <ele>463.4200000000001</ele>
   </trkpt>
   <trkpt lat="-37.88678" lon="145.35203">
    <ele>465.90000000000003</ele>
   </trkpt>
   <trkpt lat="-37.88662" lon="145.352">
    <ele>466.9200000000001</ele>
   </trkpt>
   <trkpt lat="-37.88626" lon="145.35184">
    <ele>469.18</ele>
   </trkpt>
   <trkpt lat="-37.88615" lon="145.35176">
    <ele>469.41</ele>
   </trkpt>
   <trkpt lat="-37.886070000000004" lon="145.35163">
    <ele>468.68</ele>
   </trkpt>
   <trkpt lat="-37.88552" lon="145.35153000000003">
    <ele>472.04</ele>
   </trkpt>
   <trkpt lat="-37.8853" lon="145.3514">
    <ele>472.56</ele>
   </trkpt>
   <trkpt lat="-37.88474" lon="145.35098000000002">
    <ele>470.95000000000005</ele>
   </trkpt>
   <trkpt lat="-37.884730000000005" lon="145.35098000000002">
    <ele>470.95000000000005</ele>
   </trkpt>
   <trkpt lat="-37.88456" lon="145.35107000000002">
    <ele>470.59000000000003</ele>
   </trkpt>
   <trkpt lat="-37.88443" lon="145.35108000000002">
    <ele>470.59000000000003</ele>
   </trkpt>
   <trkpt lat="-37.88418" lon="145.35115000000002">
    <ele>469.89000000000004</ele>
   </trkpt>
   <trkpt lat="-37.88385" lon="145.3513">
    <ele>469.63000000000005</ele>
   </trkpt>
   <trkpt lat="-37.8834" lon="145.35133000000002">
    <ele>493.00000000000006</ele>
   </trkpt>
   <trkpt lat="-37.88385" lon="145.3513">
    <ele>469.63000000000005</ele>
   </trkpt>
   <trkpt lat="-37.88369" lon="145.35151000000002">
    <ele>471.20000000000005</ele>
   </trkpt>
   <trkpt lat="-37.88353" lon="145.35180000000003">
    <ele>472.21000000000004</ele>
   </trkpt>
   <trkpt lat="-37.88342" lon="145.35195000000002">
    <ele>472.56</ele>
   </trkpt>
   <trkpt lat="-37.88311" lon="145.35219">
    <ele>472.82</ele>
   </trkpt>
   <trkpt lat="-37.883" lon="145.35234">
    <ele>473.28000000000003</ele>
   </trkpt>
   <trkpt lat="-37.88266" lon="145.3531">
    <ele>475.94</ele>
   </trkpt>
   <trkpt lat="-37.88266" lon="145.35319">
    <ele>475.94</ele>
   </trkpt>
   <trkpt lat="-37.88282" lon="145.35356000000002">
    <ele>478.52000000000004</ele>
   </trkpt>
   <trkpt lat="-37.88291" lon="145.35394000000002">
    <ele>479.84000000000003</ele>
   </trkpt>
   <trkpt lat="-37.88293" lon="145.35439000000002">
    <ele>481.97</ele>
   </trkpt>
   <trkpt lat="-37.88315" lon="145.35522">
    <ele>484.59000000000003</ele>
   </trkpt>
   <trkpt lat="-37.88318" lon="145.3554">
    <ele>486.00000000000006</ele>
   </trkpt>
   <trkpt lat="-37.88302" lon="145.35574000000003">
    <ele>488.09000000000003</ele>
   </trkpt>
   <trkpt lat="-37.88266" lon="145.35619">
    <ele>490.02000000000004</ele>
   </trkpt>
   <trkpt lat="-37.88244" lon="145.35639">
    <ele>489.88000000000005</ele>
   </trkpt>
   <trkpt lat="-37.88226" lon="145.35667">
    <ele>489.48</ele>
   </trkpt>
   <trkpt lat="-37.88212" lon="145.35702">
    <ele>490.21000000000004</ele>
   </trkpt>
   <trkpt lat="-37.88183" lon="145.35763">
    <ele>490.7900000000001</ele>
   </trkpt>
   <trkpt lat="-37.88138" lon="145.35829">
    <ele>486.79</ele>
   </trkpt>
   <trkpt lat="-37.88123" lon="145.35861">
    <ele>487.32</ele>
   </trkpt>
   <trkpt lat="-37.881190000000004" lon="145.35876000000002">
    <ele>487.82</ele>
   </trkpt>
   <trkpt lat="-37.88103" lon="145.35904000000002">
    <ele>487.83000000000004</ele>
   </trkpt>
   <trkpt lat="-37.88094" lon="145.35907">
    <ele>487.72</ele>
   </trkpt>
   <trkpt lat="-37.8808" lon="145.35903000000002">
    <ele>487.34000000000003</ele>
   </trkpt>
   <trkpt lat="-37.88062" lon="145.35906">
    <ele>479.17</ele>
   </trkpt>
   <trkpt lat="-37.880680000000005" lon="145.35916">
    <ele>473.53000000000003</ele>
   </trkpt>
   <trkpt lat="-37.88055000000001" lon="145.35955">
    <ele>475.47</ele>
   </trkpt>
   <trkpt lat="-37.87982" lon="145.35903000000002">
    <ele>464.15000000000003</ele>
   </trkpt>
   <trkpt lat="-37.87946" lon="145.35884000000001">
    <ele>465.27</ele>
   </trkpt>
   <trkpt lat="-37.87874" lon="145.35855">
    <ele>469.25000000000006</ele>
   </trkpt>
   <trkpt lat="-37.87811000044398" lon="145.35820499701668">
    <ele>467.90000000000003</ele>
   </trkpt>
   <trkpt lat="-37.877480000000006" lon="145.35786000000002">
    <ele>464.19000000000005</ele>
   </trkpt>
   <trkpt lat="-37.87735" lon="145.35766">
    <ele>463.29</ele>
   </trkpt>
   <trkpt lat="-37.8771400011478" lon="145.35714999866212">
    <ele>460.63000000000005</ele>
   </trkpt>
   <trkpt lat="-37.87693" lon="145.35664">
    <ele>459.34000000000003</ele>
   </trkpt>
   <trkpt lat="-37.87684" lon="145.35664">
    <ele>475.51000000000005</ele>
   </trkpt>
   <trkpt lat="-37.87693" lon="145.35664">
    <ele>459.34000000000003</ele>
   </trkpt>
   <trkpt lat="-37.87709" lon="145.35658">
    <ele>470.37000000000006</ele>
   </trkpt>
   <trkpt lat="-37.876940000000005" lon="145.35618000000002">
    <ele>468.30000000000007</ele>
   </trkpt>
   <trkpt lat="-37.87709" lon="145.35658">
    <ele>470.37000000000006</ele>
   </trkpt>
   <trkpt lat="-37.87693" lon="145.35664">
    <ele>459.34000000000003</ele>
   </trkpt>
   <trkpt lat="-37.87675" lon="145.35619">
    <ele>456.77000000000004</ele>
   </trkpt>
   <trkpt lat="-37.87635" lon="145.35549">
    <ele>458.79</ele>
   </trkpt>
   <trkpt lat="-37.8763" lon="145.35531">
    <ele>460.5400000000001</ele>
   </trkpt>
   <trkpt lat="-37.876290000000004" lon="145.35504">
    <ele>462.89</ele>
   </trkpt>
   <trkpt lat="-37.876180000000005" lon="145.35491000000002">
    <ele>470.4200000000001</ele>
   </trkpt>
   <trkpt lat="-37.8761" lon="145.35474000000002">
    <ele>471.44</ele>
   </trkpt>
   <trkpt lat="-37.87599" lon="145.35412000000002">
    <ele>474.93</ele>
   </trkpt>
   <trkpt lat="-37.87619" lon="145.35323000000002">
    <ele>482.17</ele>
   </trkpt>
   <trkpt lat="-37.87635" lon="145.35294000000002">
    <ele>486.06000000000006</ele>
   </trkpt>
   <trkpt lat="-37.87635" lon="145.35272">
    <ele>487.1</ele>
   </trkpt>
   <trkpt lat="-37.87621" lon="145.35214000000002">
    <ele>494.32000000000005</ele>
   </trkpt>
   <trkpt lat="-37.87621" lon="145.35187000000002">
    <ele>498.47</ele>
   </trkpt>
   <trkpt lat="-37.87617" lon="145.35166">
    <ele>500.48999999999995</ele>
   </trkpt>
   <trkpt lat="-37.87601" lon="145.35145">
    <ele>503.55000000000007</ele>
   </trkpt>
   <trkpt lat="-37.87592" lon="145.35115000000002">
    <ele>507.19</ele>
   </trkpt>
   <trkpt lat="-37.87576" lon="145.35083">
    <ele>511.75</ele>
   </trkpt>
   <trkpt lat="-37.8755" lon="145.3505">
    <ele>516.3000000000001</ele>
   </trkpt>
   <trkpt lat="-37.87518" lon="145.35024">
    <ele>518.72</ele>
   </trkpt>
   <trkpt lat="-37.8748" lon="145.34975">
    <ele>521.99</ele>
   </trkpt>
   <trkpt lat="-37.87438" lon="145.34938000000002">
    <ele>521.83</ele>
   </trkpt>
   <trkpt lat="-37.87413" lon="145.34910000000002">
    <ele>522.24</ele>
   </trkpt>
   <trkpt lat="-37.87397" lon="145.34883000000002">
    <ele>523.1800000000001</ele>
   </trkpt>
   <trkpt lat="-37.87397" lon="145.34874000000002">
    <ele>523.4100000000001</ele>
   </trkpt>
   <trkpt lat="-37.87402" lon="145.34863">
    <ele>524.1800000000001</ele>
   </trkpt>
   <trkpt lat="-37.87432000204222" lon="145.3479450026575">
    <ele>525.63</ele>
   </trkpt>
   <trkpt lat="-37.87462" lon="145.34726">
    <ele>524.8900000000001</ele>
   </trkpt>
   <trkpt lat="-37.87462" lon="145.34694000000002">
    <ele>525.33</ele>
   </trkpt>
   <trkpt lat="-37.87435" lon="145.34626">
    <ele>528.0600000000001</ele>
   </trkpt>
  </trkseg>
 </trk>
</gpx>
