<?xml version="1.0" encoding="UTF-8"?>
<gpx creator="StravaGPX" version="1.1" xmlns="http://www.topografix.com/GPX/1/1" xmlns:xsi="http://www.w3.org/2001/XMLSchema-instance" xsi:schemaLocation="http://www.topografix.com/GPX/1/1 http://www.topografix.com/GPX/1/1/gpx.xsd">
 <metadata>
  <name>Lyrebird Walk</name>
  <author>
   <name>Natalie Gow</name>
  </author>
  <copyright author="OpenStreetMap contributors">
   <year>2020</year>
   <license>https://www.openstreetmap.org/copyright</license>
  </copyright>
 </metadata>
 <trk>
  <name>Lyrebird Walk</name>
  <link href=""/>
  <type>trail_running</type>
  <trkseg>
   <trkpt lat="-37.887" lon="145.37138000000002">
    <ele>371.3</ele>
   </trkpt>
   <trkpt lat="-37.88694" lon="145.37120000000002">
    <ele>370.93</ele>
   </trkpt>
   <trkpt lat="-37.88689" lon="145.37094000000002">
    <ele>369.20000000000005</ele>
   </trkpt>
   <trkpt lat="-37.88682" lon="145.37078000000002">
    <ele>369.20000000000005</ele>
   </trkpt>
   <trkpt lat="-37.88682" lon="145.37073">
    <ele>366.64</ele>
   </trkpt>
   <trkpt lat="-37.88693" lon="145.37054">
    <ele>363.02</ele>
   </trkpt>
   <trkpt lat="-37.88729" lon="145.37024000000002">
    <ele>360.16</ele>
   </trkpt>
   <trkpt lat="-37.88738" lon="145.37008">
    <ele>359.28000000000003</ele>
   </trkpt>
   <trkpt lat="-37.88749" lon="145.36999">
    <ele>356.68000000000006</ele>
   </trkpt>
   <trkpt lat="-37.88743" lon="145.36973">
    <ele>350.45000000000005</ele>
   </trkpt>
   <trkpt lat="-37.887865000418564" lon="145.3694250017843">
    <ele>344.99</ele>
   </trkpt>
   <trkpt lat="-37.8883" lon="145.36912">
    <ele>342.44</ele>
   </trkpt>
   <trkpt lat="-37.88897250249969" lon="145.36867751211506">
    <ele>338.53000000000003</ele>
   </trkpt>
   <trkpt lat="-37.889645003343084" lon="145.36823501614697">
    <ele>334.5</ele>
   </trkpt>
   <trkpt lat="-37.890317502530095" lon="145.36779251209543">
    <ele>331.73</ele>
   </trkpt>
   <trkpt lat="-37.89099" lon="145.36735000000002">
    <ele>326.16</ele>
   </trkpt>
   <trkpt lat="-37.89152" lon="145.36698">
    <ele>322.51</ele>
   </trkpt>
   <trkpt lat="-37.89222" lon="145.36643">
    <ele>318.65000000000003</ele>
   </trkpt>
   <trkpt lat="-37.89233" lon="145.36626">
    <ele>317.17</ele>
   </trkpt>
   <trkpt lat="-37.89244" lon="145.36593000000002">
    <ele>315.43000000000006</ele>
   </trkpt>
   <trkpt lat="-37.89293" lon="145.3651">
    <ele>311.46000000000004</ele>
   </trkpt>
   <trkpt lat="-37.89336" lon="145.36472">
    <ele>309.11000000000007</ele>
   </trkpt>
   <trkpt lat="-37.8941" lon="145.36422000000002">
    <ele>304.19</ele>
   </trkpt>
   <trkpt lat="-37.89459" lon="145.36385">
    <ele>301.96</ele>
   </trkpt>
   <trkpt lat="-37.89484" lon="145.36356">
    <ele>300.62</ele>
   </trkpt>
   <trkpt lat="-37.89515" lon="145.36293">
    <ele>297.05</ele>
   </trkpt>
   <trkpt lat="-37.895365001091264" lon="145.36242500144547">
    <ele>295.28000000000003</ele>
   </trkpt>
   <trkpt lat="-37.89558" lon="145.36192">
    <ele>292.03000000000003</ele>
   </trkpt>
   <trkpt lat="-37.89589" lon="145.36144000000002">
    <ele>290.27000000000004</ele>
   </trkpt>
   <trkpt lat="-37.896150000000006" lon="145.36041">
    <ele>286.54</ele>
   </trkpt>
   <trkpt lat="-37.89638000233227" lon="145.35966500237777">
    <ele>282.1</ele>
   </trkpt>
   <trkpt lat="-37.89661" lon="145.35892">
    <ele>279.87</ele>
   </trkpt>
   <trkpt lat="-37.8969" lon="145.35855">
    <ele>277.0</ele>
   </trkpt>
   <trkpt lat="-37.89705" lon="145.35846">
    <ele>277.0</ele>
   </trkpt>
   <trkpt lat="-37.89759000082096" lon="145.35802000322633">
    <ele>272.74</ele>
   </trkpt>
   <trkpt lat="-37.89813" lon="145.35758">
    <ele>269.93</ele>
   </trkpt>
   <trkpt lat="-37.89831" lon="145.35732000000002">
    <ele>268.34000000000003</ele>
   </trkpt>
   <trkpt lat="-37.89844" lon="145.35689000000002">
    <ele>266.86</ele>
   </trkpt>
   <trkpt lat="-37.89855" lon="145.35669000000001">
    <ele>266.40000000000003</ele>
   </trkpt>
   <trkpt lat="-37.89866" lon="145.35657">
    <ele>265.90000000000003</ele>
   </trkpt>
   <trkpt lat="-37.89882" lon="145.35646">
    <ele>264.23</ele>
   </trkpt>
   <trkpt lat="-37.89891" lon="145.35643000000002">
    <ele>263.63000000000005</ele>
   </trkpt>
   <trkpt lat="-37.899" lon="145.35643000000002">
    <ele>262.95</ele>
   </trkpt>
   <trkpt lat="-37.89911" lon="145.35646">
    <ele>262.23</ele>
   </trkpt>
   <trkpt lat="-37.8992" lon="145.35651000000001">
    <ele>260.70000000000005</ele>
   </trkpt>
   <trkpt lat="-37.89985" lon="145.35690000000002">
    <ele>254.76000000000005</ele>
   </trkpt>
   <trkpt lat="-37.89994" lon="145.35687000000001">
    <ele>261.73</ele>
   </trkpt>
   <trkpt lat="-37.90001" lon="145.35687000000001">
    <ele>261.73</ele>
   </trkpt>
   <trkpt lat="-37.9001" lon="145.35691">
    <ele>265.35</ele>
   </trkpt>
   <trkpt lat="-37.900110000000005" lon="145.35685">
    <ele>265.40000000000003</ele>
   </trkpt>
   <trkpt lat="-37.89996" lon="145.35677">
    <ele>266.13000000000005</ele>
   </trkpt>
   <trkpt lat="-37.89985" lon="145.35665">
    <ele>267.15</ele>
   </trkpt>
   <trkpt lat="-37.89974" lon="145.35645000000002">
    <ele>267.82</ele>
   </trkpt>
   <trkpt lat="-37.899730000000005" lon="145.35632">
    <ele>268.21</ele>
   </trkpt>
   <trkpt lat="-37.89967" lon="145.35628">
    <ele>268.21</ele>
   </trkpt>
   <trkpt lat="-37.89958" lon="145.35626000000002">
    <ele>268.88</ele>
   </trkpt>
   <trkpt lat="-37.89932" lon="145.35603">
    <ele>270.03000000000003</ele>
   </trkpt>
   <trkpt lat="-37.89934" lon="145.35593">
    <ele>271.3</ele>
   </trkpt>
   <trkpt lat="-37.899170000000005" lon="145.35578">
    <ele>271.58000000000004</ele>
   </trkpt>
   <trkpt lat="-37.89898" lon="145.3557">
    <ele>272.84000000000003</ele>
   </trkpt>
   <trkpt lat="-37.89873" lon="145.35563000000002">
    <ele>274.78000000000003</ele>
   </trkpt>
   <trkpt lat="-37.8984" lon="145.35568">
    <ele>277.35</ele>
   </trkpt>
   <trkpt lat="-37.89819" lon="145.35568">
    <ele>278.53</ele>
   </trkpt>
   <trkpt lat="-37.89804" lon="145.35571000000002">
    <ele>280.65</ele>
   </trkpt>
   <trkpt lat="-37.89755" lon="145.35618000000002">
    <ele>288.2</ele>
   </trkpt>
   <trkpt lat="-37.89728" lon="145.35647">
    <ele>293.07</ele>
   </trkpt>
   <trkpt lat="-37.89719" lon="145.35669000000001">
    <ele>296.05</ele>
   </trkpt>
   <trkpt lat="-37.8971" lon="145.35679000000002">
    <ele>296.05</ele>
   </trkpt>
   <trkpt lat="-37.89701" lon="145.35696000000002">
    <ele>299.52</ele>
   </trkpt>
   <trkpt lat="-37.89663" lon="145.35723000000002">
    <ele>302.39000000000004</ele>
   </trkpt>
   <trkpt lat="-37.89618" lon="145.35743000000002">
    <ele>305.73</ele>
   </trkpt>
   <trkpt lat="-37.89598" lon="145.35739">
    <ele>306.98</ele>
   </trkpt>
   <trkpt lat="-37.89558" lon="145.35742000000002">
    <ele>310.83000000000004</ele>
   </trkpt>
   <trkpt lat="-37.89531" lon="145.35732000000002">
    <ele>313.75</ele>
   </trkpt>
   <trkpt lat="-37.89488" lon="145.35739">
    <ele>318.25</ele>
   </trkpt>
   <trkpt lat="-37.89457" lon="145.35722">
    <ele>322.61</ele>
   </trkpt>
   <trkpt lat="-37.89408" lon="145.35721">
    <ele>332.64000000000004</ele>
   </trkpt>
   <trkpt lat="-37.89372" lon="145.35718">
    <ele>338.16</ele>
   </trkpt>
   <trkpt lat="-37.89329" lon="145.35727">
    <ele>342.65</ele>
   </trkpt>
   <trkpt lat="-37.89316" lon="145.35723000000002">
    <ele>343.31</ele>
   </trkpt>
   <trkpt lat="-37.89298" lon="145.35709">
    <ele>345.36000000000007</ele>
   </trkpt>
   <trkpt lat="-37.89287" lon="145.35705000000002">
    <ele>346.86</ele>
   </trkpt>
   <trkpt lat="-37.89273" lon="145.35704">
    <ele>346.86</ele>
   </trkpt>
   <trkpt lat="-37.89258" lon="145.35709">
    <ele>350.13000000000005</ele>
   </trkpt>
   <trkpt lat="-37.89246" lon="145.35709">
    <ele>351.86</ele>
   </trkpt>
   <trkpt lat="-37.89195" lon="145.35690000000002">
    <ele>361.08</ele>
   </trkpt>
   <trkpt lat="-37.89186" lon="145.35682">
    <ele>362.6</ele>
   </trkpt>
   <trkpt lat="-37.891740000000006" lon="145.35659">
    <ele>365.41</ele>
   </trkpt>
   <trkpt lat="-37.891200000000005" lon="145.35612">
    <ele>373.73</ele>
   </trkpt>
   <trkpt lat="-37.89049" lon="145.35545000000002">
    <ele>383.28000000000003</ele>
   </trkpt>
   <trkpt lat="-37.89034" lon="145.35532">
    <ele>385.89</ele>
   </trkpt>
   <trkpt lat="-37.89014" lon="145.35523">
    <ele>387.55</ele>
   </trkpt>
   <trkpt lat="-37.889880000000005" lon="145.35507">
    <ele>390.94</ele>
   </trkpt>
   <trkpt lat="-37.88985" lon="145.35506">
    <ele>390.94</ele>
   </trkpt>
   <trkpt lat="-37.88964" lon="145.35511000000002">
    <ele>398.39</ele>
   </trkpt>
   <trkpt lat="-37.88958" lon="145.35502000000002">
    <ele>399.54</ele>
   </trkpt>
   <trkpt lat="-37.88922" lon="145.35487">
    <ele>402.28000000000003</ele>
   </trkpt>
   <trkpt lat="-37.88915" lon="145.35486">
    <ele>402.57000000000005</ele>
   </trkpt>
   <trkpt lat="-37.88893" lon="145.35489">
    <ele>404.56</ele>
   </trkpt>
   <trkpt lat="-37.888630000000006" lon="145.35499000000002">
    <ele>411.54</ele>
   </trkpt>
   <trkpt lat="-37.888600000000004" lon="145.35502000000002">
    <ele>411.54</ele>
   </trkpt>
   <trkpt lat="-37.88855" lon="145.35496">
    <ele>411.75000000000006</ele>
   </trkpt>
   <trkpt lat="-37.88857" lon="145.35492000000002">
    <ele>411.75000000000006</ele>
   </trkpt>
   <trkpt lat="-37.88848" lon="145.35468">
    <ele>415.69000000000005</ele>
   </trkpt>
   <trkpt lat="-37.88828" lon="145.35435">
    <ele>422.61</ele>
   </trkpt>
   <trkpt lat="-37.8881" lon="145.35416">
    <ele>427.05</ele>
   </trkpt>
   <trkpt lat="-37.88792" lon="145.35378">
    <ele>431.46</ele>
   </trkpt>
   <trkpt lat="-37.88781" lon="145.35358000000002">
    <ele>436.14000000000004</ele>
   </trkpt>
   <trkpt lat="-37.88772" lon="145.35336">
    <ele>439.35</ele>
   </trkpt>
   <trkpt lat="-37.88765" lon="145.35301">
    <ele>442.13</ele>
   </trkpt>
   <trkpt lat="-37.88745" lon="145.35251000000002">
    <ele>451.49000000000007</ele>
   </trkpt>
   <trkpt lat="-37.88727" lon="145.35218">
    <ele>456.87000000000006</ele>
   </trkpt>
   <trkpt lat="-37.88729" lon="145.35195000000002">
    <ele>456.97</ele>
   </trkpt>
   <trkpt lat="-37.88734" lon="145.35183">
    <ele>458.01</ele>
   </trkpt>
   <trkpt lat="-37.887330000000006" lon="145.35177000000002">
    <ele>458.01</ele>
   </trkpt>
   <trkpt lat="-37.88716" lon="145.35176">
    <ele>460.85</ele>
   </trkpt>
   <trkpt lat="-37.88669" lon="145.35166">
    <ele>465.93</ele>
   </trkpt>
   <trkpt lat="-37.886410000000005" lon="145.35162000000003">
    <ele>466.0</ele>
   </trkpt>
   <trkpt lat="-37.886070000000004" lon="145.35163">
    <ele>468.68</ele>
   </trkpt>
   <trkpt lat="-37.88552" lon="145.35153000000003">
    <ele>472.04</ele>
   </trkpt>
   <trkpt lat="-37.8853" lon="145.3514">
    <ele>472.56</ele>
   </trkpt>
   <trkpt lat="-37.884730000000005" lon="145.35098000000002">
    <ele>470.95000000000005</ele>
   </trkpt>
   <trkpt lat="-37.88461" lon="145.35066">
    <ele>471.90000000000003</ele>
   </trkpt>
   <trkpt lat="-37.88461" lon="145.35046">
    <ele>474.51000000000005</ele>
   </trkpt>
   <trkpt lat="-37.884640000000005" lon="145.35035000000002">
    <ele>475.66</ele>
   </trkpt>
   <trkpt lat="-37.88461" lon="145.35017000000002">
    <ele>476.89000000000004</ele>
   </trkpt>
   <trkpt lat="-37.88456" lon="145.35004">
    <ele>478.02000000000004</ele>
   </trkpt>
   <trkpt lat="-37.88436" lon="145.34969">
    <ele>479.88</ele>
   </trkpt>
   <trkpt lat="-37.88405" lon="145.34945000000002">
    <ele>480.98</ele>
   </trkpt>
   <trkpt lat="-37.8836" lon="145.34926000000002">
    <ele>481.55</ele>
   </trkpt>
   <trkpt lat="-37.88311" lon="145.34876">
    <ele>482.80000000000007</ele>
   </trkpt>
   <trkpt lat="-37.88302" lon="145.3487">
    <ele>482.82</ele>
   </trkpt>
   <trkpt lat="-37.88255" lon="145.34856000000002">
    <ele>482.99</ele>
   </trkpt>
   <trkpt lat="-37.88226" lon="145.34839000000002">
    <ele>483.62000000000006</ele>
   </trkpt>
   <trkpt lat="-37.88201" lon="145.34819000000002">
    <ele>484.83000000000004</ele>
   </trkpt>
   <trkpt lat="-37.88167" lon="145.34744">
    <ele>491.05</ele>
   </trkpt>
   <trkpt lat="-37.88154" lon="145.34723000000002">
    <ele>491.67</ele>
   </trkpt>
   <trkpt lat="-37.88105" lon="145.34695000000002">
    <ele>494.3</ele>
   </trkpt>
   <trkpt lat="-37.880860000000006" lon="145.34682">
    <ele>494.58</ele>
   </trkpt>
   <trkpt lat="-37.88067" lon="145.34663">
    <ele>495.6</ele>
   </trkpt>
   <trkpt lat="-37.88042" lon="145.34634">
    <ele>497.31</ele>
   </trkpt>
   <trkpt lat="-37.880075000951116" lon="145.34583999750402">
    <ele>500.29</ele>
   </trkpt>
   <trkpt lat="-37.87973" lon="145.34534000000002">
    <ele>502.8</ele>
   </trkpt>
   <trkpt lat="-37.87944" lon="145.34486">
    <ele>503.99000000000007</ele>
   </trkpt>
   <trkpt lat="-37.87919" lon="145.34452000000002">
    <ele>501.7900000000001</ele>
   </trkpt>
   <trkpt lat="-37.879070000000006" lon="145.34405">
    <ele>500.6700000000001</ele>
   </trkpt>
   <trkpt lat="-37.87892" lon="145.34343">
    <ele>497.70000000000005</ele>
   </trkpt>
   <trkpt lat="-37.87877" lon="145.34292000000002">
    <ele>492.81</ele>
   </trkpt>
   <trkpt lat="-37.87865" lon="145.34273000000002">
    <ele>492.84000000000003</ele>
   </trkpt>
   <trkpt lat="-37.87865" lon="145.34264000000002">
    <ele>494.09000000000003</ele>
   </trkpt>
   <trkpt lat="-37.878690000000006" lon="145.34248000000002">
    <ele>496.26000000000005</ele>
   </trkpt>
   <trkpt lat="-37.87874" lon="145.34236">
    <ele>498.3</ele>
   </trkpt>
   <trkpt lat="-37.8787" lon="145.34225">
    <ele>503.6400000000001</ele>
   </trkpt>
   <trkpt lat="-37.87854" lon="145.34211000000002">
    <ele>505.09000000000003</ele>
   </trkpt>
   <trkpt lat="-37.87857" lon="145.34212000000002">
    <ele>505.09000000000003</ele>
   </trkpt>
   <trkpt lat="-37.87847" lon="145.34209">
    <ele>507.18000000000006</ele>
   </trkpt>
   <trkpt lat="-37.87832" lon="145.34217">
    <ele>508.39</ele>
   </trkpt>
   <trkpt lat="-37.87807" lon="145.34255000000002">
    <ele>506.83</ele>
   </trkpt>
   <trkpt lat="-37.87791" lon="145.34269">
    <ele>506.7900000000001</ele>
   </trkpt>
   <trkpt lat="-37.87778" lon="145.34271">
    <ele>507.72</ele>
   </trkpt>
   <trkpt lat="-37.87722" lon="145.34272">
    <ele>508.75</ele>
   </trkpt>
   <trkpt lat="-37.87688" lon="145.3428">
    <ele>508.09999999999997</ele>
   </trkpt>
   <trkpt lat="-37.8763" lon="145.34273000000002">
    <ele>510.71</ele>
   </trkpt>
   <trkpt lat="-37.87599" lon="145.34278">
    <ele>511.58000000000004</ele>
   </trkpt>
   <trkpt lat="-37.87585" lon="145.34284000000002">
    <ele>512.24</ele>
   </trkpt>
   <trkpt lat="-37.87574" lon="145.34297">
    <ele>512.83</ele>
   </trkpt>
   <trkpt lat="-37.875510000000006" lon="145.34301000000002">
    <ele>504.87</ele>
   </trkpt>
   <trkpt lat="-37.875370000000004" lon="145.34295">
    <ele>502.27</ele>
   </trkpt>
   <trkpt lat="-37.875350000000005" lon="145.3428">
    <ele>501.9800000000001</ele>
   </trkpt>
   <trkpt lat="-37.87467" lon="145.34328000000002">
    <ele>503.36</ele>
   </trkpt>
   <trkpt lat="-37.874500000000005" lon="145.34336000000002">
    <ele>504.05</ele>
   </trkpt>
   <trkpt lat="-37.87467" lon="145.34328000000002">
    <ele>503.36</ele>
   </trkpt>
   <trkpt lat="-37.8751" lon="145.34298">
    <ele>501.86000000000007</ele>
   </trkpt>
   <trkpt lat="-37.87505" lon="145.34289">
    <ele>502.74000000000007</ele>
   </trkpt>
   <trkpt lat="-37.8744" lon="145.34218">
    <ele>496.96000000000004</ele>
   </trkpt>
   <trkpt lat="-37.87406" lon="145.34185000000002">
    <ele>495.6700000000001</ele>
   </trkpt>
   <trkpt lat="-37.87375" lon="145.34154">
    <ele>493.36</ele>
   </trkpt>
   <trkpt lat="-37.87315" lon="145.34105000000002">
    <ele>487.11</ele>
   </trkpt>
   <trkpt lat="-37.87288" lon="145.3409">
    <ele>485.33000000000004</ele>
   </trkpt>
   <trkpt lat="-37.87272" lon="145.34083">
    <ele>485.33000000000004</ele>
   </trkpt>
   <trkpt lat="-37.87263" lon="145.34076000000002">
    <ele>482.91</ele>
   </trkpt>
   <trkpt lat="-37.87214" lon="145.34024000000002">
    <ele>478.54</ele>
   </trkpt>
   <trkpt lat="-37.87185" lon="145.33998000000003">
    <ele>476.84000000000003</ele>
   </trkpt>
   <trkpt lat="-37.871320000000004" lon="145.33969000000002">
    <ele>472.02000000000004</ele>
   </trkpt>
   <trkpt lat="-37.8712" lon="145.33964">
    <ele>470.29</ele>
   </trkpt>
   <trkpt lat="-37.87106" lon="145.33963">
    <ele>469.25000000000006</ele>
   </trkpt>
   <trkpt lat="-37.87082" lon="145.33948">
    <ele>466.99</ele>
   </trkpt>
   <trkpt lat="-37.87059" lon="145.33917000000002">
    <ele>464.88</ele>
   </trkpt>
   <trkpt lat="-37.87037" lon="145.33894">
    <ele>463.68</ele>
   </trkpt>
   <trkpt lat="-37.87019" lon="145.33884">
    <ele>462.66</ele>
   </trkpt>
   <trkpt lat="-37.8701" lon="145.33884">
    <ele>462.64000000000004</ele>
   </trkpt>
   <trkpt lat="-37.86954" lon="145.33893">
    <ele>461.22</ele>
   </trkpt>
   <trkpt lat="-37.86941" lon="145.33893">
    <ele>460.56</ele>
   </trkpt>
   <trkpt lat="-37.86918" lon="145.33896000000001">
    <ele>457.40000000000003</ele>
   </trkpt>
   <trkpt lat="-37.86891" lon="145.33893">
    <ele>455.19000000000005</ele>
   </trkpt>
   <trkpt lat="-37.86849" lon="145.33881000000002">
    <ele>452.33</ele>
   </trkpt>
   <trkpt lat="-37.86822" lon="145.33868">
    <ele>450.34000000000003</ele>
   </trkpt>
   <trkpt lat="-37.86786" lon="145.33862000000002">
    <ele>447.12</ele>
   </trkpt>
   <trkpt lat="-37.86771" lon="145.33857">
    <ele>445.22</ele>
   </trkpt>
   <trkpt lat="-37.86755" lon="145.33847">
    <ele>444.38000000000005</ele>
   </trkpt>
   <trkpt lat="-37.86739" lon="145.33831">
    <ele>443.88000000000005</ele>
   </trkpt>
   <trkpt lat="-37.86717" lon="145.33795">
    <ele>440.85</ele>
   </trkpt>
   <trkpt lat="-37.86688" lon="145.33713">
    <ele>436.9</ele>
   </trkpt>
   <trkpt lat="-37.86663" lon="145.33656000000002">
    <ele>433.05</ele>
   </trkpt>
   <trkpt lat="-37.86656" lon="145.33645">
    <ele>432.38000000000005</ele>
   </trkpt>
   <trkpt lat="-37.86652" lon="145.33644">
    <ele>432.34000000000003</ele>
   </trkpt>
   <trkpt lat="-37.86641" lon="145.33626">
    <ele>431.74</ele>
   </trkpt>
   <trkpt lat="-37.86621" lon="145.33622000000003">
    <ele>430.56000000000006</ele>
   </trkpt>
   <trkpt lat="-37.86598" lon="145.33558000000002">
    <ele>424.76</ele>
   </trkpt>
   <trkpt lat="-37.865990000000004" lon="145.33559000000002">
    <ele>424.76</ele>
   </trkpt>
   <trkpt lat="-37.86587" lon="145.33555">
    <ele>423.28000000000003</ele>
   </trkpt>
   <trkpt lat="-37.86583" lon="145.33618">
    <ele>420.28000000000003</ele>
   </trkpt>
   <trkpt lat="-37.86562" lon="145.33726000000001">
    <ele>419.08</ele>
   </trkpt>
   <trkpt lat="-37.865465001196924" lon="145.3377950011717">
    <ele>418.33000000000004</ele>
   </trkpt>
   <trkpt lat="-37.86531" lon="145.33833">
    <ele>418.93</ele>
   </trkpt>
   <trkpt lat="-37.86506" lon="145.33889000000002">
    <ele>422.06000000000006</ele>
   </trkpt>
   <trkpt lat="-37.86495" lon="145.33935000000002">
    <ele>423.29</ele>
   </trkpt>
   <trkpt lat="-37.86486" lon="145.33964">
    <ele>423.82</ele>
   </trkpt>
   <trkpt lat="-37.86475" lon="145.33980000000003">
    <ele>425.50000000000006</ele>
   </trkpt>
   <trkpt lat="-37.86464" lon="145.33988000000002">
    <ele>427.76000000000005</ele>
   </trkpt>
   <trkpt lat="-37.8645" lon="145.33989000000003">
    <ele>429.67</ele>
   </trkpt>
   <trkpt lat="-37.8641" lon="145.33975">
    <ele>432.26000000000005</ele>
   </trkpt>
   <trkpt lat="-37.863780000000006" lon="145.33974">
    <ele>436.26000000000005</ele>
   </trkpt>
   <trkpt lat="-37.86354" lon="145.33979000000002">
    <ele>436.26000000000005</ele>
   </trkpt>
   <trkpt lat="-37.86318" lon="145.33996000000002">
    <ele>439.39000000000004</ele>
   </trkpt>
   <trkpt lat="-37.862860000000005" lon="145.34025000000003">
    <ele>440.4</ele>
   </trkpt>
   <trkpt lat="-37.8622" lon="145.33963">
    <ele>421.47</ele>
   </trkpt>
   <trkpt lat="-37.86168" lon="145.33925000000002">
    <ele>410.44</ele>
   </trkpt>
   <trkpt lat="-37.86095" lon="145.33902">
    <ele>393.33</ele>
   </trkpt>
   <trkpt lat="-37.86074" lon="145.33889000000002">
    <ele>389.81000000000006</ele>
   </trkpt>
   <trkpt lat="-37.86075" lon="145.33882">
    <ele>389.95</ele>
   </trkpt>
   <trkpt lat="-37.860510000000005" lon="145.33876">
    <ele>396.37000000000006</ele>
   </trkpt>
   <trkpt lat="-37.8605" lon="145.33886">
    <ele>396.07000000000005</ele>
   </trkpt>
   <trkpt lat="-37.86056" lon="145.33914000000001">
    <ele>395.94</ele>
   </trkpt>
   <trkpt lat="-37.86081" lon="145.33949">
    <ele>396.61</ele>
   </trkpt>
   <trkpt lat="-37.86115" lon="145.33973">
    <ele>395.37000000000006</ele>
   </trkpt>
   <trkpt lat="-37.86117" lon="145.33978000000002">
    <ele>394.14000000000004</ele>
   </trkpt>
   <trkpt lat="-37.86117" lon="145.3399">
    <ele>390.8</ele>
   </trkpt>
   <trkpt lat="-37.86112" lon="145.34012">
    <ele>381.11</ele>
   </trkpt>
   <trkpt lat="-37.86086" lon="145.34071">
    <ele>364.95000000000005</ele>
   </trkpt>
   <trkpt lat="-37.860780000000005" lon="145.341">
    <ele>360.54</ele>
   </trkpt>
   <trkpt lat="-37.86092" lon="145.34113000000002">
    <ele>360.55</ele>
   </trkpt>
   <trkpt lat="-37.86097" lon="145.34123000000002">
    <ele>362.21000000000004</ele>
   </trkpt>
   <trkpt lat="-37.86108" lon="145.3417">
    <ele>366.02</ele>
   </trkpt>
   <trkpt lat="-37.86121" lon="145.34249">
    <ele>370.18</ele>
   </trkpt>
   <trkpt lat="-37.86128" lon="145.34276">
    <ele>372.46</ele>
   </trkpt>
   <trkpt lat="-37.86139" lon="145.34300000000002">
    <ele>373.38000000000005</ele>
   </trkpt>
   <trkpt lat="-37.861520000000006" lon="145.34317000000001">
    <ele>374.38000000000005</ele>
   </trkpt>
   <trkpt lat="-37.86168" lon="145.34332">
    <ele>376.45</ele>
   </trkpt>
   <trkpt lat="-37.86231" lon="145.34352">
    <ele>380.84000000000003</ele>
   </trkpt>
   <trkpt lat="-37.86296" lon="145.34383000000003">
    <ele>384.81000000000006</ele>
   </trkpt>
   <trkpt lat="-37.86303" lon="145.34388">
    <ele>385.20000000000005</ele>
   </trkpt>
   <trkpt lat="-37.86307" lon="145.34395">
    <ele>385.51</ele>
   </trkpt>
   <trkpt lat="-37.86307" lon="145.34398000000002">
    <ele>385.51</ele>
   </trkpt>
   <trkpt lat="-37.86307" lon="145.34394">
    <ele>385.51</ele>
   </trkpt>
   <trkpt lat="-37.86305" lon="145.34406">
    <ele>386.11</ele>
   </trkpt>
   <trkpt lat="-37.862840000000006" lon="145.3444">
    <ele>388.73</ele>
   </trkpt>
   <trkpt lat="-37.86253" lon="145.34477">
    <ele>394.85</ele>
   </trkpt>
   <trkpt lat="-37.86238" lon="145.34501">
    <ele>395.70000000000005</ele>
   </trkpt>
   <trkpt lat="-37.86218" lon="145.34539">
    <ele>399.07000000000005</ele>
   </trkpt>
   <trkpt lat="-37.86209" lon="145.34566">
    <ele>400.96000000000004</ele>
   </trkpt>
   <trkpt lat="-37.86193" lon="145.34642000000002">
    <ele>406.62</ele>
   </trkpt>
   <trkpt lat="-37.86202" lon="145.34712000000002">
    <ele>415.37</ele>
   </trkpt>
   <trkpt lat="-37.86206" lon="145.34726">
    <ele>417.35</ele>
   </trkpt>
   <trkpt lat="-37.8622" lon="145.34749000000002">
    <ele>419.86</ele>
   </trkpt>
   <trkpt lat="-37.86245" lon="145.34777000000003">
    <ele>423.55</ele>
   </trkpt>
   <trkpt lat="-37.86256" lon="145.34787">
    <ele>425.34000000000003</ele>
   </trkpt>
   <trkpt lat="-37.86296" lon="145.34810000000002">
    <ele>429.09000000000003</ele>
   </trkpt>
   <trkpt lat="-37.86312" lon="145.34826">
    <ele>430.72</ele>
   </trkpt>
   <trkpt lat="-37.86316" lon="145.34836">
    <ele>431.07</ele>
   </trkpt>
   <trkpt lat="-37.86316" lon="145.34895">
    <ele>437.11000000000007</ele>
   </trkpt>
   <trkpt lat="-37.86318" lon="145.3494">
    <ele>442.24</ele>
   </trkpt>
   <trkpt lat="-37.863150000000005" lon="145.34997">
    <ele>447.41</ele>
   </trkpt>
   <trkpt lat="-37.86285" lon="145.35058">
    <ele>454.52000000000004</ele>
   </trkpt>
   <trkpt lat="-37.86258" lon="145.35084">
    <ele>459.97</ele>
   </trkpt>
   <trkpt lat="-37.86256" lon="145.35098000000002">
    <ele>459.97</ele>
   </trkpt>
   <trkpt lat="-37.8622" lon="145.3514">
    <ele>465.40000000000003</ele>
   </trkpt>
   <trkpt lat="-37.86216" lon="145.35208">
    <ele>469.87000000000006</ele>
   </trkpt>
   <trkpt lat="-37.86222" lon="145.35236">
    <ele>471.32</ele>
   </trkpt>
   <trkpt lat="-37.86242" lon="145.35278000000002">
    <ele>477.19000000000005</ele>
   </trkpt>
   <trkpt lat="-37.86253" lon="145.35282">
    <ele>476.07000000000005</ele>
   </trkpt>
   <trkpt lat="-37.862570000000005" lon="145.35247">
    <ele>473.71000000000004</ele>
   </trkpt>
   <trkpt lat="-37.86253" lon="145.35292">
    <ele>476.21000000000004</ele>
   </trkpt>
   <trkpt lat="-37.862860000000005" lon="145.35369">
    <ele>480.17</ele>
   </trkpt>
   <trkpt lat="-37.862840000000006" lon="145.35371">
    <ele>480.17</ele>
   </trkpt>
   <trkpt lat="-37.86287" lon="145.3538">
    <ele>480.13000000000005</ele>
   </trkpt>
   <trkpt lat="-37.86316" lon="145.35444">
    <ele>483.04</ele>
   </trkpt>
   <trkpt lat="-37.86334" lon="145.35477">
    <ele>475.27000000000004</ele>
   </trkpt>
   <trkpt lat="-37.86345" lon="145.35489">
    <ele>473.44</ele>
   </trkpt>
   <trkpt lat="-37.863600000000005" lon="145.35494">
    <ele>470.90000000000003</ele>
   </trkpt>
   <trkpt lat="-37.86415" lon="145.35496">
    <ele>458.67</ele>
   </trkpt>
   <trkpt lat="-37.86435" lon="145.35499000000002">
    <ele>450.19</ele>
   </trkpt>
   <trkpt lat="-37.8645" lon="145.35506">
    <ele>447.36</ele>
   </trkpt>
   <trkpt lat="-37.86486" lon="145.35513">
    <ele>437.44000000000005</ele>
   </trkpt>
   <trkpt lat="-37.86502" lon="145.35512">
    <ele>434.38000000000005</ele>
   </trkpt>
   <trkpt lat="-37.8652" lon="145.35519000000002">
    <ele>427.67</ele>
   </trkpt>
   <trkpt lat="-37.86547" lon="145.35535000000002">
    <ele>423.36</ele>
   </trkpt>
   <trkpt lat="-37.86585" lon="145.3554">
    <ele>416.52000000000004</ele>
   </trkpt>
   <trkpt lat="-37.86598" lon="145.35555000000002">
    <ele>414.75</ele>
   </trkpt>
   <trkpt lat="-37.86598" lon="145.35567">
    <ele>413.6</ele>
   </trkpt>
   <trkpt lat="-37.865930000000006" lon="145.35577">
    <ele>413.19000000000005</ele>
   </trkpt>
   <trkpt lat="-37.86587" lon="145.35577">
    <ele>412.85</ele>
   </trkpt>
   <trkpt lat="-37.86571" lon="145.35590000000002">
    <ele>412.33000000000004</ele>
   </trkpt>
   <trkpt lat="-37.865640000000006" lon="145.35600000000002">
    <ele>412.17</ele>
   </trkpt>
   <trkpt lat="-37.86562" lon="145.35609000000002">
    <ele>411.58000000000004</ele>
   </trkpt>
   <trkpt lat="-37.86562" lon="145.35631">
    <ele>411.58000000000004</ele>
   </trkpt>
   <trkpt lat="-37.86594" lon="145.35716000000002">
    <ele>408.31</ele>
   </trkpt>
   <trkpt lat="-37.86605" lon="145.35784">
    <ele>405.4200000000001</ele>
   </trkpt>
   <trkpt lat="-37.86614" lon="145.35806000000002">
    <ele>404.39000000000004</ele>
   </trkpt>
   <trkpt lat="-37.8665" lon="145.35857000000001">
    <ele>401.84000000000003</ele>
   </trkpt>
   <trkpt lat="-37.8667" lon="145.35874">
    <ele>400.85</ele>
   </trkpt>
   <trkpt lat="-37.86701" lon="145.35879">
    <ele>399.86</ele>
   </trkpt>
   <trkpt lat="-37.8673" lon="145.35897">
    <ele>398.56</ele>
   </trkpt>
   <trkpt lat="-37.86753" lon="145.35917">
    <ele>397.49</ele>
   </trkpt>
   <trkpt lat="-37.86773" lon="145.35941000000003">
    <ele>395.71</ele>
   </trkpt>
   <trkpt lat="-37.86786" lon="145.35954">
    <ele>394.58000000000004</ele>
   </trkpt>
   <trkpt lat="-37.86795" lon="145.3596">
    <ele>394.24</ele>
   </trkpt>
   <trkpt lat="-37.86856" lon="145.35994000000002">
    <ele>392.21000000000004</ele>
   </trkpt>
   <trkpt lat="-37.86883" lon="145.36012000000002">
    <ele>391.23</ele>
   </trkpt>
   <trkpt lat="-37.86918" lon="145.36046000000002">
    <ele>389.97</ele>
   </trkpt>
   <trkpt lat="-37.86954" lon="145.36090000000002">
    <ele>389.28000000000003</ele>
   </trkpt>
   <trkpt lat="-37.86979" lon="145.36113">
    <ele>388.90000000000003</ele>
   </trkpt>
   <trkpt lat="-37.87001" lon="145.36128000000002">
    <ele>388.5</ele>
   </trkpt>
   <trkpt lat="-37.87053" lon="145.36155000000002">
    <ele>386.92</ele>
   </trkpt>
   <trkpt lat="-37.87088" lon="145.36163000000002">
    <ele>386.64000000000004</ele>
   </trkpt>
   <trkpt lat="-37.87129" lon="145.36168">
    <ele>385.79</ele>
   </trkpt>
   <trkpt lat="-37.87158" lon="145.36168">
    <ele>384.65000000000003</ele>
   </trkpt>
   <trkpt lat="-37.87214" lon="145.36158">
    <ele>382.98</ele>
   </trkpt>
   <trkpt lat="-37.87243" lon="145.36159">
    <ele>381.39</ele>
   </trkpt>
   <trkpt lat="-37.872600000000006" lon="145.36158">
    <ele>381.39</ele>
   </trkpt>
   <trkpt lat="-37.87288" lon="145.36151">
    <ele>379.92</ele>
   </trkpt>
   <trkpt lat="-37.87303" lon="145.3615">
    <ele>379.1</ele>
   </trkpt>
   <trkpt lat="-37.873160000000006" lon="145.36152">
    <ele>378.85</ele>
   </trkpt>
   <trkpt lat="-37.87328" lon="145.36159">
    <ele>377.14000000000004</ele>
   </trkpt>
   <trkpt lat="-37.87335" lon="145.36166">
    <ele>377.14000000000004</ele>
   </trkpt>
   <trkpt lat="-37.873740000000005" lon="145.36213">
    <ele>375.48</ele>
   </trkpt>
   <trkpt lat="-37.87377" lon="145.36206">
    <ele>392.82000000000005</ele>
   </trkpt>
   <trkpt lat="-37.873720000000006" lon="145.36152">
    <ele>396.73</ele>
   </trkpt>
   <trkpt lat="-37.873720000000006" lon="145.36151">
    <ele>396.73</ele>
   </trkpt>
   <trkpt lat="-37.87377" lon="145.36206">
    <ele>392.82000000000005</ele>
   </trkpt>
   <trkpt lat="-37.873740000000005" lon="145.36213">
    <ele>375.48</ele>
   </trkpt>
   <trkpt lat="-37.87391" lon="145.3623">
    <ele>375.35</ele>
   </trkpt>
   <trkpt lat="-37.87413" lon="145.36263000000002">
    <ele>375.58000000000004</ele>
   </trkpt>
   <trkpt lat="-37.87422" lon="145.36283">
    <ele>375.59000000000003</ele>
   </trkpt>
   <trkpt lat="-37.87433" lon="145.36322">
    <ele>374.98</ele>
   </trkpt>
   <trkpt lat="-37.87467" lon="145.36383">
    <ele>373.14000000000004</ele>
   </trkpt>
   <trkpt lat="-37.87471" lon="145.36405000000002">
    <ele>372.29</ele>
   </trkpt>
   <trkpt lat="-37.87478" lon="145.3649">
    <ele>368.65000000000003</ele>
   </trkpt>
   <trkpt lat="-37.87485" lon="145.36522000000002">
    <ele>368.65000000000003</ele>
   </trkpt>
   <trkpt lat="-37.87509" lon="145.36587">
    <ele>362.82000000000005</ele>
   </trkpt>
   <trkpt lat="-37.87523" lon="145.36611000000002">
    <ele>362.82000000000005</ele>
   </trkpt>
   <trkpt lat="-37.87579" lon="145.36678">
    <ele>358.02</ele>
   </trkpt>
   <trkpt lat="-37.8759" lon="145.36700000000002">
    <ele>357.05</ele>
   </trkpt>
   <trkpt lat="-37.875980000000006" lon="145.36725">
    <ele>354.96000000000004</ele>
   </trkpt>
   <trkpt lat="-37.87599" lon="145.36753000000002">
    <ele>354.96000000000004</ele>
   </trkpt>
   <trkpt lat="-37.87599" lon="145.36765000000003">
    <ele>353.50000000000006</ele>
   </trkpt>
   <trkpt lat="-37.87592" lon="145.36792">
    <ele>352.73</ele>
   </trkpt>
   <trkpt lat="-37.8757" lon="145.36839">
    <ele>350.11</ele>
   </trkpt>
   <trkpt lat="-37.87567000000001" lon="145.36859">
    <ele>348.40000000000003</ele>
   </trkpt>
   <trkpt lat="-37.875750000000004" lon="145.36912">
    <ele>346.05</ele>
   </trkpt>
   <trkpt lat="-37.87576" lon="145.36974">
    <ele>343.63000000000005</ele>
   </trkpt>
   <trkpt lat="-37.87579" lon="145.36987000000002">
    <ele>342.12</ele>
   </trkpt>
   <trkpt lat="-37.87588" lon="145.37013000000002">
    <ele>340.98</ele>
   </trkpt>
   <trkpt lat="-37.87592" lon="145.37022000000002">
    <ele>339.91</ele>
   </trkpt>
   <trkpt lat="-37.87601" lon="145.37026">
    <ele>339.91</ele>
   </trkpt>
   <trkpt lat="-37.8761" lon="145.37024000000002">
    <ele>338.91</ele>
   </trkpt>
   <trkpt lat="-37.87617" lon="145.37026">
    <ele>338.91</ele>
   </trkpt>
   <trkpt lat="-37.87621" lon="145.37032000000002">
    <ele>338.91</ele>
   </trkpt>
   <trkpt lat="-37.87628" lon="145.37048000000001">
    <ele>338.22</ele>
   </trkpt>
   <trkpt lat="-37.87637" lon="145.37056">
    <ele>336.98</ele>
   </trkpt>
   <trkpt lat="-37.87655" lon="145.37068000000002">
    <ele>336.61</ele>
   </trkpt>
   <trkpt lat="-37.87675" lon="145.37087000000002">
    <ele>335.34000000000003</ele>
   </trkpt>
   <trkpt lat="-37.87682" lon="145.37108">
    <ele>334.89</ele>
   </trkpt>
   <trkpt lat="-37.876850000000005" lon="145.37129000000002">
    <ele>333.71</ele>
   </trkpt>
   <trkpt lat="-37.87675" lon="145.37167000000002">
    <ele>333.13000000000005</ele>
   </trkpt>
   <trkpt lat="-37.87704" lon="145.37202000000002">
    <ele>331.51000000000005</ele>
   </trkpt>
   <trkpt lat="-37.87744500059276" lon="145.37245499738538">
    <ele>326.73</ele>
   </trkpt>
   <trkpt lat="-37.87785" lon="145.37289">
    <ele>323.8</ele>
   </trkpt>
   <trkpt lat="-37.87792" lon="145.37301000000002">
    <ele>323.14000000000004</ele>
   </trkpt>
   <trkpt lat="-37.87807" lon="145.37362000000002">
    <ele>322.77</ele>
   </trkpt>
   <trkpt lat="-37.878190000000004" lon="145.3737">
    <ele>323.47</ele>
   </trkpt>
   <trkpt lat="-37.878240000000005" lon="145.37368">
    <ele>323.43000000000006</ele>
   </trkpt>
   <trkpt lat="-37.87836" lon="145.37346000000002">
    <ele>322.79</ele>
   </trkpt>
   <trkpt lat="-37.878460000000004" lon="145.37306">
    <ele>326.64000000000004</ele>
   </trkpt>
   <trkpt lat="-37.87836" lon="145.37346000000002">
    <ele>322.79</ele>
   </trkpt>
   <trkpt lat="-37.878240000000005" lon="145.37368">
    <ele>323.43000000000006</ele>
   </trkpt>
   <trkpt lat="-37.878190000000004" lon="145.3737">
    <ele>323.47</ele>
   </trkpt>
   <trkpt lat="-37.87807" lon="145.37362000000002">
    <ele>322.78000000000003</ele>
   </trkpt>
   <trkpt lat="-37.878190000000004" lon="145.3737">
    <ele>323.47</ele>
   </trkpt>
   <trkpt lat="-37.878240000000005" lon="145.37368">
    <ele>323.43000000000006</ele>
   </trkpt>
   <trkpt lat="-37.87836" lon="145.37346000000002">
    <ele>322.79</ele>
   </trkpt>
   <trkpt lat="-37.878460000000004" lon="145.37306">
    <ele>326.64000000000004</ele>
   </trkpt>
   <trkpt lat="-37.87863" lon="145.37271">
    <ele>331.71</ele>
   </trkpt>
   <trkpt lat="-37.87883" lon="145.37248000000002">
    <ele>334.32</ele>
   </trkpt>
   <trkpt lat="-37.878980000000006" lon="145.3724">
    <ele>334.32</ele>
   </trkpt>
   <trkpt lat="-37.87935" lon="145.37225">
    <ele>340.01000000000005</ele>
   </trkpt>
   <trkpt lat="-37.879430000000006" lon="145.37229000000002">
    <ele>340.65</ele>
   </trkpt>
   <trkpt lat="-37.87955" lon="145.37228000000002">
    <ele>341.56</ele>
   </trkpt>
   <trkpt lat="-37.88013" lon="145.37231">
    <ele>343.38</ele>
   </trkpt>
   <trkpt lat="-37.88033" lon="145.37229000000002">
    <ele>344.77000000000004</ele>
   </trkpt>
   <trkpt lat="-37.88073" lon="145.37217">
    <ele>346.74000000000007</ele>
   </trkpt>
   <trkpt lat="-37.88098" lon="145.37206">
    <ele>348.31</ele>
   </trkpt>
   <trkpt lat="-37.881615000550255" lon="145.37169000320694">
    <ele>353.50000000000006</ele>
   </trkpt>
   <trkpt lat="-37.882250000000006" lon="145.37132000000003">
    <ele>357.54</ele>
   </trkpt>
   <trkpt lat="-37.88273" lon="145.37116">
    <ele>361.22</ele>
   </trkpt>
   <trkpt lat="-37.88302" lon="145.37098">
    <ele>362.95000000000005</ele>
   </trkpt>
   <trkpt lat="-37.88349" lon="145.37054">
    <ele>364.91</ele>
   </trkpt>
   <trkpt lat="-37.88391" lon="145.3701">
    <ele>366.96</ele>
   </trkpt>
   <trkpt lat="-37.884240000000005" lon="145.36970000000002">
    <ele>368.09000000000003</ele>
   </trkpt>
   <trkpt lat="-37.8845" lon="145.36943000000002">
    <ele>368.2300000000001</ele>
   </trkpt>
   <trkpt lat="-37.884690000000006" lon="145.3693">
    <ele>368.84000000000003</ele>
   </trkpt>
   <trkpt lat="-37.88474" lon="145.3693">
    <ele>368.84000000000003</ele>
   </trkpt>
   <trkpt lat="-37.884890000000006" lon="145.36933000000002">
    <ele>367.54</ele>
   </trkpt>
   <trkpt lat="-37.88508" lon="145.36929">
    <ele>367.44000000000005</ele>
   </trkpt>
   <trkpt lat="-37.88528" lon="145.36933000000002">
    <ele>362.87</ele>
   </trkpt>
   <trkpt lat="-37.885920000000006" lon="145.36982">
    <ele>356.85</ele>
   </trkpt>
   <trkpt lat="-37.88608" lon="145.36991">
    <ele>355.15000000000003</ele>
   </trkpt>
   <trkpt lat="-37.88608" lon="145.37001">
    <ele>367.13</ele>
   </trkpt>
   <trkpt lat="-37.88627" lon="145.37005000000002">
    <ele>367.11</ele>
   </trkpt>
   <trkpt lat="-37.88644" lon="145.37038">
    <ele>365.29</ele>
   </trkpt>
   <trkpt lat="-37.886520000000004" lon="145.37046">
    <ele>364.51000000000005</ele>
   </trkpt>
   <trkpt lat="-37.88683" lon="145.37049000000002">
    <ele>365.01000000000005</ele>
   </trkpt>
   <trkpt lat="-37.88689" lon="145.37060000000002">
    <ele>366.64</ele>
   </trkpt>
   <trkpt lat="-37.88682" lon="145.37073">
    <ele>366.64</ele>
   </trkpt>
   <trkpt lat="-37.88682" lon="145.37078000000002">
    <ele>369.20000000000005</ele>
   </trkpt>
   <trkpt lat="-37.88689" lon="145.37094000000002">
    <ele>369.20000000000005</ele>
   </trkpt>
   <trkpt lat="-37.88694" lon="145.37120000000002">
    <ele>370.93</ele>
   </trkpt>
   <trkpt lat="-37.887010000000004" lon="145.37139000000002">
    <ele>371.32000000000005</ele>
   </trkpt>
  </trkseg>
 </trk>
</gpx>
