<?xml version="1.0" encoding="UTF-8"?>
<gpx creator="StravaGPX" version="1.1" xmlns="http://www.topografix.com/GPX/1/1" xmlns:xsi="http://www.w3.org/2001/XMLSchema-instance" xsi:schemaLocation="http://www.topografix.com/GPX/1/1 http://www.topografix.com/GPX/1/1/gpx.xsd">
 <metadata>
  <name>Thursday 💥</name>
  <author>
   <name>Natalie Gow</name>
  </author>
  <copyright author="OpenStreetMap contributors">
   <year>2020</year>
   <license>https://www.openstreetmap.org/copyright</license>
  </copyright>
 </metadata>
 <trk>
  <name>Thursday 💥</name>
  <link href=""/>
  <type>trail_running</type>
  <trkseg>
   <trkpt lat="-37.847370000000005" lon="145.36027">
    <ele>510.88</ele>
   </trkpt>
   <trkpt lat="-37.84721000220064" lon="145.3595449983285">
    <ele>514.51</ele>
   </trkpt>
   <trkpt lat="-37.84705" lon="145.35882">
    <ele>516.7400000000001</ele>
   </trkpt>
   <trkpt lat="-37.84709" lon="145.35882">
    <ele>517.7400000000001</ele>
   </trkpt>
   <trkpt lat="-37.84695" lon="145.35840000000002">
    <ele>516.49</ele>
   </trkpt>
   <trkpt lat="-37.84664" lon="145.35795000000002">
    <ele>512.5200000000001</ele>
   </trkpt>
   <trkpt lat="-37.846540000000005" lon="145.35771000000003">
    <ele>510.39</ele>
   </trkpt>
   <trkpt lat="-37.84644" lon="145.35760000000002">
    <ele>510.09000000000003</ele>
   </trkpt>
   <trkpt lat="-37.846360000000004" lon="145.35734000000002">
    <ele>509.4000000000001</ele>
   </trkpt>
   <trkpt lat="-37.846006670389734" lon="145.35667666031446">
    <ele>509.61</ele>
   </trkpt>
   <trkpt lat="-37.84565333705871" lon="145.35601332698553">
    <ele>511.27</ele>
   </trkpt>
   <trkpt lat="-37.8453" lon="145.35535000000002">
    <ele>512.0400000000001</ele>
   </trkpt>
   <trkpt lat="-37.84517" lon="145.35528000000002">
    <ele>512.61</ele>
   </trkpt>
   <trkpt lat="-37.8457133347619" lon="145.3548666727697">
    <ele>511.83</ele>
   </trkpt>
   <trkpt lat="-37.846256668079185" lon="145.35445333944867">
    <ele>510.5200000000001</ele>
   </trkpt>
   <trkpt lat="-37.8468" lon="145.35404">
    <ele>507.89000000000004</ele>
   </trkpt>
   <trkpt lat="-37.846830000000004" lon="145.35398">
    <ele>507.89000000000004</ele>
   </trkpt>
   <trkpt lat="-37.846900000000005" lon="145.35394000000002">
    <ele>508.09000000000003</ele>
   </trkpt>
   <trkpt lat="-37.84734" lon="145.35397">
    <ele>498.56000000000006</ele>
   </trkpt>
   <trkpt lat="-37.84781" lon="145.35397">
    <ele>484.84000000000003</ele>
   </trkpt>
   <trkpt lat="-37.84798" lon="145.35389">
    <ele>473.91</ele>
   </trkpt>
   <trkpt lat="-37.84828" lon="145.35382">
    <ele>470.70000000000005</ele>
   </trkpt>
   <trkpt lat="-37.84857" lon="145.35368000000003">
    <ele>453.5</ele>
   </trkpt>
   <trkpt lat="-37.84868" lon="145.35357000000002">
    <ele>447.99000000000007</ele>
   </trkpt>
   <trkpt lat="-37.84881" lon="145.35356000000002">
    <ele>445.54</ele>
   </trkpt>
   <trkpt lat="-37.84877" lon="145.35304000000002">
    <ele>443.05000000000007</ele>
   </trkpt>
   <trkpt lat="-37.848670000000006" lon="145.35243">
    <ele>438.46</ele>
   </trkpt>
   <trkpt lat="-37.8485" lon="145.35187000000002">
    <ele>432.20000000000005</ele>
   </trkpt>
   <trkpt lat="-37.84845" lon="145.35174">
    <ele>431.77000000000004</ele>
   </trkpt>
   <trkpt lat="-37.84819" lon="145.35123000000002">
    <ele>427.7900000000001</ele>
   </trkpt>
   <trkpt lat="-37.84792" lon="145.35087000000001">
    <ele>424.15000000000003</ele>
   </trkpt>
   <trkpt lat="-37.84767" lon="145.35063000000002">
    <ele>423.64</ele>
   </trkpt>
   <trkpt lat="-37.8472" lon="145.35029">
    <ele>419.90000000000003</ele>
   </trkpt>
   <trkpt lat="-37.84695" lon="145.35014">
    <ele>418.18000000000006</ele>
   </trkpt>
   <trkpt lat="-37.84678" lon="145.35007000000002">
    <ele>418.15000000000003</ele>
   </trkpt>
   <trkpt lat="-37.84653" lon="145.35004">
    <ele>419.97</ele>
   </trkpt>
   <trkpt lat="-37.845980000089995" lon="145.35005500010948">
    <ele>425.34000000000003</ele>
   </trkpt>
   <trkpt lat="-37.84543" lon="145.35007000000002">
    <ele>426.53000000000003</ele>
   </trkpt>
   <trkpt lat="-37.844934999841115" lon="145.35014000049526">
    <ele>430.33000000000004</ele>
   </trkpt>
   <trkpt lat="-37.844440000000006" lon="145.35021">
    <ele>435.55</ele>
   </trkpt>
   <trkpt lat="-37.84409" lon="145.35022">
    <ele>437.42</ele>
   </trkpt>
   <trkpt lat="-37.84355" lon="145.35018000000002">
    <ele>440.56000000000006</ele>
   </trkpt>
   <trkpt lat="-37.84306" lon="145.35005">
    <ele>443.20000000000005</ele>
   </trkpt>
   <trkpt lat="-37.84262500001824" lon="145.3498699988892">
    <ele>446.1</ele>
   </trkpt>
   <trkpt lat="-37.84219" lon="145.34969">
    <ele>450.40000000000003</ele>
   </trkpt>
   <trkpt lat="-37.84196" lon="145.34958">
    <ele>452.11</ele>
   </trkpt>
   <trkpt lat="-37.841840000000005" lon="145.34948">
    <ele>452.53000000000003</ele>
   </trkpt>
   <trkpt lat="-37.84196" lon="145.34958">
    <ele>451.8</ele>
   </trkpt>
   <trkpt lat="-37.84246" lon="145.34979">
    <ele>460.35</ele>
   </trkpt>
   <trkpt lat="-37.84196" lon="145.34958">
    <ele>452.11</ele>
   </trkpt>
   <trkpt lat="-37.84185" lon="145.3495">
    <ele>452.55000000000007</ele>
   </trkpt>
   <trkpt lat="-37.84179" lon="145.34944000000002">
    <ele>452.52000000000004</ele>
   </trkpt>
   <trkpt lat="-37.841770000000004" lon="145.34928000000002">
    <ele>449.24</ele>
   </trkpt>
   <trkpt lat="-37.84185" lon="145.34889">
    <ele>441.52000000000004</ele>
   </trkpt>
   <trkpt lat="-37.84192" lon="145.34903">
    <ele>439.28000000000003</ele>
   </trkpt>
   <trkpt lat="-37.84201" lon="145.34906">
    <ele>437.45000000000005</ele>
   </trkpt>
   <trkpt lat="-37.8421" lon="145.34902000000002">
    <ele>434.49</ele>
   </trkpt>
   <trkpt lat="-37.84219" lon="145.34892000000002">
    <ele>432.57</ele>
   </trkpt>
   <trkpt lat="-37.84237" lon="145.3488">
    <ele>428.07000000000005</ele>
   </trkpt>
   <trkpt lat="-37.84263" lon="145.34873000000002">
    <ele>423.96000000000004</ele>
   </trkpt>
   <trkpt lat="-37.842760000000006" lon="145.34866000000002">
    <ele>420.41</ele>
   </trkpt>
   <trkpt lat="-37.84286" lon="145.34865000000002">
    <ele>418.68000000000006</ele>
   </trkpt>
   <trkpt lat="-37.84306" lon="145.34874000000002">
    <ele>414.80000000000007</ele>
   </trkpt>
   <trkpt lat="-37.84315" lon="145.34874000000002">
    <ele>414.13000000000005</ele>
   </trkpt>
   <trkpt lat="-37.843320000000006" lon="145.34844">
    <ele>411.46000000000004</ele>
   </trkpt>
   <trkpt lat="-37.84337" lon="145.34801000000002">
    <ele>409.34000000000003</ele>
   </trkpt>
   <trkpt lat="-37.84382" lon="145.34711000000001">
    <ele>396.88</ele>
   </trkpt>
   <trkpt lat="-37.84384" lon="145.3469">
    <ele>391.25000000000006</ele>
   </trkpt>
   <trkpt lat="-37.84378" lon="145.34646">
    <ele>386.26000000000005</ele>
   </trkpt>
   <trkpt lat="-37.8438" lon="145.34609">
    <ele>381.57</ele>
   </trkpt>
   <trkpt lat="-37.843880000000006" lon="145.34591">
    <ele>376.08000000000004</ele>
   </trkpt>
   <trkpt lat="-37.84393" lon="145.34585">
    <ele>372.28000000000003</ele>
   </trkpt>
   <trkpt lat="-37.84398" lon="145.34587000000002">
    <ele>372.28000000000003</ele>
   </trkpt>
   <trkpt lat="-37.84418" lon="145.34607000000003">
    <ele>368.1</ele>
   </trkpt>
   <trkpt lat="-37.84445" lon="145.34615000000002">
    <ele>364.69</ele>
   </trkpt>
   <trkpt lat="-37.845060000000004" lon="145.34613000000002">
    <ele>348.62000000000006</ele>
   </trkpt>
   <trkpt lat="-37.84519" lon="145.34607000000003">
    <ele>348.62000000000006</ele>
   </trkpt>
   <trkpt lat="-37.84543" lon="145.3459">
    <ele>341.95000000000005</ele>
   </trkpt>
   <trkpt lat="-37.84548" lon="145.34592">
    <ele>340.05</ele>
   </trkpt>
   <trkpt lat="-37.84561" lon="145.34591">
    <ele>336.87</ele>
   </trkpt>
   <trkpt lat="-37.84572" lon="145.34585">
    <ele>336.87</ele>
   </trkpt>
   <trkpt lat="-37.8459" lon="145.34558">
    <ele>332.29</ele>
   </trkpt>
   <trkpt lat="-37.84595" lon="145.34548">
    <ele>331.53000000000003</ele>
   </trkpt>
   <trkpt lat="-37.84597" lon="145.34536">
    <ele>330.86</ele>
   </trkpt>
   <trkpt lat="-37.84597" lon="145.34538">
    <ele>330.86</ele>
   </trkpt>
   <trkpt lat="-37.84586" lon="145.34505000000001">
    <ele>329.91</ele>
   </trkpt>
   <trkpt lat="-37.8457" lon="145.34482">
    <ele>328.62</ele>
   </trkpt>
   <trkpt lat="-37.84559" lon="145.34452000000002">
    <ele>324.94</ele>
   </trkpt>
   <trkpt lat="-37.84557" lon="145.34426000000002">
    <ele>323.18</ele>
   </trkpt>
   <trkpt lat="-37.84559" lon="145.34419000000003">
    <ele>321.92</ele>
   </trkpt>
   <trkpt lat="-37.84568" lon="145.34411">
    <ele>320.59000000000003</ele>
   </trkpt>
   <trkpt lat="-37.8457" lon="145.34397">
    <ele>321.67</ele>
   </trkpt>
   <trkpt lat="-37.8457" lon="145.34371000000002">
    <ele>323.58000000000004</ele>
   </trkpt>
   <trkpt lat="-37.84561" lon="145.34342">
    <ele>326.22</ele>
   </trkpt>
   <trkpt lat="-37.8455" lon="145.34315">
    <ele>327.65000000000003</ele>
   </trkpt>
   <trkpt lat="-37.84532" lon="145.34259">
    <ele>326.95</ele>
   </trkpt>
   <trkpt lat="-37.8451" lon="145.34224">
    <ele>324.98</ele>
   </trkpt>
   <trkpt lat="-37.84496" lon="145.34209">
    <ele>324.56</ele>
   </trkpt>
   <trkpt lat="-37.84451500060959" lon="145.3417299978776">
    <ele>323.28000000000003</ele>
   </trkpt>
   <trkpt lat="-37.84407" lon="145.34137">
    <ele>321.17</ele>
   </trkpt>
   <trkpt lat="-37.8438" lon="145.34104000000002">
    <ele>320.07</ele>
   </trkpt>
   <trkpt lat="-37.84369" lon="145.34098">
    <ele>319.6</ele>
   </trkpt>
   <trkpt lat="-37.84348" lon="145.34089">
    <ele>318.71000000000004</ele>
   </trkpt>
   <trkpt lat="-37.84297" lon="145.34079">
    <ele>318.56</ele>
   </trkpt>
   <trkpt lat="-37.84275" lon="145.3407">
    <ele>318.05</ele>
   </trkpt>
   <trkpt lat="-37.84252" lon="145.34050000000002">
    <ele>314.74</ele>
   </trkpt>
   <trkpt lat="-37.84225" lon="145.34014000000002">
    <ele>311.96000000000004</ele>
   </trkpt>
   <trkpt lat="-37.8421" lon="145.33983">
    <ele>311.38000000000005</ele>
   </trkpt>
   <trkpt lat="-37.841950000000004" lon="145.33969000000002">
    <ele>310.85</ele>
   </trkpt>
   <trkpt lat="-37.84219" lon="145.33922">
    <ele>297.27000000000004</ele>
   </trkpt>
   <trkpt lat="-37.842425001773286" lon="145.33857000210702">
    <ele>282.11</ele>
   </trkpt>
   <trkpt lat="-37.84266" lon="145.33792000000003">
    <ele>269.91</ele>
   </trkpt>
   <trkpt lat="-37.8427" lon="145.33763000000002">
    <ele>264.85</ele>
   </trkpt>
   <trkpt lat="-37.84264" lon="145.3374">
    <ele>260.33</ele>
   </trkpt>
   <trkpt lat="-37.84266" lon="145.33729000000002">
    <ele>260.33</ele>
   </trkpt>
   <trkpt lat="-37.84272" lon="145.33701000000002">
    <ele>254.21000000000004</ele>
   </trkpt>
   <trkpt lat="-37.84288" lon="145.33671">
    <ele>246.86</ele>
   </trkpt>
   <trkpt lat="-37.84297" lon="145.33640000000003">
    <ele>246.86</ele>
   </trkpt>
   <trkpt lat="-37.84322" lon="145.33603000000002">
    <ele>237.59000000000003</ele>
   </trkpt>
   <trkpt lat="-37.84344" lon="145.33578">
    <ele>233.56</ele>
   </trkpt>
   <trkpt lat="-37.84411" lon="145.33519">
    <ele>219.61</ele>
   </trkpt>
   <trkpt lat="-37.84438" lon="145.33501">
    <ele>215.19000000000003</ele>
   </trkpt>
   <trkpt lat="-37.84451" lon="145.33489">
    <ele>213.81000000000003</ele>
   </trkpt>
   <trkpt lat="-37.84458" lon="145.3348">
    <ele>211.95000000000002</ele>
   </trkpt>
   <trkpt lat="-37.84469" lon="145.33455">
    <ele>209.46</ele>
   </trkpt>
   <trkpt lat="-37.84469" lon="145.33442000000002">
    <ele>208.31000000000003</ele>
   </trkpt>
   <trkpt lat="-37.844640000000005" lon="145.3343">
    <ele>208.0</ele>
   </trkpt>
   <trkpt lat="-37.844660000000005" lon="145.33432000000002">
    <ele>208.0</ele>
   </trkpt>
   <trkpt lat="-37.84458" lon="145.33425000000003">
    <ele>207.46</ele>
   </trkpt>
   <trkpt lat="-37.84431" lon="145.33408">
    <ele>206.98000000000002</ele>
   </trkpt>
   <trkpt lat="-37.84422" lon="145.33398000000003">
    <ele>207.24</ele>
   </trkpt>
   <trkpt lat="-37.84416" lon="145.33384">
    <ele>207.28000000000003</ele>
   </trkpt>
   <trkpt lat="-37.84409" lon="145.33361000000002">
    <ele>207.02</ele>
   </trkpt>
   <trkpt lat="-37.84389" lon="145.33365">
    <ele>208.71</ele>
   </trkpt>
   <trkpt lat="-37.84371" lon="145.33363">
    <ele>209.24</ele>
   </trkpt>
   <trkpt lat="-37.84353" lon="145.33365">
    <ele>210.65</ele>
   </trkpt>
   <trkpt lat="-37.84313" lon="145.33376">
    <ele>216.43</ele>
   </trkpt>
   <trkpt lat="-37.84295" lon="145.33379000000002">
    <ele>220.29000000000002</ele>
   </trkpt>
   <trkpt lat="-37.84243" lon="145.33378000000002">
    <ele>225.16000000000003</ele>
   </trkpt>
   <trkpt lat="-37.84176" lon="145.3339">
    <ele>232.60000000000002</ele>
   </trkpt>
   <trkpt lat="-37.841120000000004" lon="145.33404000000002">
    <ele>233.92000000000002</ele>
   </trkpt>
   <trkpt lat="-37.84055" lon="145.33406000000002">
    <ele>232.5</ele>
   </trkpt>
   <trkpt lat="-37.84004" lon="145.3341">
    <ele>231.24000000000004</ele>
   </trkpt>
   <trkpt lat="-37.83954000000001" lon="145.33409">
    <ele>229.19000000000003</ele>
   </trkpt>
   <trkpt lat="-37.83901" lon="145.33413000000002">
    <ele>226.79000000000002</ele>
   </trkpt>
   <trkpt lat="-37.83825" lon="145.33406000000002">
    <ele>230.10000000000002</ele>
   </trkpt>
   <trkpt lat="-37.83803" lon="145.33407000000003">
    <ele>231.17000000000002</ele>
   </trkpt>
   <trkpt lat="-37.83722" lon="145.33425000000003">
    <ele>238.36</ele>
   </trkpt>
   <trkpt lat="-37.83677" lon="145.33428">
    <ele>238.98000000000002</ele>
   </trkpt>
   <trkpt lat="-37.83628" lon="145.33443000000003">
    <ele>240.22</ele>
   </trkpt>
   <trkpt lat="-37.835750000000004" lon="145.33454">
    <ele>240.28000000000003</ele>
   </trkpt>
   <trkpt lat="-37.83572" lon="145.33446">
    <ele>240.28000000000003</ele>
   </trkpt>
   <trkpt lat="-37.83568" lon="145.33441000000002">
    <ele>239.52</ele>
   </trkpt>
   <trkpt lat="-37.835190000000004" lon="145.33453">
    <ele>236.74</ele>
   </trkpt>
   <trkpt lat="-37.83509" lon="145.33440000000002">
    <ele>234.67000000000002</ele>
   </trkpt>
   <trkpt lat="-37.835" lon="145.33423000000002">
    <ele>230.83</ele>
   </trkpt>
   <trkpt lat="-37.83484" lon="145.33418">
    <ele>230.83</ele>
   </trkpt>
   <trkpt lat="-37.83455" lon="145.33398000000003">
    <ele>227.09</ele>
   </trkpt>
   <trkpt lat="-37.83419" lon="145.33354">
    <ele>222.06</ele>
   </trkpt>
   <trkpt lat="-37.8339" lon="145.33331">
    <ele>218.64000000000001</ele>
   </trkpt>
   <trkpt lat="-37.83328" lon="145.33304">
    <ele>211.11</ele>
   </trkpt>
   <trkpt lat="-37.83321" lon="145.33293">
    <ele>204.53</ele>
   </trkpt>
   <trkpt lat="-37.83315" lon="145.33293">
    <ele>204.53</ele>
   </trkpt>
   <trkpt lat="-37.832390000761315" lon="145.33332500401605">
    <ele>195.88000000000002</ele>
   </trkpt>
   <trkpt lat="-37.831630000000004" lon="145.33372">
    <ele>195.99</ele>
   </trkpt>
   <trkpt lat="-37.83155" lon="145.33374">
    <ele>195.99</ele>
   </trkpt>
   <trkpt lat="-37.83162" lon="145.33414000000002">
    <ele>199.57000000000002</ele>
   </trkpt>
   <trkpt lat="-37.831686671993126" lon="145.33493333196105">
    <ele>208.13</ele>
   </trkpt>
   <trkpt lat="-37.83175333866496" lon="145.3357266653558">
    <ele>216.50000000000003</ele>
   </trkpt>
   <trkpt lat="-37.83182" lon="145.33652">
    <ele>223.78</ele>
   </trkpt>
   <trkpt lat="-37.831830000000004" lon="145.33692000000002">
    <ele>227.49</ele>
   </trkpt>
   <trkpt lat="-37.83189" lon="145.33772000000002">
    <ele>240.56000000000003</ele>
   </trkpt>
   <trkpt lat="-37.83191" lon="145.33862000000002">
    <ele>256.53000000000003</ele>
   </trkpt>
   <trkpt lat="-37.831990000000005" lon="145.33924000000002">
    <ele>267.90000000000003</ele>
   </trkpt>
   <trkpt lat="-37.83211" lon="145.33979000000002">
    <ele>277.41</ele>
   </trkpt>
   <trkpt lat="-37.83212" lon="145.34007000000003">
    <ele>282.8</ele>
   </trkpt>
   <trkpt lat="-37.832240000000006" lon="145.34091">
    <ele>298.93</ele>
   </trkpt>
   <trkpt lat="-37.83225" lon="145.34114000000002">
    <ele>306.58000000000004</ele>
   </trkpt>
   <trkpt lat="-37.83238" lon="145.34191">
    <ele>329.62</ele>
   </trkpt>
   <trkpt lat="-37.83243" lon="145.34215">
    <ele>338.1</ele>
   </trkpt>
   <trkpt lat="-37.83245" lon="145.34245">
    <ele>343.67</ele>
   </trkpt>
   <trkpt lat="-37.83249" lon="145.34262">
    <ele>351.36</ele>
   </trkpt>
   <trkpt lat="-37.83249" lon="145.34288">
    <ele>365.88000000000005</ele>
   </trkpt>
   <trkpt lat="-37.83261" lon="145.34326000000001">
    <ele>378.89</ele>
   </trkpt>
   <trkpt lat="-37.83258" lon="145.34358">
    <ele>388.8</ele>
   </trkpt>
   <trkpt lat="-37.83261" lon="145.34380000000002">
    <ele>395.43000000000006</ele>
   </trkpt>
   <trkpt lat="-37.83267" lon="145.34406">
    <ele>406.28000000000003</ele>
   </trkpt>
   <trkpt lat="-37.83276" lon="145.34487000000001">
    <ele>430.69</ele>
   </trkpt>
   <trkpt lat="-37.83278" lon="145.34532000000002">
    <ele>455.74</ele>
   </trkpt>
   <trkpt lat="-37.83283" lon="145.34573">
    <ele>470.85</ele>
   </trkpt>
   <trkpt lat="-37.83283" lon="145.34615000000002">
    <ele>497.34000000000003</ele>
   </trkpt>
   <trkpt lat="-37.83294" lon="145.34682">
    <ele>531.52</ele>
   </trkpt>
   <trkpt lat="-37.83294" lon="145.347">
    <ele>536.87</ele>
   </trkpt>
   <trkpt lat="-37.833000000000006" lon="145.34723000000002">
    <ele>547.07</ele>
   </trkpt>
   <trkpt lat="-37.833110000000005" lon="145.34795000000003">
    <ele>576.97</ele>
   </trkpt>
   <trkpt lat="-37.833110000000005" lon="145.34797">
    <ele>576.97</ele>
   </trkpt>
   <trkpt lat="-37.833270000000006" lon="145.34803000000002">
    <ele>585.09</ele>
   </trkpt>
   <trkpt lat="-37.83346" lon="145.34808">
    <ele>595.1200000000001</ele>
   </trkpt>
   <trkpt lat="-37.83379500052499" lon="145.34767500204265">
    <ele>597.0500000000001</ele>
   </trkpt>
   <trkpt lat="-37.83413" lon="145.34727">
    <ele>596.89</ele>
   </trkpt>
   <trkpt lat="-37.8344" lon="145.34703000000002">
    <ele>596.21</ele>
   </trkpt>
   <trkpt lat="-37.83491" lon="145.3468">
    <ele>596.13</ele>
   </trkpt>
   <trkpt lat="-37.835150000000006" lon="145.34676000000002">
    <ele>596.82</ele>
   </trkpt>
   <trkpt lat="-37.83574" lon="145.34658000000002">
    <ele>599.69</ele>
   </trkpt>
   <trkpt lat="-37.83601" lon="145.34655">
    <ele>602.6100000000001</ele>
   </trkpt>
   <trkpt lat="-37.8363" lon="145.34654">
    <ele>605.95</ele>
   </trkpt>
   <trkpt lat="-37.83668" lon="145.34660000000002">
    <ele>610.08</ele>
   </trkpt>
   <trkpt lat="-37.83681" lon="145.34659000000002">
    <ele>610.1800000000001</ele>
   </trkpt>
   <trkpt lat="-37.83706" lon="145.34649000000002">
    <ele>607.26</ele>
   </trkpt>
   <trkpt lat="-37.83726" lon="145.34629">
    <ele>601.0000000000001</ele>
   </trkpt>
   <trkpt lat="-37.83733" lon="145.34626">
    <ele>598.96</ele>
   </trkpt>
   <trkpt lat="-37.83766" lon="145.34623000000002">
    <ele>592.6800000000001</ele>
   </trkpt>
   <trkpt lat="-37.83791" lon="145.34608">
    <ele>585.46</ele>
   </trkpt>
   <trkpt lat="-37.83813" lon="145.34605000000002">
    <ele>580.1400000000001</ele>
   </trkpt>
   <trkpt lat="-37.83834" lon="145.34596000000002">
    <ele>572.2600000000001</ele>
   </trkpt>
   <trkpt lat="-37.83843" lon="145.34587000000002">
    <ele>569.69</ele>
   </trkpt>
   <trkpt lat="-37.83856" lon="145.34584">
    <ele>566.72</ele>
   </trkpt>
   <trkpt lat="-37.83872" lon="145.34589000000003">
    <ele>565.3600000000001</ele>
   </trkpt>
   <trkpt lat="-37.83896" lon="145.34608">
    <ele>565.7500000000001</ele>
   </trkpt>
   <trkpt lat="-37.83912" lon="145.34615000000002">
    <ele>564.4100000000001</ele>
   </trkpt>
   <trkpt lat="-37.83961" lon="145.34607000000003">
    <ele>549.85</ele>
   </trkpt>
   <trkpt lat="-37.83979" lon="145.34606000000002">
    <ele>549.85</ele>
   </trkpt>
   <trkpt lat="-37.84004" lon="145.34607000000003">
    <ele>545.8000000000001</ele>
   </trkpt>
   <trkpt lat="-37.84013" lon="145.34609">
    <ele>544.3100000000001</ele>
   </trkpt>
   <trkpt lat="-37.84024" lon="145.34614000000002">
    <ele>542.94</ele>
   </trkpt>
   <trkpt lat="-37.84035" lon="145.34613000000002">
    <ele>540.72</ele>
   </trkpt>
   <trkpt lat="-37.84035" lon="145.34611">
    <ele>540.72</ele>
   </trkpt>
   <trkpt lat="-37.84035" lon="145.34613000000002">
    <ele>540.72</ele>
   </trkpt>
   <trkpt lat="-37.84035" lon="145.34608">
    <ele>540.72</ele>
   </trkpt>
   <trkpt lat="-37.84004" lon="145.34539">
    <ele>531.24</ele>
   </trkpt>
   <trkpt lat="-37.83977" lon="145.34502">
    <ele>522.4000000000001</ele>
   </trkpt>
   <trkpt lat="-37.83977" lon="145.34496000000001">
    <ele>519.46</ele>
   </trkpt>
   <trkpt lat="-37.83979" lon="145.34494">
    <ele>519.46</ele>
   </trkpt>
   <trkpt lat="-37.839850000000006" lon="145.34493">
    <ele>517.57</ele>
   </trkpt>
   <trkpt lat="-37.84055" lon="145.34504">
    <ele>508.84000000000003</ele>
   </trkpt>
   <trkpt lat="-37.84082" lon="145.34512">
    <ele>503.75</ele>
   </trkpt>
   <trkpt lat="-37.84122" lon="145.34528">
    <ele>495.76000000000005</ele>
   </trkpt>
   <trkpt lat="-37.84127" lon="145.34528">
    <ele>495.76000000000005</ele>
   </trkpt>
   <trkpt lat="-37.84127" lon="145.3452">
    <ele>495.76000000000005</ele>
   </trkpt>
   <trkpt lat="-37.84127" lon="145.34522">
    <ele>495.76000000000005</ele>
   </trkpt>
   <trkpt lat="-37.8412" lon="145.34501">
    <ele>491.31</ele>
   </trkpt>
   <trkpt lat="-37.84109" lon="145.34479000000002">
    <ele>489.75</ele>
   </trkpt>
   <trkpt lat="-37.84091" lon="145.34454000000002">
    <ele>483.81</ele>
   </trkpt>
   <trkpt lat="-37.84051" lon="145.34409000000002">
    <ele>473.1</ele>
   </trkpt>
   <trkpt lat="-37.84028" lon="145.34392000000003">
    <ele>469.9200000000001</ele>
   </trkpt>
   <trkpt lat="-37.84024" lon="145.34384">
    <ele>468.52000000000004</ele>
   </trkpt>
   <trkpt lat="-37.84057" lon="145.34386">
    <ele>466.07000000000005</ele>
   </trkpt>
   <trkpt lat="-37.84091" lon="145.34394">
    <ele>463.53000000000003</ele>
   </trkpt>
   <trkpt lat="-37.84125" lon="145.34408000000002">
    <ele>461.33</ele>
   </trkpt>
   <trkpt lat="-37.84163" lon="145.34426000000002">
    <ele>458.74</ele>
   </trkpt>
   <trkpt lat="-37.841840000000005" lon="145.34441">
    <ele>457.73</ele>
   </trkpt>
   <trkpt lat="-37.84183" lon="145.3444">
    <ele>457.73</ele>
   </trkpt>
   <trkpt lat="-37.842040000000004" lon="145.34463000000002">
    <ele>456.97</ele>
   </trkpt>
   <trkpt lat="-37.84221" lon="145.34493">
    <ele>456.47</ele>
   </trkpt>
   <trkpt lat="-37.8423" lon="145.34518">
    <ele>455.93000000000006</ele>
   </trkpt>
   <trkpt lat="-37.84239" lon="145.34554">
    <ele>454.93000000000006</ele>
   </trkpt>
   <trkpt lat="-37.84241" lon="145.34594">
    <ele>453.6600000000001</ele>
   </trkpt>
   <trkpt lat="-37.84239" lon="145.34612">
    <ele>452.39</ele>
   </trkpt>
   <trkpt lat="-37.8423" lon="145.34661">
    <ele>451.12</ele>
   </trkpt>
   <trkpt lat="-37.84228" lon="145.3468">
    <ele>450.46000000000004</ele>
   </trkpt>
   <trkpt lat="-37.8423" lon="145.34731000000002">
    <ele>448.02000000000004</ele>
   </trkpt>
   <trkpt lat="-37.8423" lon="145.34775000000002">
    <ele>444.73</ele>
   </trkpt>
   <trkpt lat="-37.84225" lon="145.34794000000002">
    <ele>444.17</ele>
   </trkpt>
   <trkpt lat="-37.84219" lon="145.34804000000003">
    <ele>443.93000000000006</ele>
   </trkpt>
   <trkpt lat="-37.84201" lon="145.34824">
    <ele>443.20000000000005</ele>
   </trkpt>
   <trkpt lat="-37.84194" lon="145.34835">
    <ele>442.42</ele>
   </trkpt>
   <trkpt lat="-37.84183" lon="145.34872000000001">
    <ele>441.75</ele>
   </trkpt>
   <trkpt lat="-37.84185" lon="145.34889">
    <ele>441.52000000000004</ele>
   </trkpt>
   <trkpt lat="-37.84176" lon="145.34928000000002">
    <ele>452.52000000000004</ele>
   </trkpt>
   <trkpt lat="-37.84179" lon="145.34944000000002">
    <ele>452.52000000000004</ele>
   </trkpt>
   <trkpt lat="-37.84152" lon="145.34975">
    <ele>466.73</ele>
   </trkpt>
   <trkpt lat="-37.84118" lon="145.34988">
    <ele>475.13000000000005</ele>
   </trkpt>
   <trkpt lat="-37.84107" lon="145.34996">
    <ele>480.95000000000005</ele>
   </trkpt>
   <trkpt lat="-37.84098" lon="145.35012">
    <ele>484.19000000000005</ele>
   </trkpt>
   <trkpt lat="-37.84098" lon="145.35013">
    <ele>484.19000000000005</ele>
   </trkpt>
   <trkpt lat="-37.841" lon="145.35022">
    <ele>485.4100000000001</ele>
   </trkpt>
   <trkpt lat="-37.84127" lon="145.35051">
    <ele>487.86</ele>
   </trkpt>
   <trkpt lat="-37.84183" lon="145.35098000000002">
    <ele>498.85</ele>
   </trkpt>
   <trkpt lat="-37.84201" lon="145.35107000000002">
    <ele>500.57000000000005</ele>
   </trkpt>
   <trkpt lat="-37.84239" lon="145.35161000000002">
    <ele>515.02</ele>
   </trkpt>
   <trkpt lat="-37.84306" lon="145.35212">
    <ele>523.85</ele>
   </trkpt>
   <trkpt lat="-37.84335" lon="145.35238">
    <ele>526.37</ele>
   </trkpt>
   <trkpt lat="-37.84362" lon="145.3528">
    <ele>529.61</ele>
   </trkpt>
   <trkpt lat="-37.84369" lon="145.35302000000001">
    <ele>531.22</ele>
   </trkpt>
   <trkpt lat="-37.843560000000004" lon="145.35324">
    <ele>532.7900000000001</ele>
   </trkpt>
   <trkpt lat="-37.84385" lon="145.35334">
    <ele>531.51</ele>
   </trkpt>
   <trkpt lat="-37.84431" lon="145.35374000000002">
    <ele>527.6200000000001</ele>
   </trkpt>
   <trkpt lat="-37.84456" lon="145.35451">
    <ele>520.9</ele>
   </trkpt>
   <trkpt lat="-37.84458" lon="145.35522">
    <ele>514.66</ele>
   </trkpt>
   <trkpt lat="-37.844620000000006" lon="145.35536000000002">
    <ele>514.0400000000001</ele>
   </trkpt>
   <trkpt lat="-37.84514" lon="145.35531">
    <ele>512.61</ele>
   </trkpt>
   <trkpt lat="-37.84517" lon="145.35528000000002">
    <ele>512.61</ele>
   </trkpt>
   <trkpt lat="-37.8453" lon="145.35535000000002">
    <ele>512.0400000000001</ele>
   </trkpt>
   <trkpt lat="-37.8456533370517" lon="145.3560133269724">
    <ele>511.27</ele>
   </trkpt>
   <trkpt lat="-37.84600667038273" lon="145.35667666030133">
    <ele>509.61</ele>
   </trkpt>
   <trkpt lat="-37.846360000000004" lon="145.35734000000002">
    <ele>509.4000000000001</ele>
   </trkpt>
   <trkpt lat="-37.84644" lon="145.35760000000002">
    <ele>510.09000000000003</ele>
   </trkpt>
   <trkpt lat="-37.846540000000005" lon="145.35771000000003">
    <ele>510.39</ele>
   </trkpt>
   <trkpt lat="-37.84664" lon="145.35795000000002">
    <ele>512.5200000000001</ele>
   </trkpt>
   <trkpt lat="-37.84695" lon="145.35839">
    <ele>516.42</ele>
   </trkpt>
   <trkpt lat="-37.84709" lon="145.35882">
    <ele>517.7400000000001</ele>
   </trkpt>
   <trkpt lat="-37.84705" lon="145.35882">
    <ele>516.7400000000001</ele>
   </trkpt>
   <trkpt lat="-37.84721500229357" lon="145.35955999824685">
    <ele>514.51</ele>
   </trkpt>
   <trkpt lat="-37.84738" lon="145.36030000000002">
    <ele>510.76</ele>
   </trkpt>
   <trkpt lat="-37.84713" lon="145.36037000000002">
    <ele>511.29</ele>
   </trkpt>
   <trkpt lat="-37.84707" lon="145.3604">
    <ele>511.9100000000001</ele>
   </trkpt>
   <trkpt lat="-37.847030000000004" lon="145.36045000000001">
    <ele>511.9100000000001</ele>
   </trkpt>
   <trkpt lat="-37.84693" lon="145.36041">
    <ele>511.86000000000007</ele>
   </trkpt>
   <trkpt lat="-37.84631" lon="145.36051">
    <ele>511.8400000000001</ele>
   </trkpt>
   <trkpt lat="-37.84586" lon="145.36062">
    <ele>513.07</ele>
   </trkpt>
   <trkpt lat="-37.84631" lon="145.36051">
    <ele>511.8400000000001</ele>
   </trkpt>
   <trkpt lat="-37.84693" lon="145.36041">
    <ele>511.86000000000007</ele>
   </trkpt>
   <trkpt lat="-37.847030000000004" lon="145.36045000000001">
    <ele>511.9100000000001</ele>
   </trkpt>
   <trkpt lat="-37.84707" lon="145.3604">
    <ele>511.9100000000001</ele>
   </trkpt>
   <trkpt lat="-37.84725" lon="145.36033">
    <ele>511.17</ele>
   </trkpt>
  </trkseg>
 </trk>
</gpx>
