<?xml version="1.0" encoding="UTF-8"?>
<gpx creator="StravaGPX" version="1.1" xmlns="http://www.topografix.com/GPX/1/1" xmlns:xsi="http://www.w3.org/2001/XMLSchema-instance" xsi:schemaLocation="http://www.topografix.com/GPX/1/1 http://www.topografix.com/GPX/1/1/gpx.xsd">
 <metadata>
  <name>Her trails Sunday group run 🤩</name>
  <author>
   <name>Natalie Gow</name>
  </author>
  <copyright author="OpenStreetMap contributors">
   <year>2020</year>
   <license>https://www.openstreetmap.org/copyright</license>
  </copyright>
 </metadata>
 <trk>
  <name>Her trails Sunday group run 🤩</name>
  <link href=""/>
  <type>trail_running</type>
  <trkseg>
   <trkpt lat="-37.84828" lon="145.36119000000002">
    <ele>512.0600000000001</ele>
   </trkpt>
   <trkpt lat="-37.84857" lon="145.36141">
    <ele>513.99</ele>
   </trkpt>
   <trkpt lat="-37.848780000000005" lon="145.36108000000002">
    <ele>512.0600000000001</ele>
   </trkpt>
   <trkpt lat="-37.848850000000006" lon="145.36101000000002">
    <ele>512.0600000000001</ele>
   </trkpt>
   <trkpt lat="-37.84895" lon="145.36091000000002">
    <ele>511.14000000000004</ele>
   </trkpt>
   <trkpt lat="-37.849090000000004" lon="145.36085">
    <ele>509.88</ele>
   </trkpt>
   <trkpt lat="-37.849320000000006" lon="145.36083000000002">
    <ele>508.63</ele>
   </trkpt>
   <trkpt lat="-37.85004" lon="145.36096">
    <ele>506.06000000000006</ele>
   </trkpt>
   <trkpt lat="-37.8504" lon="145.36100000000002">
    <ele>503.75</ele>
   </trkpt>
   <trkpt lat="-37.85092" lon="145.36096">
    <ele>500.7600000000001</ele>
   </trkpt>
   <trkpt lat="-37.85159" lon="145.36077">
    <ele>497.86</ele>
   </trkpt>
   <trkpt lat="-37.85188" lon="145.36064000000002">
    <ele>497.33000000000004</ele>
   </trkpt>
   <trkpt lat="-37.85211" lon="145.36051">
    <ele>496.42</ele>
   </trkpt>
   <trkpt lat="-37.85217" lon="145.36042">
    <ele>496.20000000000005</ele>
   </trkpt>
   <trkpt lat="-37.85219" lon="145.36025">
    <ele>495.15000000000003</ele>
   </trkpt>
   <trkpt lat="-37.85206" lon="145.3599">
    <ele>494.02</ele>
   </trkpt>
   <trkpt lat="-37.85201" lon="145.35962">
    <ele>492.99</ele>
   </trkpt>
   <trkpt lat="-37.85204" lon="145.35945">
    <ele>491.87</ele>
   </trkpt>
   <trkpt lat="-37.85213" lon="145.35915">
    <ele>490.84000000000003</ele>
   </trkpt>
   <trkpt lat="-37.85224" lon="145.35893000000002">
    <ele>488.93</ele>
   </trkpt>
   <trkpt lat="-37.85246" lon="145.35859000000002">
    <ele>487.48</ele>
   </trkpt>
   <trkpt lat="-37.85271" lon="145.35832000000002">
    <ele>484.88</ele>
   </trkpt>
   <trkpt lat="-37.85338" lon="145.35768000000002">
    <ele>480.04</ele>
   </trkpt>
   <trkpt lat="-37.85374" lon="145.35714000000002">
    <ele>476.97</ele>
   </trkpt>
   <trkpt lat="-37.8538" lon="145.35702">
    <ele>476.9200000000001</ele>
   </trkpt>
   <trkpt lat="-37.85412" lon="145.35674">
    <ele>474.30000000000007</ele>
   </trkpt>
   <trkpt lat="-37.85421" lon="145.35660000000001">
    <ele>473.79</ele>
   </trkpt>
   <trkpt lat="-37.85423" lon="145.35635000000002">
    <ele>473.07000000000005</ele>
   </trkpt>
   <trkpt lat="-37.854110000000006" lon="145.35583000000003">
    <ele>471.29</ele>
   </trkpt>
   <trkpt lat="-37.85405" lon="145.35554000000002">
    <ele>469.61</ele>
   </trkpt>
   <trkpt lat="-37.85403" lon="145.35528000000002">
    <ele>469.12</ele>
   </trkpt>
   <trkpt lat="-37.854110000000006" lon="145.35432">
    <ele>465.56</ele>
   </trkpt>
   <trkpt lat="-37.85434" lon="145.35327">
    <ele>460.3</ele>
   </trkpt>
   <trkpt lat="-37.854350000000004" lon="145.353">
    <ele>459.57000000000005</ele>
   </trkpt>
   <trkpt lat="-37.854350000000004" lon="145.35299">
    <ele>459.53000000000003</ele>
   </trkpt>
   <trkpt lat="-37.854110000000006" lon="145.35328">
    <ele>456.73</ele>
   </trkpt>
   <trkpt lat="-37.85396" lon="145.35339000000002">
    <ele>453.64000000000004</ele>
   </trkpt>
   <trkpt lat="-37.85342" lon="145.35415">
    <ele>445.97</ele>
   </trkpt>
   <trkpt lat="-37.85331" lon="145.35443">
    <ele>443.78000000000003</ele>
   </trkpt>
   <trkpt lat="-37.853" lon="145.35505">
    <ele>443.48</ele>
   </trkpt>
   <trkpt lat="-37.85298" lon="145.3556">
    <ele>446.23</ele>
   </trkpt>
   <trkpt lat="-37.85289" lon="145.35602">
    <ele>447.39</ele>
   </trkpt>
   <trkpt lat="-37.85284" lon="145.3561">
    <ele>447.41</ele>
   </trkpt>
   <trkpt lat="-37.8526" lon="145.35617000000002">
    <ele>444.22</ele>
   </trkpt>
   <trkpt lat="-37.85195" lon="145.35605">
    <ele>425.91</ele>
   </trkpt>
   <trkpt lat="-37.85147999996115" lon="145.35608500022641">
    <ele>420.22</ele>
   </trkpt>
   <trkpt lat="-37.85101" lon="145.35612">
    <ele>420.68000000000006</ele>
   </trkpt>
   <trkpt lat="-37.85083" lon="145.35617000000002">
    <ele>421.03000000000003</ele>
   </trkpt>
   <trkpt lat="-37.85054" lon="145.35639">
    <ele>421.22</ele>
   </trkpt>
   <trkpt lat="-37.85009" lon="145.35676">
    <ele>417.07000000000005</ele>
   </trkpt>
   <trkpt lat="-37.84998" lon="145.35682">
    <ele>417.7</ele>
   </trkpt>
   <trkpt lat="-37.849700000000006" lon="145.35709">
    <ele>424.3500000000001</ele>
   </trkpt>
   <trkpt lat="-37.84951" lon="145.35711">
    <ele>427.66</ele>
   </trkpt>
   <trkpt lat="-37.84895" lon="145.35702">
    <ele>439.9</ele>
   </trkpt>
   <trkpt lat="-37.84886" lon="145.35699000000002">
    <ele>440.8</ele>
   </trkpt>
   <trkpt lat="-37.848780000000005" lon="145.35692">
    <ele>442.29</ele>
   </trkpt>
   <trkpt lat="-37.84877" lon="145.35691">
    <ele>442.29</ele>
   </trkpt>
   <trkpt lat="-37.84872" lon="145.35680000000002">
    <ele>443.19</ele>
   </trkpt>
   <trkpt lat="-37.8487" lon="145.35663000000002">
    <ele>443.86</ele>
   </trkpt>
   <trkpt lat="-37.84866" lon="145.35649">
    <ele>444.73</ele>
   </trkpt>
   <trkpt lat="-37.84859" lon="145.35638">
    <ele>445.12</ele>
   </trkpt>
   <trkpt lat="-37.84821" lon="145.35601">
    <ele>447.91</ele>
   </trkpt>
   <trkpt lat="-37.84814" lon="145.35590000000002">
    <ele>447.26000000000005</ele>
   </trkpt>
   <trkpt lat="-37.84812" lon="145.35582000000002">
    <ele>446.34000000000003</ele>
   </trkpt>
   <trkpt lat="-37.84814" lon="145.3557">
    <ele>445.67</ele>
   </trkpt>
   <trkpt lat="-37.84839" lon="145.35525">
    <ele>448.88000000000005</ele>
   </trkpt>
   <trkpt lat="-37.84852" lon="145.35456000000002">
    <ele>453.12</ele>
   </trkpt>
   <trkpt lat="-37.84863" lon="145.35433">
    <ele>452.6</ele>
   </trkpt>
   <trkpt lat="-37.84881" lon="145.35385000000002">
    <ele>447.94000000000005</ele>
   </trkpt>
   <trkpt lat="-37.84884" lon="145.35374000000002">
    <ele>446.88000000000005</ele>
   </trkpt>
   <trkpt lat="-37.84877" lon="145.35304000000002">
    <ele>443.05000000000007</ele>
   </trkpt>
   <trkpt lat="-37.848670000000006" lon="145.35243">
    <ele>438.46</ele>
   </trkpt>
   <trkpt lat="-37.8485" lon="145.35187000000002">
    <ele>432.58</ele>
   </trkpt>
   <trkpt lat="-37.84819" lon="145.35123000000002">
    <ele>427.7900000000001</ele>
   </trkpt>
   <trkpt lat="-37.84792" lon="145.35086">
    <ele>424.12000000000006</ele>
   </trkpt>
   <trkpt lat="-37.84767" lon="145.35063000000002">
    <ele>423.64</ele>
   </trkpt>
   <trkpt lat="-37.8472" lon="145.35029">
    <ele>419.90000000000003</ele>
   </trkpt>
   <trkpt lat="-37.84695" lon="145.35014">
    <ele>418.18000000000006</ele>
   </trkpt>
   <trkpt lat="-37.84677000000001" lon="145.35006">
    <ele>418.24000000000007</ele>
   </trkpt>
   <trkpt lat="-37.84653" lon="145.35004">
    <ele>419.97</ele>
   </trkpt>
   <trkpt lat="-37.846230000000006" lon="145.35004">
    <ele>423.64</ele>
   </trkpt>
   <trkpt lat="-37.84543" lon="145.35007000000002">
    <ele>426.53000000000003</ele>
   </trkpt>
   <trkpt lat="-37.844934999841115" lon="145.35014000049526">
    <ele>430.33000000000004</ele>
   </trkpt>
   <trkpt lat="-37.844440000000006" lon="145.35021">
    <ele>435.55</ele>
   </trkpt>
   <trkpt lat="-37.84409" lon="145.35022">
    <ele>437.42</ele>
   </trkpt>
   <trkpt lat="-37.84355" lon="145.35017000000002">
    <ele>440.37</ele>
   </trkpt>
   <trkpt lat="-37.84306" lon="145.35005">
    <ele>443.20000000000005</ele>
   </trkpt>
   <trkpt lat="-37.84262500001824" lon="145.3498699988892">
    <ele>446.1</ele>
   </trkpt>
   <trkpt lat="-37.84219" lon="145.34969">
    <ele>450.40000000000003</ele>
   </trkpt>
   <trkpt lat="-37.84196" lon="145.34958">
    <ele>451.8</ele>
   </trkpt>
   <trkpt lat="-37.84189000000001" lon="145.34952">
    <ele>462.88</ele>
   </trkpt>
   <trkpt lat="-37.84196" lon="145.34958">
    <ele>451.8</ele>
   </trkpt>
   <trkpt lat="-37.84219" lon="145.34969">
    <ele>450.40000000000003</ele>
   </trkpt>
   <trkpt lat="-37.84262500025573" lon="145.34986999898746">
    <ele>446.1</ele>
   </trkpt>
   <trkpt lat="-37.84306" lon="145.35005">
    <ele>443.20000000000005</ele>
   </trkpt>
   <trkpt lat="-37.84355" lon="145.35018000000002">
    <ele>440.87</ele>
   </trkpt>
   <trkpt lat="-37.844060000000006" lon="145.35021">
    <ele>437.64000000000004</ele>
   </trkpt>
   <trkpt lat="-37.84355" lon="145.35018000000002">
    <ele>440.87</ele>
   </trkpt>
   <trkpt lat="-37.84306" lon="145.35005">
    <ele>443.20000000000005</ele>
   </trkpt>
   <trkpt lat="-37.84262500001824" lon="145.3498699988892">
    <ele>446.1</ele>
   </trkpt>
   <trkpt lat="-37.84219" lon="145.34969">
    <ele>450.40000000000003</ele>
   </trkpt>
   <trkpt lat="-37.84196" lon="145.34958">
    <ele>452.11</ele>
   </trkpt>
   <trkpt lat="-37.84179" lon="145.34944000000002">
    <ele>452.52000000000004</ele>
   </trkpt>
   <trkpt lat="-37.84176" lon="145.34928000000002">
    <ele>452.52000000000004</ele>
   </trkpt>
   <trkpt lat="-37.84185" lon="145.34889">
    <ele>441.52000000000004</ele>
   </trkpt>
   <trkpt lat="-37.84192" lon="145.34903">
    <ele>439.28000000000003</ele>
   </trkpt>
   <trkpt lat="-37.84201" lon="145.34906">
    <ele>437.45000000000005</ele>
   </trkpt>
   <trkpt lat="-37.8421" lon="145.34902000000002">
    <ele>434.49</ele>
   </trkpt>
   <trkpt lat="-37.84219" lon="145.34892000000002">
    <ele>432.57</ele>
   </trkpt>
   <trkpt lat="-37.84237" lon="145.3488">
    <ele>428.07000000000005</ele>
   </trkpt>
   <trkpt lat="-37.84263" lon="145.34873000000002">
    <ele>423.96000000000004</ele>
   </trkpt>
   <trkpt lat="-37.842760000000006" lon="145.34866000000002">
    <ele>420.41</ele>
   </trkpt>
   <trkpt lat="-37.84286" lon="145.34865000000002">
    <ele>418.68000000000006</ele>
   </trkpt>
   <trkpt lat="-37.84306" lon="145.34874000000002">
    <ele>414.80000000000007</ele>
   </trkpt>
   <trkpt lat="-37.84315" lon="145.34874000000002">
    <ele>414.13000000000005</ele>
   </trkpt>
   <trkpt lat="-37.843320000000006" lon="145.34844">
    <ele>411.46000000000004</ele>
   </trkpt>
   <trkpt lat="-37.84337" lon="145.34801000000002">
    <ele>409.02000000000004</ele>
   </trkpt>
   <trkpt lat="-37.84382" lon="145.34711000000001">
    <ele>396.88</ele>
   </trkpt>
   <trkpt lat="-37.84384" lon="145.3469">
    <ele>391.25000000000006</ele>
   </trkpt>
   <trkpt lat="-37.84378" lon="145.34646">
    <ele>386.26000000000005</ele>
   </trkpt>
   <trkpt lat="-37.8438" lon="145.34609">
    <ele>378.39</ele>
   </trkpt>
   <trkpt lat="-37.843880000000006" lon="145.34591">
    <ele>376.08000000000004</ele>
   </trkpt>
   <trkpt lat="-37.84393" lon="145.34585">
    <ele>373.83000000000004</ele>
   </trkpt>
   <trkpt lat="-37.84398" lon="145.34587000000002">
    <ele>372.28000000000003</ele>
   </trkpt>
   <trkpt lat="-37.84418" lon="145.34607000000003">
    <ele>368.1</ele>
   </trkpt>
   <trkpt lat="-37.84445" lon="145.34615000000002">
    <ele>364.69</ele>
   </trkpt>
   <trkpt lat="-37.845060000000004" lon="145.34613000000002">
    <ele>348.62000000000006</ele>
   </trkpt>
   <trkpt lat="-37.84519" lon="145.34607000000003">
    <ele>348.62000000000006</ele>
   </trkpt>
   <trkpt lat="-37.84543" lon="145.3459">
    <ele>341.95000000000005</ele>
   </trkpt>
   <trkpt lat="-37.84548" lon="145.34592">
    <ele>340.05</ele>
   </trkpt>
   <trkpt lat="-37.84561" lon="145.34591">
    <ele>336.87</ele>
   </trkpt>
   <trkpt lat="-37.845650000000006" lon="145.34588000000002">
    <ele>336.87</ele>
   </trkpt>
   <trkpt lat="-37.84566" lon="145.34616000000003">
    <ele>342.01000000000005</ele>
   </trkpt>
   <trkpt lat="-37.84566" lon="145.34605000000002">
    <ele>336.36</ele>
   </trkpt>
   <trkpt lat="-37.845650000000006" lon="145.34588000000002">
    <ele>336.87</ele>
   </trkpt>
   <trkpt lat="-37.84572" lon="145.34585">
    <ele>336.87</ele>
   </trkpt>
   <trkpt lat="-37.8459" lon="145.34558">
    <ele>332.29</ele>
   </trkpt>
   <trkpt lat="-37.84595" lon="145.34548">
    <ele>331.53000000000003</ele>
   </trkpt>
   <trkpt lat="-37.84597" lon="145.34538">
    <ele>330.94</ele>
   </trkpt>
   <trkpt lat="-37.84586" lon="145.34505000000001">
    <ele>329.91</ele>
   </trkpt>
   <trkpt lat="-37.8457" lon="145.34482">
    <ele>328.62</ele>
   </trkpt>
   <trkpt lat="-37.84559" lon="145.34452000000002">
    <ele>324.94</ele>
   </trkpt>
   <trkpt lat="-37.84557" lon="145.34426000000002">
    <ele>323.18</ele>
   </trkpt>
   <trkpt lat="-37.84559" lon="145.34419000000003">
    <ele>321.92</ele>
   </trkpt>
   <trkpt lat="-37.84568" lon="145.34411">
    <ele>320.59000000000003</ele>
   </trkpt>
   <trkpt lat="-37.8457" lon="145.34397">
    <ele>321.67</ele>
   </trkpt>
   <trkpt lat="-37.8457" lon="145.34371000000002">
    <ele>323.58000000000004</ele>
   </trkpt>
   <trkpt lat="-37.84561" lon="145.34342">
    <ele>326.22</ele>
   </trkpt>
   <trkpt lat="-37.8455" lon="145.34315">
    <ele>327.65000000000003</ele>
   </trkpt>
   <trkpt lat="-37.845330000000004" lon="145.34259">
    <ele>327.01</ele>
   </trkpt>
   <trkpt lat="-37.8451" lon="145.34224">
    <ele>324.98</ele>
   </trkpt>
   <trkpt lat="-37.84496" lon="145.34209">
    <ele>324.56</ele>
   </trkpt>
   <trkpt lat="-37.84451500060959" lon="145.3417299978776">
    <ele>323.28000000000003</ele>
   </trkpt>
   <trkpt lat="-37.84407" lon="145.34137">
    <ele>321.17</ele>
   </trkpt>
   <trkpt lat="-37.8438" lon="145.34104000000002">
    <ele>320.07</ele>
   </trkpt>
   <trkpt lat="-37.84369" lon="145.34098">
    <ele>320.07</ele>
   </trkpt>
   <trkpt lat="-37.84348" lon="145.34089">
    <ele>319.6</ele>
   </trkpt>
   <trkpt lat="-37.84297" lon="145.34079">
    <ele>318.56</ele>
   </trkpt>
   <trkpt lat="-37.84275" lon="145.3407">
    <ele>318.05</ele>
   </trkpt>
   <trkpt lat="-37.84252" lon="145.34050000000002">
    <ele>314.74</ele>
   </trkpt>
   <trkpt lat="-37.84225" lon="145.34014000000002">
    <ele>311.96000000000004</ele>
   </trkpt>
   <trkpt lat="-37.8421" lon="145.33983">
    <ele>311.38000000000005</ele>
   </trkpt>
   <trkpt lat="-37.841950000000004" lon="145.33969000000002">
    <ele>310.85</ele>
   </trkpt>
   <trkpt lat="-37.84178" lon="145.33959000000002">
    <ele>310.75</ele>
   </trkpt>
   <trkpt lat="-37.8416" lon="145.33959000000002">
    <ele>311.35</ele>
   </trkpt>
   <trkpt lat="-37.84143" lon="145.33965">
    <ele>312.71000000000004</ele>
   </trkpt>
   <trkpt lat="-37.84098" lon="145.33985">
    <ele>318.98</ele>
   </trkpt>
   <trkpt lat="-37.84069" lon="145.33977000000002">
    <ele>320.96000000000004</ele>
   </trkpt>
   <trkpt lat="-37.84042" lon="145.33958">
    <ele>323.08000000000004</ele>
   </trkpt>
   <trkpt lat="-37.84015" lon="145.33934000000002">
    <ele>328.21</ele>
   </trkpt>
   <trkpt lat="-37.83977" lon="145.33871000000002">
    <ele>336.58000000000004</ele>
   </trkpt>
   <trkpt lat="-37.83961" lon="145.33852000000002">
    <ele>337.75000000000006</ele>
   </trkpt>
   <trkpt lat="-37.83928" lon="145.33822">
    <ele>337.21</ele>
   </trkpt>
   <trkpt lat="-37.83885" lon="145.33808000000002">
    <ele>333.93</ele>
   </trkpt>
   <trkpt lat="-37.83847" lon="145.33802">
    <ele>333.96000000000004</ele>
   </trkpt>
   <trkpt lat="-37.83809" lon="145.33800000000002">
    <ele>338.38</ele>
   </trkpt>
   <trkpt lat="-37.83766" lon="145.33823">
    <ele>346.57000000000005</ele>
   </trkpt>
   <trkpt lat="-37.83767" lon="145.33822">
    <ele>346.57000000000005</ele>
   </trkpt>
   <trkpt lat="-37.837250000000004" lon="145.33857">
    <ele>355.31</ele>
   </trkpt>
   <trkpt lat="-37.83724" lon="145.33924000000002">
    <ele>368.78000000000003</ele>
   </trkpt>
   <trkpt lat="-37.83719" lon="145.33995000000002">
    <ele>384.09000000000003</ele>
   </trkpt>
   <trkpt lat="-37.83719" lon="145.34022000000002">
    <ele>389.3</ele>
   </trkpt>
   <trkpt lat="-37.837120000000006" lon="145.34063">
    <ele>399.63000000000005</ele>
   </trkpt>
   <trkpt lat="-37.83713" lon="145.34112000000002">
    <ele>413.96000000000004</ele>
   </trkpt>
   <trkpt lat="-37.83688" lon="145.34184000000002">
    <ele>432.50000000000006</ele>
   </trkpt>
   <trkpt lat="-37.83681" lon="145.34226">
    <ele>445.73</ele>
   </trkpt>
   <trkpt lat="-37.83682" lon="145.34249">
    <ele>450.96000000000004</ele>
   </trkpt>
   <trkpt lat="-37.83682" lon="145.34251">
    <ele>450.96000000000004</ele>
   </trkpt>
   <trkpt lat="-37.83713" lon="145.34259">
    <ele>454.68</ele>
   </trkpt>
   <trkpt lat="-37.83746" lon="145.34274000000002">
    <ele>460.43000000000006</ele>
   </trkpt>
   <trkpt lat="-37.8376" lon="145.34282000000002">
    <ele>461.5400000000001</ele>
   </trkpt>
   <trkpt lat="-37.83789" lon="145.34306">
    <ele>467.23</ele>
   </trkpt>
   <trkpt lat="-37.83807" lon="145.34326000000001">
    <ele>471.03000000000003</ele>
   </trkpt>
   <trkpt lat="-37.83818" lon="145.34336000000002">
    <ele>472.9200000000001</ele>
   </trkpt>
   <trkpt lat="-37.8384" lon="145.34348">
    <ele>475.09</ele>
   </trkpt>
   <trkpt lat="-37.83854" lon="145.34353000000002">
    <ele>475.29</ele>
   </trkpt>
   <trkpt lat="-37.83874" lon="145.34358">
    <ele>474.54</ele>
   </trkpt>
   <trkpt lat="-37.8391" lon="145.34374000000003">
    <ele>471.0</ele>
   </trkpt>
   <trkpt lat="-37.83966" lon="145.34384">
    <ele>468.72</ele>
   </trkpt>
   <trkpt lat="-37.84024" lon="145.34384">
    <ele>468.52000000000004</ele>
   </trkpt>
   <trkpt lat="-37.84057" lon="145.34386">
    <ele>466.07000000000005</ele>
   </trkpt>
   <trkpt lat="-37.84091" lon="145.34394">
    <ele>463.53000000000003</ele>
   </trkpt>
   <trkpt lat="-37.84125" lon="145.34408000000002">
    <ele>461.33</ele>
   </trkpt>
   <trkpt lat="-37.84163" lon="145.34426000000002">
    <ele>458.74</ele>
   </trkpt>
   <trkpt lat="-37.84183" lon="145.34441">
    <ele>457.42</ele>
   </trkpt>
   <trkpt lat="-37.842040000000004" lon="145.34463000000002">
    <ele>456.97</ele>
   </trkpt>
   <trkpt lat="-37.84221" lon="145.34493">
    <ele>456.47</ele>
   </trkpt>
   <trkpt lat="-37.8423" lon="145.34518">
    <ele>455.93000000000006</ele>
   </trkpt>
   <trkpt lat="-37.84239" lon="145.34554">
    <ele>454.93000000000006</ele>
   </trkpt>
   <trkpt lat="-37.84241" lon="145.34594">
    <ele>453.6600000000001</ele>
   </trkpt>
   <trkpt lat="-37.84239" lon="145.34612">
    <ele>452.63</ele>
   </trkpt>
   <trkpt lat="-37.8423" lon="145.34661">
    <ele>451.12</ele>
   </trkpt>
   <trkpt lat="-37.84228" lon="145.3468">
    <ele>450.46000000000004</ele>
   </trkpt>
   <trkpt lat="-37.8423" lon="145.34731000000002">
    <ele>448.02000000000004</ele>
   </trkpt>
   <trkpt lat="-37.8423" lon="145.34775000000002">
    <ele>446.29</ele>
   </trkpt>
   <trkpt lat="-37.84225" lon="145.34794000000002">
    <ele>444.17</ele>
   </trkpt>
   <trkpt lat="-37.84219" lon="145.34804000000003">
    <ele>443.93000000000006</ele>
   </trkpt>
   <trkpt lat="-37.84201" lon="145.34824">
    <ele>443.20000000000005</ele>
   </trkpt>
   <trkpt lat="-37.84194" lon="145.34835">
    <ele>442.42</ele>
   </trkpt>
   <trkpt lat="-37.84183" lon="145.34872000000001">
    <ele>441.75</ele>
   </trkpt>
   <trkpt lat="-37.84185" lon="145.34889">
    <ele>441.52000000000004</ele>
   </trkpt>
   <trkpt lat="-37.84176" lon="145.34928000000002">
    <ele>452.52000000000004</ele>
   </trkpt>
   <trkpt lat="-37.84179" lon="145.34944000000002">
    <ele>452.52000000000004</ele>
   </trkpt>
   <trkpt lat="-37.841860000000004" lon="145.3495">
    <ele>452.51</ele>
   </trkpt>
   <trkpt lat="-37.84185" lon="145.34949">
    <ele>452.51</ele>
   </trkpt>
   <trkpt lat="-37.84196" lon="145.34958">
    <ele>451.8</ele>
   </trkpt>
   <trkpt lat="-37.84219" lon="145.34969">
    <ele>450.40000000000003</ele>
   </trkpt>
   <trkpt lat="-37.84262500025573" lon="145.34986999898746">
    <ele>446.1</ele>
   </trkpt>
   <trkpt lat="-37.84306" lon="145.35005">
    <ele>443.20000000000005</ele>
   </trkpt>
   <trkpt lat="-37.84355" lon="145.35018000000002">
    <ele>440.56000000000006</ele>
   </trkpt>
   <trkpt lat="-37.84409" lon="145.35022">
    <ele>437.42</ele>
   </trkpt>
   <trkpt lat="-37.844440000000006" lon="145.35021">
    <ele>435.05</ele>
   </trkpt>
   <trkpt lat="-37.84493500020032" lon="145.35014000044447">
    <ele>430.02</ele>
   </trkpt>
   <trkpt lat="-37.84543" lon="145.35007000000002">
    <ele>426.53000000000003</ele>
   </trkpt>
   <trkpt lat="-37.846230000000006" lon="145.35004">
    <ele>423.64</ele>
   </trkpt>
   <trkpt lat="-37.84653" lon="145.35004">
    <ele>419.97</ele>
   </trkpt>
   <trkpt lat="-37.84678" lon="145.35007000000002">
    <ele>418.15000000000003</ele>
   </trkpt>
   <trkpt lat="-37.84695" lon="145.35014">
    <ele>418.18000000000006</ele>
   </trkpt>
   <trkpt lat="-37.8472" lon="145.35029">
    <ele>419.90000000000003</ele>
   </trkpt>
   <trkpt lat="-37.84767" lon="145.35063000000002">
    <ele>423.64</ele>
   </trkpt>
   <trkpt lat="-37.847930000000005" lon="145.35087000000001">
    <ele>424.14</ele>
   </trkpt>
   <trkpt lat="-37.84792" lon="145.35086">
    <ele>424.14</ele>
   </trkpt>
   <trkpt lat="-37.84819" lon="145.35123000000002">
    <ele>427.7900000000001</ele>
   </trkpt>
   <trkpt lat="-37.8485" lon="145.35187000000002">
    <ele>432.58</ele>
   </trkpt>
   <trkpt lat="-37.848670000000006" lon="145.35243">
    <ele>438.91</ele>
   </trkpt>
   <trkpt lat="-37.84877" lon="145.35304000000002">
    <ele>443.05000000000007</ele>
   </trkpt>
   <trkpt lat="-37.84884" lon="145.35374000000002">
    <ele>447.39</ele>
   </trkpt>
   <trkpt lat="-37.84881" lon="145.35385000000002">
    <ele>447.94000000000005</ele>
   </trkpt>
   <trkpt lat="-37.84863" lon="145.35433">
    <ele>452.6</ele>
   </trkpt>
   <trkpt lat="-37.84852" lon="145.35456000000002">
    <ele>452.96000000000004</ele>
   </trkpt>
   <trkpt lat="-37.84839" lon="145.35525">
    <ele>448.88000000000005</ele>
   </trkpt>
   <trkpt lat="-37.84814" lon="145.3557">
    <ele>445.67</ele>
   </trkpt>
   <trkpt lat="-37.84812" lon="145.35582000000002">
    <ele>446.34000000000003</ele>
   </trkpt>
   <trkpt lat="-37.84814" lon="145.35590000000002">
    <ele>447.26000000000005</ele>
   </trkpt>
   <trkpt lat="-37.84821" lon="145.35601">
    <ele>447.91</ele>
   </trkpt>
   <trkpt lat="-37.84859" lon="145.35638">
    <ele>445.12</ele>
   </trkpt>
   <trkpt lat="-37.84866" lon="145.35649">
    <ele>444.73</ele>
   </trkpt>
   <trkpt lat="-37.8487" lon="145.35663000000002">
    <ele>443.86</ele>
   </trkpt>
   <trkpt lat="-37.84872" lon="145.35680000000002">
    <ele>443.19</ele>
   </trkpt>
   <trkpt lat="-37.84877" lon="145.35691">
    <ele>442.33000000000004</ele>
   </trkpt>
   <trkpt lat="-37.848780000000005" lon="145.35692">
    <ele>442.33000000000004</ele>
   </trkpt>
   <trkpt lat="-37.84886" lon="145.35699000000002">
    <ele>440.8</ele>
   </trkpt>
   <trkpt lat="-37.84895" lon="145.35702">
    <ele>439.9</ele>
   </trkpt>
   <trkpt lat="-37.84951" lon="145.35711">
    <ele>427.66</ele>
   </trkpt>
   <trkpt lat="-37.849700000000006" lon="145.35709">
    <ele>424.3500000000001</ele>
   </trkpt>
   <trkpt lat="-37.84998" lon="145.35682">
    <ele>417.7</ele>
   </trkpt>
   <trkpt lat="-37.85009" lon="145.35676">
    <ele>417.07000000000005</ele>
   </trkpt>
   <trkpt lat="-37.85054" lon="145.35639">
    <ele>421.22</ele>
   </trkpt>
   <trkpt lat="-37.85083" lon="145.35617000000002">
    <ele>421.03000000000003</ele>
   </trkpt>
   <trkpt lat="-37.85101" lon="145.35612">
    <ele>420.68000000000006</ele>
   </trkpt>
   <trkpt lat="-37.851480000049214" lon="145.35608500021982">
    <ele>420.22</ele>
   </trkpt>
   <trkpt lat="-37.85195" lon="145.35605">
    <ele>425.91</ele>
   </trkpt>
   <trkpt lat="-37.8526" lon="145.35617000000002">
    <ele>444.22</ele>
   </trkpt>
   <trkpt lat="-37.85284" lon="145.3561">
    <ele>447.41</ele>
   </trkpt>
   <trkpt lat="-37.85289" lon="145.35602">
    <ele>447.39</ele>
   </trkpt>
   <trkpt lat="-37.85298" lon="145.3556">
    <ele>446.23</ele>
   </trkpt>
   <trkpt lat="-37.853" lon="145.35505">
    <ele>443.48</ele>
   </trkpt>
   <trkpt lat="-37.85331" lon="145.35443">
    <ele>443.78000000000003</ele>
   </trkpt>
   <trkpt lat="-37.85342" lon="145.35415">
    <ele>445.97</ele>
   </trkpt>
   <trkpt lat="-37.85396" lon="145.35339000000002">
    <ele>453.64000000000004</ele>
   </trkpt>
   <trkpt lat="-37.854110000000006" lon="145.35328">
    <ele>456.73</ele>
   </trkpt>
   <trkpt lat="-37.854350000000004" lon="145.353">
    <ele>459.5</ele>
   </trkpt>
   <trkpt lat="-37.854350000000004" lon="145.35299">
    <ele>459.53000000000003</ele>
   </trkpt>
   <trkpt lat="-37.85434" lon="145.35327">
    <ele>460.3</ele>
   </trkpt>
   <trkpt lat="-37.854110000000006" lon="145.35432">
    <ele>465.56</ele>
   </trkpt>
   <trkpt lat="-37.85403" lon="145.35528000000002">
    <ele>469.12</ele>
   </trkpt>
   <trkpt lat="-37.85405" lon="145.35554000000002">
    <ele>469.61</ele>
   </trkpt>
   <trkpt lat="-37.854110000000006" lon="145.35583000000003">
    <ele>471.29</ele>
   </trkpt>
   <trkpt lat="-37.85423" lon="145.35635000000002">
    <ele>473.07000000000005</ele>
   </trkpt>
   <trkpt lat="-37.85421" lon="145.35660000000001">
    <ele>473.79</ele>
   </trkpt>
   <trkpt lat="-37.85412" lon="145.35674">
    <ele>474.30000000000007</ele>
   </trkpt>
   <trkpt lat="-37.8538" lon="145.35702">
    <ele>476.9200000000001</ele>
   </trkpt>
   <trkpt lat="-37.85374" lon="145.35714000000002">
    <ele>476.97</ele>
   </trkpt>
   <trkpt lat="-37.85338" lon="145.35768000000002">
    <ele>480.04</ele>
   </trkpt>
   <trkpt lat="-37.85271" lon="145.35832000000002">
    <ele>484.88</ele>
   </trkpt>
   <trkpt lat="-37.85246" lon="145.35859000000002">
    <ele>487.48</ele>
   </trkpt>
   <trkpt lat="-37.85224" lon="145.35893000000002">
    <ele>489.9100000000001</ele>
   </trkpt>
   <trkpt lat="-37.85213" lon="145.35915">
    <ele>490.84000000000003</ele>
   </trkpt>
   <trkpt lat="-37.85204" lon="145.35945">
    <ele>491.87</ele>
   </trkpt>
   <trkpt lat="-37.85201" lon="145.35962">
    <ele>492.99</ele>
   </trkpt>
   <trkpt lat="-37.85206" lon="145.3599">
    <ele>494.02</ele>
   </trkpt>
   <trkpt lat="-37.85219" lon="145.36025">
    <ele>495.51000000000005</ele>
   </trkpt>
   <trkpt lat="-37.85219" lon="145.36035">
    <ele>495.84000000000003</ele>
   </trkpt>
   <trkpt lat="-37.85217" lon="145.36042">
    <ele>496.07000000000005</ele>
   </trkpt>
   <trkpt lat="-37.8521" lon="145.36052">
    <ele>496.50000000000006</ele>
   </trkpt>
   <trkpt lat="-37.85188" lon="145.36064000000002">
    <ele>497.33000000000004</ele>
   </trkpt>
   <trkpt lat="-37.85159" lon="145.36077">
    <ele>497.86</ele>
   </trkpt>
   <trkpt lat="-37.85092" lon="145.36096">
    <ele>500.7600000000001</ele>
   </trkpt>
   <trkpt lat="-37.8504" lon="145.36100000000002">
    <ele>503.75</ele>
   </trkpt>
   <trkpt lat="-37.85004" lon="145.36096">
    <ele>506.06000000000006</ele>
   </trkpt>
   <trkpt lat="-37.849320000000006" lon="145.36083000000002">
    <ele>508.63</ele>
   </trkpt>
   <trkpt lat="-37.849090000000004" lon="145.36085">
    <ele>509.88</ele>
   </trkpt>
   <trkpt lat="-37.84895" lon="145.36091000000002">
    <ele>511.14000000000004</ele>
   </trkpt>
   <trkpt lat="-37.848850000000006" lon="145.36101000000002">
    <ele>511.14000000000004</ele>
   </trkpt>
   <trkpt lat="-37.848780000000005" lon="145.36108000000002">
    <ele>512.0600000000001</ele>
   </trkpt>
   <trkpt lat="-37.84857" lon="145.36141">
    <ele>513.4300000000001</ele>
   </trkpt>
  </trkseg>
 </trk>
</gpx>
