<?xml version="1.0" encoding="UTF-8"?>
<gpx creator="StravaGPX" version="1.1" xmlns="http://www.topografix.com/GPX/1/1" xmlns:xsi="http://www.w3.org/2001/XMLSchema-instance" xsi:schemaLocation="http://www.topografix.com/GPX/1/1 http://www.topografix.com/GPX/1/1/gpx.xsd">
 <metadata>
  <name>Monbulk Road-C404</name>
  <author>
   <name>Natalie Gow</name>
  </author>
  <copyright author="OpenStreetMap contributors">
   <year>2020</year>
   <license>https://www.openstreetmap.org/copyright</license>
  </copyright>
 </metadata>
 <trk>
  <name>Monbulk Road-C404</name>
  <link href=""/>
  <type>trail_running</type>
  <trkseg>
   <trkpt lat="-37.88747" lon="145.37001">
    <ele>356.04</ele>
   </trkpt>
   <trkpt lat="-37.88749" lon="145.36999">
    <ele>355.58</ele>
   </trkpt>
   <trkpt lat="-37.88743" lon="145.36973">
    <ele>350.21000000000004</ele>
   </trkpt>
   <trkpt lat="-37.88732" lon="145.36981">
    <ele>349.22</ele>
   </trkpt>
   <trkpt lat="-37.88687" lon="145.3699">
    <ele>350.6</ele>
   </trkpt>
   <trkpt lat="-37.88633" lon="145.36996000000002">
    <ele>352.32</ele>
   </trkpt>
   <trkpt lat="-37.88608" lon="145.36991">
    <ele>354.92</ele>
   </trkpt>
   <trkpt lat="-37.885920000000006" lon="145.36982">
    <ele>356.64</ele>
   </trkpt>
   <trkpt lat="-37.88528" lon="145.36933000000002">
    <ele>362.7</ele>
   </trkpt>
   <trkpt lat="-37.88508" lon="145.36929">
    <ele>367.37</ele>
   </trkpt>
   <trkpt lat="-37.884890000000006" lon="145.36933000000002">
    <ele>367.8</ele>
   </trkpt>
   <trkpt lat="-37.88474" lon="145.3693">
    <ele>368.78000000000003</ele>
   </trkpt>
   <trkpt lat="-37.8847" lon="145.3693">
    <ele>368.78000000000003</ele>
   </trkpt>
   <trkpt lat="-37.884690000000006" lon="145.3693">
    <ele>368.79</ele>
   </trkpt>
   <trkpt lat="-37.8845" lon="145.36943000000002">
    <ele>368.13</ele>
   </trkpt>
   <trkpt lat="-37.884240000000005" lon="145.36970000000002">
    <ele>368.15000000000003</ele>
   </trkpt>
   <trkpt lat="-37.88391" lon="145.3701">
    <ele>366.95000000000005</ele>
   </trkpt>
   <trkpt lat="-37.88349" lon="145.37054">
    <ele>364.85</ele>
   </trkpt>
   <trkpt lat="-37.88302" lon="145.37098">
    <ele>362.78000000000003</ele>
   </trkpt>
   <trkpt lat="-37.88273" lon="145.37116">
    <ele>361.00000000000006</ele>
   </trkpt>
   <trkpt lat="-37.882250000000006" lon="145.37132000000003">
    <ele>357.42</ele>
   </trkpt>
   <trkpt lat="-37.88161500060773" lon="145.37169000317343">
    <ele>353.40000000000003</ele>
   </trkpt>
   <trkpt lat="-37.88098" lon="145.37206">
    <ele>348.83000000000004</ele>
   </trkpt>
   <trkpt lat="-37.88073" lon="145.37217">
    <ele>346.72</ele>
   </trkpt>
   <trkpt lat="-37.88033" lon="145.37229000000002">
    <ele>344.66</ele>
   </trkpt>
   <trkpt lat="-37.88002" lon="145.37230000000002">
    <ele>342.92</ele>
   </trkpt>
   <trkpt lat="-37.880010000000006" lon="145.37230000000002">
    <ele>342.92</ele>
   </trkpt>
   <trkpt lat="-37.87955" lon="145.37228000000002">
    <ele>340.51000000000005</ele>
   </trkpt>
   <trkpt lat="-37.879430000000006" lon="145.37229000000002">
    <ele>340.51000000000005</ele>
   </trkpt>
   <trkpt lat="-37.87935" lon="145.37225">
    <ele>340.0</ele>
   </trkpt>
   <trkpt lat="-37.878980000000006" lon="145.3724">
    <ele>335.91</ele>
   </trkpt>
   <trkpt lat="-37.87883" lon="145.37248000000002">
    <ele>333.90000000000003</ele>
   </trkpt>
   <trkpt lat="-37.87863" lon="145.37271">
    <ele>331.22</ele>
   </trkpt>
   <trkpt lat="-37.87847" lon="145.37306">
    <ele>326.81000000000006</ele>
   </trkpt>
   <trkpt lat="-37.878460000000004" lon="145.37306">
    <ele>326.8</ele>
   </trkpt>
   <trkpt lat="-37.87836" lon="145.37346000000002">
    <ele>324.25000000000006</ele>
   </trkpt>
   <trkpt lat="-37.87829" lon="145.37361">
    <ele>322.74</ele>
   </trkpt>
   <trkpt lat="-37.878240000000005" lon="145.37368">
    <ele>323.37000000000006</ele>
   </trkpt>
   <trkpt lat="-37.878190000000004" lon="145.3737">
    <ele>323.39</ele>
   </trkpt>
   <trkpt lat="-37.87814" lon="145.37368">
    <ele>323.39</ele>
   </trkpt>
   <trkpt lat="-37.87807" lon="145.37362000000002">
    <ele>322.6</ele>
   </trkpt>
   <trkpt lat="-37.87792" lon="145.37301000000002">
    <ele>323.02000000000004</ele>
   </trkpt>
   <trkpt lat="-37.87785" lon="145.37289">
    <ele>323.95</ele>
   </trkpt>
   <trkpt lat="-37.87744500100777" lon="145.37245499783114">
    <ele>326.66</ele>
   </trkpt>
   <trkpt lat="-37.87704" lon="145.37202000000002">
    <ele>331.03000000000003</ele>
   </trkpt>
   <trkpt lat="-37.87675" lon="145.37167000000002">
    <ele>333.0</ele>
   </trkpt>
   <trkpt lat="-37.876830000000005" lon="145.37138000000002">
    <ele>333.41</ele>
   </trkpt>
   <trkpt lat="-37.876850000000005" lon="145.37128">
    <ele>333.57000000000005</ele>
   </trkpt>
   <trkpt lat="-37.87675" lon="145.37167000000002">
    <ele>333.0</ele>
   </trkpt>
   <trkpt lat="-37.876850000000005" lon="145.37129000000002">
    <ele>333.56</ele>
   </trkpt>
   <trkpt lat="-37.87682" lon="145.37108">
    <ele>334.75000000000006</ele>
   </trkpt>
   <trkpt lat="-37.87675" lon="145.37087000000002">
    <ele>335.61</ele>
   </trkpt>
   <trkpt lat="-37.87655" lon="145.37068000000002">
    <ele>336.0</ele>
   </trkpt>
   <trkpt lat="-37.87637" lon="145.37056">
    <ele>336.87</ele>
   </trkpt>
   <trkpt lat="-37.87628" lon="145.37048000000001">
    <ele>337.61</ele>
   </trkpt>
   <trkpt lat="-37.87621" lon="145.37032000000002">
    <ele>338.22</ele>
   </trkpt>
   <trkpt lat="-37.87617" lon="145.37026">
    <ele>338.67</ele>
   </trkpt>
   <trkpt lat="-37.8761" lon="145.37024000000002">
    <ele>338.91</ele>
   </trkpt>
   <trkpt lat="-37.87601" lon="145.37026">
    <ele>339.43</ele>
   </trkpt>
   <trkpt lat="-37.87592" lon="145.37022000000002">
    <ele>339.43</ele>
   </trkpt>
   <trkpt lat="-37.87588" lon="145.37013000000002">
    <ele>341.67</ele>
   </trkpt>
   <trkpt lat="-37.87579" lon="145.36987000000002">
    <ele>341.67</ele>
   </trkpt>
   <trkpt lat="-37.87576" lon="145.36974">
    <ele>343.17</ele>
   </trkpt>
   <trkpt lat="-37.875750000000004" lon="145.36912">
    <ele>345.85</ele>
   </trkpt>
   <trkpt lat="-37.87567000000001" lon="145.36859">
    <ele>348.30000000000007</ele>
   </trkpt>
   <trkpt lat="-37.87547" lon="145.36843000000002">
    <ele>371.76000000000005</ele>
   </trkpt>
   <trkpt lat="-37.87545" lon="145.3683">
    <ele>371.59000000000003</ele>
   </trkpt>
   <trkpt lat="-37.875510000000006" lon="145.36811">
    <ele>371.07</ele>
   </trkpt>
   <trkpt lat="-37.87561" lon="145.36792">
    <ele>371.16</ele>
   </trkpt>
   <trkpt lat="-37.875690000000006" lon="145.36763000000002">
    <ele>373.34</ele>
   </trkpt>
   <trkpt lat="-37.8757" lon="145.3675">
    <ele>373.85</ele>
   </trkpt>
   <trkpt lat="-37.87559" lon="145.36734">
    <ele>376.21000000000004</ele>
   </trkpt>
   <trkpt lat="-37.87523" lon="145.36692000000002">
    <ele>378.3</ele>
   </trkpt>
   <trkpt lat="-37.87509" lon="145.36668">
    <ele>379.73</ele>
   </trkpt>
   <trkpt lat="-37.87482" lon="145.36636000000001">
    <ele>382.49000000000007</ele>
   </trkpt>
   <trkpt lat="-37.8748" lon="145.36626">
    <ele>381.92</ele>
   </trkpt>
   <trkpt lat="-37.874810000000004" lon="145.36621000000002">
    <ele>381.92</ele>
   </trkpt>
   <trkpt lat="-37.87514" lon="145.36594000000002">
    <ele>363.23</ele>
   </trkpt>
   <trkpt lat="-37.87509" lon="145.36587">
    <ele>363.23</ele>
   </trkpt>
   <trkpt lat="-37.87485" lon="145.36522000000002">
    <ele>366.54</ele>
   </trkpt>
   <trkpt lat="-37.87478" lon="145.3649">
    <ele>368.99</ele>
   </trkpt>
   <trkpt lat="-37.87471" lon="145.36405000000002">
    <ele>371.69</ele>
   </trkpt>
   <trkpt lat="-37.87467" lon="145.36383">
    <ele>372.68</ele>
   </trkpt>
   <trkpt lat="-37.87433" lon="145.36322">
    <ele>374.56</ele>
   </trkpt>
   <trkpt lat="-37.87422" lon="145.36283">
    <ele>375.36</ele>
   </trkpt>
   <trkpt lat="-37.87413" lon="145.36263000000002">
    <ele>375.4</ele>
   </trkpt>
   <trkpt lat="-37.87391" lon="145.3623">
    <ele>375.22</ele>
   </trkpt>
   <trkpt lat="-37.873670000000004" lon="145.36206">
    <ele>375.09000000000003</ele>
   </trkpt>
   <trkpt lat="-37.87328" lon="145.36159">
    <ele>378.38000000000005</ele>
   </trkpt>
   <trkpt lat="-37.873160000000006" lon="145.36152">
    <ele>378.38000000000005</ele>
   </trkpt>
   <trkpt lat="-37.87303" lon="145.3615">
    <ele>379.40000000000003</ele>
   </trkpt>
   <trkpt lat="-37.87288" lon="145.36151">
    <ele>379.83000000000004</ele>
   </trkpt>
   <trkpt lat="-37.872600000000006" lon="145.36158">
    <ele>381.1</ele>
   </trkpt>
   <trkpt lat="-37.87243" lon="145.36159">
    <ele>381.89</ele>
   </trkpt>
   <trkpt lat="-37.87214" lon="145.36158">
    <ele>383.17</ele>
   </trkpt>
   <trkpt lat="-37.87158" lon="145.36168">
    <ele>384.65000000000003</ele>
   </trkpt>
   <trkpt lat="-37.87129" lon="145.36168">
    <ele>385.83</ele>
   </trkpt>
   <trkpt lat="-37.87088" lon="145.36163000000002">
    <ele>386.5</ele>
   </trkpt>
   <trkpt lat="-37.87053" lon="145.36155000000002">
    <ele>386.88000000000005</ele>
   </trkpt>
   <trkpt lat="-37.87001" lon="145.36128000000002">
    <ele>388.33</ele>
   </trkpt>
   <trkpt lat="-37.86979" lon="145.36113">
    <ele>388.83</ele>
   </trkpt>
   <trkpt lat="-37.86954" lon="145.36090000000002">
    <ele>389.22</ele>
   </trkpt>
   <trkpt lat="-37.86918" lon="145.36046000000002">
    <ele>389.74</ele>
   </trkpt>
   <trkpt lat="-37.86883" lon="145.36012000000002">
    <ele>391.43000000000006</ele>
   </trkpt>
   <trkpt lat="-37.86856" lon="145.35994000000002">
    <ele>392.89</ele>
   </trkpt>
   <trkpt lat="-37.86795" lon="145.3596">
    <ele>394.17</ele>
   </trkpt>
   <trkpt lat="-37.86786" lon="145.35954">
    <ele>394.90000000000003</ele>
   </trkpt>
   <trkpt lat="-37.86773" lon="145.35941000000003">
    <ele>395.53000000000003</ele>
   </trkpt>
   <trkpt lat="-37.86753" lon="145.35917">
    <ele>396.24</ele>
   </trkpt>
   <trkpt lat="-37.8673" lon="145.35897">
    <ele>398.17</ele>
   </trkpt>
   <trkpt lat="-37.86701" lon="145.35879">
    <ele>399.53000000000003</ele>
   </trkpt>
   <trkpt lat="-37.8667" lon="145.35874">
    <ele>400.85</ele>
   </trkpt>
   <trkpt lat="-37.8665" lon="145.35857000000001">
    <ele>401.84000000000003</ele>
   </trkpt>
   <trkpt lat="-37.86614" lon="145.35806000000002">
    <ele>404.89000000000004</ele>
   </trkpt>
   <trkpt lat="-37.86605" lon="145.35784">
    <ele>406.28000000000003</ele>
   </trkpt>
   <trkpt lat="-37.86594" lon="145.35716000000002">
    <ele>407.84000000000003</ele>
   </trkpt>
   <trkpt lat="-37.86562" lon="145.35631">
    <ele>411.09</ele>
   </trkpt>
   <trkpt lat="-37.86562" lon="145.35609000000002">
    <ele>411.65000000000003</ele>
   </trkpt>
   <trkpt lat="-37.865640000000006" lon="145.35600000000002">
    <ele>412.06</ele>
   </trkpt>
   <trkpt lat="-37.86571" lon="145.35590000000002">
    <ele>412.23</ele>
   </trkpt>
   <trkpt lat="-37.86587" lon="145.35577">
    <ele>412.77000000000004</ele>
   </trkpt>
   <trkpt lat="-37.865930000000006" lon="145.35577">
    <ele>413.12000000000006</ele>
   </trkpt>
   <trkpt lat="-37.86598" lon="145.35567">
    <ele>414.30000000000007</ele>
   </trkpt>
   <trkpt lat="-37.86598" lon="145.35555000000002">
    <ele>414.73</ele>
   </trkpt>
   <trkpt lat="-37.86585" lon="145.3554">
    <ele>416.59000000000003</ele>
   </trkpt>
   <trkpt lat="-37.86547" lon="145.35535000000002">
    <ele>424.32000000000005</ele>
   </trkpt>
   <trkpt lat="-37.8652" lon="145.35519000000002">
    <ele>428.82000000000005</ele>
   </trkpt>
   <trkpt lat="-37.86502" lon="145.35512">
    <ele>435.56000000000006</ele>
   </trkpt>
   <trkpt lat="-37.86486" lon="145.35513">
    <ele>437.61000000000007</ele>
   </trkpt>
   <trkpt lat="-37.8645" lon="145.35506">
    <ele>447.53000000000003</ele>
   </trkpt>
   <trkpt lat="-37.86435" lon="145.35499000000002">
    <ele>454.87000000000006</ele>
   </trkpt>
   <trkpt lat="-37.86415" lon="145.35496">
    <ele>458.82000000000005</ele>
   </trkpt>
   <trkpt lat="-37.863600000000005" lon="145.35494">
    <ele>471.55</ele>
   </trkpt>
   <trkpt lat="-37.86345" lon="145.35489">
    <ele>473.71000000000004</ele>
   </trkpt>
   <trkpt lat="-37.86334" lon="145.35477">
    <ele>475.63000000000005</ele>
   </trkpt>
   <trkpt lat="-37.86316" lon="145.35444">
    <ele>484.02000000000004</ele>
   </trkpt>
   <trkpt lat="-37.862820000000006" lon="145.35372">
    <ele>479.94</ele>
   </trkpt>
   <trkpt lat="-37.862860000000005" lon="145.35369">
    <ele>479.94</ele>
   </trkpt>
   <trkpt lat="-37.86287" lon="145.35368000000003">
    <ele>479.88</ele>
   </trkpt>
   <trkpt lat="-37.862410000000004" lon="145.35401000000002">
    <ele>480.82</ele>
   </trkpt>
   <trkpt lat="-37.86288000042033" lon="145.35367000221785">
    <ele>479.94</ele>
   </trkpt>
   <trkpt lat="-37.863350000000004" lon="145.35333">
    <ele>478.37</ele>
   </trkpt>
   <trkpt lat="-37.863690000000005" lon="145.3531">
    <ele>478.65000000000003</ele>
   </trkpt>
   <trkpt lat="-37.86403" lon="145.3529">
    <ele>478.89000000000004</ele>
   </trkpt>
   <trkpt lat="-37.863690000000005" lon="145.3531">
    <ele>478.65000000000003</ele>
   </trkpt>
   <trkpt lat="-37.863400000000006" lon="145.35247">
    <ele>485.47</ele>
   </trkpt>
   <trkpt lat="-37.86312" lon="145.35186000000002">
    <ele>482.21000000000004</ele>
   </trkpt>
   <trkpt lat="-37.86309" lon="145.35176">
    <ele>481.94</ele>
   </trkpt>
   <trkpt lat="-37.863110000000006" lon="145.35169000000002">
    <ele>481.85</ele>
   </trkpt>
   <trkpt lat="-37.8633" lon="145.35153000000003">
    <ele>482.2</ele>
   </trkpt>
   <trkpt lat="-37.863420000000005" lon="145.35147">
    <ele>482.55</ele>
   </trkpt>
   <trkpt lat="-37.8635" lon="145.3513">
    <ele>484.59000000000003</ele>
   </trkpt>
   <trkpt lat="-37.86359" lon="145.35126000000002">
    <ele>486.07000000000005</ele>
   </trkpt>
   <trkpt lat="-37.86368" lon="145.35119">
    <ele>488.79</ele>
   </trkpt>
   <trkpt lat="-37.86379" lon="145.35118">
    <ele>491.97</ele>
   </trkpt>
   <trkpt lat="-37.864050000000006" lon="145.35102">
    <ele>498.94000000000005</ele>
   </trkpt>
   <trkpt lat="-37.8641" lon="145.35089000000002">
    <ele>499.88000000000005</ele>
   </trkpt>
   <trkpt lat="-37.8641" lon="145.35074">
    <ele>501.48</ele>
   </trkpt>
   <trkpt lat="-37.86417" lon="145.35060000000001">
    <ele>503.53000000000003</ele>
   </trkpt>
   <trkpt lat="-37.864380000000004" lon="145.35006">
    <ele>511.3500000000001</ele>
   </trkpt>
   <trkpt lat="-37.86464500238473" lon="145.349315002573">
    <ele>518.24</ele>
   </trkpt>
   <trkpt lat="-37.86491" lon="145.34857000000002">
    <ele>525.0400000000001</ele>
   </trkpt>
   <trkpt lat="-37.86496" lon="145.34829000000002">
    <ele>526.82</ele>
   </trkpt>
   <trkpt lat="-37.86497" lon="145.34822">
    <ele>526.59</ele>
   </trkpt>
   <trkpt lat="-37.86491" lon="145.34814">
    <ele>524.7900000000001</ele>
   </trkpt>
   <trkpt lat="-37.86484" lon="145.34797">
    <ele>522.2900000000001</ele>
   </trkpt>
   <trkpt lat="-37.864810000000006" lon="145.34757000000002">
    <ele>518.57</ele>
   </trkpt>
   <trkpt lat="-37.86482" lon="145.34718">
    <ele>515.47</ele>
   </trkpt>
   <trkpt lat="-37.86493" lon="145.34701">
    <ele>511.75</ele>
   </trkpt>
   <trkpt lat="-37.865370000000006" lon="145.34673">
    <ele>507.62000000000006</ele>
   </trkpt>
   <trkpt lat="-37.8659" lon="145.34657">
    <ele>502.84000000000003</ele>
   </trkpt>
   <trkpt lat="-37.86589" lon="145.34647">
    <ele>500.16</ele>
   </trkpt>
   <trkpt lat="-37.86598" lon="145.34626">
    <ele>497.28000000000003</ele>
   </trkpt>
   <trkpt lat="-37.866" lon="145.34601">
    <ele>492.72</ele>
   </trkpt>
   <trkpt lat="-37.86589" lon="145.34556">
    <ele>482.23</ele>
   </trkpt>
   <trkpt lat="-37.86594" lon="145.34547">
    <ele>479.62000000000006</ele>
   </trkpt>
   <trkpt lat="-37.86621" lon="145.34518">
    <ele>470.94</ele>
   </trkpt>
   <trkpt lat="-37.86697" lon="145.34459">
    <ele>479.41</ele>
   </trkpt>
   <trkpt lat="-37.86741" lon="145.34451">
    <ele>484.08000000000004</ele>
   </trkpt>
   <trkpt lat="-37.86792500001225" lon="145.3444400004904">
    <ele>488.51000000000005</ele>
   </trkpt>
   <trkpt lat="-37.86844" lon="145.34437">
    <ele>491.72</ele>
   </trkpt>
   <trkpt lat="-37.86862" lon="145.34431">
    <ele>492.77000000000004</ele>
   </trkpt>
   <trkpt lat="-37.86889" lon="145.34432">
    <ele>494.3500000000001</ele>
   </trkpt>
   <trkpt lat="-37.86907" lon="145.34435000000002">
    <ele>495.41</ele>
   </trkpt>
   <trkpt lat="-37.86956" lon="145.34455">
    <ele>502.11000000000007</ele>
   </trkpt>
   <trkpt lat="-37.86983" lon="145.34474">
    <ele>505.73</ele>
   </trkpt>
   <trkpt lat="-37.87024" lon="145.34483">
    <ele>506.30000000000007</ele>
   </trkpt>
   <trkpt lat="-37.87035" lon="145.34482">
    <ele>506.2000000000001</ele>
   </trkpt>
   <trkpt lat="-37.870630000000006" lon="145.34474">
    <ele>507.65999999999997</ele>
   </trkpt>
   <trkpt lat="-37.870830000000005" lon="145.34461000000002">
    <ele>508.37</ele>
   </trkpt>
   <trkpt lat="-37.871140000000004" lon="145.34425000000002">
    <ele>509.01000000000005</ele>
   </trkpt>
   <trkpt lat="-37.87115" lon="145.34425000000002">
    <ele>509.01000000000005</ele>
   </trkpt>
   <trkpt lat="-37.87176" lon="145.34342">
    <ele>512.7400000000001</ele>
   </trkpt>
   <trkpt lat="-37.872115001961774" lon="145.34274500318605">
    <ele>513.37</ele>
   </trkpt>
   <trkpt lat="-37.87247" lon="145.34207">
    <ele>508.63</ele>
   </trkpt>
   <trkpt lat="-37.87272" lon="145.34221000000002">
    <ele>507.89000000000004</ele>
   </trkpt>
   <trkpt lat="-37.87288" lon="145.34221000000002">
    <ele>506.83</ele>
   </trkpt>
   <trkpt lat="-37.87326" lon="145.34212000000002">
    <ele>503.04</ele>
   </trkpt>
   <trkpt lat="-37.8735" lon="145.34204000000003">
    <ele>501.84000000000003</ele>
   </trkpt>
   <trkpt lat="-37.87375" lon="145.34193000000002">
    <ele>497.09000000000003</ele>
   </trkpt>
   <trkpt lat="-37.87406" lon="145.34185000000002">
    <ele>495.59000000000003</ele>
   </trkpt>
   <trkpt lat="-37.87413" lon="145.34192000000002">
    <ele>495.82000000000005</ele>
   </trkpt>
   <trkpt lat="-37.8744" lon="145.34218">
    <ele>496.89000000000004</ele>
   </trkpt>
   <trkpt lat="-37.87505" lon="145.34289">
    <ele>502.68</ele>
   </trkpt>
   <trkpt lat="-37.8751" lon="145.34298">
    <ele>501.7900000000001</ele>
   </trkpt>
   <trkpt lat="-37.87467" lon="145.34328000000002">
    <ele>502.92</ele>
   </trkpt>
   <trkpt lat="-37.87451" lon="145.34336000000002">
    <ele>503.44</ele>
   </trkpt>
   <trkpt lat="-37.87467" lon="145.34328000000002">
    <ele>502.92</ele>
   </trkpt>
   <trkpt lat="-37.875280000000004" lon="145.34284000000002">
    <ele>502.0300000000001</ele>
   </trkpt>
   <trkpt lat="-37.875330000000005" lon="145.34309000000002">
    <ele>502.27</ele>
   </trkpt>
   <trkpt lat="-37.87534" lon="145.34336000000002">
    <ele>502.58000000000004</ele>
   </trkpt>
   <trkpt lat="-37.87538" lon="145.34378">
    <ele>504.82000000000005</ele>
   </trkpt>
   <trkpt lat="-37.875420000000005" lon="145.34393">
    <ele>505.53999999999996</ele>
   </trkpt>
   <trkpt lat="-37.87561" lon="145.34434000000002">
    <ele>508.0800000000001</ele>
   </trkpt>
   <trkpt lat="-37.87581" lon="145.34492">
    <ele>509.51</ele>
   </trkpt>
   <trkpt lat="-37.87588" lon="145.34525000000002">
    <ele>510.55000000000007</ele>
   </trkpt>
   <trkpt lat="-37.87592500224975" lon="145.34597999949017">
    <ele>510.9100000000001</ele>
   </trkpt>
   <trkpt lat="-37.87597" lon="145.34671">
    <ele>509.8</ele>
   </trkpt>
   <trkpt lat="-37.87603" lon="145.34698">
    <ele>508.81000000000006</ele>
   </trkpt>
   <trkpt lat="-37.87615" lon="145.34724">
    <ele>507.53000000000003</ele>
   </trkpt>
   <trkpt lat="-37.87632" lon="145.34737">
    <ele>506.43000000000006</ele>
   </trkpt>
   <trkpt lat="-37.876520000000006" lon="145.34739000000002">
    <ele>505.84000000000003</ele>
   </trkpt>
   <trkpt lat="-37.87642" lon="145.34754">
    <ele>515.15</ele>
   </trkpt>
   <trkpt lat="-37.87695" lon="145.34759000000003">
    <ele>512.4000000000001</ele>
   </trkpt>
   <trkpt lat="-37.877140000000004" lon="145.34763">
    <ele>511.36</ele>
   </trkpt>
   <trkpt lat="-37.87695" lon="145.34759000000003">
    <ele>512.4000000000001</ele>
   </trkpt>
   <trkpt lat="-37.87642" lon="145.34754">
    <ele>515.15</ele>
   </trkpt>
   <trkpt lat="-37.876520000000006" lon="145.34739000000002">
    <ele>505.84000000000003</ele>
   </trkpt>
   <trkpt lat="-37.87666" lon="145.34738000000002">
    <ele>504.53000000000003</ele>
   </trkpt>
   <trkpt lat="-37.877100000000006" lon="145.34739000000002">
    <ele>502.49</ele>
   </trkpt>
   <trkpt lat="-37.87738" lon="145.34745">
    <ele>501.44</ele>
   </trkpt>
   <trkpt lat="-37.8776" lon="145.3476">
    <ele>499.00000000000006</ele>
   </trkpt>
   <trkpt lat="-37.87773" lon="145.34772">
    <ele>498.31</ele>
   </trkpt>
   <trkpt lat="-37.87785" lon="145.34788">
    <ele>497.40000000000003</ele>
   </trkpt>
   <trkpt lat="-37.878" lon="145.34820000000002">
    <ele>494.51000000000005</ele>
   </trkpt>
   <trkpt lat="-37.87826000213435" lon="145.34891499739996">
    <ele>491.45000000000005</ele>
   </trkpt>
   <trkpt lat="-37.87852" lon="145.34963000000002">
    <ele>487.92</ele>
   </trkpt>
   <trkpt lat="-37.87854" lon="145.34989000000002">
    <ele>487.26</ele>
   </trkpt>
   <trkpt lat="-37.87854" lon="145.35045000000002">
    <ele>485.58000000000004</ele>
   </trkpt>
   <trkpt lat="-37.878510000000006" lon="145.35082">
    <ele>484.18000000000006</ele>
   </trkpt>
   <trkpt lat="-37.878280000000004" lon="145.35170000000002">
    <ele>479.47</ele>
   </trkpt>
   <trkpt lat="-37.87829" lon="145.35168000000002">
    <ele>479.47</ele>
   </trkpt>
   <trkpt lat="-37.87825" lon="145.35182">
    <ele>478.6</ele>
   </trkpt>
   <trkpt lat="-37.87807" lon="145.35232000000002">
    <ele>476.66</ele>
   </trkpt>
   <trkpt lat="-37.87787" lon="145.35274">
    <ele>473.14000000000004</ele>
   </trkpt>
   <trkpt lat="-37.87742" lon="145.35349000000002">
    <ele>470.03000000000003</ele>
   </trkpt>
   <trkpt lat="-37.87713" lon="145.35391">
    <ele>467.55</ele>
   </trkpt>
   <trkpt lat="-37.876795000555255" lon="145.35430000187608">
    <ele>465.43</ele>
   </trkpt>
   <trkpt lat="-37.87646" lon="145.35469">
    <ele>463.34000000000003</ele>
   </trkpt>
   <trkpt lat="-37.87632" lon="145.35490000000001">
    <ele>462.52000000000004</ele>
   </trkpt>
   <trkpt lat="-37.876290000000004" lon="145.35504">
    <ele>462.72</ele>
   </trkpt>
   <trkpt lat="-37.8763" lon="145.35531">
    <ele>458.69000000000005</ele>
   </trkpt>
   <trkpt lat="-37.87635" lon="145.35549">
    <ele>458.69000000000005</ele>
   </trkpt>
   <trkpt lat="-37.87675" lon="145.35619">
    <ele>457.05</ele>
   </trkpt>
   <trkpt lat="-37.87693" lon="145.35664">
    <ele>459.1000000000001</ele>
   </trkpt>
   <trkpt lat="-37.87729" lon="145.35749">
    <ele>462.27</ele>
   </trkpt>
   <trkpt lat="-37.87742" lon="145.35779000000002">
    <ele>464.1</ele>
   </trkpt>
   <trkpt lat="-37.877480000000006" lon="145.35786000000002">
    <ele>464.1</ele>
   </trkpt>
   <trkpt lat="-37.878110000562785" lon="145.35820499708174">
    <ele>467.59000000000003</ele>
   </trkpt>
   <trkpt lat="-37.87874" lon="145.35855">
    <ele>469.13000000000005</ele>
   </trkpt>
   <trkpt lat="-37.87946" lon="145.35884000000001">
    <ele>465.45000000000005</ele>
   </trkpt>
   <trkpt lat="-37.87982" lon="145.35903000000002">
    <ele>464.39000000000004</ele>
   </trkpt>
   <trkpt lat="-37.88055000000001" lon="145.35955">
    <ele>474.81000000000006</ele>
   </trkpt>
   <trkpt lat="-37.880680000000005" lon="145.35916">
    <ele>472.73</ele>
   </trkpt>
   <trkpt lat="-37.88082" lon="145.35912000000002">
    <ele>475.02000000000004</ele>
   </trkpt>
   <trkpt lat="-37.8811" lon="145.35928">
    <ele>478.92</ele>
   </trkpt>
   <trkpt lat="-37.88116" lon="145.35913000000002">
    <ele>488.11</ele>
   </trkpt>
   <trkpt lat="-37.881400000000006" lon="145.35903000000002">
    <ele>487.95000000000005</ele>
   </trkpt>
   <trkpt lat="-37.88147" lon="145.35874">
    <ele>487.39000000000004</ele>
   </trkpt>
   <trkpt lat="-37.88143" lon="145.35850000000002">
    <ele>487.57000000000005</ele>
   </trkpt>
   <trkpt lat="-37.88147" lon="145.35874">
    <ele>487.45000000000005</ele>
   </trkpt>
   <trkpt lat="-37.881400000000006" lon="145.35903000000002">
    <ele>487.95000000000005</ele>
   </trkpt>
   <trkpt lat="-37.88116" lon="145.35913000000002">
    <ele>488.11</ele>
   </trkpt>
   <trkpt lat="-37.8811" lon="145.35928">
    <ele>478.92</ele>
   </trkpt>
   <trkpt lat="-37.88082" lon="145.35912000000002">
    <ele>473.84000000000003</ele>
   </trkpt>
   <trkpt lat="-37.880680000000005" lon="145.35916">
    <ele>472.73</ele>
   </trkpt>
   <trkpt lat="-37.88064" lon="145.35928">
    <ele>487.08</ele>
   </trkpt>
   <trkpt lat="-37.880680000000005" lon="145.35916">
    <ele>489.96000000000004</ele>
   </trkpt>
   <trkpt lat="-37.88082" lon="145.35912000000002">
    <ele>489.96000000000004</ele>
   </trkpt>
   <trkpt lat="-37.8811" lon="145.35928">
    <ele>473.84000000000003</ele>
   </trkpt>
   <trkpt lat="-37.88116" lon="145.35941000000003">
    <ele>475.02000000000004</ele>
   </trkpt>
   <trkpt lat="-37.88112" lon="145.35963">
    <ele>478.92</ele>
   </trkpt>
   <trkpt lat="-37.88163" lon="145.35975000000002">
    <ele>485.63000000000005</ele>
   </trkpt>
   <trkpt lat="-37.88208" lon="145.35974000000002">
    <ele>484.21000000000004</ele>
   </trkpt>
   <trkpt lat="-37.882490000000004" lon="145.35981">
    <ele>483.34000000000003</ele>
   </trkpt>
   <trkpt lat="-37.88297" lon="145.35958000000002">
    <ele>485.24000000000007</ele>
   </trkpt>
   <trkpt lat="-37.88347" lon="145.35923000000003">
    <ele>490.73</ele>
   </trkpt>
   <trkpt lat="-37.88371" lon="145.35887000000002">
    <ele>492.53000000000003</ele>
   </trkpt>
   <trkpt lat="-37.88391" lon="145.35863">
    <ele>495.18000000000006</ele>
   </trkpt>
   <trkpt lat="-37.88407" lon="145.35852">
    <ele>496.20000000000005</ele>
   </trkpt>
   <trkpt lat="-37.88441" lon="145.35840000000002">
    <ele>501.07</ele>
   </trkpt>
   <trkpt lat="-37.88456" lon="145.35838">
    <ele>501.70000000000005</ele>
   </trkpt>
   <trkpt lat="-37.88476" lon="145.35842000000002">
    <ele>502.41</ele>
   </trkpt>
   <trkpt lat="-37.88532" lon="145.35860000000002">
    <ele>504.43</ele>
   </trkpt>
   <trkpt lat="-37.885450000000006" lon="145.35868000000002">
    <ele>505.02000000000004</ele>
   </trkpt>
   <trkpt lat="-37.8858" lon="145.35913000000002">
    <ele>508.50000000000006</ele>
   </trkpt>
   <trkpt lat="-37.88591" lon="145.35922000000002">
    <ele>509.12</ele>
   </trkpt>
   <trkpt lat="-37.88595" lon="145.35933">
    <ele>509.97999999999996</ele>
   </trkpt>
   <trkpt lat="-37.88598" lon="145.35957000000002">
    <ele>510.73</ele>
   </trkpt>
   <trkpt lat="-37.88573" lon="145.36033">
    <ele>510.85</ele>
   </trkpt>
   <trkpt lat="-37.88568" lon="145.36059">
    <ele>510.21999999999997</ele>
   </trkpt>
   <trkpt lat="-37.88564" lon="145.36079">
    <ele>509.21000000000004</ele>
   </trkpt>
   <trkpt lat="-37.88537" lon="145.36136000000002">
    <ele>504.33000000000004</ele>
   </trkpt>
   <trkpt lat="-37.88514" lon="145.36202">
    <ele>499.7300000000001</ele>
   </trkpt>
   <trkpt lat="-37.88503" lon="145.36224">
    <ele>499.22</ele>
   </trkpt>
   <trkpt lat="-37.88496000000001" lon="145.36231">
    <ele>498.64000000000004</ele>
   </trkpt>
   <trkpt lat="-37.8851" lon="145.36238">
    <ele>497.69</ele>
   </trkpt>
   <trkpt lat="-37.88514" lon="145.36243000000002">
    <ele>497.69</ele>
   </trkpt>
   <trkpt lat="-37.88514" lon="145.36251000000001">
    <ele>497.48</ele>
   </trkpt>
   <trkpt lat="-37.8849" lon="145.36279000000002">
    <ele>495.28000000000003</ele>
   </trkpt>
   <trkpt lat="-37.88479" lon="145.36302">
    <ele>491.67</ele>
   </trkpt>
   <trkpt lat="-37.88474" lon="145.36315000000002">
    <ele>490.22</ele>
   </trkpt>
   <trkpt lat="-37.88472" lon="145.36334000000002">
    <ele>487.61</ele>
   </trkpt>
   <trkpt lat="-37.8847" lon="145.36339">
    <ele>487.61</ele>
   </trkpt>
   <trkpt lat="-37.88456" lon="145.3634">
    <ele>482.80000000000007</ele>
   </trkpt>
   <trkpt lat="-37.88449" lon="145.36339">
    <ele>481.90000000000003</ele>
   </trkpt>
   <trkpt lat="-37.88443" lon="145.36341000000002">
    <ele>481.07000000000005</ele>
   </trkpt>
   <trkpt lat="-37.884420000000006" lon="145.36347">
    <ele>480.33000000000004</ele>
   </trkpt>
   <trkpt lat="-37.88445" lon="145.36369000000002">
    <ele>478.06</ele>
   </trkpt>
   <trkpt lat="-37.88463" lon="145.36419">
    <ele>469.38</ele>
   </trkpt>
   <trkpt lat="-37.88476" lon="145.36443">
    <ele>463.49</ele>
   </trkpt>
   <trkpt lat="-37.88479" lon="145.36451000000002">
    <ele>462.64000000000004</ele>
   </trkpt>
   <trkpt lat="-37.88476" lon="145.36459000000002">
    <ele>461.86</ele>
   </trkpt>
   <trkpt lat="-37.88483" lon="145.36484000000002">
    <ele>457.16</ele>
   </trkpt>
   <trkpt lat="-37.88494" lon="145.36503000000002">
    <ele>453.06</ele>
   </trkpt>
   <trkpt lat="-37.88499" lon="145.36505000000002">
    <ele>452.05000000000007</ele>
   </trkpt>
   <trkpt lat="-37.88517" lon="145.36524">
    <ele>448.97</ele>
   </trkpt>
   <trkpt lat="-37.88519" lon="145.36531000000002">
    <ele>448.8</ele>
   </trkpt>
   <trkpt lat="-37.885360000000006" lon="145.36547000000002">
    <ele>447.83000000000004</ele>
   </trkpt>
   <trkpt lat="-37.88539" lon="145.36557000000002">
    <ele>446.48</ele>
   </trkpt>
   <trkpt lat="-37.88546" lon="145.36561">
    <ele>444.67</ele>
   </trkpt>
   <trkpt lat="-37.88548" lon="145.36567000000002">
    <ele>444.67</ele>
   </trkpt>
   <trkpt lat="-37.88548" lon="145.36577">
    <ele>440.79</ele>
   </trkpt>
   <trkpt lat="-37.88546" lon="145.36592000000002">
    <ele>439.86</ele>
   </trkpt>
   <trkpt lat="-37.885270000000006" lon="145.36607">
    <ele>435.1700000000001</ele>
   </trkpt>
   <trkpt lat="-37.884980000000006" lon="145.36612000000002">
    <ele>427.76000000000005</ele>
   </trkpt>
   <trkpt lat="-37.88474" lon="145.36611000000002">
    <ele>423.67</ele>
   </trkpt>
   <trkpt lat="-37.88463" lon="145.36617">
    <ele>422.33000000000004</ele>
   </trkpt>
   <trkpt lat="-37.88458" lon="145.36623">
    <ele>420.56000000000006</ele>
   </trkpt>
   <trkpt lat="-37.88461" lon="145.36635">
    <ele>419.15000000000003</ele>
   </trkpt>
   <trkpt lat="-37.88465" lon="145.36642">
    <ele>418.28000000000003</ele>
   </trkpt>
   <trkpt lat="-37.88465" lon="145.36651">
    <ele>416.22</ele>
   </trkpt>
   <trkpt lat="-37.8847" lon="145.36657000000002">
    <ele>415.06000000000006</ele>
   </trkpt>
   <trkpt lat="-37.8847" lon="145.36672000000002">
    <ele>411.46000000000004</ele>
   </trkpt>
   <trkpt lat="-37.88481" lon="145.36711000000003">
    <ele>403.51000000000005</ele>
   </trkpt>
   <trkpt lat="-37.8849" lon="145.36727000000002">
    <ele>398.67</ele>
   </trkpt>
   <trkpt lat="-37.88505" lon="145.36745000000002">
    <ele>394.11</ele>
   </trkpt>
   <trkpt lat="-37.88557" lon="145.36795">
    <ele>381.58000000000004</ele>
   </trkpt>
   <trkpt lat="-37.885830000000006" lon="145.36818000000002">
    <ele>374.98</ele>
   </trkpt>
   <trkpt lat="-37.88602" lon="145.36834000000002">
    <ele>370.38000000000005</ele>
   </trkpt>
   <trkpt lat="-37.886100000000006" lon="145.36837">
    <ele>363.82000000000005</ele>
   </trkpt>
   <trkpt lat="-37.88617" lon="145.3685">
    <ele>363.82000000000005</ele>
   </trkpt>
   <trkpt lat="-37.88642" lon="145.36872000000002">
    <ele>358.89000000000004</ele>
   </trkpt>
   <trkpt lat="-37.88667" lon="145.36906000000002">
    <ele>362.72</ele>
   </trkpt>
   <trkpt lat="-37.88736" lon="145.36978000000002">
    <ele>357.66</ele>
   </trkpt>
   <trkpt lat="-37.88732" lon="145.36981">
    <ele>357.66</ele>
   </trkpt>
   <trkpt lat="-37.88687" lon="145.3699">
    <ele>349.56</ele>
   </trkpt>
   <trkpt lat="-37.886660000000006" lon="145.36992">
    <ele>350.6</ele>
   </trkpt>
  </trkseg>
 </trk>
</gpx>
