<?xml version="1.0" encoding="UTF-8"?>
<gpx creator="StravaGPX" version="1.1" xmlns="http://www.topografix.com/GPX/1/1" xmlns:xsi="http://www.w3.org/2001/XMLSchema-instance" xsi:schemaLocation="http://www.topografix.com/GPX/1/1 http://www.topografix.com/GPX/1/1/gpx.xsd">
 <metadata>
  <name>👑</name>
  <author>
   <name>Natalie Gow</name>
  </author>
  <copyright author="OpenStreetMap contributors">
   <year>2020</year>
   <license>https://www.openstreetmap.org/copyright</license>
  </copyright>
 </metadata>
 <trk>
  <name>👑</name>
  <link href=""/>
  <type>trail_running</type>
  <trkseg>
   <trkpt lat="-37.86316" lon="145.35444">
    <ele>483.78000000000003</ele>
   </trkpt>
   <trkpt lat="-37.86334" lon="145.35477">
    <ele>475.63000000000005</ele>
   </trkpt>
   <trkpt lat="-37.86345" lon="145.35489">
    <ele>473.71000000000004</ele>
   </trkpt>
   <trkpt lat="-37.863600000000005" lon="145.35494">
    <ele>470.99</ele>
   </trkpt>
   <trkpt lat="-37.86415" lon="145.35496">
    <ele>458.82000000000005</ele>
   </trkpt>
   <trkpt lat="-37.86435" lon="145.35499000000002">
    <ele>454.87000000000006</ele>
   </trkpt>
   <trkpt lat="-37.8645" lon="145.35506">
    <ele>447.53000000000003</ele>
   </trkpt>
   <trkpt lat="-37.86486" lon="145.35513">
    <ele>437.61000000000007</ele>
   </trkpt>
   <trkpt lat="-37.86502" lon="145.35512">
    <ele>435.56000000000006</ele>
   </trkpt>
   <trkpt lat="-37.8652" lon="145.35519000000002">
    <ele>428.82000000000005</ele>
   </trkpt>
   <trkpt lat="-37.86547" lon="145.35535000000002">
    <ele>424.32000000000005</ele>
   </trkpt>
   <trkpt lat="-37.86585" lon="145.3554">
    <ele>416.59000000000003</ele>
   </trkpt>
   <trkpt lat="-37.86598" lon="145.35555000000002">
    <ele>414.73</ele>
   </trkpt>
   <trkpt lat="-37.86598" lon="145.35567">
    <ele>414.30000000000007</ele>
   </trkpt>
   <trkpt lat="-37.865930000000006" lon="145.35577">
    <ele>413.12000000000006</ele>
   </trkpt>
   <trkpt lat="-37.86589" lon="145.35596">
    <ele>419.82</ele>
   </trkpt>
   <trkpt lat="-37.86589" lon="145.35612">
    <ele>430.26000000000005</ele>
   </trkpt>
   <trkpt lat="-37.86605" lon="145.35616000000002">
    <ele>434.55</ele>
   </trkpt>
   <trkpt lat="-37.86623" lon="145.35623">
    <ele>446.00000000000006</ele>
   </trkpt>
   <trkpt lat="-37.8665" lon="145.35665">
    <ele>440.46000000000004</ele>
   </trkpt>
   <trkpt lat="-37.86654" lon="145.35708000000002">
    <ele>436.71000000000004</ele>
   </trkpt>
   <trkpt lat="-37.86674" lon="145.35733000000002">
    <ele>433.37</ele>
   </trkpt>
   <trkpt lat="-37.86694" lon="145.35745">
    <ele>432.21000000000004</ele>
   </trkpt>
   <trkpt lat="-37.86715" lon="145.35776">
    <ele>431.83000000000004</ele>
   </trkpt>
   <trkpt lat="-37.86728" lon="145.35787000000002">
    <ele>430.49</ele>
   </trkpt>
   <trkpt lat="-37.86737" lon="145.35797000000002">
    <ele>429.83000000000004</ele>
   </trkpt>
   <trkpt lat="-37.86748" lon="145.35804000000002">
    <ele>429.2300000000001</ele>
   </trkpt>
   <trkpt lat="-37.86766" lon="145.3582">
    <ele>428.8</ele>
   </trkpt>
   <trkpt lat="-37.86768" lon="145.35825">
    <ele>428.57000000000005</ele>
   </trkpt>
   <trkpt lat="-37.86773" lon="145.35860000000002">
    <ele>427.64</ele>
   </trkpt>
   <trkpt lat="-37.86793" lon="145.35878000000002">
    <ele>428.01000000000005</ele>
   </trkpt>
   <trkpt lat="-37.86806" lon="145.35901">
    <ele>427.63</ele>
   </trkpt>
   <trkpt lat="-37.8682" lon="145.35908">
    <ele>426.71000000000004</ele>
   </trkpt>
   <trkpt lat="-37.86871" lon="145.35917">
    <ele>426.12000000000006</ele>
   </trkpt>
   <trkpt lat="-37.86887" lon="145.35943">
    <ele>424.04</ele>
   </trkpt>
   <trkpt lat="-37.869220000000006" lon="145.35977000000003">
    <ele>421.36</ele>
   </trkpt>
   <trkpt lat="-37.8695" lon="145.36015">
    <ele>420.47</ele>
   </trkpt>
   <trkpt lat="-37.86963" lon="145.36053">
    <ele>417.28000000000003</ele>
   </trkpt>
   <trkpt lat="-37.86972" lon="145.36065000000002">
    <ele>416.92</ele>
   </trkpt>
   <trkpt lat="-37.86999" lon="145.36083000000002">
    <ele>415.88</ele>
   </trkpt>
   <trkpt lat="-37.87071" lon="145.36105">
    <ele>413.21000000000004</ele>
   </trkpt>
   <trkpt lat="-37.87113" lon="145.36123">
    <ele>411.15000000000003</ele>
   </trkpt>
   <trkpt lat="-37.87182" lon="145.36126000000002">
    <ele>409.88</ele>
   </trkpt>
   <trkpt lat="-37.87205" lon="145.36114">
    <ele>409.45000000000005</ele>
   </trkpt>
   <trkpt lat="-37.87221" lon="145.36118000000002">
    <ele>408.78000000000003</ele>
   </trkpt>
   <trkpt lat="-37.87234" lon="145.36127000000002">
    <ele>407.87</ele>
   </trkpt>
   <trkpt lat="-37.87243" lon="145.36129000000003">
    <ele>406.79</ele>
   </trkpt>
   <trkpt lat="-37.87292" lon="145.36119000000002">
    <ele>404.12</ele>
   </trkpt>
   <trkpt lat="-37.87326" lon="145.36121">
    <ele>399.40000000000003</ele>
   </trkpt>
   <trkpt lat="-37.87339" lon="145.36129000000003">
    <ele>397.72</ele>
   </trkpt>
   <trkpt lat="-37.873580000000004" lon="145.36148">
    <ele>394.88</ele>
   </trkpt>
   <trkpt lat="-37.87377" lon="145.36196">
    <ele>393.14000000000004</ele>
   </trkpt>
   <trkpt lat="-37.87377" lon="145.36206">
    <ele>375.36</ele>
   </trkpt>
   <trkpt lat="-37.873740000000005" lon="145.36213">
    <ele>375.36</ele>
   </trkpt>
   <trkpt lat="-37.87377" lon="145.36227000000002">
    <ele>376.01</ele>
   </trkpt>
   <trkpt lat="-37.874010000000006" lon="145.36278000000001">
    <ele>378.31</ele>
   </trkpt>
   <trkpt lat="-37.87409" lon="145.36301">
    <ele>379.94000000000005</ele>
   </trkpt>
   <trkpt lat="-37.87404" lon="145.36333000000002">
    <ele>382.15000000000003</ele>
   </trkpt>
   <trkpt lat="-37.874100000000006" lon="145.36338">
    <ele>382.61</ele>
   </trkpt>
   <trkpt lat="-37.87438" lon="145.36402">
    <ele>382.17</ele>
   </trkpt>
   <trkpt lat="-37.87438" lon="145.3642">
    <ele>382.57</ele>
   </trkpt>
   <trkpt lat="-37.87444" lon="145.36441000000002">
    <ele>383.53000000000003</ele>
   </trkpt>
   <trkpt lat="-37.87444" lon="145.36466000000001">
    <ele>384.28000000000003</ele>
   </trkpt>
   <trkpt lat="-37.87456" lon="145.36519">
    <ele>385.16</ele>
   </trkpt>
   <trkpt lat="-37.87467" lon="145.36552">
    <ele>383.70000000000005</ele>
   </trkpt>
   <trkpt lat="-37.87485" lon="145.36586">
    <ele>380.65000000000003</ele>
   </trkpt>
   <trkpt lat="-37.87485" lon="145.36601000000002">
    <ele>380.98</ele>
   </trkpt>
   <trkpt lat="-37.8748" lon="145.36626">
    <ele>382.32000000000005</ele>
   </trkpt>
   <trkpt lat="-37.87482" lon="145.36636000000001">
    <ele>382.51</ele>
   </trkpt>
   <trkpt lat="-37.87509" lon="145.36668">
    <ele>379.27000000000004</ele>
   </trkpt>
   <trkpt lat="-37.87523" lon="145.36692000000002">
    <ele>378.24</ele>
   </trkpt>
   <trkpt lat="-37.87559" lon="145.36734">
    <ele>375.85</ele>
   </trkpt>
   <trkpt lat="-37.8757" lon="145.3675">
    <ele>373.85</ele>
   </trkpt>
   <trkpt lat="-37.875690000000006" lon="145.36763000000002">
    <ele>372.43</ele>
   </trkpt>
   <trkpt lat="-37.87561" lon="145.36792">
    <ele>371.03000000000003</ele>
   </trkpt>
   <trkpt lat="-37.875510000000006" lon="145.36811">
    <ele>371.07</ele>
   </trkpt>
   <trkpt lat="-37.87545" lon="145.3683">
    <ele>371.69</ele>
   </trkpt>
   <trkpt lat="-37.87547" lon="145.36843000000002">
    <ele>370.74</ele>
   </trkpt>
   <trkpt lat="-37.87556" lon="145.36883">
    <ele>367.78000000000003</ele>
   </trkpt>
   <trkpt lat="-37.87554" lon="145.36915000000002">
    <ele>368.33000000000004</ele>
   </trkpt>
   <trkpt lat="-37.87538" lon="145.36979000000002">
    <ele>371.84</ele>
   </trkpt>
   <trkpt lat="-37.87545" lon="145.37030000000001">
    <ele>365.77000000000004</ele>
   </trkpt>
   <trkpt lat="-37.87552" lon="145.37052">
    <ele>363.40000000000003</ele>
   </trkpt>
   <trkpt lat="-37.875530000000005" lon="145.37054">
    <ele>363.40000000000003</ele>
   </trkpt>
   <trkpt lat="-37.87559" lon="145.37066000000002">
    <ele>361.27000000000004</ele>
   </trkpt>
   <trkpt lat="-37.87608" lon="145.37106">
    <ele>356.52</ele>
   </trkpt>
   <trkpt lat="-37.87614000000001" lon="145.37109">
    <ele>356.48</ele>
   </trkpt>
   <trkpt lat="-37.87635" lon="145.37115">
    <ele>356.48</ele>
   </trkpt>
   <trkpt lat="-37.8765" lon="145.37138000000002">
    <ele>333.56</ele>
   </trkpt>
   <trkpt lat="-37.87675" lon="145.37167000000002">
    <ele>333.0</ele>
   </trkpt>
   <trkpt lat="-37.876850000000005" lon="145.37126">
    <ele>333.56</ele>
   </trkpt>
   <trkpt lat="-37.87691" lon="145.37124">
    <ele>339.41</ele>
   </trkpt>
   <trkpt lat="-37.87693" lon="145.37134">
    <ele>339.41</ele>
   </trkpt>
   <trkpt lat="-37.87713" lon="145.37159000000003">
    <ele>338.68</ele>
   </trkpt>
   <trkpt lat="-37.877570000000006" lon="145.37197">
    <ele>338.85</ele>
   </trkpt>
   <trkpt lat="-37.87773" lon="145.37208">
    <ele>339.49</ele>
   </trkpt>
   <trkpt lat="-37.87778" lon="145.37220000000002">
    <ele>339.27</ele>
   </trkpt>
   <trkpt lat="-37.87782" lon="145.37237000000002">
    <ele>338.71</ele>
   </trkpt>
   <trkpt lat="-37.87791" lon="145.37255000000002">
    <ele>338.77</ele>
   </trkpt>
   <trkpt lat="-37.87807" lon="145.37275000000002">
    <ele>339.39000000000004</ele>
   </trkpt>
   <trkpt lat="-37.878310000000006" lon="145.37275000000002">
    <ele>335.43</ele>
   </trkpt>
   <trkpt lat="-37.87838" lon="145.37277">
    <ele>334.96000000000004</ele>
   </trkpt>
   <trkpt lat="-37.87843" lon="145.37283000000002">
    <ele>332.48</ele>
   </trkpt>
   <trkpt lat="-37.87845" lon="145.37303">
    <ele>328.56</ele>
   </trkpt>
   <trkpt lat="-37.87861" lon="145.37267">
    <ele>332.71</ele>
   </trkpt>
   <trkpt lat="-37.87876" lon="145.37249">
    <ele>334.14000000000004</ele>
   </trkpt>
   <trkpt lat="-37.87908" lon="145.37229000000002">
    <ele>339.52000000000004</ele>
   </trkpt>
   <trkpt lat="-37.87932" lon="145.37222">
    <ele>341.25000000000006</ele>
   </trkpt>
   <trkpt lat="-37.87952000000001" lon="145.37219000000002">
    <ele>342.21</ele>
   </trkpt>
   <trkpt lat="-37.880010000000006" lon="145.37222">
    <ele>344.64</ele>
   </trkpt>
   <trkpt lat="-37.88017" lon="145.37225">
    <ele>346.05</ele>
   </trkpt>
   <trkpt lat="-37.88029" lon="145.37224">
    <ele>346.58000000000004</ele>
   </trkpt>
   <trkpt lat="-37.88076" lon="145.37211000000002">
    <ele>348.93</ele>
   </trkpt>
   <trkpt lat="-37.880950000000006" lon="145.37202000000002">
    <ele>350.11</ele>
   </trkpt>
   <trkpt lat="-37.88149000061952" lon="145.37169000232245">
    <ele>354.87</ele>
   </trkpt>
   <trkpt lat="-37.88203" lon="145.37136">
    <ele>357.68000000000006</ele>
   </trkpt>
   <trkpt lat="-37.882250000000006" lon="145.37127">
    <ele>358.2</ele>
   </trkpt>
   <trkpt lat="-37.88237" lon="145.37120000000002">
    <ele>359.25</ele>
   </trkpt>
   <trkpt lat="-37.8825" lon="145.37116">
    <ele>359.25</ele>
   </trkpt>
   <trkpt lat="-37.88282" lon="145.37102000000002">
    <ele>360.17</ele>
   </trkpt>
   <trkpt lat="-37.883340000000004" lon="145.37059000000002">
    <ele>364.72</ele>
   </trkpt>
   <trkpt lat="-37.88399000223946" lon="145.3698700063031">
    <ele>366.37</ele>
   </trkpt>
   <trkpt lat="-37.884640000000005" lon="145.36915000000002">
    <ele>376.44000000000005</ele>
   </trkpt>
   <trkpt lat="-37.88472" lon="145.36936">
    <ele>372.26000000000005</ele>
   </trkpt>
   <trkpt lat="-37.88481" lon="145.36937">
    <ele>372.51</ele>
   </trkpt>
   <trkpt lat="-37.884840000000004" lon="145.36943000000002">
    <ele>372.51</ele>
   </trkpt>
   <trkpt lat="-37.88499" lon="145.36944000000003">
    <ele>373.32000000000005</ele>
   </trkpt>
   <trkpt lat="-37.88501" lon="145.36937">
    <ele>373.32000000000005</ele>
   </trkpt>
   <trkpt lat="-37.88505" lon="145.36935000000003">
    <ele>373.32000000000005</ele>
   </trkpt>
   <trkpt lat="-37.88517" lon="145.36938">
    <ele>371.72</ele>
   </trkpt>
   <trkpt lat="-37.88528" lon="145.36944000000003">
    <ele>371.72</ele>
   </trkpt>
   <trkpt lat="-37.885920000000006" lon="145.36992">
    <ele>367.96</ele>
   </trkpt>
   <trkpt lat="-37.88608" lon="145.37001">
    <ele>367.03000000000003</ele>
   </trkpt>
   <trkpt lat="-37.88627" lon="145.37005000000002">
    <ele>366.95000000000005</ele>
   </trkpt>
   <trkpt lat="-37.88636" lon="145.37023000000002">
    <ele>372.48</ele>
   </trkpt>
   <trkpt lat="-37.886280000000006" lon="145.37008">
    <ele>372.47</ele>
   </trkpt>
   <trkpt lat="-37.88646" lon="145.36994">
    <ele>376.74</ele>
   </trkpt>
   <trkpt lat="-37.88656" lon="145.3699">
    <ele>379.77000000000004</ele>
   </trkpt>
   <trkpt lat="-37.88696" lon="145.36984">
    <ele>383.78000000000003</ele>
   </trkpt>
   <trkpt lat="-37.88714" lon="145.36955">
    <ele>384.35</ele>
   </trkpt>
   <trkpt lat="-37.88667" lon="145.36906000000002">
    <ele>365.26000000000005</ele>
   </trkpt>
   <trkpt lat="-37.88642" lon="145.36872000000002">
    <ele>361.57</ele>
   </trkpt>
   <trkpt lat="-37.88617" lon="145.3685">
    <ele>358.89000000000004</ele>
   </trkpt>
   <trkpt lat="-37.886100000000006" lon="145.36837">
    <ele>358.83000000000004</ele>
   </trkpt>
   <trkpt lat="-37.88602" lon="145.36834000000002">
    <ele>360.7</ele>
   </trkpt>
   <trkpt lat="-37.885830000000006" lon="145.36818000000002">
    <ele>363.82000000000005</ele>
   </trkpt>
   <trkpt lat="-37.88557" lon="145.36795">
    <ele>374.98</ele>
   </trkpt>
   <trkpt lat="-37.88505" lon="145.36745000000002">
    <ele>387.15000000000003</ele>
   </trkpt>
   <trkpt lat="-37.8849" lon="145.36727000000002">
    <ele>392.0</ele>
   </trkpt>
   <trkpt lat="-37.88481" lon="145.36711000000003">
    <ele>396.34000000000003</ele>
   </trkpt>
   <trkpt lat="-37.884710000000005" lon="145.36673000000002">
    <ele>403.95000000000005</ele>
   </trkpt>
   <trkpt lat="-37.8847" lon="145.36671">
    <ele>403.95000000000005</ele>
   </trkpt>
   <trkpt lat="-37.8847" lon="145.36657000000002">
    <ele>405.86000000000007</ele>
   </trkpt>
   <trkpt lat="-37.88465" lon="145.36651">
    <ele>410.31</ele>
   </trkpt>
   <trkpt lat="-37.88465" lon="145.36642">
    <ele>410.31</ele>
   </trkpt>
   <trkpt lat="-37.88461" lon="145.36635">
    <ele>411.46000000000004</ele>
   </trkpt>
   <trkpt lat="-37.88458" lon="145.36623">
    <ele>415.06000000000006</ele>
   </trkpt>
   <trkpt lat="-37.88463" lon="145.36617">
    <ele>416.22</ele>
   </trkpt>
   <trkpt lat="-37.88474" lon="145.36611000000002">
    <ele>419.15000000000003</ele>
   </trkpt>
   <trkpt lat="-37.884980000000006" lon="145.36612000000002">
    <ele>422.33000000000004</ele>
   </trkpt>
   <trkpt lat="-37.885270000000006" lon="145.36607">
    <ele>427.76000000000005</ele>
   </trkpt>
   <trkpt lat="-37.88546" lon="145.36592000000002">
    <ele>431.69</ele>
   </trkpt>
   <trkpt lat="-37.88548" lon="145.36577">
    <ele>435.1700000000001</ele>
   </trkpt>
   <trkpt lat="-37.88548" lon="145.36567000000002">
    <ele>437.18</ele>
   </trkpt>
   <trkpt lat="-37.88546" lon="145.36561">
    <ele>437.18</ele>
   </trkpt>
   <trkpt lat="-37.88539" lon="145.36557000000002">
    <ele>439.86</ele>
   </trkpt>
   <trkpt lat="-37.885360000000006" lon="145.36547000000002">
    <ele>440.79</ele>
   </trkpt>
   <trkpt lat="-37.88519" lon="145.36531000000002">
    <ele>446.48</ele>
   </trkpt>
   <trkpt lat="-37.88517" lon="145.36524">
    <ele>447.23</ele>
   </trkpt>
   <trkpt lat="-37.88499" lon="145.36505000000002">
    <ele>448.8</ele>
   </trkpt>
   <trkpt lat="-37.88494" lon="145.36503000000002">
    <ele>448.8</ele>
   </trkpt>
   <trkpt lat="-37.88483" lon="145.36484000000002">
    <ele>451.14000000000004</ele>
   </trkpt>
   <trkpt lat="-37.88476" lon="145.36459000000002">
    <ele>455.19000000000005</ele>
   </trkpt>
   <trkpt lat="-37.88479" lon="145.36451000000002">
    <ele>457.16</ele>
   </trkpt>
   <trkpt lat="-37.88476" lon="145.36443">
    <ele>458.07000000000005</ele>
   </trkpt>
   <trkpt lat="-37.88463" lon="145.36419">
    <ele>461.86</ele>
   </trkpt>
   <trkpt lat="-37.88445" lon="145.36369000000002">
    <ele>471.46000000000004</ele>
   </trkpt>
   <trkpt lat="-37.884420000000006" lon="145.36347">
    <ele>475.75000000000006</ele>
   </trkpt>
   <trkpt lat="-37.884420000000006" lon="145.36342000000002">
    <ele>476.36000000000007</ele>
   </trkpt>
   <trkpt lat="-37.88443" lon="145.3634">
    <ele>476.36000000000007</ele>
   </trkpt>
   <trkpt lat="-37.88449" lon="145.36339">
    <ele>477.43</ele>
   </trkpt>
   <trkpt lat="-37.88456" lon="145.3634">
    <ele>478.06</ele>
   </trkpt>
   <trkpt lat="-37.8847" lon="145.36339">
    <ele>480.33000000000004</ele>
   </trkpt>
   <trkpt lat="-37.88472" lon="145.36334000000002">
    <ele>481.07000000000005</ele>
   </trkpt>
   <trkpt lat="-37.88474" lon="145.36315000000002">
    <ele>482.80000000000007</ele>
   </trkpt>
   <trkpt lat="-37.88479" lon="145.36302">
    <ele>487.61</ele>
   </trkpt>
   <trkpt lat="-37.8849" lon="145.36279000000002">
    <ele>490.22</ele>
   </trkpt>
   <trkpt lat="-37.88514" lon="145.36251000000001">
    <ele>495.28000000000003</ele>
   </trkpt>
   <trkpt lat="-37.88514" lon="145.36243000000002">
    <ele>495.98</ele>
   </trkpt>
   <trkpt lat="-37.8851" lon="145.36238">
    <ele>495.98</ele>
   </trkpt>
   <trkpt lat="-37.88496000000001" lon="145.36231">
    <ele>497.12000000000006</ele>
   </trkpt>
   <trkpt lat="-37.88503" lon="145.36224">
    <ele>497.48</ele>
   </trkpt>
   <trkpt lat="-37.88514" lon="145.36202">
    <ele>498.64000000000004</ele>
   </trkpt>
   <trkpt lat="-37.88524" lon="145.3617">
    <ele>499.7300000000001</ele>
   </trkpt>
   <trkpt lat="-37.88537" lon="145.36136000000002">
    <ele>502.45000000000005</ele>
   </trkpt>
   <trkpt lat="-37.88543000000001" lon="145.36123">
    <ele>496.8</ele>
   </trkpt>
   <trkpt lat="-37.88537" lon="145.36136000000002">
    <ele>502.29</ele>
   </trkpt>
   <trkpt lat="-37.88524" lon="145.3617">
    <ele>499.7300000000001</ele>
   </trkpt>
   <trkpt lat="-37.88514" lon="145.36202">
    <ele>498.64000000000004</ele>
   </trkpt>
   <trkpt lat="-37.88503" lon="145.36224">
    <ele>497.48</ele>
   </trkpt>
   <trkpt lat="-37.88496000000001" lon="145.36231">
    <ele>494.76000000000005</ele>
   </trkpt>
   <trkpt lat="-37.88503" lon="145.36224">
    <ele>497.48</ele>
   </trkpt>
   <trkpt lat="-37.88514" lon="145.36202">
    <ele>498.64000000000004</ele>
   </trkpt>
   <trkpt lat="-37.88537" lon="145.36136000000002">
    <ele>502.45000000000005</ele>
   </trkpt>
   <trkpt lat="-37.88564" lon="145.36079">
    <ele>507.45000000000005</ele>
   </trkpt>
   <trkpt lat="-37.88568" lon="145.36059">
    <ele>508.21000000000004</ele>
   </trkpt>
   <trkpt lat="-37.88573" lon="145.36033">
    <ele>509.21000000000004</ele>
   </trkpt>
   <trkpt lat="-37.88598" lon="145.35957000000002">
    <ele>510.99000000000007</ele>
   </trkpt>
   <trkpt lat="-37.88595" lon="145.35931000000002">
    <ele>510.87000000000006</ele>
   </trkpt>
   <trkpt lat="-37.88595" lon="145.35932000000003">
    <ele>510.87000000000006</ele>
   </trkpt>
   <trkpt lat="-37.88591" lon="145.35922000000002">
    <ele>510.73</ele>
   </trkpt>
   <trkpt lat="-37.8858" lon="145.35913000000002">
    <ele>510.49</ele>
   </trkpt>
   <trkpt lat="-37.885450000000006" lon="145.35868000000002">
    <ele>506.90000000000003</ele>
   </trkpt>
   <trkpt lat="-37.88532" lon="145.35860000000002">
    <ele>506.29</ele>
   </trkpt>
   <trkpt lat="-37.88476" lon="145.35842000000002">
    <ele>503.0300000000001</ele>
   </trkpt>
   <trkpt lat="-37.88456" lon="145.35838">
    <ele>502.41</ele>
   </trkpt>
   <trkpt lat="-37.88441" lon="145.35840000000002">
    <ele>502.41</ele>
   </trkpt>
   <trkpt lat="-37.88407" lon="145.35852">
    <ele>501.07</ele>
   </trkpt>
   <trkpt lat="-37.88402" lon="145.35827">
    <ele>501.09999999999997</ele>
   </trkpt>
   <trkpt lat="-37.884" lon="145.35808">
    <ele>500.6</ele>
   </trkpt>
   <trkpt lat="-37.88382" lon="145.35777000000002">
    <ele>497.85</ele>
   </trkpt>
   <trkpt lat="-37.8838" lon="145.35755">
    <ele>497.08</ele>
   </trkpt>
   <trkpt lat="-37.883790000000005" lon="145.35717000000002">
    <ele>496.1</ele>
   </trkpt>
   <trkpt lat="-37.88389" lon="145.35675">
    <ele>494.47</ele>
   </trkpt>
   <trkpt lat="-37.88391" lon="145.35645000000002">
    <ele>493.04</ele>
   </trkpt>
   <trkpt lat="-37.88391" lon="145.35613">
    <ele>490.71000000000004</ele>
   </trkpt>
   <trkpt lat="-37.88387" lon="145.35593">
    <ele>489.42</ele>
   </trkpt>
   <trkpt lat="-37.8838" lon="145.35575">
    <ele>488.58</ele>
   </trkpt>
   <trkpt lat="-37.88351" lon="145.3553">
    <ele>487.72</ele>
   </trkpt>
   <trkpt lat="-37.88351" lon="145.35512">
    <ele>487.35</ele>
   </trkpt>
   <trkpt lat="-37.88371" lon="145.35464000000002">
    <ele>486.49</ele>
   </trkpt>
   <trkpt lat="-37.88423" lon="145.35381">
    <ele>492.24000000000007</ele>
   </trkpt>
   <trkpt lat="-37.88434" lon="145.35368000000003">
    <ele>492.97</ele>
   </trkpt>
   <trkpt lat="-37.88497" lon="145.35328">
    <ele>491.28000000000003</ele>
   </trkpt>
   <trkpt lat="-37.88508" lon="145.35324">
    <ele>490.42</ele>
   </trkpt>
   <trkpt lat="-37.88544" lon="145.35307">
    <ele>486.67</ele>
   </trkpt>
   <trkpt lat="-37.88555" lon="145.35296000000002">
    <ele>485.22</ele>
   </trkpt>
   <trkpt lat="-37.88588" lon="145.35242000000002">
    <ele>479.51000000000005</ele>
   </trkpt>
   <trkpt lat="-37.88606" lon="145.35204000000002">
    <ele>474.30000000000007</ele>
   </trkpt>
   <trkpt lat="-37.88615" lon="145.35176">
    <ele>470.40000000000003</ele>
   </trkpt>
   <trkpt lat="-37.886070000000004" lon="145.35163">
    <ele>471.39000000000004</ele>
   </trkpt>
   <trkpt lat="-37.886410000000005" lon="145.35162000000003">
    <ele>465.86000000000007</ele>
   </trkpt>
   <trkpt lat="-37.88669" lon="145.35166">
    <ele>465.8</ele>
   </trkpt>
   <trkpt lat="-37.88716" lon="145.35176">
    <ele>460.68</ele>
   </trkpt>
   <trkpt lat="-37.887330000000006" lon="145.35177000000002">
    <ele>457.94</ele>
   </trkpt>
   <trkpt lat="-37.88734" lon="145.35183">
    <ele>457.87000000000006</ele>
   </trkpt>
   <trkpt lat="-37.88729" lon="145.35195000000002">
    <ele>457.34000000000003</ele>
   </trkpt>
   <trkpt lat="-37.88727" lon="145.35218">
    <ele>459.46000000000004</ele>
   </trkpt>
   <trkpt lat="-37.88725" lon="145.35215000000002">
    <ele>459.46000000000004</ele>
   </trkpt>
   <trkpt lat="-37.88696" lon="145.35204000000002">
    <ele>465.47</ele>
   </trkpt>
   <trkpt lat="-37.88678" lon="145.35203">
    <ele>467.24</ele>
   </trkpt>
   <trkpt lat="-37.88662" lon="145.352">
    <ele>468.25000000000006</ele>
   </trkpt>
   <trkpt lat="-37.88626" lon="145.35184">
    <ele>470.21</ele>
   </trkpt>
   <trkpt lat="-37.88615" lon="145.35176">
    <ele>470.40000000000003</ele>
   </trkpt>
   <trkpt lat="-37.886070000000004" lon="145.35163">
    <ele>471.39000000000004</ele>
   </trkpt>
   <trkpt lat="-37.88552" lon="145.35153000000003">
    <ele>474.35</ele>
   </trkpt>
   <trkpt lat="-37.8853" lon="145.3514">
    <ele>474.87</ele>
   </trkpt>
   <trkpt lat="-37.88474" lon="145.35098000000002">
    <ele>473.13000000000005</ele>
   </trkpt>
   <trkpt lat="-37.884730000000005" lon="145.35098000000002">
    <ele>473.12</ele>
   </trkpt>
   <trkpt lat="-37.88461" lon="145.35066">
    <ele>474.03000000000003</ele>
   </trkpt>
   <trkpt lat="-37.88461" lon="145.35046">
    <ele>475.33000000000004</ele>
   </trkpt>
   <trkpt lat="-37.884640000000005" lon="145.35035000000002">
    <ele>476.46000000000004</ele>
   </trkpt>
   <trkpt lat="-37.88461" lon="145.35017000000002">
    <ele>477.23</ele>
   </trkpt>
   <trkpt lat="-37.88456" lon="145.35004">
    <ele>478.43</ele>
   </trkpt>
   <trkpt lat="-37.88436" lon="145.34969">
    <ele>480.67</ele>
   </trkpt>
   <trkpt lat="-37.88405" lon="145.34945000000002">
    <ele>481.62000000000006</ele>
   </trkpt>
   <trkpt lat="-37.8836" lon="145.34926000000002">
    <ele>482.41</ele>
   </trkpt>
   <trkpt lat="-37.88311" lon="145.34876">
    <ele>483.59000000000003</ele>
   </trkpt>
   <trkpt lat="-37.88302" lon="145.3487">
    <ele>483.6</ele>
   </trkpt>
   <trkpt lat="-37.88255" lon="145.34856000000002">
    <ele>483.55</ele>
   </trkpt>
   <trkpt lat="-37.88226" lon="145.34839000000002">
    <ele>484.22</ele>
   </trkpt>
   <trkpt lat="-37.88201" lon="145.34819000000002">
    <ele>485.28000000000003</ele>
   </trkpt>
   <trkpt lat="-37.88167" lon="145.34744">
    <ele>491.65000000000003</ele>
   </trkpt>
   <trkpt lat="-37.88154" lon="145.34723000000002">
    <ele>492.32000000000005</ele>
   </trkpt>
   <trkpt lat="-37.88105" lon="145.34695000000002">
    <ele>495.12000000000006</ele>
   </trkpt>
   <trkpt lat="-37.880860000000006" lon="145.34682">
    <ele>495.8</ele>
   </trkpt>
   <trkpt lat="-37.88067" lon="145.34663">
    <ele>496.25</ele>
   </trkpt>
   <trkpt lat="-37.88042" lon="145.34634">
    <ele>497.42</ele>
   </trkpt>
   <trkpt lat="-37.8802" lon="145.34602">
    <ele>499.7900000000001</ele>
   </trkpt>
   <trkpt lat="-37.87973" lon="145.34534000000002">
    <ele>503.33000000000004</ele>
   </trkpt>
   <trkpt lat="-37.87944" lon="145.34486">
    <ele>504.95</ele>
   </trkpt>
   <trkpt lat="-37.87928" lon="145.34464">
    <ele>517.6</ele>
   </trkpt>
   <trkpt lat="-37.87944" lon="145.34486">
    <ele>504.95</ele>
   </trkpt>
   <trkpt lat="-37.87973" lon="145.34534000000002">
    <ele>503.33000000000004</ele>
   </trkpt>
   <trkpt lat="-37.879870000000004" lon="145.34555">
    <ele>502.21000000000004</ele>
   </trkpt>
   <trkpt lat="-37.87973" lon="145.34534000000002">
    <ele>503.33000000000004</ele>
   </trkpt>
   <trkpt lat="-37.87944" lon="145.34486">
    <ele>504.95</ele>
   </trkpt>
   <trkpt lat="-37.87919" lon="145.34452000000002">
    <ele>502.92999999999995</ele>
   </trkpt>
   <trkpt lat="-37.87914" lon="145.34452000000002">
    <ele>502.92999999999995</ele>
   </trkpt>
   <trkpt lat="-37.8789" lon="145.34474">
    <ele>493.49</ele>
   </trkpt>
   <trkpt lat="-37.87888" lon="145.34482">
    <ele>492.26000000000005</ele>
   </trkpt>
   <trkpt lat="-37.878750000000004" lon="145.34495">
    <ele>490.47</ele>
   </trkpt>
   <trkpt lat="-37.87861" lon="145.34490000000002">
    <ele>491.83000000000004</ele>
   </trkpt>
   <trkpt lat="-37.87836" lon="145.34455">
    <ele>492.33000000000004</ele>
   </trkpt>
   <trkpt lat="-37.87827" lon="145.34451">
    <ele>492.61</ele>
   </trkpt>
   <trkpt lat="-37.87814" lon="145.34448">
    <ele>493.87</ele>
   </trkpt>
   <trkpt lat="-37.87807" lon="145.34451">
    <ele>494.63</ele>
   </trkpt>
   <trkpt lat="-37.87805" lon="145.34458">
    <ele>495.08</ele>
   </trkpt>
   <trkpt lat="-37.878040000000006" lon="145.34474">
    <ele>497.02</ele>
   </trkpt>
   <trkpt lat="-37.878" lon="145.34487000000001">
    <ele>497.91</ele>
   </trkpt>
   <trkpt lat="-37.87794" lon="145.34497000000002">
    <ele>498.71000000000004</ele>
   </trkpt>
   <trkpt lat="-37.87767" lon="145.34526000000002">
    <ele>499.90000000000003</ele>
   </trkpt>
   <trkpt lat="-37.877570000000006" lon="145.34542000000002">
    <ele>500.58000000000004</ele>
   </trkpt>
   <trkpt lat="-37.87726" lon="145.34634">
    <ele>503.77000000000004</ele>
   </trkpt>
   <trkpt lat="-37.87702" lon="145.34689">
    <ele>506.6700000000001</ele>
   </trkpt>
   <trkpt lat="-37.87688" lon="145.34705000000002">
    <ele>509.8</ele>
   </trkpt>
   <trkpt lat="-37.876760000000004" lon="145.34722000000002">
    <ele>511.46000000000004</ele>
   </trkpt>
   <trkpt lat="-37.876720000000006" lon="145.34722000000002">
    <ele>511.43000000000006</ele>
   </trkpt>
   <trkpt lat="-37.8767" lon="145.34721000000002">
    <ele>511.43000000000006</ele>
   </trkpt>
   <trkpt lat="-37.87648" lon="145.34716">
    <ele>511.2300000000001</ele>
   </trkpt>
   <trkpt lat="-37.8763" lon="145.34708">
    <ele>511.58000000000004</ele>
   </trkpt>
   <trkpt lat="-37.87621" lon="145.34698">
    <ele>512.2500000000001</ele>
   </trkpt>
   <trkpt lat="-37.87615" lon="145.34678000000002">
    <ele>514.0</ele>
   </trkpt>
   <trkpt lat="-37.87603" lon="145.34592">
    <ele>516.0600000000001</ele>
   </trkpt>
   <trkpt lat="-37.87603" lon="145.34573">
    <ele>516.08</ele>
   </trkpt>
   <trkpt lat="-37.87599" lon="145.3454">
    <ele>515.5200000000001</ele>
   </trkpt>
   <trkpt lat="-37.87599" lon="145.34493">
    <ele>514.59</ele>
   </trkpt>
   <trkpt lat="-37.8759" lon="145.34467">
    <ele>512.5200000000001</ele>
   </trkpt>
   <trkpt lat="-37.875690000000006" lon="145.34416000000002">
    <ele>510.09999999999997</ele>
   </trkpt>
   <trkpt lat="-37.87556" lon="145.34399000000002">
    <ele>509.89000000000004</ele>
   </trkpt>
   <trkpt lat="-37.875510000000006" lon="145.34384">
    <ele>508.93</ele>
   </trkpt>
   <trkpt lat="-37.87545" lon="145.3436">
    <ele>507.76</ele>
   </trkpt>
   <trkpt lat="-37.875510000000006" lon="145.34345000000002">
    <ele>517.0</ele>
   </trkpt>
   <trkpt lat="-37.875330000000005" lon="145.34334">
    <ele>510.48</ele>
   </trkpt>
   <trkpt lat="-37.87525" lon="145.34313">
    <ele>506.65000000000003</ele>
   </trkpt>
   <trkpt lat="-37.8751" lon="145.34298">
    <ele>501.7900000000001</ele>
   </trkpt>
   <trkpt lat="-37.87505" lon="145.34289">
    <ele>502.68</ele>
   </trkpt>
   <trkpt lat="-37.8744" lon="145.34218">
    <ele>496.89000000000004</ele>
   </trkpt>
   <trkpt lat="-37.87406" lon="145.34186000000003">
    <ele>495.6</ele>
   </trkpt>
   <trkpt lat="-37.87406" lon="145.34185000000002">
    <ele>495.59000000000003</ele>
   </trkpt>
   <trkpt lat="-37.87375" lon="145.34193000000002">
    <ele>497.09000000000003</ele>
   </trkpt>
   <trkpt lat="-37.8735" lon="145.34204000000003">
    <ele>501.84000000000003</ele>
   </trkpt>
   <trkpt lat="-37.87326" lon="145.34212000000002">
    <ele>503.04</ele>
   </trkpt>
   <trkpt lat="-37.87288" lon="145.34221000000002">
    <ele>506.83</ele>
   </trkpt>
   <trkpt lat="-37.87272" lon="145.34221000000002">
    <ele>507.89000000000004</ele>
   </trkpt>
   <trkpt lat="-37.87247" lon="145.34207">
    <ele>508.63</ele>
   </trkpt>
   <trkpt lat="-37.872115001891856" lon="145.342745003319">
    <ele>513.37</ele>
   </trkpt>
   <trkpt lat="-37.87176" lon="145.34342">
    <ele>512.7400000000001</ele>
   </trkpt>
   <trkpt lat="-37.871110001598225" lon="145.34280999464147">
    <ele>511.05</ele>
   </trkpt>
   <trkpt lat="-37.87046" lon="145.34220000000002">
    <ele>513.24</ele>
   </trkpt>
   <trkpt lat="-37.87035" lon="145.34212000000002">
    <ele>513.49</ele>
   </trkpt>
   <trkpt lat="-37.870160000000006" lon="145.34202000000002">
    <ele>513.5500000000001</ele>
   </trkpt>
   <trkpt lat="-37.86968" lon="145.34187">
    <ele>512.07</ele>
   </trkpt>
   <trkpt lat="-37.869066666982384" lon="145.34168999701558">
    <ele>509.27</ele>
   </trkpt>
   <trkpt lat="-37.868453333690745" lon="145.34150999702786">
    <ele>507.4000000000001</ele>
   </trkpt>
   <trkpt lat="-37.86784" lon="145.34133">
    <ele>505.30000000000007</ele>
   </trkpt>
   <trkpt lat="-37.86755" lon="145.34134">
    <ele>503.6700000000001</ele>
   </trkpt>
   <trkpt lat="-37.86726" lon="145.34138000000002">
    <ele>501.52000000000004</ele>
   </trkpt>
   <trkpt lat="-37.866435000157296" lon="145.34155000189605">
    <ele>490.58</ele>
   </trkpt>
   <trkpt lat="-37.865610000000004" lon="145.34172">
    <ele>482.67</ele>
   </trkpt>
   <trkpt lat="-37.86565" lon="145.34188">
    <ele>482.17</ele>
   </trkpt>
   <trkpt lat="-37.86587" lon="145.34215">
    <ele>480.99</ele>
   </trkpt>
   <trkpt lat="-37.86634" lon="145.34241">
    <ele>479.39000000000004</ele>
   </trkpt>
   <trkpt lat="-37.86663" lon="145.34261">
    <ele>478.36000000000007</ele>
   </trkpt>
   <trkpt lat="-37.86717" lon="145.34283000000002">
    <ele>479.57000000000005</ele>
   </trkpt>
   <trkpt lat="-37.86741" lon="145.34287">
    <ele>482.21000000000004</ele>
   </trkpt>
   <trkpt lat="-37.86766" lon="145.34284000000002">
    <ele>486.07000000000005</ele>
   </trkpt>
   <trkpt lat="-37.86838" lon="145.34305">
    <ele>490.61</ele>
   </trkpt>
   <trkpt lat="-37.86891" lon="145.34316">
    <ele>493.63</ele>
   </trkpt>
   <trkpt lat="-37.86914" lon="145.34323">
    <ele>495.19</ele>
   </trkpt>
   <trkpt lat="-37.86992" lon="145.34339">
    <ele>499.51000000000005</ele>
   </trkpt>
   <trkpt lat="-37.86992" lon="145.34348">
    <ele>498.70000000000005</ele>
   </trkpt>
   <trkpt lat="-37.86997" lon="145.34354000000002">
    <ele>498.11000000000007</ele>
   </trkpt>
   <trkpt lat="-37.87026" lon="145.34375">
    <ele>494.25</ele>
   </trkpt>
   <trkpt lat="-37.87037" lon="145.34387">
    <ele>494.83000000000004</ele>
   </trkpt>
   <trkpt lat="-37.87066" lon="145.34400000000002">
    <ele>500.85</ele>
   </trkpt>
   <trkpt lat="-37.87088" lon="145.34415">
    <ele>505.40000000000003</ele>
   </trkpt>
   <trkpt lat="-37.87113" lon="145.34424">
    <ele>508.84000000000003</ele>
   </trkpt>
   <trkpt lat="-37.871140000000004" lon="145.34425000000002">
    <ele>509.01000000000005</ele>
   </trkpt>
   <trkpt lat="-37.870700001121754" lon="145.34476000302044">
    <ele>508.32</ele>
   </trkpt>
   <trkpt lat="-37.87026" lon="145.34527">
    <ele>512.6800000000001</ele>
   </trkpt>
   <trkpt lat="-37.870160000000006" lon="145.34556">
    <ele>515.66</ele>
   </trkpt>
   <trkpt lat="-37.869690000213325" lon="145.34534999867242">
    <ele>511.88</ele>
   </trkpt>
   <trkpt lat="-37.869220000000006" lon="145.34514000000001">
    <ele>507.73</ele>
   </trkpt>
   <trkpt lat="-37.86861666776136" lon="145.34550333929658">
    <ele>507.68</ele>
   </trkpt>
   <trkpt lat="-37.86801333440618" lon="145.345866672643">
    <ele>508.58000000000004</ele>
   </trkpt>
   <trkpt lat="-37.86741" lon="145.34623000000002">
    <ele>507.6700000000001</ele>
   </trkpt>
   <trkpt lat="-37.86703" lon="145.34629">
    <ele>505.95</ele>
   </trkpt>
   <trkpt lat="-37.86646500001913" lon="145.34643000108923">
    <ele>502.2000000000001</ele>
   </trkpt>
   <trkpt lat="-37.8659" lon="145.34657">
    <ele>502.84000000000003</ele>
   </trkpt>
   <trkpt lat="-37.865370000000006" lon="145.34673">
    <ele>507.62000000000006</ele>
   </trkpt>
   <trkpt lat="-37.86495" lon="145.347">
    <ele>511.92</ele>
   </trkpt>
   <trkpt lat="-37.86493" lon="145.34701">
    <ele>511.92</ele>
   </trkpt>
   <trkpt lat="-37.86482" lon="145.34718">
    <ele>515.47</ele>
   </trkpt>
   <trkpt lat="-37.864810000000006" lon="145.34757000000002">
    <ele>518.57</ele>
   </trkpt>
   <trkpt lat="-37.86484" lon="145.34797">
    <ele>521.57</ele>
   </trkpt>
   <trkpt lat="-37.86491" lon="145.34814">
    <ele>524.7900000000001</ele>
   </trkpt>
   <trkpt lat="-37.86497" lon="145.34822">
    <ele>526.59</ele>
   </trkpt>
   <trkpt lat="-37.86491" lon="145.34857000000002">
    <ele>525.0400000000001</ele>
   </trkpt>
   <trkpt lat="-37.864695001511485" lon="145.3491700017808">
    <ele>520.5000000000001</ele>
   </trkpt>
   <trkpt lat="-37.86448" lon="145.34977">
    <ele>514.37</ele>
   </trkpt>
   <trkpt lat="-37.86417" lon="145.35060000000001">
    <ele>503.53000000000003</ele>
   </trkpt>
   <trkpt lat="-37.8641" lon="145.35074">
    <ele>501.48</ele>
   </trkpt>
   <trkpt lat="-37.8641" lon="145.35089000000002">
    <ele>499.88000000000005</ele>
   </trkpt>
   <trkpt lat="-37.864050000000006" lon="145.35102">
    <ele>498.94000000000005</ele>
   </trkpt>
   <trkpt lat="-37.86379" lon="145.35118">
    <ele>491.97</ele>
   </trkpt>
   <trkpt lat="-37.86368" lon="145.35119">
    <ele>488.79</ele>
   </trkpt>
   <trkpt lat="-37.86359" lon="145.35126000000002">
    <ele>486.07000000000005</ele>
   </trkpt>
   <trkpt lat="-37.8635" lon="145.3513">
    <ele>484.59000000000003</ele>
   </trkpt>
   <trkpt lat="-37.863420000000005" lon="145.35147">
    <ele>482.55</ele>
   </trkpt>
   <trkpt lat="-37.8633" lon="145.35153000000003">
    <ele>482.2</ele>
   </trkpt>
   <trkpt lat="-37.863110000000006" lon="145.35169000000002">
    <ele>481.85</ele>
   </trkpt>
   <trkpt lat="-37.86309" lon="145.35176">
    <ele>481.94</ele>
   </trkpt>
   <trkpt lat="-37.86312" lon="145.35186000000002">
    <ele>482.21000000000004</ele>
   </trkpt>
   <trkpt lat="-37.863400000000006" lon="145.35247">
    <ele>485.47</ele>
   </trkpt>
   <trkpt lat="-37.863690000000005" lon="145.3531">
    <ele>478.65000000000003</ele>
   </trkpt>
   <trkpt lat="-37.86305" lon="145.35354">
    <ele>478.80000000000007</ele>
   </trkpt>
  </trkseg>
 </trk>
</gpx>
